<?xml version="1.0" encoding="UTF-8"?>
<gpx version="1.1" creator="Good Shit" xmlns="http://www.topografix.com/GPX/1/1"><trk><name>Nishizawa Gorge one-way loop — Nishizawa Gorge one-way loop</name><trkseg><trkpt lat="35.8622698" lon="138.7553501"></trkpt><trkpt lat="35.862564" lon="138.7553758"></trkpt><trkpt lat="35.8630024" lon="138.7553796"></trkpt><trkpt lat="35.8630893" lon="138.7553528"></trkpt><trkpt lat="35.8631524" lon="138.7552509"></trkpt><trkpt lat="35.8632509" lon="138.7550647"></trkpt><trkpt lat="35.8633748" lon="138.7549172"></trkpt><trkpt lat="35.8639486" lon="138.7545524"></trkpt><trkpt lat="35.8641066" lon="138.7544382"></trkpt><trkpt lat="35.8643116" lon="138.7542386"></trkpt><trkpt lat="35.8643805" lon="138.754186"></trkpt><trkpt lat="35.8645153" lon="138.7541646"></trkpt><trkpt lat="35.8647572" lon="138.754185"></trkpt><trkpt lat="35.8648522" lon="138.7541887"></trkpt><trkpt lat="35.8649446" lon="138.7541069"></trkpt><trkpt lat="35.8649609" lon="138.7539836"></trkpt><trkpt lat="35.864938" lon="138.753891"></trkpt><trkpt lat="35.8648637" lon="138.7537277"></trkpt><trkpt lat="35.8648642" lon="138.7536656"></trkpt><trkpt lat="35.8649076" lon="138.7535597"></trkpt><trkpt lat="35.8649909" lon="138.7534258"></trkpt><trkpt lat="35.865088" lon="138.7533076"></trkpt><trkpt lat="35.8651163" lon="138.7531896"></trkpt><trkpt lat="35.8651674" lon="138.7530273"></trkpt><trkpt lat="35.8652293" lon="138.7529334"></trkpt><trkpt lat="35.8654387" lon="138.7524094"></trkpt><trkpt lat="35.8655391" lon="138.7522776"></trkpt><trkpt lat="35.8655695" lon="138.7522119"></trkpt><trkpt lat="35.8655728" lon="138.7521288"></trkpt><trkpt lat="35.8655934" lon="138.7519826"></trkpt><trkpt lat="35.865639" lon="138.7519088"></trkpt><trkpt lat="35.8658891" lon="138.7516491"></trkpt><trkpt lat="35.8660512" lon="138.7515365"></trkpt><trkpt lat="35.8662618" lon="138.7514006"></trkpt><trkpt lat="35.8663487" lon="138.751241"></trkpt><trkpt lat="35.8663933" lon="138.7510733"></trkpt><trkpt lat="35.8664031" lon="138.7509969"></trkpt><trkpt lat="35.8664498" lon="138.7508909"></trkpt><trkpt lat="35.866532" lon="138.7507679"></trkpt><trkpt lat="35.86669" lon="138.7505892"></trkpt><trkpt lat="35.8667443" lon="138.7505275"></trkpt><trkpt lat="35.8668161" lon="138.7504926"></trkpt><trkpt lat="35.8669465" lon="138.750376"></trkpt><trkpt lat="35.8671341" lon="138.7502516"></trkpt><trkpt lat="35.8671834" lon="138.7501506"></trkpt><trkpt lat="35.867263" lon="138.7498517"></trkpt><trkpt lat="35.8672921" lon="138.7497456"></trkpt><trkpt lat="35.8673417" lon="138.749589"></trkpt><trkpt lat="35.8674736" lon="138.7494613"></trkpt><trkpt lat="35.8675329" lon="138.7494307"></trkpt><trkpt lat="35.8676225" lon="138.7494023"></trkpt><trkpt lat="35.8678395" lon="138.74942"></trkpt><trkpt lat="35.8680452" lon="138.7496129"></trkpt><trkpt lat="35.8681274" lon="138.7496198"></trkpt><trkpt lat="35.8683426" lon="138.7496279"></trkpt><trkpt lat="35.868393" lon="138.7495807"></trkpt><trkpt lat="35.8684137" lon="138.7495123"></trkpt><trkpt lat="35.8684082" lon="138.7494546"></trkpt><trkpt lat="35.8682713" lon="138.7492803"></trkpt><trkpt lat="35.8681503" lon="138.7489493"></trkpt><trkpt lat="35.8679286" lon="138.7487455"></trkpt><trkpt lat="35.8678322" lon="138.748658"></trkpt><trkpt lat="35.8677938" lon="138.7485926"></trkpt><trkpt lat="35.8677875" lon="138.748527"></trkpt><trkpt lat="35.8677388" lon="138.7484676"></trkpt><trkpt lat="35.8676495" lon="138.7484191"></trkpt><trkpt lat="35.8675945" lon="138.7483828"></trkpt><trkpt lat="35.8675173" lon="138.7483321"></trkpt><trkpt lat="35.8673776" lon="138.7483424"></trkpt><trkpt lat="35.8673396" lon="138.7483491"></trkpt><trkpt lat="35.8663725" lon="138.748392"></trkpt><trkpt lat="35.8662585" lon="138.7484059"></trkpt><trkpt lat="35.8661716" lon="138.7484434"></trkpt><trkpt lat="35.8661073" lon="138.7484998"></trkpt><trkpt lat="35.865963" lon="138.7486796"></trkpt><trkpt lat="35.865825" lon="138.7488028"></trkpt><trkpt lat="35.8655832" lon="138.7490716"></trkpt><trkpt lat="35.8651881" lon="138.7495589"></trkpt><trkpt lat="35.8649509" lon="138.749849"></trkpt><trkpt lat="35.8648003" lon="138.7501237"></trkpt><trkpt lat="35.8647543" lon="138.7501455"></trkpt><trkpt lat="35.8647132" lon="138.7501491"></trkpt><trkpt lat="35.8646768" lon="138.7501376"></trkpt><trkpt lat="35.8646398" lon="138.7501057"></trkpt><trkpt lat="35.8646139" lon="138.7500664"></trkpt><trkpt lat="35.8646098" lon="138.7500085"></trkpt><trkpt lat="35.8646163" lon="138.7499535"></trkpt><trkpt lat="35.8646381" lon="138.7498851"></trkpt><trkpt lat="35.8646826" lon="138.7498422"></trkpt><trkpt lat="35.8647555" lon="138.7498113"></trkpt><trkpt lat="35.8648218" lon="138.7497671"></trkpt><trkpt lat="35.8648788" lon="138.7497155"></trkpt><trkpt lat="35.8650946" lon="138.7493"></trkpt><trkpt lat="35.8651717" lon="138.7491301"></trkpt><trkpt lat="35.8651846" lon="138.749068"></trkpt><trkpt lat="35.8651882" lon="138.7489886"></trkpt><trkpt lat="35.865179" lon="138.7489135"></trkpt><trkpt lat="35.8651206" lon="138.748768"></trkpt><trkpt lat="35.8650937" lon="138.7486347"></trkpt><trkpt lat="35.8650929" lon="138.7485366"></trkpt><trkpt lat="35.865104" lon="138.748458"></trkpt><trkpt lat="35.8651293" lon="138.7483777"></trkpt><trkpt lat="35.8651625" lon="138.7483244"></trkpt><trkpt lat="35.8652115" lon="138.7482768"></trkpt><trkpt lat="35.8652637" lon="138.7482632"></trkpt><trkpt lat="35.8654369" lon="138.748249"></trkpt><trkpt lat="35.8654858" lon="138.7482315"></trkpt><trkpt lat="35.8655272" lon="138.748199"></trkpt><trkpt lat="35.8657524" lon="138.7479227"></trkpt><trkpt lat="35.8657956" lon="138.7478543"></trkpt><trkpt lat="35.865826" lon="138.747764"></trkpt><trkpt lat="35.865831" lon="138.747667"></trkpt><trkpt lat="35.865814" lon="138.747606"></trkpt><trkpt lat="35.865676" lon="138.7474322"></trkpt><trkpt lat="35.8655054" lon="138.7471573"></trkpt><trkpt lat="35.8654739" lon="138.7470822"></trkpt><trkpt lat="35.8654554" lon="138.7469883"></trkpt><trkpt lat="35.865456" lon="138.7468619"></trkpt><trkpt lat="35.8654734" lon="138.7466403"></trkpt><trkpt lat="35.865481" lon="138.7465504"></trkpt><trkpt lat="35.8655814" lon="138.7465042"></trkpt><trkpt lat="35.8656282" lon="138.7464948"></trkpt><trkpt lat="35.8656608" lon="138.7465122"></trkpt><trkpt lat="35.8656793" lon="138.7465337"></trkpt><trkpt lat="35.8657358" lon="138.7465887"></trkpt><trkpt lat="35.8657727" lon="138.7466383"></trkpt><trkpt lat="35.8658162" lon="138.7467027"></trkpt><trkpt lat="35.8658695" lon="138.7467483"></trkpt><trkpt lat="35.8659412" lon="138.7467751"></trkpt><trkpt lat="35.8660097" lon="138.7467939"></trkpt><trkpt lat="35.8660711" lon="138.7467972"></trkpt><trkpt lat="35.8661009" lon="138.7467805"></trkpt><trkpt lat="35.8661281" lon="138.7467442"></trkpt><trkpt lat="35.8661297" lon="138.7466953"></trkpt><trkpt lat="35.86612" lon="138.7465699"></trkpt><trkpt lat="35.8660341" lon="138.7464123"></trkpt><trkpt lat="35.86597" lon="138.7462896"></trkpt><trkpt lat="35.865958" lon="138.7461977"></trkpt><trkpt lat="35.8659194" lon="138.7461045"></trkpt><trkpt lat="35.8658673" lon="138.7459952"></trkpt><trkpt lat="35.8658244" lon="138.7459221"></trkpt><trkpt lat="35.8657477" lon="138.745833"></trkpt><trkpt lat="35.8656863" lon="138.7457062"></trkpt><trkpt lat="35.8654961" lon="138.7454588"></trkpt><trkpt lat="35.8654847" lon="138.7454326"></trkpt><trkpt lat="35.8654554" lon="138.7453307"></trkpt><trkpt lat="35.8654206" lon="138.7452905"></trkpt><trkpt lat="35.8653059" lon="138.7451879"></trkpt><trkpt lat="35.8652831" lon="138.7451443"></trkpt><trkpt lat="35.8652782" lon="138.7450739"></trkpt><trkpt lat="35.8653146" lon="138.7450223"></trkpt><trkpt lat="35.8654575" lon="138.7449465"></trkpt><trkpt lat="35.8655689" lon="138.7449257"></trkpt><trkpt lat="35.8656102" lon="138.7449197"></trkpt><trkpt lat="35.8658434" lon="138.744915"></trkpt><trkpt lat="35.8658934" lon="138.7449384"></trkpt><trkpt lat="35.8659684" lon="138.7449928"></trkpt><trkpt lat="35.8660026" lon="138.7450075"></trkpt><trkpt lat="35.866095" lon="138.7450048"></trkpt><trkpt lat="35.8661278" lon="138.7449701"></trkpt><trkpt lat="35.8661602" lon="138.744915"></trkpt><trkpt lat="35.8662232" lon="138.7446897"></trkpt><trkpt lat="35.8662447" lon="138.7446342"></trkpt><trkpt lat="35.8662816" lon="138.7445547"></trkpt><trkpt lat="35.8663386" lon="138.7444755"></trkpt><trkpt lat="35.8663471" lon="138.7444402"></trkpt><trkpt lat="35.8663446" lon="138.7443983"></trkpt><trkpt lat="35.8663319" lon="138.7443631"></trkpt><trkpt lat="35.8662471" lon="138.7442598"></trkpt><trkpt lat="35.8662379" lon="138.7442143"></trkpt><trkpt lat="35.8662325" lon="138.7439715"></trkpt><trkpt lat="35.8662254" lon="138.7439293"></trkpt><trkpt lat="35.8662075" lon="138.7438756"></trkpt><trkpt lat="35.8661886" lon="138.7438355"></trkpt><trkpt lat="35.8661738" lon="138.7437889"></trkpt><trkpt lat="35.8661723" lon="138.7437437"></trkpt><trkpt lat="35.8661849" lon="138.7437235"></trkpt><trkpt lat="35.8662292" lon="138.7436745"></trkpt><trkpt lat="35.8662504" lon="138.7436626"></trkpt><trkpt lat="35.8663437" lon="138.7436286"></trkpt><trkpt lat="35.8666664" lon="138.743307"></trkpt><trkpt lat="35.8669656" lon="138.7430322"></trkpt><trkpt lat="35.8672504" lon="138.7428719"></trkpt><trkpt lat="35.8674563" lon="138.7426908"></trkpt><trkpt lat="35.867609" lon="138.742535"></trkpt><trkpt lat="35.867845" lon="138.7423"></trkpt><trkpt lat="35.867958" lon="138.74212"></trkpt><trkpt lat="35.86802" lon="138.741996"></trkpt><trkpt lat="35.8680875" lon="138.741787"></trkpt><trkpt lat="35.8682589" lon="138.7413476"></trkpt><trkpt lat="35.8682408" lon="138.7413055"></trkpt><trkpt lat="35.8682146" lon="138.7412725"></trkpt><trkpt lat="35.8681769" lon="138.741248"></trkpt><trkpt lat="35.8677468" lon="138.7413491"></trkpt><trkpt lat="35.8673962" lon="138.7413453"></trkpt><trkpt lat="35.866987" lon="138.7412249"></trkpt><trkpt lat="35.866691" lon="138.741193"></trkpt><trkpt lat="35.866494" lon="138.741207"></trkpt><trkpt lat="35.866195" lon="138.741166"></trkpt><trkpt lat="35.865987" lon="138.741076"></trkpt><trkpt lat="35.865705" lon="138.740973"></trkpt><trkpt lat="35.865339" lon="138.740966"></trkpt><trkpt lat="35.865159" lon="138.74091"></trkpt><trkpt lat="35.864838" lon="138.740779"></trkpt><trkpt lat="35.86468" lon="138.740696"></trkpt><trkpt lat="35.864596" lon="138.740675"></trkpt><trkpt lat="35.864297" lon="138.740709"></trkpt><trkpt lat="35.864108" lon="138.740643"></trkpt><trkpt lat="35.863948" lon="138.740557"></trkpt><trkpt lat="35.863672" lon="138.740468"></trkpt><trkpt lat="35.863317" lon="138.74044"></trkpt><trkpt lat="35.863182" lon="138.740384"></trkpt><trkpt lat="35.862844" lon="138.740398"></trkpt><trkpt lat="35.862529" lon="138.740364"></trkpt><trkpt lat="35.862309" lon="138.740302"></trkpt><trkpt lat="35.862186" lon="138.740239"></trkpt><trkpt lat="35.862045" lon="138.740205"></trkpt><trkpt lat="35.861949" lon="138.740191"></trkpt><trkpt lat="35.861828" lon="138.7401727"></trkpt><trkpt lat="35.8618127" lon="138.7401339"></trkpt><trkpt lat="35.8618178" lon="138.7399309"></trkpt><trkpt lat="35.8618177" lon="138.7398067"></trkpt><trkpt lat="35.8618335" lon="138.7397266"></trkpt><trkpt lat="35.8619168" lon="138.7396966"></trkpt><trkpt lat="35.8620574" lon="138.7396829"></trkpt><trkpt lat="35.8621803" lon="138.739699"></trkpt><trkpt lat="35.862356" lon="138.739699"></trkpt><trkpt lat="35.862636" lon="138.739513"></trkpt><trkpt lat="35.862805" lon="138.739444"></trkpt><trkpt lat="35.8629567" lon="138.7394272"></trkpt><trkpt lat="35.8632269" lon="138.7394193"></trkpt><trkpt lat="35.8636037" lon="138.7394431"></trkpt><trkpt lat="35.8639396" lon="138.7394384"></trkpt><trkpt lat="35.8642519" lon="138.7393597"></trkpt><trkpt lat="35.8648882" lon="138.7392718"></trkpt><trkpt lat="35.8655126" lon="138.7391424"></trkpt><trkpt lat="35.865972" lon="138.7390777"></trkpt><trkpt lat="35.8660249" lon="138.738992"></trkpt><trkpt lat="35.8660286" lon="138.7388872"></trkpt><trkpt lat="35.8659463" lon="138.7387213"></trkpt><trkpt lat="35.8657945" lon="138.7385309"></trkpt><trkpt lat="35.8657637" lon="138.7381846"></trkpt><trkpt lat="35.8656041" lon="138.7379008"></trkpt><trkpt lat="35.8654211" lon="138.7377198"></trkpt><trkpt lat="35.8653172" lon="138.7374835"></trkpt><trkpt lat="35.8651885" lon="138.7371526"></trkpt><trkpt lat="35.8650497" lon="138.7369268"></trkpt><trkpt lat="35.8648319" lon="138.7367335"></trkpt><trkpt lat="35.864762" lon="138.7365317"></trkpt><trkpt lat="35.8647666" lon="138.7363972"></trkpt><trkpt lat="35.8648046" lon="138.7361793"></trkpt><trkpt lat="35.8650716" lon="138.7359447"></trkpt><trkpt lat="35.8651369" lon="138.7358603"></trkpt><trkpt lat="35.8651482" lon="138.7355861"></trkpt><trkpt lat="35.8652395" lon="138.7354045"></trkpt><trkpt lat="35.8652995" lon="138.7353122"></trkpt><trkpt lat="35.8654594" lon="138.7351464"></trkpt><trkpt lat="35.8654931" lon="138.7349655"></trkpt><trkpt lat="35.8654964" lon="138.7346012"></trkpt><trkpt lat="35.8655616" lon="138.734493"></trkpt><trkpt lat="35.865729" lon="138.734407"></trkpt><trkpt lat="35.865846" lon="138.734338"></trkpt><trkpt lat="35.8660879" lon="138.7343068"></trkpt><trkpt lat="35.8662865" lon="138.7342696"></trkpt><trkpt lat="35.8664525" lon="138.7342064"></trkpt><trkpt lat="35.8666282" lon="138.7341616"></trkpt><trkpt lat="35.8666698" lon="138.7340599"></trkpt><trkpt lat="35.8666556" lon="138.7340121"></trkpt><trkpt lat="35.866574" lon="138.733942"></trkpt><trkpt lat="35.866489" lon="138.733873"></trkpt><trkpt lat="35.866406" lon="138.733825"></trkpt><trkpt lat="35.866289" lon="138.733807"></trkpt><trkpt lat="35.8661618" lon="138.7337007"></trkpt><trkpt lat="35.8660629" lon="138.7336336"></trkpt><trkpt lat="35.8658368" lon="138.7334566"></trkpt><trkpt lat="35.8656586" lon="138.7334056"></trkpt><trkpt lat="35.8654315" lon="138.7334539"></trkpt><trkpt lat="35.8651522" lon="138.7335478"></trkpt><trkpt lat="35.864987" lon="138.7335344"></trkpt><trkpt lat="35.8647553" lon="138.7335234"></trkpt><trkpt lat="35.8645365" lon="138.7333641"></trkpt><trkpt lat="35.8642911" lon="138.7332138"></trkpt><trkpt lat="35.8640121" lon="138.7330475"></trkpt><trkpt lat="35.8638784" lon="138.7328383"></trkpt><trkpt lat="35.8633002" lon="138.7324521"></trkpt><trkpt lat="35.8632176" lon="138.7324092"></trkpt><trkpt lat="35.8630785" lon="138.732385"></trkpt><trkpt lat="35.8630045" lon="138.732326"></trkpt><trkpt lat="35.8628828" lon="138.732208"></trkpt><trkpt lat="35.8628307" lon="138.7322"></trkpt><trkpt lat="35.8628002" lon="138.7321651"></trkpt><trkpt lat="35.8627209" lon="138.7318674"></trkpt><trkpt lat="35.8627339" lon="138.7318245"></trkpt><trkpt lat="35.8628991" lon="138.7317547"></trkpt><trkpt lat="35.8632399" lon="138.7316199"></trkpt><trkpt lat="35.8634255" lon="138.7315034"></trkpt><trkpt lat="35.8634851" lon="138.7314428"></trkpt><trkpt lat="35.8636332" lon="138.7312453"></trkpt><trkpt lat="35.8637306" lon="138.7311054"></trkpt><trkpt lat="35.8639088" lon="138.7311271"></trkpt><trkpt lat="35.864024" lon="138.7311164"></trkpt><trkpt lat="35.8641566" lon="138.731001"></trkpt><trkpt lat="35.8642544" lon="138.7308884"></trkpt><trkpt lat="35.864337" lon="138.7308669"></trkpt><trkpt lat="35.8643653" lon="138.7309366"></trkpt><trkpt lat="35.864287" lon="138.7311673"></trkpt><trkpt lat="35.8642914" lon="138.7312371"></trkpt><trkpt lat="35.8643827" lon="138.7312317"></trkpt><trkpt lat="35.8645566" lon="138.7310734"></trkpt><trkpt lat="35.8646283" lon="138.7310077"></trkpt><trkpt lat="35.8646435" lon="138.7309138"></trkpt><trkpt lat="35.8646336" lon="138.7307831"></trkpt><trkpt lat="35.8645616" lon="138.7306703"></trkpt><trkpt lat="35.8645316" lon="138.7305611"></trkpt><trkpt lat="35.8645991" lon="138.7305308"></trkpt><trkpt lat="35.864651" lon="138.730587"></trkpt><trkpt lat="35.8647348" lon="138.7306443"></trkpt><trkpt lat="35.8647913" lon="138.7307234"></trkpt><trkpt lat="35.8648294" lon="138.7308267"></trkpt><trkpt lat="35.8648265" lon="138.7308739"></trkpt><trkpt lat="35.864813" lon="138.7309199"></trkpt><trkpt lat="35.8647988" lon="138.7309886"></trkpt><trkpt lat="35.8646429" lon="138.7312367"></trkpt><trkpt lat="35.8643655" lon="138.7315762"></trkpt><trkpt lat="35.8642365" lon="138.7317332"></trkpt><trkpt lat="35.864134" lon="138.731828"></trkpt><trkpt lat="35.8641" lon="138.731946"></trkpt><trkpt lat="35.864083" lon="138.732042"></trkpt><trkpt lat="35.864134" lon="138.732243"></trkpt><trkpt lat="35.864337" lon="138.732256"></trkpt><trkpt lat="35.864427" lon="138.732236"></trkpt><trkpt lat="35.8645699" lon="138.7321717"></trkpt><trkpt lat="35.8646297" lon="138.7321393"></trkpt><trkpt lat="35.8646746" lon="138.7321204"></trkpt><trkpt lat="35.8647968" lon="138.732141"></trkpt><trkpt lat="35.864951" lon="138.73218"></trkpt><trkpt lat="35.865322" lon="138.732312"></trkpt><trkpt lat="35.865649" lon="138.73236"></trkpt><trkpt lat="35.866038" lon="138.732374"></trkpt><trkpt lat="35.866319" lon="138.732277"></trkpt><trkpt lat="35.866494" lon="138.73225"></trkpt><trkpt lat="35.866679" lon="138.732263"></trkpt><trkpt lat="35.866831" lon="138.732332"></trkpt><trkpt lat="35.866989" lon="138.732443"></trkpt><trkpt lat="35.867164" lon="138.732505"></trkpt><trkpt lat="35.86736" lon="138.732512"></trkpt><trkpt lat="35.867501" lon="138.73256"></trkpt><trkpt lat="35.867568" lon="138.732595"></trkpt><trkpt lat="35.867816" lon="138.732803"></trkpt><trkpt lat="35.867935" lon="138.732962"></trkpt><trkpt lat="35.867975" lon="138.733032"></trkpt><trkpt lat="35.868013" lon="138.733162"></trkpt><trkpt lat="35.868036" lon="138.733412"></trkpt><trkpt lat="35.86802" lon="138.733805"></trkpt><trkpt lat="35.867991" lon="138.733924"></trkpt><trkpt lat="35.867912" lon="138.734457"></trkpt><trkpt lat="35.8679351" lon="138.7351244"></trkpt><trkpt lat="35.867929" lon="138.735418"></trkpt><trkpt lat="35.867912" lon="138.73555"></trkpt><trkpt lat="35.867816" lon="138.735702"></trkpt><trkpt lat="35.867743" lon="138.735773"></trkpt><trkpt lat="35.86766" lon="138.735828"></trkpt><trkpt lat="35.86754" lon="138.735861"></trkpt><trkpt lat="35.867361" lon="138.735833"></trkpt><trkpt lat="35.867214" lon="138.735771"></trkpt><trkpt lat="35.867175" lon="138.735764"></trkpt><trkpt lat="35.867051" lon="138.735702"></trkpt><trkpt lat="35.866955" lon="138.735688"></trkpt><trkpt lat="35.866764" lon="138.735695"></trkpt><trkpt lat="35.866665" lon="138.735745"></trkpt><trkpt lat="35.866556" lon="138.735847"></trkpt><trkpt lat="35.866494" lon="138.735985"></trkpt><trkpt lat="35.866466" lon="138.736089"></trkpt><trkpt lat="35.86646" lon="138.736234"></trkpt><trkpt lat="35.866544" lon="138.736566"></trkpt><trkpt lat="35.866595" lon="138.736677"></trkpt><trkpt lat="35.8666921" lon="138.7367764"></trkpt><trkpt lat="35.866808" lon="138.736796"></trkpt><trkpt lat="35.8671225" lon="138.7367847"></trkpt><trkpt lat="35.8672541" lon="138.7368038"></trkpt><trkpt lat="35.867276" lon="138.736808"></trkpt><trkpt lat="35.867316" lon="138.736878"></trkpt><trkpt lat="35.86735" lon="138.736967"></trkpt><trkpt lat="35.8673334" lon="138.7372331"></trkpt><trkpt lat="35.8673062" lon="138.7373699"></trkpt><trkpt lat="35.8673301" lon="138.7376261"></trkpt><trkpt lat="35.8674019" lon="138.7378192"></trkpt><trkpt lat="35.8675627" lon="138.7379292"></trkpt><trkpt lat="35.8678833" lon="138.7379372"></trkpt><trkpt lat="35.8680659" lon="138.7379815"></trkpt><trkpt lat="35.8682039" lon="138.7380391"></trkpt><trkpt lat="35.8682832" lon="138.7381679"></trkpt><trkpt lat="35.8683093" lon="138.7382618"></trkpt><trkpt lat="35.86832" lon="138.738419"></trkpt><trkpt lat="35.86832" lon="138.738489"></trkpt><trkpt lat="35.868312" lon="138.738565"></trkpt><trkpt lat="35.868298" lon="138.738657"></trkpt><trkpt lat="35.868255" lon="138.738818"></trkpt><trkpt lat="35.868201" lon="138.738918"></trkpt><trkpt lat="35.868132" lon="138.738989"></trkpt><trkpt lat="35.868075" lon="138.739073"></trkpt><trkpt lat="35.868013" lon="138.739201"></trkpt><trkpt lat="35.868008" lon="138.739286"></trkpt><trkpt lat="35.868019" lon="138.73936"></trkpt><trkpt lat="35.868036" lon="138.739416"></trkpt><trkpt lat="35.868137" lon="138.739519"></trkpt><trkpt lat="35.868216" lon="138.739561"></trkpt><trkpt lat="35.86833" lon="138.739554"></trkpt><trkpt lat="35.868638" lon="138.739513"></trkpt><trkpt lat="35.868768" lon="138.739519"></trkpt><trkpt lat="35.86892" lon="138.739589"></trkpt><trkpt lat="35.86905" lon="138.739713"></trkpt><trkpt lat="35.869123" lon="138.739755"></trkpt><trkpt lat="35.869265" lon="138.739755"></trkpt><trkpt lat="35.86936" lon="138.739769"></trkpt><trkpt lat="35.8695222" lon="138.7398257"></trkpt><trkpt lat="35.8696353" lon="138.7398426"></trkpt><trkpt lat="35.8698382" lon="138.7400286"></trkpt><trkpt lat="35.8700195" lon="138.7402102"></trkpt><trkpt lat="35.8700556" lon="138.7406312"></trkpt><trkpt lat="35.8700165" lon="138.7408184"></trkpt><trkpt lat="35.8701141" lon="138.7409515"></trkpt><trkpt lat="35.8702188" lon="138.7410291"></trkpt><trkpt lat="35.8702878" lon="138.7410405"></trkpt><trkpt lat="35.870295" lon="138.7410634"></trkpt><trkpt lat="35.870282" lon="138.741148"></trkpt><trkpt lat="35.870326" lon="138.7412353"></trkpt><trkpt lat="35.870587" lon="138.7418193"></trkpt><trkpt lat="35.870583" lon="138.741923"></trkpt><trkpt lat="35.870328" lon="138.742347"></trkpt><trkpt lat="35.870047" lon="138.742832"></trkpt><trkpt lat="35.869732" lon="138.743302"></trkpt><trkpt lat="35.8694348" lon="138.7436392"></trkpt><trkpt lat="35.869407" lon="138.743716"></trkpt><trkpt lat="35.8693765" lon="138.7437657"></trkpt><trkpt lat="35.8693119" lon="138.7438019"></trkpt><trkpt lat="35.8692717" lon="138.7438515"></trkpt><trkpt lat="35.8692634" lon="138.7439007"></trkpt><trkpt lat="35.8692" lon="138.7439797"></trkpt><trkpt lat="35.8691538" lon="138.7440065"></trkpt><trkpt lat="35.8691132" lon="138.7440533"></trkpt><trkpt lat="35.8690864" lon="138.7440962"></trkpt><trkpt lat="35.869063" lon="138.7441492"></trkpt><trkpt lat="35.8690403" lon="138.7442577"></trkpt><trkpt lat="35.8690374" lon="138.7443176"></trkpt><trkpt lat="35.8688969" lon="138.7443976"></trkpt><trkpt lat="35.8687741" lon="138.7444579"></trkpt><trkpt lat="35.8687147" lon="138.7445086"></trkpt><trkpt lat="35.8686788" lon="138.7445797"></trkpt><trkpt lat="35.8686393" lon="138.7447838"></trkpt><trkpt lat="35.8686288" lon="138.7449177"></trkpt><trkpt lat="35.8686285" lon="138.7451446"></trkpt><trkpt lat="35.8686386" lon="138.7451953"></trkpt><trkpt lat="35.8686796" lon="138.745272"></trkpt><trkpt lat="35.8688397" lon="138.7453267"></trkpt><trkpt lat="35.8691744" lon="138.7454112"></trkpt><trkpt lat="35.8692374" lon="138.7454367"></trkpt><trkpt lat="35.869269" lon="138.7454742"></trkpt><trkpt lat="35.8692897" lon="138.7455181"></trkpt><trkpt lat="35.869325" lon="138.7457427"></trkpt><trkpt lat="35.8693222" lon="138.74578"></trkpt><trkpt lat="35.8692939" lon="138.7458068"></trkpt><trkpt lat="35.8691081" lon="138.7458095"></trkpt><trkpt lat="35.8689712" lon="138.7458216"></trkpt><trkpt lat="35.8688766" lon="138.7457961"></trkpt><trkpt lat="35.8685995" lon="138.7457813"></trkpt><trkpt lat="35.8682698" lon="138.7457803"></trkpt><trkpt lat="35.8681579" lon="138.7457669"></trkpt><trkpt lat="35.8681246" lon="138.7457894"></trkpt><trkpt lat="35.8680884" lon="138.7458245"></trkpt><trkpt lat="35.868055" lon="138.7458859"></trkpt><trkpt lat="35.8680264" lon="138.7459854"></trkpt><trkpt lat="35.8680248" lon="138.7462441"></trkpt><trkpt lat="35.8680144" lon="138.7468505"></trkpt><trkpt lat="35.8679539" lon="138.7472069"></trkpt><trkpt lat="35.867935" lon="138.7474982"></trkpt><trkpt lat="35.867842" lon="138.7482423"></trkpt><trkpt lat="35.8677875" lon="138.748527"></trkpt><trkpt lat="35.8677938" lon="138.7485926"></trkpt><trkpt lat="35.8678322" lon="138.748658"></trkpt><trkpt lat="35.8679286" lon="138.7487455"></trkpt><trkpt lat="35.8681503" lon="138.7489493"></trkpt><trkpt lat="35.8682713" lon="138.7492803"></trkpt><trkpt lat="35.8684082" lon="138.7494546"></trkpt><trkpt lat="35.8684137" lon="138.7495123"></trkpt><trkpt lat="35.868393" lon="138.7495807"></trkpt><trkpt lat="35.8683426" lon="138.7496279"></trkpt><trkpt lat="35.8681274" lon="138.7496198"></trkpt><trkpt lat="35.8680452" lon="138.7496129"></trkpt><trkpt lat="35.8678395" lon="138.74942"></trkpt><trkpt lat="35.8676225" lon="138.7494023"></trkpt><trkpt lat="35.8675329" lon="138.7494307"></trkpt><trkpt lat="35.8674736" lon="138.7494613"></trkpt><trkpt lat="35.8673417" lon="138.749589"></trkpt><trkpt lat="35.8672921" lon="138.7497456"></trkpt><trkpt lat="35.867263" lon="138.7498517"></trkpt><trkpt lat="35.8671834" lon="138.7501506"></trkpt><trkpt lat="35.8671341" lon="138.7502516"></trkpt><trkpt lat="35.8669465" lon="138.750376"></trkpt><trkpt lat="35.8668161" lon="138.7504926"></trkpt><trkpt lat="35.8667443" lon="138.7505275"></trkpt><trkpt lat="35.86669" lon="138.7505892"></trkpt><trkpt lat="35.866532" lon="138.7507679"></trkpt><trkpt lat="35.8664498" lon="138.7508909"></trkpt><trkpt lat="35.8664031" lon="138.7509969"></trkpt><trkpt lat="35.8663933" lon="138.7510733"></trkpt><trkpt lat="35.8663487" lon="138.751241"></trkpt><trkpt lat="35.8662618" lon="138.7514006"></trkpt><trkpt lat="35.8660512" lon="138.7515365"></trkpt><trkpt lat="35.8658891" lon="138.7516491"></trkpt><trkpt lat="35.865639" lon="138.7519088"></trkpt><trkpt lat="35.8655934" lon="138.7519826"></trkpt><trkpt lat="35.8655728" lon="138.7521288"></trkpt><trkpt lat="35.8655695" lon="138.7522119"></trkpt><trkpt lat="35.8655391" lon="138.7522776"></trkpt><trkpt lat="35.8654387" lon="138.7524094"></trkpt><trkpt lat="35.8652293" lon="138.7529334"></trkpt><trkpt lat="35.8651674" lon="138.7530273"></trkpt><trkpt lat="35.8651163" lon="138.7531896"></trkpt><trkpt lat="35.865088" lon="138.7533076"></trkpt><trkpt lat="35.8649909" lon="138.7534258"></trkpt><trkpt lat="35.8649076" lon="138.7535597"></trkpt><trkpt lat="35.8648642" lon="138.7536656"></trkpt><trkpt lat="35.8648637" lon="138.7537277"></trkpt><trkpt lat="35.864938" lon="138.753891"></trkpt><trkpt lat="35.8649609" lon="138.7539836"></trkpt><trkpt lat="35.8649446" lon="138.7541069"></trkpt><trkpt lat="35.8648522" lon="138.7541887"></trkpt><trkpt lat="35.8647572" lon="138.754185"></trkpt><trkpt lat="35.8645153" lon="138.7541646"></trkpt><trkpt lat="35.8643805" lon="138.754186"></trkpt><trkpt lat="35.8643116" lon="138.7542386"></trkpt><trkpt lat="35.8641066" lon="138.7544382"></trkpt><trkpt lat="35.8639486" lon="138.7545524"></trkpt><trkpt lat="35.8633748" lon="138.7549172"></trkpt><trkpt lat="35.8632509" lon="138.7550647"></trkpt><trkpt lat="35.8631524" lon="138.7552509"></trkpt><trkpt lat="35.8630893" lon="138.7553528"></trkpt><trkpt lat="35.8630024" lon="138.7553796"></trkpt><trkpt lat="35.862564" lon="138.7553758"></trkpt><trkpt lat="35.8622698" lon="138.7553501"></trkpt></trkseg></trk></gpx>
