<?xml version="1.0" encoding="UTF-8"?>
<gpx version="1.1" creator="Good Shit" xmlns="http://www.topografix.com/GPX/1/1"><trk><name>Teufelsmauer Kammweg Loop — Teufelsmauer Kammweg and Südhangweg loop</name><desc>From Schnappelberg, climb to Großvaterfelsen and follow the narrow Kammweg past Löbbeckefelsen and Siegfriedsgrotte. Continue via Gewittergrotte to Hamburger Wappen, then return below the sandstone crest on Südhangweg and Großvaterweg.

Route geometry: © OpenStreetMap contributors — OpenStreetMap route and path geometry. Licence: ODbL-1.0 (https://opendatacommons.org/licenses/odbl/1.0/). Source: https://www.openstreetmap.org/copyright. Dataset: https://www.openstreetmap.org/.</desc><trkseg><trkpt lat="51.78805994221469" lon="10.96016802733449"></trkpt><trkpt lat="51.7881035" lon="10.9602363"></trkpt><trkpt lat="51.7882564" lon="10.9604545"></trkpt><trkpt lat="51.7883046" lon="10.9604152"></trkpt><trkpt lat="51.788378" lon="10.960349"></trkpt><trkpt lat="51.7884171" lon="10.9604077"></trkpt><trkpt lat="51.788464" lon="10.9604479"></trkpt><trkpt lat="51.7885094" lon="10.9604738"></trkpt><trkpt lat="51.7885838" lon="10.9604916"></trkpt><trkpt lat="51.7886376" lon="10.9604919"></trkpt><trkpt lat="51.7886618" lon="10.9604828"></trkpt><trkpt lat="51.7886855" lon="10.9605663"></trkpt><trkpt lat="51.7886847" lon="10.9606211"></trkpt><trkpt lat="51.78868" lon="10.9606773"></trkpt><trkpt lat="51.7886695" lon="10.9608132"></trkpt><trkpt lat="51.7886759" lon="10.9609401"></trkpt><trkpt lat="51.7886935" lon="10.9610835"></trkpt><trkpt lat="51.7887055" lon="10.9611182"></trkpt><trkpt lat="51.7887219" lon="10.9611418"></trkpt><trkpt lat="51.7887452" lon="10.9611588"></trkpt><trkpt lat="51.7887943" lon="10.9611924"></trkpt><trkpt lat="51.7888086" lon="10.961214"></trkpt><trkpt lat="51.788818" lon="10.9612515"></trkpt><trkpt lat="51.788812" lon="10.9613018"></trkpt><trkpt lat="51.7888018" lon="10.9613746"></trkpt><trkpt lat="51.7887836" lon="10.9614185"></trkpt><trkpt lat="51.7887675" lon="10.9614357"></trkpt><trkpt lat="51.7886981" lon="10.9614893"></trkpt><trkpt lat="51.788582" lon="10.9615539"></trkpt><trkpt lat="51.7885957" lon="10.9616275"></trkpt><trkpt lat="51.7886125" lon="10.9617558"></trkpt><trkpt lat="51.7886173" lon="10.961853"></trkpt><trkpt lat="51.78861302626668" lon="10.961905668675369"></trkpt><trkpt lat="51.7886068" lon="10.9619824"></trkpt><trkpt lat="51.7885943" lon="10.9620653"></trkpt><trkpt lat="51.7885721" lon="10.9621684"></trkpt><trkpt lat="51.788543" lon="10.9622432"></trkpt><trkpt lat="51.7885187" lon="10.9622305"></trkpt><trkpt lat="51.7885278" lon="10.9620407"></trkpt><trkpt lat="51.7884648" lon="10.9619778"></trkpt><trkpt lat="51.7884193" lon="10.9619809"></trkpt><trkpt lat="51.7883616" lon="10.962036"></trkpt><trkpt lat="51.788294" lon="10.9621462"></trkpt><trkpt lat="51.7882359" lon="10.9623216"></trkpt><trkpt lat="51.7881157" lon="10.9624784"></trkpt><trkpt lat="51.7879988" lon="10.9626581"></trkpt><trkpt lat="51.7878324" lon="10.9628233"></trkpt><trkpt lat="51.7877421" lon="10.9630089"></trkpt><trkpt lat="51.7876791" lon="10.9632245"></trkpt><trkpt lat="51.7876157" lon="10.9634359"></trkpt><trkpt lat="51.78758567782142" lon="10.963503746078267"></trkpt><trkpt lat="51.78758567782142" lon="10.963503746078269"></trkpt><trkpt lat="51.78758567782142" lon="10.963503746078267"></trkpt><trkpt lat="51.7875118" lon="10.9636707"></trkpt><trkpt lat="51.7874086" lon="10.9637395"></trkpt><trkpt lat="51.7873033" lon="10.96383"></trkpt><trkpt lat="51.7872119" lon="10.9639652"></trkpt><trkpt lat="51.7871638" lon="10.9641291"></trkpt><trkpt lat="51.7871152" lon="10.9642236"></trkpt><trkpt lat="51.786993" lon="10.9644618"></trkpt><trkpt lat="51.7867878" lon="10.9649214"></trkpt><trkpt lat="51.786732" lon="10.9650309"></trkpt><trkpt lat="51.7865582" lon="10.9655759"></trkpt><trkpt lat="51.78652300300605" lon="10.96575319357593"></trkpt><trkpt lat="51.7864802" lon="10.9659688"></trkpt><trkpt lat="51.7863989" lon="10.9662681"></trkpt><trkpt lat="51.7863698" lon="10.9664076"></trkpt><trkpt lat="51.7863467" lon="10.966449"></trkpt><trkpt lat="51.786237" lon="10.9666471"></trkpt><trkpt lat="51.78615" lon="10.9667884"></trkpt><trkpt lat="51.7861703" lon="10.9668198"></trkpt><trkpt lat="51.7861711" lon="10.9668772"></trkpt><trkpt lat="51.7861567" lon="10.9669195"></trkpt><trkpt lat="51.7861471" lon="10.9669663"></trkpt><trkpt lat="51.7861285" lon="10.9670884"></trkpt><trkpt lat="51.7861039" lon="10.9672291"></trkpt><trkpt lat="51.7861438" lon="10.9672885"></trkpt><trkpt lat="51.7861937" lon="10.9673555"></trkpt><trkpt lat="51.7862399" lon="10.9674261"></trkpt><trkpt lat="51.786215" lon="10.9676672"></trkpt><trkpt lat="51.7862089" lon="10.9677299"></trkpt><trkpt lat="51.7862014" lon="10.9678092"></trkpt><trkpt lat="51.7861944" lon="10.9678559"></trkpt><trkpt lat="51.7861404" lon="10.9679924"></trkpt><trkpt lat="51.7861479" lon="10.9681726"></trkpt><trkpt lat="51.786134889846345" lon="10.968383325064467"></trkpt><trkpt lat="51.7861281" lon="10.9684933"></trkpt><trkpt lat="51.7861109" lon="10.968672"></trkpt><trkpt lat="51.7860817" lon="10.9687748"></trkpt><trkpt lat="51.7860576" lon="10.9688569"></trkpt><trkpt lat="51.7860294" lon="10.9689288"></trkpt><trkpt lat="51.7860149" lon="10.9690205"></trkpt><trkpt lat="51.7860041" lon="10.9691175"></trkpt><trkpt lat="51.7859908" lon="10.9692175"></trkpt><trkpt lat="51.7859632" lon="10.9693012"></trkpt><trkpt lat="51.7859373" lon="10.9693606"></trkpt><trkpt lat="51.7858983" lon="10.9695235"></trkpt><trkpt lat="51.7858575" lon="10.9696509"></trkpt><trkpt lat="51.785802" lon="10.9697933"></trkpt><trkpt lat="51.7857964" lon="10.9698997"></trkpt><trkpt lat="51.785792" lon="10.9699564"></trkpt><trkpt lat="51.7857732" lon="10.9700807"></trkpt><trkpt lat="51.7857689" lon="10.9701278"></trkpt><trkpt lat="51.7857503" lon="10.9702235"></trkpt><trkpt lat="51.7857183" lon="10.9702991"></trkpt><trkpt lat="51.7856479" lon="10.9704326"></trkpt><trkpt lat="51.7855793" lon="10.9706154"></trkpt><trkpt lat="51.785542" lon="10.9707124"></trkpt><trkpt lat="51.7854749" lon="10.9708471"></trkpt><trkpt lat="51.785429749391625" lon="10.970999259539227"></trkpt><trkpt lat="51.7853614" lon="10.9712296"></trkpt><trkpt lat="51.7853037" lon="10.971322"></trkpt><trkpt lat="51.785268" lon="10.9714448"></trkpt><trkpt lat="51.785244" lon="10.9714783"></trkpt><trkpt lat="51.7852373" lon="10.9715405"></trkpt><trkpt lat="51.7852089" lon="10.9716258"></trkpt><trkpt lat="51.7852023" lon="10.9716879"></trkpt><trkpt lat="51.7851799" lon="10.9717427"></trkpt><trkpt lat="51.785141" lon="10.9718295"></trkpt><trkpt lat="51.7851166" lon="10.9719768"></trkpt><trkpt lat="51.7851126" lon="10.9720466"></trkpt><trkpt lat="51.7851082" lon="10.9721322"></trkpt><trkpt lat="51.7850973" lon="10.9722084"></trkpt><trkpt lat="51.7850849" lon="10.9722415"></trkpt><trkpt lat="51.7850434" lon="10.9722813"></trkpt><trkpt lat="51.7850142" lon="10.9723001"></trkpt><trkpt lat="51.7850122" lon="10.9723437"></trkpt><trkpt lat="51.785007" lon="10.9724973"></trkpt><trkpt lat="51.7849462" lon="10.9726804"></trkpt><trkpt lat="51.7848913" lon="10.972853"></trkpt><trkpt lat="51.7848297" lon="10.9729798"></trkpt><trkpt lat="51.7848141" lon="10.9730939"></trkpt><trkpt lat="51.7847993" lon="10.9732017"></trkpt><trkpt lat="51.7847634" lon="10.9733186"></trkpt><trkpt lat="51.784709" lon="10.9733931"></trkpt><trkpt lat="51.7846521" lon="10.9735122"></trkpt><trkpt lat="51.784650049407205" lon="10.973519367022861"></trkpt><trkpt lat="51.784650049407205" lon="10.97351936702286"></trkpt><trkpt lat="51.784650049407205" lon="10.973519367022861"></trkpt><trkpt lat="51.7846317" lon="10.9735835"></trkpt><trkpt lat="51.7845804" lon="10.9737507"></trkpt><trkpt lat="51.7844797" lon="10.973951"></trkpt><trkpt lat="51.784471" lon="10.9740841"></trkpt><trkpt lat="51.784436" lon="10.974215"></trkpt><trkpt lat="51.784381" lon="10.9743375"></trkpt><trkpt lat="51.7843578" lon="10.9744068"></trkpt><trkpt lat="51.7843382" lon="10.9743951"></trkpt><trkpt lat="51.7843076" lon="10.9744013"></trkpt><trkpt lat="51.7843073" lon="10.9745027"></trkpt><trkpt lat="51.7842721" lon="10.9745637"></trkpt><trkpt lat="51.7842629" lon="10.9746123"></trkpt><trkpt lat="51.7842463" lon="10.9746285"></trkpt><trkpt lat="51.7842269" lon="10.974721"></trkpt><trkpt lat="51.7842007" lon="10.9747706"></trkpt><trkpt lat="51.7841882" lon="10.9748515"></trkpt><trkpt lat="51.7841651" lon="10.9748781"></trkpt><trkpt lat="51.7841557" lon="10.9749392"></trkpt><trkpt lat="51.7841358" lon="10.9750205"></trkpt><trkpt lat="51.7841002" lon="10.9751479"></trkpt><trkpt lat="51.7840606" lon="10.9752034"></trkpt><trkpt lat="51.7839957" lon="10.9753468"></trkpt><trkpt lat="51.7839542" lon="10.975527"></trkpt><trkpt lat="51.7839409" lon="10.9755821"></trkpt><trkpt lat="51.7839039" lon="10.9757332"></trkpt><trkpt lat="51.7838718" lon="10.9758369"></trkpt><trkpt lat="51.7838559" lon="10.9759039"></trkpt><trkpt lat="51.7838374" lon="10.9759962"></trkpt><trkpt lat="51.7838303631031" lon="10.976011326934842"></trkpt><trkpt lat="51.7838303631031" lon="10.976011326934843"></trkpt><trkpt lat="51.7838303631031" lon="10.976011326934842"></trkpt><trkpt lat="51.783808" lon="10.9760594"></trkpt><trkpt lat="51.7837628" lon="10.9761098"></trkpt><trkpt lat="51.7837035" lon="10.9762441"></trkpt><trkpt lat="51.7836622" lon="10.9763898"></trkpt><trkpt lat="51.7836372" lon="10.9765307"></trkpt><trkpt lat="51.7836023" lon="10.9766663"></trkpt><trkpt lat="51.7835461" lon="10.976796"></trkpt><trkpt lat="51.7835081" lon="10.9769004"></trkpt><trkpt lat="51.7835115" lon="10.9769595"></trkpt><trkpt lat="51.7835057" lon="10.9770678"></trkpt><trkpt lat="51.7834551" lon="10.9771575"></trkpt><trkpt lat="51.783401" lon="10.9773104"></trkpt><trkpt lat="51.7833511" lon="10.9774227"></trkpt><trkpt lat="51.7832936" lon="10.9775492"></trkpt><trkpt lat="51.7832516" lon="10.9776734"></trkpt><trkpt lat="51.7832213" lon="10.9776865"></trkpt><trkpt lat="51.7831959" lon="10.9777585"></trkpt><trkpt lat="51.7831708" lon="10.9778738"></trkpt><trkpt lat="51.7831547" lon="10.9779923"></trkpt><trkpt lat="51.7831181" lon="10.9780601"></trkpt><trkpt lat="51.7831021" lon="10.9781869"></trkpt><trkpt lat="51.783069" lon="10.9783192"></trkpt><trkpt lat="51.783033" lon="10.9784599"></trkpt><trkpt lat="51.783017707367264" lon="10.978509587827473"></trkpt><trkpt lat="51.7830041" lon="10.9785538"></trkpt><trkpt lat="51.78299" lon="10.9786382"></trkpt><trkpt lat="51.7829526" lon="10.9787374"></trkpt><trkpt lat="51.7829028" lon="10.978834"></trkpt><trkpt lat="51.7828871" lon="10.9789277"></trkpt><trkpt lat="51.7828566" lon="10.9790492"></trkpt><trkpt lat="51.7828254" lon="10.9791564"></trkpt><trkpt lat="51.7827857" lon="10.9792557"></trkpt><trkpt lat="51.7827646" lon="10.9793392"></trkpt><trkpt lat="51.7827303" lon="10.9794271"></trkpt><trkpt lat="51.7826985" lon="10.9794688"></trkpt><trkpt lat="51.7826512" lon="10.9795563"></trkpt><trkpt lat="51.7826198" lon="10.9797355"></trkpt><trkpt lat="51.7825355" lon="10.9799668"></trkpt><trkpt lat="51.7824637" lon="10.9801586"></trkpt><trkpt lat="51.7823869" lon="10.9802691"></trkpt><trkpt lat="51.7823411" lon="10.9803755"></trkpt><trkpt lat="51.7822982" lon="10.9804901"></trkpt><trkpt lat="51.7822535" lon="10.9805663"></trkpt><trkpt lat="51.7821787" lon="10.9807756"></trkpt><trkpt lat="51.7821466" lon="10.9808772"></trkpt><trkpt lat="51.78209186688257" lon="10.980954894784848"></trkpt><trkpt lat="51.78209186688257" lon="10.98095489478485"></trkpt><trkpt lat="51.78209186688257" lon="10.980954894784848"></trkpt><trkpt lat="51.7820882" lon="10.9809601"></trkpt><trkpt lat="51.7820554" lon="10.9810213"></trkpt><trkpt lat="51.7820115" lon="10.9811428"></trkpt><trkpt lat="51.7819884" lon="10.9813056"></trkpt><trkpt lat="51.7819207" lon="10.9815103"></trkpt><trkpt lat="51.7818856" lon="10.9816064"></trkpt><trkpt lat="51.781762" lon="10.9819231"></trkpt><trkpt lat="51.7816722" lon="10.9821721"></trkpt><trkpt lat="51.7816426" lon="10.9822927"></trkpt><trkpt lat="51.7816005" lon="10.9823676"></trkpt><trkpt lat="51.7815194" lon="10.9825612"></trkpt><trkpt lat="51.7814597" lon="10.9826675"></trkpt><trkpt lat="51.7813368" lon="10.9830996"></trkpt><trkpt lat="51.7813226" lon="10.983197"></trkpt><trkpt lat="51.7812623" lon="10.9834961"></trkpt><trkpt lat="51.78126337093601" lon="10.983503622461798"></trkpt><trkpt lat="51.7812871" lon="10.9836703"></trkpt><trkpt lat="51.7813248" lon="10.9838021"></trkpt><trkpt lat="51.7812742" lon="10.984076"></trkpt><trkpt lat="51.7812108" lon="10.98401"></trkpt><trkpt lat="51.7811759" lon="10.9839864"></trkpt><trkpt lat="51.7811198" lon="10.9839299"></trkpt><trkpt lat="51.7810831" lon="10.9841951"></trkpt><trkpt lat="51.7810507" lon="10.9842691"></trkpt><trkpt lat="51.7810069" lon="10.9843738"></trkpt><trkpt lat="51.7809954" lon="10.9845032"></trkpt><trkpt lat="51.7809266" lon="10.9848192"></trkpt><trkpt lat="51.7808601" lon="10.9847532"></trkpt><trkpt lat="51.7807517" lon="10.9848486"></trkpt><trkpt lat="51.7806884" lon="10.9850473"></trkpt><trkpt lat="51.780640363719456" lon="10.985296933475553"></trkpt><trkpt lat="51.7806203" lon="10.9854012"></trkpt><trkpt lat="51.7805994" lon="10.985476"></trkpt><trkpt lat="51.7805476" lon="10.9855971"></trkpt><trkpt lat="51.7804183" lon="10.9859167"></trkpt><trkpt lat="51.7803991" lon="10.9859794"></trkpt><trkpt lat="51.7803387" lon="10.9862729"></trkpt><trkpt lat="51.7803342" lon="10.9862986"></trkpt><trkpt lat="51.7803512" lon="10.9863417"></trkpt><trkpt lat="51.7803229" lon="10.9863584"></trkpt><trkpt lat="51.7802937" lon="10.9863953"></trkpt><trkpt lat="51.7802828" lon="10.9864174"></trkpt><trkpt lat="51.7802681" lon="10.9865037"></trkpt><trkpt lat="51.7802603" lon="10.9865929"></trkpt><trkpt lat="51.7802791" lon="10.9866913"></trkpt><trkpt lat="51.7803155" lon="10.9868651"></trkpt><trkpt lat="51.7803614" lon="10.9870451"></trkpt><trkpt lat="51.7803988" lon="10.9873141"></trkpt><trkpt lat="51.7804208" lon="10.9877188"></trkpt><trkpt lat="51.7804262" lon="10.9879231"></trkpt><trkpt lat="51.78045678589872" lon="10.98800772671416"></trkpt><trkpt lat="51.78045678589872" lon="10.988007726714162"></trkpt><trkpt lat="51.78045678589872" lon="10.98800772671416"></trkpt><trkpt lat="51.7804974" lon="10.9881201"></trkpt><trkpt lat="51.7805559" lon="10.9882242"></trkpt><trkpt lat="51.7806292" lon="10.9883532"></trkpt><trkpt lat="51.7806588" lon="10.9885572"></trkpt><trkpt lat="51.7806314" lon="10.9887933"></trkpt><trkpt lat="51.7806285" lon="10.9888229"></trkpt><trkpt lat="51.7806047" lon="10.9889837"></trkpt><trkpt lat="51.7805788" lon="10.9891509"></trkpt><trkpt lat="51.7805255" lon="10.989421"></trkpt><trkpt lat="51.7804527" lon="10.989802"></trkpt><trkpt lat="51.7803894" lon="10.9903816"></trkpt><trkpt lat="51.7803681" lon="10.9906465"></trkpt><trkpt lat="51.780360485870304" lon="10.99075506587469"></trkpt><trkpt lat="51.7803445" lon="10.990983"></trkpt><trkpt lat="51.7803534" lon="10.9913554"></trkpt><trkpt lat="51.7803123" lon="10.9915086"></trkpt><trkpt lat="51.7802341" lon="10.9917008"></trkpt><trkpt lat="51.7801971" lon="10.9918002"></trkpt><trkpt lat="51.7801562" lon="10.9919054"></trkpt><trkpt lat="51.7801093" lon="10.9919761"></trkpt><trkpt lat="51.7799993" lon="10.99205"></trkpt><trkpt lat="51.7799098" lon="10.992057"></trkpt><trkpt lat="51.7798703" lon="10.9921179"></trkpt><trkpt lat="51.7798493" lon="10.9922207"></trkpt><trkpt lat="51.7798465" lon="10.9923706"></trkpt><trkpt lat="51.7798513" lon="10.9924704"></trkpt><trkpt lat="51.779859" lon="10.9925746"></trkpt><trkpt lat="51.7798176" lon="10.9926596"></trkpt><trkpt lat="51.7797729" lon="10.9927938"></trkpt><trkpt lat="51.7797287" lon="10.9930025"></trkpt><trkpt lat="51.77970529983807" lon="10.993236501619297"></trkpt><trkpt lat="51.7796943" lon="10.9933465"></trkpt><trkpt lat="51.779671" lon="10.9935595"></trkpt><trkpt lat="51.7796539" lon="10.993648"></trkpt><trkpt lat="51.7796191" lon="10.9937471"></trkpt><trkpt lat="51.7795107" lon="10.9938459"></trkpt><trkpt lat="51.7793803" lon="10.993882"></trkpt><trkpt lat="51.7793403" lon="10.9938889"></trkpt><trkpt lat="51.7793028" lon="10.9938954"></trkpt><trkpt lat="51.7792047" lon="10.9938855"></trkpt><trkpt lat="51.7791138" lon="10.9937847"></trkpt><trkpt lat="51.7790294" lon="10.9936347"></trkpt><trkpt lat="51.7788754" lon="10.9934448"></trkpt><trkpt lat="51.7787748" lon="10.9933522"></trkpt><trkpt lat="51.778609" lon="10.9931544"></trkpt><trkpt lat="51.7784462" lon="10.9929703"></trkpt><trkpt lat="51.77838072559432" lon="10.992935201425151"></trkpt><trkpt lat="51.7783242" lon="10.9929049"></trkpt><trkpt lat="51.7783522" lon="10.9930058"></trkpt><trkpt lat="51.7784355" lon="10.9933367"></trkpt><trkpt lat="51.7784549" lon="10.9937885"></trkpt><trkpt lat="51.7784041" lon="10.994165"></trkpt><trkpt lat="51.7783501" lon="10.9943657"></trkpt><trkpt lat="51.7783149" lon="10.9944973"></trkpt><trkpt lat="51.778177" lon="10.9949257"></trkpt><trkpt lat="51.7781044" lon="10.9952519"></trkpt><trkpt lat="51.77805507034847" lon="10.995589724564958"></trkpt><trkpt lat="51.7780365" lon="10.9957169"></trkpt><trkpt lat="51.7780274" lon="10.9958425"></trkpt><trkpt lat="51.7780001" lon="10.9960506"></trkpt><trkpt lat="51.77794" lon="10.9961919"></trkpt><trkpt lat="51.7778104" lon="10.996495"></trkpt><trkpt lat="51.7778467" lon="10.9966003"></trkpt><trkpt lat="51.7779117" lon="10.9967993"></trkpt><trkpt lat="51.777942" lon="10.9969611"></trkpt><trkpt lat="51.7779468" lon="10.9971367"></trkpt><trkpt lat="51.7779766" lon="10.9973929"></trkpt><trkpt lat="51.7779781" lon="10.9977344"></trkpt><trkpt lat="51.7779891" lon="10.9979375"></trkpt><trkpt lat="51.7779861" lon="10.9980587"></trkpt><trkpt lat="51.77798397259519" lon="10.998085956374481"></trkpt><trkpt lat="51.7779728" lon="10.9982291"></trkpt><trkpt lat="51.7779552" lon="10.998389"></trkpt><trkpt lat="51.7779463" lon="10.9985456"></trkpt><trkpt lat="51.7779084" lon="10.9987436"></trkpt><trkpt lat="51.7778794" lon="10.9989002"></trkpt><trkpt lat="51.7778254" lon="10.9991924"></trkpt><trkpt lat="51.7777283" lon="10.9995581"></trkpt><trkpt lat="51.7776875" lon="10.9998847"></trkpt><trkpt lat="51.7775612" lon="11.0001703"></trkpt><trkpt lat="51.7774955" lon="11.0002969"></trkpt><trkpt lat="51.7774607" lon="11.0003831"></trkpt><trkpt lat="51.7774572" lon="11.0003917"></trkpt><trkpt lat="51.7774213" lon="11.0005031"></trkpt><trkpt lat="51.7773433" lon="11.0006347"></trkpt><trkpt lat="51.777310178268934" lon="11.000707725701751"></trkpt><trkpt lat="51.777251" lon="11.0008382"></trkpt><trkpt lat="51.7772046" lon="11.0009512"></trkpt><trkpt lat="51.7771598" lon="11.000966"></trkpt><trkpt lat="51.7771243" lon="11.0009956"></trkpt><trkpt lat="51.7770506" lon="11.001054"></trkpt><trkpt lat="51.7769918" lon="11.0010761"></trkpt><trkpt lat="51.7770527" lon="11.0007464"></trkpt><trkpt lat="51.777076" lon="11.0005765"></trkpt><trkpt lat="51.7770862" lon="11.0005072"></trkpt><trkpt lat="51.7770925" lon="11.0003731"></trkpt><trkpt lat="51.7771051" lon="11.0001454"></trkpt><trkpt lat="51.7770979" lon="10.9999167"></trkpt><trkpt lat="51.7770914" lon="10.9996692"></trkpt><trkpt lat="51.7770947" lon="10.9993255"></trkpt><trkpt lat="51.777124" lon="10.999025"></trkpt><trkpt lat="51.777129827677186" lon="10.998988381500272"></trkpt><trkpt lat="51.7771702" lon="10.9987347"></trkpt><trkpt lat="51.7772076" lon="10.9985197"></trkpt><trkpt lat="51.7772646" lon="10.9981996"></trkpt><trkpt lat="51.7772542" lon="10.9980098"></trkpt><trkpt lat="51.7773472" lon="10.997566"></trkpt><trkpt lat="51.7774125" lon="10.9973488"></trkpt><trkpt lat="51.7774451" lon="10.997062"></trkpt><trkpt lat="51.7774853" lon="10.9967076"></trkpt><trkpt lat="51.7775089" lon="10.9964985"></trkpt><trkpt lat="51.7775577" lon="10.9962924"></trkpt><trkpt lat="51.77758146776143" lon="10.996242385630861"></trkpt><trkpt lat="51.77758146776143" lon="10.996242385630863"></trkpt><trkpt lat="51.77758146776143" lon="10.996242385630861"></trkpt><trkpt lat="51.7776066" lon="10.9961895"></trkpt><trkpt lat="51.7776377" lon="10.9960055"></trkpt><trkpt lat="51.7776482" lon="10.995842"></trkpt><trkpt lat="51.7777626" lon="10.9957246"></trkpt><trkpt lat="51.7778033" lon="10.9956118"></trkpt><trkpt lat="51.7778292" lon="10.9954023"></trkpt><trkpt lat="51.777847" lon="10.9952669"></trkpt><trkpt lat="51.7779003" lon="10.9951553"></trkpt><trkpt lat="51.7779444" lon="10.9950077"></trkpt><trkpt lat="51.7779527" lon="10.9948346"></trkpt><trkpt lat="51.7780197" lon="10.9944756"></trkpt><trkpt lat="51.7780132" lon="10.9941824"></trkpt><trkpt lat="51.7779801" lon="10.993913"></trkpt><trkpt lat="51.778067" lon="10.993832"></trkpt><trkpt lat="51.7781072" lon="10.9937943"></trkpt><trkpt lat="51.7781623" lon="10.9937616"></trkpt><trkpt lat="51.778165083051434" lon="10.993747959386054"></trkpt><trkpt lat="51.7781775" lon="10.9936871"></trkpt><trkpt lat="51.778162" lon="10.9934533"></trkpt><trkpt lat="51.7781373" lon="10.9932792"></trkpt><trkpt lat="51.7781041" lon="10.9931488"></trkpt><trkpt lat="51.777968" lon="10.993091"></trkpt><trkpt lat="51.7779157" lon="10.9930729"></trkpt><trkpt lat="51.7778461" lon="10.9930619"></trkpt><trkpt lat="51.7777709" lon="10.9929962"></trkpt><trkpt lat="51.7777647" lon="10.9929296"></trkpt><trkpt lat="51.7777641" lon="10.9928436"></trkpt><trkpt lat="51.7778469" lon="10.9926708"></trkpt><trkpt lat="51.7778461" lon="10.9925944"></trkpt><trkpt lat="51.7778215" lon="10.9925237"></trkpt><trkpt lat="51.7778286" lon="10.9924554"></trkpt><trkpt lat="51.7778365" lon="10.9924324"></trkpt><trkpt lat="51.777865" lon="10.9923493"></trkpt><trkpt lat="51.7779399" lon="10.9921555"></trkpt><trkpt lat="51.7779659" lon="10.9920226"></trkpt><trkpt lat="51.7779945" lon="10.9918758"></trkpt><trkpt lat="51.7780177" lon="10.9917133"></trkpt><trkpt lat="51.7780399" lon="10.9915787"></trkpt><trkpt lat="51.7780552" lon="10.9914622"></trkpt><trkpt lat="51.77807373127129" lon="10.991383639561375"></trkpt><trkpt lat="51.7780857" lon="10.9913329"></trkpt><trkpt lat="51.7781262" lon="10.9911749"></trkpt><trkpt lat="51.7781944" lon="10.9910477"></trkpt><trkpt lat="51.7782487" lon="10.9909466"></trkpt><trkpt lat="51.7783079" lon="10.9908362"></trkpt><trkpt lat="51.7784073" lon="10.9906681"></trkpt><trkpt lat="51.7785204" lon="10.9902886"></trkpt><trkpt lat="51.7785884" lon="10.9899878"></trkpt><trkpt lat="51.7786502" lon="10.9896387"></trkpt><trkpt lat="51.7786696" lon="10.9894891"></trkpt><trkpt lat="51.7787079" lon="10.989254"></trkpt><trkpt lat="51.7787582" lon="10.9890335"></trkpt><trkpt lat="51.77880956648832" lon="10.988793908213642"></trkpt><trkpt lat="51.778816" lon="10.9887639"></trkpt><trkpt lat="51.7788567" lon="10.9885672"></trkpt><trkpt lat="51.7789111" lon="10.9882294"></trkpt><trkpt lat="51.7789329" lon="10.9880147"></trkpt><trkpt lat="51.7789604" lon="10.9876379"></trkpt><trkpt lat="51.7789795" lon="10.9874201"></trkpt><trkpt lat="51.7789906" lon="10.9873311"></trkpt><trkpt lat="51.7790159" lon="10.9871445"></trkpt><trkpt lat="51.7790232" lon="10.9870909"></trkpt><trkpt lat="51.7790348" lon="10.9867479"></trkpt><trkpt lat="51.7790828" lon="10.9865004"></trkpt><trkpt lat="51.7792097" lon="10.9860937"></trkpt><trkpt lat="51.779262" lon="10.9859678"></trkpt><trkpt lat="51.77925791993206" lon="10.986007178837587"></trkpt><trkpt lat="51.779262" lon="10.9859678"></trkpt><trkpt lat="51.7792995" lon="10.9858054"></trkpt><trkpt lat="51.7795001" lon="10.9853794"></trkpt><trkpt lat="51.7795815" lon="10.9852117"></trkpt><trkpt lat="51.7797006" lon="10.9849581"></trkpt><trkpt lat="51.7797947" lon="10.9848179"></trkpt><trkpt lat="51.779961" lon="10.9845981"></trkpt><trkpt lat="51.7801005" lon="10.9843185"></trkpt><trkpt lat="51.7801928" lon="10.9841086"></trkpt><trkpt lat="51.7802493" lon="10.9839673"></trkpt><trkpt lat="51.7803115" lon="10.9838375"></trkpt><trkpt lat="51.78031425477831" lon="10.983735496680875"></trkpt><trkpt lat="51.7803151" lon="10.9837042"></trkpt><trkpt lat="51.7803487" lon="10.9836753"></trkpt><trkpt lat="51.7804172" lon="10.9836032"></trkpt><trkpt lat="51.7804314" lon="10.9835158"></trkpt><trkpt lat="51.7804769" lon="10.9834284"></trkpt><trkpt lat="51.7805691" lon="10.9831387"></trkpt><trkpt lat="51.7806844" lon="10.9828863"></trkpt><trkpt lat="51.7807652" lon="10.9826813"></trkpt><trkpt lat="51.780941" lon="10.9823707"></trkpt><trkpt lat="51.7811669" lon="10.9821329"></trkpt><trkpt lat="51.78149913688763" lon="10.98155283388744"></trkpt><trkpt lat="51.78149913688763" lon="10.981552833887438"></trkpt><trkpt lat="51.78149913688763" lon="10.98155283388744"></trkpt><trkpt lat="51.781518" lon="10.9815199"></trkpt><trkpt lat="51.7815379" lon="10.9814853"></trkpt><trkpt lat="51.7816491" lon="10.9812229"></trkpt><trkpt lat="51.7816685" lon="10.9809785"></trkpt><trkpt lat="51.781737" lon="10.9807075"></trkpt><trkpt lat="51.7818532" lon="10.9805787"></trkpt><trkpt lat="51.7820556" lon="10.9804339"></trkpt><trkpt lat="51.7821403" lon="10.9801859"></trkpt><trkpt lat="51.782256" lon="10.9801009"></trkpt><trkpt lat="51.7823293" lon="10.9799071"></trkpt><trkpt lat="51.7823817" lon="10.9797733"></trkpt><trkpt lat="51.7824305" lon="10.9795652"></trkpt><trkpt lat="51.7824802" lon="10.9794215"></trkpt><trkpt lat="51.782513393079036" lon="10.979325422784989"></trkpt><trkpt lat="51.782513393079036" lon="10.979325422784987"></trkpt><trkpt lat="51.782513393079036" lon="10.979325422784989"></trkpt><trkpt lat="51.7825238" lon="10.9792953"></trkpt><trkpt lat="51.7825739" lon="10.9791894"></trkpt><trkpt lat="51.7826213" lon="10.979046"></trkpt><trkpt lat="51.7826435" lon="10.9788771"></trkpt><trkpt lat="51.7826757" lon="10.9787687"></trkpt><trkpt lat="51.7827127" lon="10.9786427"></trkpt><trkpt lat="51.7827268" lon="10.9784704"></trkpt><trkpt lat="51.782757" lon="10.9782588"></trkpt><trkpt lat="51.7828427" lon="10.9779596"></trkpt><trkpt lat="51.7829159" lon="10.977696"></trkpt><trkpt lat="51.7830526" lon="10.9773461"></trkpt><trkpt lat="51.7831173" lon="10.9772206"></trkpt><trkpt lat="51.7831829" lon="10.9769839"></trkpt><trkpt lat="51.78326369181665" lon="10.976715088651375"></trkpt><trkpt lat="51.78326369181665" lon="10.976715088651373"></trkpt><trkpt lat="51.78326369181665" lon="10.976715088651375"></trkpt><trkpt lat="51.7833571" lon="10.9764043"></trkpt><trkpt lat="51.7833645" lon="10.9762185"></trkpt><trkpt lat="51.7834257" lon="10.9760571"></trkpt><trkpt lat="51.7835068" lon="10.9758734"></trkpt><trkpt lat="51.7836141" lon="10.9755683"></trkpt><trkpt lat="51.7837378" lon="10.9753386"></trkpt><trkpt lat="51.7837859" lon="10.9752495"></trkpt><trkpt lat="51.783916" lon="10.9750548"></trkpt><trkpt lat="51.7840302" lon="10.974694"></trkpt><trkpt lat="51.7841738" lon="10.9743675"></trkpt><trkpt lat="51.78420714939555" lon="10.9742764275794"></trkpt><trkpt lat="51.78420714939555" lon="10.974276427579401"></trkpt><trkpt lat="51.78420714939555" lon="10.9742764275794"></trkpt><trkpt lat="51.7843057" lon="10.9740073"></trkpt><trkpt lat="51.7844086" lon="10.9737338"></trkpt><trkpt lat="51.7844579" lon="10.9735887"></trkpt><trkpt lat="51.7845347" lon="10.9732134"></trkpt><trkpt lat="51.7846243" lon="10.9729291"></trkpt><trkpt lat="51.7847105" lon="10.9726394"></trkpt><trkpt lat="51.7847862" lon="10.9724414"></trkpt><trkpt lat="51.7848005" lon="10.9724039"></trkpt><trkpt lat="51.7848835" lon="10.9721303"></trkpt><trkpt lat="51.7849254" lon="10.9718348"></trkpt><trkpt lat="51.78497177413823" lon="10.971662096312794"></trkpt><trkpt lat="51.78497177413823" lon="10.971662096312793"></trkpt><trkpt lat="51.78497177413823" lon="10.971662096312794"></trkpt><trkpt lat="51.7850269" lon="10.9714568"></trkpt><trkpt lat="51.78512" lon="10.9711112"></trkpt><trkpt lat="51.7852166" lon="10.9708518"></trkpt><trkpt lat="51.7852276" lon="10.9707469"></trkpt><trkpt lat="51.7852739" lon="10.9706641"></trkpt><trkpt lat="51.785321" lon="10.9704915"></trkpt><trkpt lat="51.7853389" lon="10.9704259"></trkpt><trkpt lat="51.7853498" lon="10.9702254"></trkpt><trkpt lat="51.7853264" lon="10.9700179"></trkpt><trkpt lat="51.7853421" lon="10.969704"></trkpt><trkpt lat="51.7853609" lon="10.9694803"></trkpt><trkpt lat="51.7853908" lon="10.9692115"></trkpt><trkpt lat="51.78539441776897" lon="10.968910042443309"></trkpt><trkpt lat="51.785396" lon="10.9687782"></trkpt><trkpt lat="51.7854566" lon="10.9685558"></trkpt><trkpt lat="51.7855374" lon="10.968328"></trkpt><trkpt lat="51.7856319" lon="10.9679782"></trkpt><trkpt lat="51.7856998" lon="10.9677517"></trkpt><trkpt lat="51.7857544" lon="10.9675662"></trkpt><trkpt lat="51.7858717" lon="10.9672895"></trkpt><trkpt lat="51.785851" lon="10.9672625"></trkpt><trkpt lat="51.7858084" lon="10.9672072"></trkpt><trkpt lat="51.7857369" lon="10.9671247"></trkpt><trkpt lat="51.7856846" lon="10.9670816"></trkpt><trkpt lat="51.7856932" lon="10.9670279"></trkpt><trkpt lat="51.7856842" lon="10.9669891"></trkpt><trkpt lat="51.7856578" lon="10.9669302"></trkpt><trkpt lat="51.7855639" lon="10.9668306"></trkpt><trkpt lat="51.7855028" lon="10.9667795"></trkpt><trkpt lat="51.7854608" lon="10.9667422"></trkpt><trkpt lat="51.7854263" lon="10.9667015"></trkpt><trkpt lat="51.7853983" lon="10.9666502"></trkpt><trkpt lat="51.78540244578233" lon="10.966596212701202"></trkpt><trkpt lat="51.7854073" lon="10.966533"></trkpt><trkpt lat="51.7854857" lon="10.9662479"></trkpt><trkpt lat="51.7856151" lon="10.9657887"></trkpt><trkpt lat="51.7856535" lon="10.965647"></trkpt><trkpt lat="51.7857486" lon="10.9652567"></trkpt><trkpt lat="51.7857664" lon="10.9651774"></trkpt><trkpt lat="51.7857689" lon="10.965108"></trkpt><trkpt lat="51.7857481" lon="10.9649056"></trkpt><trkpt lat="51.7857157" lon="10.964522"></trkpt><trkpt lat="51.785724" lon="10.9644071"></trkpt><trkpt lat="51.785768" lon="10.9642834"></trkpt><trkpt lat="51.78595450008318" lon="10.963945648990252"></trkpt><trkpt lat="51.78595450008318" lon="10.963945648990254"></trkpt><trkpt lat="51.78595450008318" lon="10.963945648990252"></trkpt><trkpt lat="51.7859717" lon="10.9639145"></trkpt><trkpt lat="51.7861422" lon="10.9635779"></trkpt><trkpt lat="51.7864205" lon="10.9630333"></trkpt><trkpt lat="51.7865936" lon="10.9626439"></trkpt><trkpt lat="51.7867134" lon="10.9623434"></trkpt><trkpt lat="51.7867485" lon="10.9622553"></trkpt><trkpt lat="51.7867784" lon="10.9621641"></trkpt><trkpt lat="51.7867928" lon="10.9621227"></trkpt><trkpt lat="51.7868187" lon="10.9620766"></trkpt><trkpt lat="51.7868027" lon="10.9620347"></trkpt><trkpt lat="51.7867918" lon="10.9620058"></trkpt><trkpt lat="51.7867673" lon="10.9619412"></trkpt><trkpt lat="51.7869051" lon="10.961783"></trkpt><trkpt lat="51.7869584" lon="10.96173"></trkpt><trkpt lat="51.7869855" lon="10.9617005"></trkpt><trkpt lat="51.7870132" lon="10.9616683"></trkpt><trkpt lat="51.7870175" lon="10.9616645"></trkpt><trkpt lat="51.78702083572471" lon="10.961661618556862"></trkpt><trkpt lat="51.78702083572471" lon="10.961661618556864"></trkpt><trkpt lat="51.78702083572471" lon="10.961661618556862"></trkpt><trkpt lat="51.7870432" lon="10.9616423"></trkpt><trkpt lat="51.7870731" lon="10.9616166"></trkpt><trkpt lat="51.7870811" lon="10.9616097"></trkpt><trkpt lat="51.7871036" lon="10.9615925"></trkpt><trkpt lat="51.7871497" lon="10.9615673"></trkpt><trkpt lat="51.787214" lon="10.9615445"></trkpt><trkpt lat="51.7872671" lon="10.9615351"></trkpt><trkpt lat="51.7872858" lon="10.9615335"></trkpt><trkpt lat="51.7872875" lon="10.9614553"></trkpt><trkpt lat="51.7872928" lon="10.9614131"></trkpt><trkpt lat="51.7873186" lon="10.9613541"></trkpt><trkpt lat="51.7873597" lon="10.9612912"></trkpt><trkpt lat="51.7875508" lon="10.9611187"></trkpt><trkpt lat="51.7876321" lon="10.9610421"></trkpt><trkpt lat="51.7882564" lon="10.9604545"></trkpt><trkpt lat="51.7881035" lon="10.9602363"></trkpt><trkpt lat="51.78805994221469" lon="10.96016802733449"></trkpt></trkseg></trk></gpx>
