<?xml version="1.0" encoding="UTF-8"?>
<gpx version="1.1" creator="Good Shit" xmlns="http://www.topografix.com/GPX/1/1"><trk><name>Monte Tamaro–Monte Lema traverse — Monte Tamaro–Monte Lema traverse</name><trkseg><trkpt lat="46.1167247415824" lon="8.892979825269911"></trkpt><trkpt lat="46.1166933" lon="8.8929586"></trkpt><trkpt lat="46.1166086" lon="8.8928895"></trkpt><trkpt lat="46.1165391" lon="8.8928292"></trkpt><trkpt lat="46.1164763" lon="8.8927584"></trkpt><trkpt lat="46.1164177" lon="8.8926784"></trkpt><trkpt lat="46.1163124" lon="8.8925238"></trkpt><trkpt lat="46.1162283" lon="8.8923923"></trkpt><trkpt lat="46.1161501" lon="8.8922657"></trkpt><trkpt lat="46.1161131" lon="8.8921888"></trkpt><trkpt lat="46.1160772" lon="8.8921083"></trkpt><trkpt lat="46.1160407" lon="8.8920395"></trkpt><trkpt lat="46.1159926" lon="8.8919818"></trkpt><trkpt lat="46.1159352" lon="8.891929"></trkpt><trkpt lat="46.1158469" lon="8.8918662"></trkpt><trkpt lat="46.1157588" lon="8.8918055"></trkpt><trkpt lat="46.1156832" lon="8.8917695"></trkpt><trkpt lat="46.1155652" lon="8.8917285"></trkpt><trkpt lat="46.1155034" lon="8.8917045"></trkpt><trkpt lat="46.1153649" lon="8.8916297"></trkpt><trkpt lat="46.11526948353589" lon="8.89156683401734"></trkpt><trkpt lat="46.11526948353589" lon="8.891566834017341"></trkpt><trkpt lat="46.11526948353589" lon="8.89156683401734"></trkpt><trkpt lat="46.1151984" lon="8.89152"></trkpt><trkpt lat="46.1150678" lon="8.8914308"></trkpt><trkpt lat="46.1149885" lon="8.891365"></trkpt><trkpt lat="46.1149266" lon="8.8913001"></trkpt><trkpt lat="46.1148411" lon="8.8912145"></trkpt><trkpt lat="46.1147717" lon="8.8911395"></trkpt><trkpt lat="46.1147513" lon="8.8911121"></trkpt><trkpt lat="46.1147355" lon="8.8910814"></trkpt><trkpt lat="46.114725" lon="8.8910485"></trkpt><trkpt lat="46.1147147" lon="8.8909997"></trkpt><trkpt lat="46.1147003" lon="8.8909159"></trkpt><trkpt lat="46.1146952" lon="8.8908493"></trkpt><trkpt lat="46.1146984" lon="8.8907899"></trkpt><trkpt lat="46.1147075" lon="8.890735"></trkpt><trkpt lat="46.1147297" lon="8.8906395"></trkpt><trkpt lat="46.1147788" lon="8.8904323"></trkpt><trkpt lat="46.114813" lon="8.8903157"></trkpt><trkpt lat="46.1148607" lon="8.8901923"></trkpt><trkpt lat="46.1148989" lon="8.8901011"></trkpt><trkpt lat="46.1149116" lon="8.8900411"></trkpt><trkpt lat="46.1149197" lon="8.8899985"></trkpt><trkpt lat="46.1149145" lon="8.8899644"></trkpt><trkpt lat="46.1148944" lon="8.8899207"></trkpt><trkpt lat="46.1148249" lon="8.8898228"></trkpt><trkpt lat="46.1147167" lon="8.8897044"></trkpt><trkpt lat="46.11466285134924" lon="8.889649257502938"></trkpt><trkpt lat="46.1146293" lon="8.8896149"></trkpt><trkpt lat="46.1145823" lon="8.8895732"></trkpt><trkpt lat="46.1145356" lon="8.8895356"></trkpt><trkpt lat="46.1144773" lon="8.8895054"></trkpt><trkpt lat="46.1144226" lon="8.8894832"></trkpt><trkpt lat="46.1142713" lon="8.8894459"></trkpt><trkpt lat="46.1141825" lon="8.8894098"></trkpt><trkpt lat="46.1141285" lon="8.8893826"></trkpt><trkpt lat="46.114086" lon="8.8893562"></trkpt><trkpt lat="46.1140348" lon="8.8893255"></trkpt><trkpt lat="46.1139817" lon="8.8892878"></trkpt><trkpt lat="46.1139064" lon="8.8892256"></trkpt><trkpt lat="46.1138416" lon="8.8891425"></trkpt><trkpt lat="46.1138265" lon="8.8891151"></trkpt><trkpt lat="46.113811" lon="8.8890917"></trkpt><trkpt lat="46.113787" lon="8.8890667"></trkpt><trkpt lat="46.1137467" lon="8.8890352"></trkpt><trkpt lat="46.1135144" lon="8.8888895"></trkpt><trkpt lat="46.1133922" lon="8.8888264"></trkpt><trkpt lat="46.1132501" lon="8.8887651"></trkpt><trkpt lat="46.11303818907859" lon="8.888600083634083"></trkpt><trkpt lat="46.11303818907859" lon="8.888600083634081"></trkpt><trkpt lat="46.11303818907859" lon="8.888600083634083"></trkpt><trkpt lat="46.112927" lon="8.8885135"></trkpt><trkpt lat="46.1128359" lon="8.8884223"></trkpt><trkpt lat="46.1127662" lon="8.8883546"></trkpt><trkpt lat="46.1127153" lon="8.8883237"></trkpt><trkpt lat="46.1126673" lon="8.888301"></trkpt><trkpt lat="46.1125634" lon="8.8882587"></trkpt><trkpt lat="46.1124703" lon="8.8882013"></trkpt><trkpt lat="46.1123946" lon="8.8881255"></trkpt><trkpt lat="46.112322" lon="8.8880461"></trkpt><trkpt lat="46.1122333" lon="8.8879295"></trkpt><trkpt lat="46.1121618" lon="8.8878116"></trkpt><trkpt lat="46.1121052" lon="8.8877006"></trkpt><trkpt lat="46.1120645" lon="8.8876109"></trkpt><trkpt lat="46.1120194" lon="8.8874923"></trkpt><trkpt lat="46.1119911" lon="8.887428"></trkpt><trkpt lat="46.1119696" lon="8.887391"></trkpt><trkpt lat="46.1119246" lon="8.8873092"></trkpt><trkpt lat="46.1119057" lon="8.8872674"></trkpt><trkpt lat="46.11189" lon="8.8872193"></trkpt><trkpt lat="46.1118785" lon="8.8871566"></trkpt><trkpt lat="46.1118694" lon="8.8871004"></trkpt><trkpt lat="46.1118507" lon="8.8869766"></trkpt><trkpt lat="46.11182538567136" lon="8.886860818743243"></trkpt><trkpt lat="46.111789" lon="8.8866944"></trkpt><trkpt lat="46.1117759" lon="8.8866029"></trkpt><trkpt lat="46.1117621" lon="8.8864951"></trkpt><trkpt lat="46.1117528" lon="8.8864459"></trkpt><trkpt lat="46.1117364" lon="8.8863898"></trkpt><trkpt lat="46.1116856" lon="8.8862376"></trkpt><trkpt lat="46.1116685" lon="8.8861593"></trkpt><trkpt lat="46.1116156" lon="8.8859056"></trkpt><trkpt lat="46.1115579" lon="8.8856574"></trkpt><trkpt lat="46.1115496" lon="8.8856141"></trkpt><trkpt lat="46.1115439" lon="8.8855562"></trkpt><trkpt lat="46.1115412" lon="8.8855135"></trkpt><trkpt lat="46.1115435" lon="8.8854617"></trkpt><trkpt lat="46.1115484" lon="8.8854218"></trkpt><trkpt lat="46.1115562" lon="8.8853833"></trkpt><trkpt lat="46.1115661" lon="8.8853495"></trkpt><trkpt lat="46.1115793" lon="8.8853178"></trkpt><trkpt lat="46.1116015" lon="8.8852772"></trkpt><trkpt lat="46.1116424" lon="8.885203"></trkpt><trkpt lat="46.1115749" lon="8.8851421"></trkpt><trkpt lat="46.1115402" lon="8.8849995"></trkpt><trkpt lat="46.1114779" lon="8.8850223"></trkpt><trkpt lat="46.111409" lon="8.8850502"></trkpt><trkpt lat="46.1113772" lon="8.885073"></trkpt><trkpt lat="46.11135676111253" lon="8.885090426840895"></trkpt><trkpt lat="46.1113487" lon="8.8850973"></trkpt><trkpt lat="46.1113285" lon="8.8851207"></trkpt><trkpt lat="46.1113084" lon="8.8851467"></trkpt><trkpt lat="46.1112902" lon="8.8851809"></trkpt><trkpt lat="46.1112771" lon="8.8852173"></trkpt><trkpt lat="46.1112668" lon="8.8852621"></trkpt><trkpt lat="46.1112555" lon="8.8853284"></trkpt><trkpt lat="46.1112552" lon="8.8854424"></trkpt><trkpt lat="46.1112612" lon="8.8856711"></trkpt><trkpt lat="46.1112583" lon="8.8857713"></trkpt><trkpt lat="46.111247" lon="8.8858929"></trkpt><trkpt lat="46.1112215" lon="8.8860205"></trkpt><trkpt lat="46.1112042" lon="8.8860763"></trkpt><trkpt lat="46.1111851" lon="8.8861306"></trkpt><trkpt lat="46.1111709" lon="8.8861549"></trkpt><trkpt lat="46.1111507" lon="8.886178"></trkpt><trkpt lat="46.1111283" lon="8.886181"></trkpt><trkpt lat="46.1111095" lon="8.8861777"></trkpt><trkpt lat="46.1110883" lon="8.886171"></trkpt><trkpt lat="46.1110732" lon="8.8861582"></trkpt><trkpt lat="46.1110578" lon="8.8861335"></trkpt><trkpt lat="46.1110482" lon="8.8861053"></trkpt><trkpt lat="46.1110423" lon="8.8860661"></trkpt><trkpt lat="46.1110378" lon="8.8860161"></trkpt><trkpt lat="46.1110323" lon="8.8858383"></trkpt><trkpt lat="46.1110186" lon="8.8857238"></trkpt><trkpt lat="46.1110147" lon="8.8855861"></trkpt><trkpt lat="46.1110141" lon="8.8854926"></trkpt><trkpt lat="46.1110069" lon="8.8854596"></trkpt><trkpt lat="46.1109948" lon="8.8854332"></trkpt><trkpt lat="46.110979" lon="8.8854171"></trkpt><trkpt lat="46.1109582" lon="8.8854117"></trkpt><trkpt lat="46.1109424" lon="8.8854268"></trkpt><trkpt lat="46.1109339" lon="8.8854497"></trkpt><trkpt lat="46.1109267" lon="8.8854805"></trkpt><trkpt lat="46.1109196" lon="8.8855298"></trkpt><trkpt lat="46.1109058" lon="8.8856633"></trkpt><trkpt lat="46.1108953" lon="8.8858183"></trkpt><trkpt lat="46.11090395150438" lon="8.885919810984749"></trkpt><trkpt lat="46.1109043" lon="8.8859239"></trkpt><trkpt lat="46.1109389" lon="8.8861558"></trkpt><trkpt lat="46.1109275" lon="8.8862554"></trkpt><trkpt lat="46.1109181" lon="8.88635"></trkpt><trkpt lat="46.1109153" lon="8.8864583"></trkpt><trkpt lat="46.110907" lon="8.8865466"></trkpt><trkpt lat="46.1108894" lon="8.8866433"></trkpt><trkpt lat="46.110863" lon="8.8867611"></trkpt><trkpt lat="46.1108563" lon="8.8868283"></trkpt><trkpt lat="46.1108801" lon="8.8869467"></trkpt><trkpt lat="46.1109006" lon="8.8870344"></trkpt><trkpt lat="46.1108943" lon="8.8870991"></trkpt><trkpt lat="46.1108673" lon="8.8871085"></trkpt><trkpt lat="46.1108399" lon="8.8870893"></trkpt><trkpt lat="46.1108107" lon="8.887042"></trkpt><trkpt lat="46.1107264" lon="8.8865151"></trkpt><trkpt lat="46.11062" lon="8.8860962"></trkpt><trkpt lat="46.1105646" lon="8.8858653"></trkpt><trkpt lat="46.1105048" lon="8.8856163"></trkpt><trkpt lat="46.1104786" lon="8.8854294"></trkpt><trkpt lat="46.11047" lon="8.8852364"></trkpt><trkpt lat="46.1104486" lon="8.8850397"></trkpt><trkpt lat="46.1104276" lon="8.8848649"></trkpt><trkpt lat="46.1103953" lon="8.8846946"></trkpt><trkpt lat="46.110388" lon="8.8846475"></trkpt><trkpt lat="46.110375" lon="8.8845631"></trkpt><trkpt lat="46.1103766" lon="8.8843759"></trkpt><trkpt lat="46.1103825" lon="8.8842834"></trkpt><trkpt lat="46.1104285" lon="8.8840964"></trkpt><trkpt lat="46.1104726" lon="8.8838256"></trkpt><trkpt lat="46.1105185" lon="8.8836339"></trkpt><trkpt lat="46.1105255" lon="8.8835708"></trkpt><trkpt lat="46.1105228" lon="8.8835157"></trkpt><trkpt lat="46.1105095" lon="8.8834548"></trkpt><trkpt lat="46.11049355589874" lon="8.88342022080993"></trkpt><trkpt lat="46.1104858" lon="8.8834034"></trkpt><trkpt lat="46.1104082" lon="8.8833065"></trkpt><trkpt lat="46.1101518" lon="8.8831506"></trkpt><trkpt lat="46.1100656" lon="8.8830358"></trkpt><trkpt lat="46.1100443" lon="8.8831129"></trkpt><trkpt lat="46.1100482" lon="8.883153"></trkpt><trkpt lat="46.1101072" lon="8.8832534"></trkpt><trkpt lat="46.1100993" lon="8.8833167"></trkpt><trkpt lat="46.1100315" lon="8.8832952"></trkpt><trkpt lat="46.1099257" lon="8.8831725"></trkpt><trkpt lat="46.1098849" lon="8.8831662"></trkpt><trkpt lat="46.1098999" lon="8.8832288"></trkpt><trkpt lat="46.1099231" lon="8.8832837"></trkpt><trkpt lat="46.1100545" lon="8.8835478"></trkpt><trkpt lat="46.1100689" lon="8.8835919"></trkpt><trkpt lat="46.1100683" lon="8.8836473"></trkpt><trkpt lat="46.110067184198705" lon="8.883653526891088"></trkpt><trkpt lat="46.110067184198705" lon="8.883653526891086"></trkpt><trkpt lat="46.110067184198705" lon="8.883653526891088"></trkpt><trkpt lat="46.110059" lon="8.8836992"></trkpt><trkpt lat="46.1100389" lon="8.8837583"></trkpt><trkpt lat="46.1099957" lon="8.8838264"></trkpt><trkpt lat="46.1097607" lon="8.8840834"></trkpt><trkpt lat="46.1097366" lon="8.8841175"></trkpt><trkpt lat="46.1097151" lon="8.8841609"></trkpt><trkpt lat="46.1097053" lon="8.8842033"></trkpt><trkpt lat="46.109666" lon="8.8844576"></trkpt><trkpt lat="46.1096545" lon="8.8844945"></trkpt><trkpt lat="46.1096394" lon="8.8845169"></trkpt><trkpt lat="46.1096233" lon="8.8845251"></trkpt><trkpt lat="46.1096069" lon="8.88452"></trkpt><trkpt lat="46.1095922" lon="8.8845107"></trkpt><trkpt lat="46.1095845" lon="8.8844914"></trkpt><trkpt lat="46.1095828" lon="8.8844693"></trkpt><trkpt lat="46.1095973" lon="8.8844144"></trkpt><trkpt lat="46.1096251" lon="8.8841382"></trkpt><trkpt lat="46.1096307" lon="8.8840971"></trkpt><trkpt lat="46.1096625" lon="8.8838511"></trkpt><trkpt lat="46.1096648" lon="8.8837935"></trkpt><trkpt lat="46.1096571" lon="8.8837385"></trkpt><trkpt lat="46.1096456" lon="8.8836848"></trkpt><trkpt lat="46.1096265" lon="8.8836377"></trkpt><trkpt lat="46.109373100539834" lon="8.883302633197426"></trkpt><trkpt lat="46.109373100539834" lon="8.883302633197424"></trkpt><trkpt lat="46.109373100539834" lon="8.883302633197426"></trkpt><trkpt lat="46.1093519" lon="8.8832746"></trkpt><trkpt lat="46.1093193" lon="8.8832194"></trkpt><trkpt lat="46.1092969" lon="8.8831513"></trkpt><trkpt lat="46.1092818" lon="8.8830718"></trkpt><trkpt lat="46.1092741" lon="8.8829908"></trkpt><trkpt lat="46.1092746" lon="8.8829144"></trkpt><trkpt lat="46.1092766" lon="8.8828318"></trkpt><trkpt lat="46.1092712" lon="8.8827381"></trkpt><trkpt lat="46.1092262" lon="8.8825468"></trkpt><trkpt lat="46.1092068" lon="8.8825055"></trkpt><trkpt lat="46.1091733" lon="8.8824818"></trkpt><trkpt lat="46.1091429" lon="8.8824861"></trkpt><trkpt lat="46.1091271" lon="8.8825364"></trkpt><trkpt lat="46.1091453" lon="8.8826013"></trkpt><trkpt lat="46.1091673" lon="8.8826534"></trkpt><trkpt lat="46.1091729" lon="8.8827218"></trkpt><trkpt lat="46.1091621" lon="8.8827826"></trkpt><trkpt lat="46.1091409" lon="8.8828517"></trkpt><trkpt lat="46.1090966" lon="8.8829648"></trkpt><trkpt lat="46.1090676" lon="8.8830243"></trkpt><trkpt lat="46.1090481" lon="8.8830917"></trkpt><trkpt lat="46.1090428" lon="8.883174"></trkpt><trkpt lat="46.1090427" lon="8.8832528"></trkpt><trkpt lat="46.1090507" lon="8.8833447"></trkpt><trkpt lat="46.1090694" lon="8.8834601"></trkpt><trkpt lat="46.1090881" lon="8.8835296"></trkpt><trkpt lat="46.1091238" lon="8.8835863"></trkpt><trkpt lat="46.1091611" lon="8.8836568"></trkpt><trkpt lat="46.1091746" lon="8.8837199"></trkpt><trkpt lat="46.1091735" lon="8.8838138"></trkpt><trkpt lat="46.1091647" lon="8.883885"></trkpt><trkpt lat="46.109151143137325" lon="8.883984416992973"></trkpt><trkpt lat="46.1091647" lon="8.883885"></trkpt><trkpt lat="46.1091406" lon="8.8837968"></trkpt><trkpt lat="46.109117" lon="8.8837292"></trkpt><trkpt lat="46.1091018" lon="8.8837032"></trkpt><trkpt lat="46.1089861" lon="8.8836348"></trkpt><trkpt lat="46.1089211" lon="8.8835598"></trkpt><trkpt lat="46.108766" lon="8.8833354"></trkpt><trkpt lat="46.1086654" lon="8.8829702"></trkpt><trkpt lat="46.1086381" lon="8.8829271"></trkpt><trkpt lat="46.1085407" lon="8.8828608"></trkpt><trkpt lat="46.10861876388389" lon="8.883200771846534"></trkpt><trkpt lat="46.1085407" lon="8.8828608"></trkpt><trkpt lat="46.1084975" lon="8.8827535"></trkpt><trkpt lat="46.1083553" lon="8.8824528"></trkpt><trkpt lat="46.1083485" lon="8.8824228"></trkpt><trkpt lat="46.1083555" lon="8.8822613"></trkpt><trkpt lat="46.1083513" lon="8.8820829"></trkpt><trkpt lat="46.1083245" lon="8.8818851"></trkpt><trkpt lat="46.1083045" lon="8.8817071"></trkpt><trkpt lat="46.1083037" lon="8.8812548"></trkpt><trkpt lat="46.1082992" lon="8.8809281"></trkpt><trkpt lat="46.1082136" lon="8.8809258"></trkpt><trkpt lat="46.1081982" lon="8.8809017"></trkpt><trkpt lat="46.10816636917364" lon="8.880884934446737"></trkpt><trkpt lat="46.1081177" lon="8.8808593"></trkpt><trkpt lat="46.1079645" lon="8.8806209"></trkpt><trkpt lat="46.1079144" lon="8.880395"></trkpt><trkpt lat="46.1078436" lon="8.8802746"></trkpt><trkpt lat="46.1078165" lon="8.8801061"></trkpt><trkpt lat="46.1077658" lon="8.8799937"></trkpt><trkpt lat="46.1076631" lon="8.8799061"></trkpt><trkpt lat="46.1076101" lon="8.8798238"></trkpt><trkpt lat="46.1074273" lon="8.8797082"></trkpt><trkpt lat="46.1072695" lon="8.8793215"></trkpt><trkpt lat="46.1072156" lon="8.8791865"></trkpt><trkpt lat="46.1071628" lon="8.879095"></trkpt><trkpt lat="46.10707422655754" lon="8.87894123901513"></trkpt><trkpt lat="46.10707422655754" lon="8.878941239015129"></trkpt><trkpt lat="46.10707422655754" lon="8.87894123901513"></trkpt><trkpt lat="46.1069935" lon="8.8788011"></trkpt><trkpt lat="46.1068745" lon="8.8784249"></trkpt><trkpt lat="46.1067812" lon="8.8782963"></trkpt><trkpt lat="46.1066167" lon="8.8779794"></trkpt><trkpt lat="46.106539" lon="8.8775548"></trkpt><trkpt lat="46.1063837" lon="8.8771692"></trkpt><trkpt lat="46.1063067" lon="8.8768757"></trkpt><trkpt lat="46.106263" lon="8.8767077"></trkpt><trkpt lat="46.106254611713766" lon="8.876701555852682"></trkpt><trkpt lat="46.106186" lon="8.8766513"></trkpt><trkpt lat="46.1060849" lon="8.8765349"></trkpt><trkpt lat="46.1059929" lon="8.8762538"></trkpt><trkpt lat="46.1058667" lon="8.8757348"></trkpt><trkpt lat="46.105823" lon="8.8756874"></trkpt><trkpt lat="46.1057886" lon="8.8756797"></trkpt><trkpt lat="46.1057454" lon="8.8756971"></trkpt><trkpt lat="46.1057098" lon="8.8757128"></trkpt><trkpt lat="46.1056598" lon="8.875742"></trkpt><trkpt lat="46.1055718" lon="8.875579"></trkpt><trkpt lat="46.1054763" lon="8.8751419"></trkpt><trkpt lat="46.1053898" lon="8.8750447"></trkpt><trkpt lat="46.1053666" lon="8.8750066"></trkpt><trkpt lat="46.1053592" lon="8.8749575"></trkpt><trkpt lat="46.1053655" lon="8.8748791"></trkpt><trkpt lat="46.1053604" lon="8.8748255"></trkpt><trkpt lat="46.105349520274984" lon="8.874791984259435"></trkpt><trkpt lat="46.1053393" lon="8.8747605"></trkpt><trkpt lat="46.1052984" lon="8.8746881"></trkpt><trkpt lat="46.1052861" lon="8.8746294"></trkpt><trkpt lat="46.1052873" lon="8.8745777"></trkpt><trkpt lat="46.1052905" lon="8.8744865"></trkpt><trkpt lat="46.1052749" lon="8.8743945"></trkpt><trkpt lat="46.1052201" lon="8.8742478"></trkpt><trkpt lat="46.1051735" lon="8.874193"></trkpt><trkpt lat="46.105141" lon="8.874136"></trkpt><trkpt lat="46.1051161" lon="8.8740644"></trkpt><trkpt lat="46.1051067" lon="8.8739427"></trkpt><trkpt lat="46.1050924" lon="8.8738176"></trkpt><trkpt lat="46.10508" lon="8.8737141"></trkpt><trkpt lat="46.1050854" lon="8.8736566"></trkpt><trkpt lat="46.1051099" lon="8.8735875"></trkpt><trkpt lat="46.1051027" lon="8.8735436"></trkpt><trkpt lat="46.1049811" lon="8.8731777"></trkpt><trkpt lat="46.1049423" lon="8.8730855"></trkpt><trkpt lat="46.1049053" lon="8.8730251"></trkpt><trkpt lat="46.1048844" lon="8.8729638"></trkpt><trkpt lat="46.1048702" lon="8.8729142"></trkpt><trkpt lat="46.1048707" lon="8.8728743"></trkpt><trkpt lat="46.1048714" lon="8.872838"></trkpt><trkpt lat="46.1048671" lon="8.8727878"></trkpt><trkpt lat="46.1048542" lon="8.872733"></trkpt><trkpt lat="46.104833" lon="8.8726809"></trkpt><trkpt lat="46.1048177" lon="8.8726373"></trkpt><trkpt lat="46.10479659934939" lon="8.872474908649243"></trkpt><trkpt lat="46.104795" lon="8.8724626"></trkpt><trkpt lat="46.1047681" lon="8.8723579"></trkpt><trkpt lat="46.1047606" lon="8.8722708"></trkpt><trkpt lat="46.1047812" lon="8.8720114"></trkpt><trkpt lat="46.1046726" lon="8.8718001"></trkpt><trkpt lat="46.1046402" lon="8.8717084"></trkpt><trkpt lat="46.1045829" lon="8.871611"></trkpt><trkpt lat="46.1045273" lon="8.8715145"></trkpt><trkpt lat="46.1045024" lon="8.8714856"></trkpt><trkpt lat="46.1044766" lon="8.8714558"></trkpt><trkpt lat="46.104445" lon="8.8714239"></trkpt><trkpt lat="46.1044683" lon="8.8713287"></trkpt><trkpt lat="46.1044797" lon="8.8712762"></trkpt><trkpt lat="46.1044891" lon="8.8711474"></trkpt><trkpt lat="46.104535" lon="8.8710395"></trkpt><trkpt lat="46.1045411" lon="8.8709441"></trkpt><trkpt lat="46.1045923" lon="8.8708183"></trkpt><trkpt lat="46.1046388" lon="8.8707361"></trkpt><trkpt lat="46.1046728" lon="8.8707129"></trkpt><trkpt lat="46.1047382" lon="8.8706554"></trkpt><trkpt lat="46.1047563" lon="8.8706259"></trkpt><trkpt lat="46.1047392" lon="8.8706101"></trkpt><trkpt lat="46.1047105" lon="8.8706123"></trkpt><trkpt lat="46.104685" lon="8.8706021"></trkpt><trkpt lat="46.1046646" lon="8.8705734"></trkpt><trkpt lat="46.1046616" lon="8.8704547"></trkpt><trkpt lat="46.1046191" lon="8.8704739"></trkpt><trkpt lat="46.10461658196749" lon="8.870419006891355"></trkpt><trkpt lat="46.1046046" lon="8.8701578"></trkpt><trkpt lat="46.1046051" lon="8.8698453"></trkpt><trkpt lat="46.1045863" lon="8.8695151"></trkpt><trkpt lat="46.1045887" lon="8.8692598"></trkpt><trkpt lat="46.1045587" lon="8.8690298"></trkpt><trkpt lat="46.1045324" lon="8.868825"></trkpt><trkpt lat="46.1045235" lon="8.8687373"></trkpt><trkpt lat="46.1044736" lon="8.8686418"></trkpt><trkpt lat="46.1044778" lon="8.8684844"></trkpt><trkpt lat="46.1044225" lon="8.8683584"></trkpt><trkpt lat="46.1044119" lon="8.8682836"></trkpt><trkpt lat="46.1044161" lon="8.8682059"></trkpt><trkpt lat="46.1043776" lon="8.868061"></trkpt><trkpt lat="46.1043611" lon="8.867947"></trkpt><trkpt lat="46.10436675036232" lon="8.867931023923594"></trkpt><trkpt lat="46.10436675036232" lon="8.867931023923596"></trkpt><trkpt lat="46.10436675036232" lon="8.867931023923594"></trkpt><trkpt lat="46.1044092" lon="8.867811"></trkpt><trkpt lat="46.1043963" lon="8.8677483"></trkpt><trkpt lat="46.10436" lon="8.8677211"></trkpt><trkpt lat="46.1043864" lon="8.867642"></trkpt><trkpt lat="46.1043504" lon="8.8675385"></trkpt><trkpt lat="46.1043115" lon="8.8674414"></trkpt><trkpt lat="46.1042207" lon="8.8669834"></trkpt><trkpt lat="46.1041715" lon="8.8668494"></trkpt><trkpt lat="46.1041506" lon="8.8667916"></trkpt><trkpt lat="46.104133" lon="8.8667637"></trkpt><trkpt lat="46.104092" lon="8.8666855"></trkpt><trkpt lat="46.1040641" lon="8.8666106"></trkpt><trkpt lat="46.1040204" lon="8.8664751"></trkpt><trkpt lat="46.1039814" lon="8.8664144"></trkpt><trkpt lat="46.1039607" lon="8.86629"></trkpt><trkpt lat="46.1039426" lon="8.8662109"></trkpt><trkpt lat="46.1038999" lon="8.8661691"></trkpt><trkpt lat="46.1038397" lon="8.8660025"></trkpt><trkpt lat="46.1037493" lon="8.8660473"></trkpt><trkpt lat="46.1036742" lon="8.8660227"></trkpt><trkpt lat="46.1036164" lon="8.8660665"></trkpt><trkpt lat="46.10359678580008" lon="8.866074722114108"></trkpt><trkpt lat="46.1035768" lon="8.8660831"></trkpt><trkpt lat="46.1036178" lon="8.8661408"></trkpt><trkpt lat="46.1036206" lon="8.866187"></trkpt><trkpt lat="46.1035083" lon="8.8661532"></trkpt><trkpt lat="46.1034097" lon="8.8662041"></trkpt><trkpt lat="46.1033565" lon="8.8661909"></trkpt><trkpt lat="46.1032714" lon="8.8662174"></trkpt><trkpt lat="46.1031375" lon="8.8662013"></trkpt><trkpt lat="46.1030678" lon="8.8662201"></trkpt><trkpt lat="46.1029778" lon="8.8662632"></trkpt><trkpt lat="46.1028973" lon="8.8663049"></trkpt><trkpt lat="46.1027753" lon="8.8662793"></trkpt><trkpt lat="46.1025356" lon="8.8662501"></trkpt><trkpt lat="46.1025568" lon="8.8663235"></trkpt><trkpt lat="46.1025037" lon="8.8663152"></trkpt><trkpt lat="46.1025195" lon="8.8663757"></trkpt><trkpt lat="46.1024602" lon="8.8663333"></trkpt><trkpt lat="46.1024421" lon="8.8663926"></trkpt><trkpt lat="46.1023979" lon="8.8663627"></trkpt><trkpt lat="46.1023362" lon="8.8662289"></trkpt><trkpt lat="46.1023211" lon="8.8663076"></trkpt><trkpt lat="46.102315" lon="8.8663766"></trkpt><trkpt lat="46.1022756" lon="8.8664112"></trkpt><trkpt lat="46.1022204" lon="8.8663883"></trkpt><trkpt lat="46.102219261865706" lon="8.866483728183223"></trkpt><trkpt lat="46.1022191" lon="8.8664973"></trkpt><trkpt lat="46.1021671" lon="8.8664647"></trkpt><trkpt lat="46.1021523" lon="8.8665109"></trkpt><trkpt lat="46.1020896" lon="8.8665193"></trkpt><trkpt lat="46.1020233" lon="8.8665848"></trkpt><trkpt lat="46.1020646" lon="8.8666527"></trkpt><trkpt lat="46.1020005" lon="8.866657"></trkpt><trkpt lat="46.1020565" lon="8.8667672"></trkpt><trkpt lat="46.1019759" lon="8.8667588"></trkpt><trkpt lat="46.1019327" lon="8.8667877"></trkpt><trkpt lat="46.1018742" lon="8.8668385"></trkpt><trkpt lat="46.1018428" lon="8.866862"></trkpt><trkpt lat="46.1017669" lon="8.866838"></trkpt><trkpt lat="46.1017255" lon="8.866838"></trkpt><trkpt lat="46.1016552" lon="8.8668819"></trkpt><trkpt lat="46.101609" lon="8.8668957"></trkpt><trkpt lat="46.1015274" lon="8.866873"></trkpt><trkpt lat="46.1014554" lon="8.8669592"></trkpt><trkpt lat="46.101401" lon="8.8669399"></trkpt><trkpt lat="46.1013745" lon="8.8669687"></trkpt><trkpt lat="46.1012534" lon="8.866973"></trkpt><trkpt lat="46.1011997" lon="8.8670092"></trkpt><trkpt lat="46.1011031" lon="8.8670843"></trkpt><trkpt lat="46.1009662" lon="8.8670935"></trkpt><trkpt lat="46.1008315" lon="8.8671264"></trkpt><trkpt lat="46.10082530411433" lon="8.867122774840453"></trkpt><trkpt lat="46.10082530411433" lon="8.867122774840455"></trkpt><trkpt lat="46.10082530411433" lon="8.867122774840453"></trkpt><trkpt lat="46.1006182" lon="8.8670016"></trkpt><trkpt lat="46.1005237" lon="8.8671201"></trkpt><trkpt lat="46.1004508" lon="8.8671597"></trkpt><trkpt lat="46.1003933" lon="8.8672855"></trkpt><trkpt lat="46.100285" lon="8.8671615"></trkpt><trkpt lat="46.1002173" lon="8.8672949"></trkpt><trkpt lat="46.1002036" lon="8.8674762"></trkpt><trkpt lat="46.100075" lon="8.8673077"></trkpt><trkpt lat="46.1000222" lon="8.8674787"></trkpt><trkpt lat="46.0999992" lon="8.8676159"></trkpt><trkpt lat="46.0999077" lon="8.867468"></trkpt><trkpt lat="46.0998411" lon="8.8676708"></trkpt><trkpt lat="46.0997679" lon="8.867614"></trkpt><trkpt lat="46.0996909" lon="8.8675213"></trkpt><trkpt lat="46.0996268" lon="8.8676151"></trkpt><trkpt lat="46.0995932" lon="8.8677586"></trkpt><trkpt lat="46.0995294" lon="8.8677027"></trkpt><trkpt lat="46.0994047" lon="8.8676285"></trkpt><trkpt lat="46.0992424" lon="8.8676514"></trkpt><trkpt lat="46.0990532" lon="8.8676414"></trkpt><trkpt lat="46.0988662" lon="8.86767"></trkpt><trkpt lat="46.0986877" lon="8.867674"></trkpt><trkpt lat="46.0985868" lon="8.8676739"></trkpt><trkpt lat="46.0984143" lon="8.8676683"></trkpt><trkpt lat="46.0983162" lon="8.8676649"></trkpt><trkpt lat="46.09830083616325" lon="8.867662383685857"></trkpt><trkpt lat="46.0982411" lon="8.8676526"></trkpt><trkpt lat="46.0979919" lon="8.867492"></trkpt><trkpt lat="46.0978792" lon="8.867449"></trkpt><trkpt lat="46.0977926" lon="8.8674062"></trkpt><trkpt lat="46.0977195" lon="8.8674248"></trkpt><trkpt lat="46.0976058" lon="8.8673855"></trkpt><trkpt lat="46.0975316" lon="8.8674084"></trkpt><trkpt lat="46.0974801" lon="8.8673799"></trkpt><trkpt lat="46.0974019" lon="8.8673861"></trkpt><trkpt lat="46.0971465" lon="8.8672081"></trkpt><trkpt lat="46.0969299" lon="8.8670523"></trkpt><trkpt lat="46.09662227987043" lon="8.866961879186293"></trkpt><trkpt lat="46.096605" lon="8.8669568"></trkpt><trkpt lat="46.0963286" lon="8.8667888"></trkpt><trkpt lat="46.0961474" lon="8.8666214"></trkpt><trkpt lat="46.0958656" lon="8.8664192"></trkpt><trkpt lat="46.0956168" lon="8.8662888"></trkpt><trkpt lat="46.0953952" lon="8.8662458"></trkpt><trkpt lat="46.0952966" lon="8.8662223"></trkpt><trkpt lat="46.0951474" lon="8.8661388"></trkpt><trkpt lat="46.094986033995696" lon="8.866025492599498"></trkpt><trkpt lat="46.094986033995696" lon="8.866025492599496"></trkpt><trkpt lat="46.094986033995696" lon="8.866025492599498"></trkpt><trkpt lat="46.0949728" lon="8.8660162"></trkpt><trkpt lat="46.0942697" lon="8.865732"></trkpt><trkpt lat="46.0939381" lon="8.8655694"></trkpt><trkpt lat="46.0937129" lon="8.8654768"></trkpt><trkpt lat="46.0935094" lon="8.8653633"></trkpt><trkpt lat="46.09329861690991" lon="8.865175816075565"></trkpt><trkpt lat="46.09329861690991" lon="8.865175816075567"></trkpt><trkpt lat="46.09329861690991" lon="8.865175816075565"></trkpt><trkpt lat="46.0932968" lon="8.8651742"></trkpt><trkpt lat="46.0932136" lon="8.8651233"></trkpt><trkpt lat="46.0931457" lon="8.8650724"></trkpt><trkpt lat="46.0929928" lon="8.8649906"></trkpt><trkpt lat="46.092858" lon="8.8649772"></trkpt><trkpt lat="46.0927332" lon="8.864852"></trkpt><trkpt lat="46.0926518" lon="8.8647385"></trkpt><trkpt lat="46.0925762" lon="8.8646902"></trkpt><trkpt lat="46.0923279" lon="8.8646055"></trkpt><trkpt lat="46.0921135" lon="8.8645898"></trkpt><trkpt lat="46.091891" lon="8.8644946"></trkpt><trkpt lat="46.091806" lon="8.8644398"></trkpt><trkpt lat="46.091641704269755" lon="8.8643401282004"></trkpt><trkpt lat="46.0914577" lon="8.8642285"></trkpt><trkpt lat="46.091146" lon="8.8641742"></trkpt><trkpt lat="46.0910572" lon="8.8641936"></trkpt><trkpt lat="46.090645" lon="8.8642521"></trkpt><trkpt lat="46.0903516" lon="8.864169"></trkpt><trkpt lat="46.0902247" lon="8.8642078"></trkpt><trkpt lat="46.0901715" lon="8.8642328"></trkpt><trkpt lat="46.0901056" lon="8.8642115"></trkpt><trkpt lat="46.08996" lon="8.8642338"></trkpt><trkpt lat="46.08988456146414" lon="8.864237844490267"></trkpt><trkpt lat="46.0896597" lon="8.8642499"></trkpt><trkpt lat="46.0894105" lon="8.8641177"></trkpt><trkpt lat="46.0891401" lon="8.8640053"></trkpt><trkpt lat="46.0886982" lon="8.8637701"></trkpt><trkpt lat="46.0883512" lon="8.8634048"></trkpt><trkpt lat="46.08824242507792" lon="8.863334203342513"></trkpt><trkpt lat="46.0881378" lon="8.8632663"></trkpt><trkpt lat="46.087775" lon="8.863117"></trkpt><trkpt lat="46.0874298" lon="8.862733"></trkpt><trkpt lat="46.0873081" lon="8.8625444"></trkpt><trkpt lat="46.0871996" lon="8.86253"></trkpt><trkpt lat="46.0869143" lon="8.8626733"></trkpt><trkpt lat="46.0867363" lon="8.8627819"></trkpt><trkpt lat="46.086672725493074" lon="8.86278130584573"></trkpt><trkpt lat="46.0864795" lon="8.8627795"></trkpt><trkpt lat="46.0863057" lon="8.8627856"></trkpt><trkpt lat="46.086144" lon="8.8626363"></trkpt><trkpt lat="46.0859664" lon="8.8624157"></trkpt><trkpt lat="46.085897" lon="8.8623773"></trkpt><trkpt lat="46.0857789" lon="8.8623243"></trkpt><trkpt lat="46.0856109" lon="8.8620905"></trkpt><trkpt lat="46.0855658" lon="8.8619031"></trkpt><trkpt lat="46.0855508" lon="8.8617461"></trkpt><trkpt lat="46.0854442" lon="8.8614703"></trkpt><trkpt lat="46.08541321680456" lon="8.861422184578407"></trkpt><trkpt lat="46.08541321680456" lon="8.861422184578409"></trkpt><trkpt lat="46.08541321680456" lon="8.861422184578407"></trkpt><trkpt lat="46.0853375" lon="8.8613046"></trkpt><trkpt lat="46.0852569" lon="8.86128"></trkpt><trkpt lat="46.085178" lon="8.8612041"></trkpt><trkpt lat="46.0851309" lon="8.8610588"></trkpt><trkpt lat="46.085006" lon="8.8609425"></trkpt><trkpt lat="46.0847744" lon="8.8607878"></trkpt><trkpt lat="46.0844186" lon="8.8607579"></trkpt><trkpt lat="46.0842972" lon="8.8607685"></trkpt><trkpt lat="46.0841144" lon="8.8607905"></trkpt><trkpt lat="46.08383119607445" lon="8.860649345790467"></trkpt><trkpt lat="46.08383119607445" lon="8.860649345790465"></trkpt><trkpt lat="46.08383119607445" lon="8.860649345790467"></trkpt><trkpt lat="46.0836084" lon="8.8605383"></trkpt><trkpt lat="46.0835005" lon="8.8603345"></trkpt><trkpt lat="46.0835465" lon="8.8601117"></trkpt><trkpt lat="46.0835117" lon="8.8598785"></trkpt><trkpt lat="46.0834298" lon="8.8595513"></trkpt><trkpt lat="46.0833833" lon="8.8591712"></trkpt><trkpt lat="46.0833794" lon="8.8590504"></trkpt><trkpt lat="46.083281" lon="8.858929"></trkpt><trkpt lat="46.0831619" lon="8.8588807"></trkpt><trkpt lat="46.08296488917009" lon="8.85896842358985"></trkpt><trkpt lat="46.08296488917009" lon="8.858968423589852"></trkpt><trkpt lat="46.08296488917009" lon="8.85896842358985"></trkpt><trkpt lat="46.0824511" lon="8.8591972"></trkpt><trkpt lat="46.0822842" lon="8.8592389"></trkpt><trkpt lat="46.0820903" lon="8.8592487"></trkpt><trkpt lat="46.0820085" lon="8.8592029"></trkpt><trkpt lat="46.0819526" lon="8.859106"></trkpt><trkpt lat="46.0816029" lon="8.8586179"></trkpt><trkpt lat="46.081379833862826" lon="8.858551360385217"></trkpt><trkpt lat="46.0813213" lon="8.8585339"></trkpt><trkpt lat="46.081155" lon="8.8585572"></trkpt><trkpt lat="46.0809605" lon="8.8586258"></trkpt><trkpt lat="46.0808188" lon="8.85865"></trkpt><trkpt lat="46.0806266" lon="8.8587338"></trkpt><trkpt lat="46.0803484" lon="8.8588656"></trkpt><trkpt lat="46.0802149" lon="8.8588968"></trkpt><trkpt lat="46.079764" lon="8.8589919"></trkpt><trkpt lat="46.079644419125664" lon="8.858944712741895"></trkpt><trkpt lat="46.0795638" lon="8.8589129"></trkpt><trkpt lat="46.0794075" lon="8.85887"></trkpt><trkpt lat="46.0792634" lon="8.8589268"></trkpt><trkpt lat="46.0791538" lon="8.8588493"></trkpt><trkpt lat="46.0790912" lon="8.858776"></trkpt><trkpt lat="46.0790317" lon="8.8587532"></trkpt><trkpt lat="46.0789521" lon="8.8586681"></trkpt><trkpt lat="46.0787148" lon="8.8584322"></trkpt><trkpt lat="46.0785435" lon="8.8583209"></trkpt><trkpt lat="46.0784407" lon="8.8582961"></trkpt><trkpt lat="46.0783798" lon="8.858241"></trkpt><trkpt lat="46.0782598" lon="8.858162"></trkpt><trkpt lat="46.0781943" lon="8.8581028"></trkpt><trkpt lat="46.0780822" lon="8.8579964"></trkpt><trkpt lat="46.07805262122911" lon="8.857968946705844"></trkpt><trkpt lat="46.0777663" lon="8.8577032"></trkpt><trkpt lat="46.0775524" lon="8.8575573"></trkpt><trkpt lat="46.077407" lon="8.8574332"></trkpt><trkpt lat="46.077216" lon="8.8572494"></trkpt><trkpt lat="46.0766229" lon="8.8568183"></trkpt><trkpt lat="46.076480805949686" lon="8.856729656977945"></trkpt><trkpt lat="46.076480805949686" lon="8.856729656977944"></trkpt><trkpt lat="46.076480805949686" lon="8.856729656977945"></trkpt><trkpt lat="46.0763443" lon="8.8566445"></trkpt><trkpt lat="46.0761325" lon="8.8565367"></trkpt><trkpt lat="46.0760551" lon="8.8564769"></trkpt><trkpt lat="46.0759651" lon="8.8564906"></trkpt><trkpt lat="46.0759088" lon="8.8564893"></trkpt><trkpt lat="46.0757072" lon="8.8564589"></trkpt><trkpt lat="46.0754224" lon="8.8564715"></trkpt><trkpt lat="46.0751308" lon="8.8564548"></trkpt><trkpt lat="46.0747438" lon="8.8564182"></trkpt><trkpt lat="46.074725699941695" lon="8.856412060110333"></trkpt><trkpt lat="46.074725699941695" lon="8.856412060110335"></trkpt><trkpt lat="46.074725699941695" lon="8.856412060110333"></trkpt><trkpt lat="46.0746362" lon="8.8563817"></trkpt><trkpt lat="46.0742614" lon="8.8563438"></trkpt><trkpt lat="46.074069" lon="8.856336"></trkpt><trkpt lat="46.0738882" lon="8.8564031"></trkpt><trkpt lat="46.073424" lon="8.8565681"></trkpt><trkpt lat="46.0730762" lon="8.8566553"></trkpt><trkpt lat="46.0730313" lon="8.8566874"></trkpt><trkpt lat="46.072979826053405" lon="8.856723583837216"></trkpt><trkpt lat="46.0727199" lon="8.8569063"></trkpt><trkpt lat="46.0725488" lon="8.8569284"></trkpt><trkpt lat="46.0721907" lon="8.8569833"></trkpt><trkpt lat="46.0719298" lon="8.8571435"></trkpt><trkpt lat="46.0716985" lon="8.8571657"></trkpt><trkpt lat="46.0715515" lon="8.8572555"></trkpt><trkpt lat="46.0714538" lon="8.8572797"></trkpt><trkpt lat="46.0714059" lon="8.8573146"></trkpt><trkpt lat="46.0713189" lon="8.8574176"></trkpt><trkpt lat="46.07130525372146" lon="8.85742618303864"></trkpt><trkpt lat="46.07130525372146" lon="8.857426183038642"></trkpt><trkpt lat="46.07130525372146" lon="8.85742618303864"></trkpt><trkpt lat="46.0712464" lon="8.8574632"></trkpt><trkpt lat="46.0710588" lon="8.8575383"></trkpt><trkpt lat="46.0709955" lon="8.8575934"></trkpt><trkpt lat="46.0705807" lon="8.8580071"></trkpt><trkpt lat="46.0705337" lon="8.8580726"></trkpt><trkpt lat="46.070389" lon="8.8581425"></trkpt><trkpt lat="46.0703204" lon="8.8581895"></trkpt><trkpt lat="46.0701359" lon="8.8582973"></trkpt><trkpt lat="46.06993" lon="8.8583857"></trkpt><trkpt lat="46.0697373" lon="8.8585435"></trkpt><trkpt lat="46.069710321965175" lon="8.85854747702893"></trkpt><trkpt lat="46.069710321965175" lon="8.858547477028928"></trkpt><trkpt lat="46.069710321965175" lon="8.85854747702893"></trkpt><trkpt lat="46.069565" lon="8.8585689"></trkpt><trkpt lat="46.0695092" lon="8.8585974"></trkpt><trkpt lat="46.0693825" lon="8.8586622"></trkpt><trkpt lat="46.0692721" lon="8.8586948"></trkpt><trkpt lat="46.0690843" lon="8.8588748"></trkpt><trkpt lat="46.0690268" lon="8.8588931"></trkpt><trkpt lat="46.068863" lon="8.8589831"></trkpt><trkpt lat="46.0687841" lon="8.8590423"></trkpt><trkpt lat="46.0687254" lon="8.8590993"></trkpt><trkpt lat="46.068709" lon="8.8591354"></trkpt><trkpt lat="46.0686463" lon="8.8592233"></trkpt><trkpt lat="46.0685019" lon="8.8593497"></trkpt><trkpt lat="46.0683861" lon="8.8594814"></trkpt><trkpt lat="46.0681786" lon="8.8596468"></trkpt><trkpt lat="46.068127334965745" lon="8.859685392778598"></trkpt><trkpt lat="46.0681074" lon="8.8597004"></trkpt><trkpt lat="46.0680249" lon="8.8597446"></trkpt><trkpt lat="46.0679043" lon="8.8598154"></trkpt><trkpt lat="46.0678682" lon="8.8598659"></trkpt><trkpt lat="46.0678409" lon="8.8599162"></trkpt><trkpt lat="46.0676152" lon="8.8602106"></trkpt><trkpt lat="46.0675857" lon="8.8602466"></trkpt><trkpt lat="46.067486" lon="8.8603829"></trkpt><trkpt lat="46.0674448" lon="8.8604696"></trkpt><trkpt lat="46.0673875" lon="8.8605523"></trkpt><trkpt lat="46.0673317" lon="8.8606292"></trkpt><trkpt lat="46.0672876" lon="8.8606954"></trkpt><trkpt lat="46.0672465" lon="8.8607886"></trkpt><trkpt lat="46.067196" lon="8.8608837"></trkpt><trkpt lat="46.0671638" lon="8.8609805"></trkpt><trkpt lat="46.0670835" lon="8.86114"></trkpt><trkpt lat="46.0670685" lon="8.8611947"></trkpt><trkpt lat="46.0670426" lon="8.8612726"></trkpt><trkpt lat="46.0670091" lon="8.8613432"></trkpt><trkpt lat="46.0669385" lon="8.8614787"></trkpt><trkpt lat="46.06692232123179" lon="8.861531015770963"></trkpt><trkpt lat="46.0669141" lon="8.8615576"></trkpt><trkpt lat="46.0668854" lon="8.8616086"></trkpt><trkpt lat="46.066861" lon="8.8616418"></trkpt><trkpt lat="46.0668287" lon="8.8617065"></trkpt><trkpt lat="46.0667996" lon="8.8617804"></trkpt><trkpt lat="46.0667133" lon="8.8619307"></trkpt><trkpt lat="46.0666504" lon="8.8620112"></trkpt><trkpt lat="46.0665939" lon="8.8621069"></trkpt><trkpt lat="46.0665544" lon="8.8621552"></trkpt><trkpt lat="46.0664709" lon="8.8622181"></trkpt><trkpt lat="46.0664251" lon="8.86227"></trkpt><trkpt lat="46.0663709" lon="8.8623361"></trkpt><trkpt lat="46.0663354" lon="8.8623584"></trkpt><trkpt lat="46.066307" lon="8.8623899"></trkpt><trkpt lat="46.0662821" lon="8.862439"></trkpt><trkpt lat="46.0661907" lon="8.8625347"></trkpt><trkpt lat="46.0661623" lon="8.862583"></trkpt><trkpt lat="46.06612" lon="8.862631"></trkpt><trkpt lat="46.0660703" lon="8.8627034"></trkpt><trkpt lat="46.0660068" lon="8.8627552"></trkpt><trkpt lat="46.0658426" lon="8.8628222"></trkpt><trkpt lat="46.0658066" lon="8.8628324"></trkpt><trkpt lat="46.0657485" lon="8.862863"></trkpt><trkpt lat="46.0656813" lon="8.8628686"></trkpt><trkpt lat="46.0656396" lon="8.8628899"></trkpt><trkpt lat="46.0656057" lon="8.8628953"></trkpt><trkpt lat="46.0655735" lon="8.8628891"></trkpt><trkpt lat="46.0655584" lon="8.8628971"></trkpt><trkpt lat="46.0655189" lon="8.8629019"></trkpt><trkpt lat="46.065498265892636" lon="8.862890655103907"></trkpt><trkpt lat="46.0654444" lon="8.8628613"></trkpt><trkpt lat="46.0653971" lon="8.8628467"></trkpt><trkpt lat="46.0653661" lon="8.8628487"></trkpt><trkpt lat="46.065326" lon="8.8628463"></trkpt><trkpt lat="46.065291" lon="8.8628166"></trkpt><trkpt lat="46.0652694" lon="8.8628148"></trkpt><trkpt lat="46.0652307" lon="8.8627864"></trkpt><trkpt lat="46.0652003" lon="8.8627902"></trkpt><trkpt lat="46.065145" lon="8.8627591"></trkpt><trkpt lat="46.0651053" lon="8.8627227"></trkpt><trkpt lat="46.0650636" lon="8.8626779"></trkpt><trkpt lat="46.0649805" lon="8.8626078"></trkpt><trkpt lat="46.0649328" lon="8.8625654"></trkpt><trkpt lat="46.0649136" lon="8.8625568"></trkpt><trkpt lat="46.064878" lon="8.8625321"></trkpt><trkpt lat="46.0648188" lon="8.8624972"></trkpt><trkpt lat="46.0647775" lon="8.8624802"></trkpt><trkpt lat="46.0647309" lon="8.8624459"></trkpt><trkpt lat="46.0647162" lon="8.8624157"></trkpt><trkpt lat="46.0647021" lon="8.862408"></trkpt><trkpt lat="46.0646283" lon="8.8624084"></trkpt><trkpt lat="46.0645527" lon="8.8623857"></trkpt><trkpt lat="46.064486" lon="8.8623479"></trkpt><trkpt lat="46.0644567" lon="8.8623101"></trkpt><trkpt lat="46.0644414" lon="8.8623123"></trkpt><trkpt lat="46.0643576" lon="8.8623337"></trkpt><trkpt lat="46.0643236" lon="8.8623221"></trkpt><trkpt lat="46.0642442" lon="8.8622855"></trkpt><trkpt lat="46.0641914" lon="8.8623033"></trkpt><trkpt lat="46.0641111" lon="8.8623262"></trkpt><trkpt lat="46.0640416" lon="8.8623331"></trkpt><trkpt lat="46.0639449" lon="8.8622996"></trkpt><trkpt lat="46.0638957" lon="8.8622689"></trkpt><trkpt lat="46.0638749" lon="8.862241"></trkpt><trkpt lat="46.063820304101554" lon="8.862212521405528"></trkpt><trkpt lat="46.063820304101554" lon="8.86221252140553"></trkpt><trkpt lat="46.063820304101554" lon="8.862212521405528"></trkpt><trkpt lat="46.0637986" lon="8.8622012"></trkpt><trkpt lat="46.0636916" lon="8.8621093"></trkpt><trkpt lat="46.0636427" lon="8.8620919"></trkpt><trkpt lat="46.0635779" lon="8.8620199"></trkpt><trkpt lat="46.0635345" lon="8.8619876"></trkpt><trkpt lat="46.063499" lon="8.8619497"></trkpt><trkpt lat="46.063481" lon="8.861913"></trkpt><trkpt lat="46.0634642" lon="8.8618732"></trkpt><trkpt lat="46.0634426" lon="8.8618416"></trkpt><trkpt lat="46.0634345" lon="8.8618033"></trkpt><trkpt lat="46.063427" lon="8.8617713"></trkpt><trkpt lat="46.0634155" lon="8.8617166"></trkpt><trkpt lat="46.0634098" lon="8.8616786"></trkpt><trkpt lat="46.0634134" lon="8.8616301"></trkpt><trkpt lat="46.0634258" lon="8.8615648"></trkpt><trkpt lat="46.0634452" lon="8.8615124"></trkpt><trkpt lat="46.0634644" lon="8.8614829"></trkpt><trkpt lat="46.0634661" lon="8.8614466"></trkpt><trkpt lat="46.0634614" lon="8.8614204"></trkpt><trkpt lat="46.0634604" lon="8.8613511"></trkpt><trkpt lat="46.0634552" lon="8.8613019"></trkpt><trkpt lat="46.0634464" lon="8.8612738"></trkpt><trkpt lat="46.0634336" lon="8.8612397"></trkpt><trkpt lat="46.0634233" lon="8.8612029"></trkpt><trkpt lat="46.0634022" lon="8.8611643"></trkpt><trkpt lat="46.0633903" lon="8.8611288"></trkpt><trkpt lat="46.0633588" lon="8.8610929"></trkpt><trkpt lat="46.0633204" lon="8.8610182"></trkpt><trkpt lat="46.0632814" lon="8.860956"></trkpt><trkpt lat="46.063273" lon="8.8609282"></trkpt><trkpt lat="46.0632585" lon="8.8608902"></trkpt><trkpt lat="46.0632134" lon="8.8607858"></trkpt><trkpt lat="46.0631997" lon="8.8607747"></trkpt><trkpt lat="46.0631922" lon="8.8607591"></trkpt><trkpt lat="46.063176" lon="8.8607444"></trkpt><trkpt lat="46.0631677" lon="8.8607222"></trkpt><trkpt lat="46.0631241" lon="8.8606652"></trkpt><trkpt lat="46.0631039" lon="8.8606301"></trkpt><trkpt lat="46.0630939" lon="8.8605896"></trkpt><trkpt lat="46.0630812" lon="8.8605667"></trkpt><trkpt lat="46.0630733" lon="8.8605296"></trkpt><trkpt lat="46.0630658" lon="8.8605167"></trkpt><trkpt lat="46.0630552" lon="8.8604814"></trkpt><trkpt lat="46.0630486" lon="8.8604471"></trkpt><trkpt lat="46.0630547" lon="8.8603831"></trkpt><trkpt lat="46.063073" lon="8.860333"></trkpt><trkpt lat="46.0630845" lon="8.8602778"></trkpt><trkpt lat="46.0630722" lon="8.8602141"></trkpt><trkpt lat="46.063058497610676" lon="8.86015938179195"></trkpt><trkpt lat="46.0630572" lon="8.8601542"></trkpt><trkpt lat="46.0629985" lon="8.8600571"></trkpt><trkpt lat="46.0629961" lon="8.8600234"></trkpt><trkpt lat="46.0629881" lon="8.8599789"></trkpt><trkpt lat="46.0629657" lon="8.8599392"></trkpt><trkpt lat="46.0629533" lon="8.8598783"></trkpt><trkpt lat="46.0629434" lon="8.8598354"></trkpt><trkpt lat="46.0629381" lon="8.85978"></trkpt><trkpt lat="46.0629449" lon="8.8597229"></trkpt><trkpt lat="46.0629381" lon="8.8596722"></trkpt><trkpt lat="46.062935" lon="8.8596117"></trkpt><trkpt lat="46.0629031" lon="8.8595204"></trkpt><trkpt lat="46.0627994" lon="8.8593242"></trkpt><trkpt lat="46.0627566" lon="8.859296"></trkpt><trkpt lat="46.0626728" lon="8.8591391"></trkpt><trkpt lat="46.0625651" lon="8.8588779"></trkpt><trkpt lat="46.0624913" lon="8.8587732"></trkpt><trkpt lat="46.0624776" lon="8.8586964"></trkpt><trkpt lat="46.0623939" lon="8.8585903"></trkpt><trkpt lat="46.0623341" lon="8.8585586"></trkpt><trkpt lat="46.0622733" lon="8.8584862"></trkpt><trkpt lat="46.0622155" lon="8.8584014"></trkpt><trkpt lat="46.062092" lon="8.8582366"></trkpt><trkpt lat="46.0620283611351" lon="8.858136163693821"></trkpt><trkpt lat="46.0620121" lon="8.8581105"></trkpt><trkpt lat="46.0618547" lon="8.8579981"></trkpt><trkpt lat="46.0618108" lon="8.8579249"></trkpt><trkpt lat="46.0616154" lon="8.8577138"></trkpt><trkpt lat="46.0614879" lon="8.8576669"></trkpt><trkpt lat="46.061227" lon="8.8575013"></trkpt><trkpt lat="46.0609441" lon="8.8572706"></trkpt><trkpt lat="46.0608389" lon="8.8572398"></trkpt><trkpt lat="46.0606014" lon="8.8570696"></trkpt><trkpt lat="46.0605447" lon="8.8570683"></trkpt><trkpt lat="46.0604834" lon="8.8570332"></trkpt><trkpt lat="46.06045624892907" lon="8.857009207890194"></trkpt><trkpt lat="46.0603476" lon="8.8569132"></trkpt><trkpt lat="46.0599335" lon="8.8567153"></trkpt><trkpt lat="46.0595604" lon="8.8564779"></trkpt><trkpt lat="46.0593827" lon="8.8564866"></trkpt><trkpt lat="46.0593134" lon="8.8564604"></trkpt><trkpt lat="46.0592324" lon="8.8564309"></trkpt><trkpt lat="46.0591217" lon="8.8564551"></trkpt><trkpt lat="46.0590523" lon="8.8564249"></trkpt><trkpt lat="46.0589909" lon="8.8564457"></trkpt><trkpt lat="46.0589453" lon="8.8564269"></trkpt><trkpt lat="46.0589027" lon="8.8564337"></trkpt><trkpt lat="46.0588476" lon="8.8564425"></trkpt><trkpt lat="46.0588206" lon="8.8564243"></trkpt><trkpt lat="46.0587917" lon="8.856429"></trkpt><trkpt lat="46.058752724325615" lon="8.85644308153397"></trkpt><trkpt lat="46.058752724325615" lon="8.856443081533971"></trkpt><trkpt lat="46.058752724325615" lon="8.85644308153397"></trkpt><trkpt lat="46.0587452" lon="8.8564458"></trkpt><trkpt lat="46.0586015" lon="8.8564455"></trkpt><trkpt lat="46.0585114" lon="8.856435"></trkpt><trkpt lat="46.0584358" lon="8.8563816"></trkpt><trkpt lat="46.0584032" lon="8.8563333"></trkpt><trkpt lat="46.0582747" lon="8.8560326"></trkpt><trkpt lat="46.0581683" lon="8.85585"></trkpt><trkpt lat="46.0580801" lon="8.8557378"></trkpt><trkpt lat="46.0579774" lon="8.8556615"></trkpt><trkpt lat="46.0577997" lon="8.8555501"></trkpt><trkpt lat="46.0576896" lon="8.8553725"></trkpt><trkpt lat="46.0575297" lon="8.855088"></trkpt><trkpt lat="46.0574255" lon="8.8550706"></trkpt><trkpt lat="46.057386983622834" lon="8.855069904942138"></trkpt><trkpt lat="46.0571983" lon="8.8550665"></trkpt><trkpt lat="46.0571183" lon="8.8550826"></trkpt><trkpt lat="46.0569964" lon="8.8551866"></trkpt><trkpt lat="46.0569289" lon="8.8552925"></trkpt><trkpt lat="46.0568805" lon="8.8553347"></trkpt><trkpt lat="46.0567368" lon="8.8553837"></trkpt><trkpt lat="46.0566805" lon="8.85544"></trkpt><trkpt lat="46.0566233" lon="8.8554866"></trkpt><trkpt lat="46.056425" lon="8.8554651"></trkpt><trkpt lat="46.0562557" lon="8.8554893"></trkpt><trkpt lat="46.0560764" lon="8.8555425"></trkpt><trkpt lat="46.0560183" lon="8.8555013"></trkpt><trkpt lat="46.0559206" lon="8.8554853"></trkpt><trkpt lat="46.0558452" lon="8.8554477"></trkpt><trkpt lat="46.05570845131072" lon="8.855383678026374"></trkpt><trkpt lat="46.05570845131072" lon="8.855383678026373"></trkpt><trkpt lat="46.05570845131072" lon="8.855383678026374"></trkpt><trkpt lat="46.0556991" lon="8.8553793"></trkpt><trkpt lat="46.0555306" lon="8.8553722"></trkpt><trkpt lat="46.0553419" lon="8.8553435"></trkpt><trkpt lat="46.0552901" lon="8.8553121"></trkpt><trkpt lat="46.0552165" lon="8.8552235"></trkpt><trkpt lat="46.055195" lon="8.8552093"></trkpt><trkpt lat="46.0549807" lon="8.8548019"></trkpt><trkpt lat="46.0548253" lon="8.8546509"></trkpt><trkpt lat="46.0546197" lon="8.8542902"></trkpt><trkpt lat="46.05437034468918" lon="8.853954630484736"></trkpt><trkpt lat="46.05437034468918" lon="8.853954630484738"></trkpt><trkpt lat="46.05437034468918" lon="8.853954630484736"></trkpt><trkpt lat="46.0543351" lon="8.8539072"></trkpt><trkpt lat="46.0538847" lon="8.8536484"></trkpt><trkpt lat="46.05377" lon="8.8535127"></trkpt><trkpt lat="46.0533932" lon="8.8528932"></trkpt><trkpt lat="46.0534045" lon="8.8528092"></trkpt><trkpt lat="46.0533786" lon="8.8526741"></trkpt><trkpt lat="46.0533603" lon="8.8526054"></trkpt><trkpt lat="46.0533305" lon="8.852558"></trkpt><trkpt lat="46.0532723" lon="8.8525102"></trkpt><trkpt lat="46.0532304" lon="8.852387"></trkpt><trkpt lat="46.053185" lon="8.8523202"></trkpt><trkpt lat="46.053152110460914" lon="8.852240917156418"></trkpt><trkpt lat="46.0531453" lon="8.8522245"></trkpt><trkpt lat="46.0530978" lon="8.8521963"></trkpt><trkpt lat="46.053085" lon="8.8521185"></trkpt><trkpt lat="46.0530322" lon="8.8520307"></trkpt><trkpt lat="46.0529806" lon="8.8519033"></trkpt><trkpt lat="46.0529029" lon="8.8517399"></trkpt><trkpt lat="46.0528889" lon="8.8516492"></trkpt><trkpt lat="46.0528693" lon="8.8515687"></trkpt><trkpt lat="46.052826" lon="8.8514943"></trkpt><trkpt lat="46.0528386" lon="8.8514078"></trkpt><trkpt lat="46.052806" lon="8.8512911"></trkpt><trkpt lat="46.052752" lon="8.8511999"></trkpt><trkpt lat="46.0527218" lon="8.8510732"></trkpt><trkpt lat="46.0526636" lon="8.8510289"></trkpt><trkpt lat="46.0526245" lon="8.8509558"></trkpt><trkpt lat="46.0526208" lon="8.8509082"></trkpt><trkpt lat="46.0525858" lon="8.8508731"></trkpt><trkpt lat="46.0525304" lon="8.8507617"></trkpt><trkpt lat="46.0525194" lon="8.8506997"></trkpt><trkpt lat="46.052501" lon="8.8506426"></trkpt><trkpt lat="46.0524752" lon="8.8506515"></trkpt><trkpt lat="46.0524544" lon="8.8506394"></trkpt><trkpt lat="46.0524351" lon="8.8503959"></trkpt><trkpt lat="46.052389" lon="8.8503214"></trkpt><trkpt lat="46.052366" lon="8.8502713"></trkpt><trkpt lat="46.0523345" lon="8.8502239"></trkpt><trkpt lat="46.0523173" lon="8.8503263"></trkpt><trkpt lat="46.0522853" lon="8.8502677"></trkpt><trkpt lat="46.0522842" lon="8.8502346"></trkpt><trkpt lat="46.0522564" lon="8.8502116"></trkpt><trkpt lat="46.0522432" lon="8.8503203"></trkpt><trkpt lat="46.0521948" lon="8.8502396"></trkpt><trkpt lat="46.0521812" lon="8.8501966"></trkpt><trkpt lat="46.0521445" lon="8.8501425"></trkpt><trkpt lat="46.0521068" lon="8.8500142"></trkpt><trkpt lat="46.052084" lon="8.8499945"></trkpt><trkpt lat="46.0520784" lon="8.8499525"></trkpt><trkpt lat="46.0520183" lon="8.8498203"></trkpt><trkpt lat="46.051993" lon="8.8497448"></trkpt><trkpt lat="46.0519928" lon="8.8495679"></trkpt><trkpt lat="46.0519531" lon="8.8495028"></trkpt><trkpt lat="46.0519352" lon="8.8494158"></trkpt><trkpt lat="46.051906" lon="8.8493272"></trkpt><trkpt lat="46.0518553" lon="8.8491988"></trkpt><trkpt lat="46.0518667" lon="8.8490939"></trkpt><trkpt lat="46.0518626" lon="8.8489901"></trkpt><trkpt lat="46.0518398" lon="8.8489097"></trkpt><trkpt lat="46.051736" lon="8.8487827"></trkpt><trkpt lat="46.0516507" lon="8.8486523"></trkpt><trkpt lat="46.0516049" lon="8.8486399"></trkpt><trkpt lat="46.0515676" lon="8.8486444"></trkpt><trkpt lat="46.0515369" lon="8.8486803"></trkpt><trkpt lat="46.051484" lon="8.8486754"></trkpt><trkpt lat="46.05142348347575" lon="8.848630146832312"></trkpt><trkpt lat="46.0514051" lon="8.8486164"></trkpt><trkpt lat="46.0513739" lon="8.8485959"></trkpt><trkpt lat="46.0513028" lon="8.8485887"></trkpt><trkpt lat="46.0512202" lon="8.8486154"></trkpt><trkpt lat="46.0511466" lon="8.8485335"></trkpt><trkpt lat="46.0511147" lon="8.848505"></trkpt><trkpt lat="46.0511051" lon="8.8484921"></trkpt><trkpt lat="46.0510738" lon="8.848497"></trkpt><trkpt lat="46.051047" lon="8.8484623"></trkpt><trkpt lat="46.051001" lon="8.8484209"></trkpt><trkpt lat="46.0509576" lon="8.8484292"></trkpt><trkpt lat="46.0509097" lon="8.8484364"></trkpt><trkpt lat="46.0508777" lon="8.8484207"></trkpt><trkpt lat="46.0508642" lon="8.848379"></trkpt><trkpt lat="46.0508268" lon="8.8483097"></trkpt><trkpt lat="46.0508126" lon="8.8482552"></trkpt><trkpt lat="46.0507814" lon="8.8482206"></trkpt><trkpt lat="46.0507713" lon="8.8482013"></trkpt><trkpt lat="46.0506653" lon="8.8481066"></trkpt><trkpt lat="46.0506404" lon="8.8481236"></trkpt><trkpt lat="46.0506258" lon="8.8481266"></trkpt><trkpt lat="46.0506089" lon="8.8481135"></trkpt><trkpt lat="46.0504618" lon="8.8479661"></trkpt><trkpt lat="46.0504061" lon="8.8479687"></trkpt><trkpt lat="46.0503361" lon="8.8479049"></trkpt><trkpt lat="46.0502413" lon="8.8478489"></trkpt><trkpt lat="46.0502047" lon="8.8477862"></trkpt><trkpt lat="46.0501262" lon="8.8477056"></trkpt><trkpt lat="46.0500864" lon="8.8476828"></trkpt><trkpt lat="46.050052" lon="8.8476691"></trkpt><trkpt lat="46.0500371" lon="8.8476828"></trkpt><trkpt lat="46.0499836" lon="8.8476789"></trkpt><trkpt lat="46.0499479" lon="8.8476104"></trkpt><trkpt lat="46.0499183" lon="8.8475688"></trkpt><trkpt lat="46.04990107317101" lon="8.84755542513277"></trkpt><trkpt lat="46.04990107317101" lon="8.847555425132771"></trkpt><trkpt lat="46.04990107317101" lon="8.84755542513277"></trkpt><trkpt lat="46.04987" lon="8.8475313"></trkpt><trkpt lat="46.0497958" lon="8.8475106"></trkpt><trkpt lat="46.0497304" lon="8.8475596"></trkpt><trkpt lat="46.0496997" lon="8.8475629"></trkpt><trkpt lat="46.0496634" lon="8.8475508"></trkpt><trkpt lat="46.0495896" lon="8.8475258"></trkpt><trkpt lat="46.0494743" lon="8.8474789"></trkpt><trkpt lat="46.049472" lon="8.8474755"></trkpt><trkpt lat="46.0493518" lon="8.8473815"></trkpt><trkpt lat="46.0492778" lon="8.8472216"></trkpt><trkpt lat="46.0490577" lon="8.8468435"></trkpt><trkpt lat="46.048878" lon="8.8463423"></trkpt><trkpt lat="46.0487856" lon="8.8461343"></trkpt><trkpt lat="46.04870935136842" lon="8.84591347364913"></trkpt><trkpt lat="46.04870935136842" lon="8.845913473649132"></trkpt><trkpt lat="46.04870935136842" lon="8.84591347364913"></trkpt><trkpt lat="46.04862" lon="8.8456547"></trkpt><trkpt lat="46.0482555" lon="8.8450622"></trkpt><trkpt lat="46.047986" lon="8.8446003"></trkpt><trkpt lat="46.0479251" lon="8.8444631"></trkpt><trkpt lat="46.0479054" lon="8.8444303"></trkpt><trkpt lat="46.047619335714984" lon="8.843866045552755"></trkpt><trkpt lat="46.0475748" lon="8.8437782"></trkpt><trkpt lat="46.0474742" lon="8.8436245"></trkpt><trkpt lat="46.0472793" lon="8.843255"></trkpt><trkpt lat="46.0472206" lon="8.8430958"></trkpt><trkpt lat="46.0471977" lon="8.8430224"></trkpt><trkpt lat="46.0471938" lon="8.8428931"></trkpt><trkpt lat="46.0472063" lon="8.842814"></trkpt><trkpt lat="46.0472081" lon="8.8427071"></trkpt><trkpt lat="46.0471967" lon="8.8426814"></trkpt><trkpt lat="46.0471512" lon="8.8424802"></trkpt><trkpt lat="46.0470763" lon="8.8422645"></trkpt><trkpt lat="46.0469997" lon="8.8424016"></trkpt><trkpt lat="46.0469812" lon="8.8425665"></trkpt><trkpt lat="46.0468914" lon="8.8427061"></trkpt><trkpt lat="46.0468456" lon="8.8428507"></trkpt><trkpt lat="46.04684630524077" lon="8.842868099890024"></trkpt><trkpt lat="46.0468575" lon="8.8431443"></trkpt><trkpt lat="46.0468136" lon="8.8431467"></trkpt><trkpt lat="46.0466359" lon="8.8429384"></trkpt><trkpt lat="46.0465634" lon="8.8427949"></trkpt><trkpt lat="46.0465806" lon="8.8423763"></trkpt><trkpt lat="46.0465456" lon="8.8420738"></trkpt><trkpt lat="46.0464168" lon="8.8418231"></trkpt><trkpt lat="46.046201047138375" lon="8.8412602363096"></trkpt><trkpt lat="46.046201047138375" lon="8.841260236309601"></trkpt><trkpt lat="46.046201047138375" lon="8.8412602363096"></trkpt><trkpt lat="46.0461678" lon="8.8411735"></trkpt><trkpt lat="46.0460935" lon="8.8409178"></trkpt><trkpt lat="46.0459858" lon="8.8407482"></trkpt><trkpt lat="46.0459125" lon="8.840593"></trkpt><trkpt lat="46.0458541" lon="8.8405262"></trkpt><trkpt lat="46.0457558" lon="8.8404821"></trkpt><trkpt lat="46.0456247" lon="8.8404831"></trkpt><trkpt lat="46.0455179" lon="8.8403996"></trkpt><trkpt lat="46.0454402" lon="8.8402727"></trkpt><trkpt lat="46.0453422" lon="8.8401127"></trkpt><trkpt lat="46.0452993" lon="8.8400149"></trkpt><trkpt lat="46.0452662" lon="8.8398453"></trkpt><trkpt lat="46.0451925" lon="8.8396441"></trkpt><trkpt lat="46.0451223" lon="8.8395183"></trkpt><trkpt lat="46.04510016270852" lon="8.83948357212399"></trkpt><trkpt lat="46.0450743" lon="8.839443"></trkpt><trkpt lat="46.0450083" lon="8.8393455"></trkpt><trkpt lat="46.0449553" lon="8.8393419"></trkpt><trkpt lat="46.0449012" lon="8.839241"></trkpt><trkpt lat="46.0448369" lon="8.8392163"></trkpt><trkpt lat="46.044729" lon="8.8390558"></trkpt><trkpt lat="46.0445337" lon="8.8387276"></trkpt><trkpt lat="46.0444344" lon="8.8385314"></trkpt><trkpt lat="46.0443093" lon="8.8383845"></trkpt><trkpt lat="46.0441368" lon="8.838034"></trkpt><trkpt lat="46.044048" lon="8.8379662"></trkpt><trkpt lat="46.0438896" lon="8.8377416"></trkpt><trkpt lat="46.04385491131808" lon="8.837680222672441"></trkpt><trkpt lat="46.0437838" lon="8.8375544"></trkpt><trkpt lat="46.0436594" lon="8.8373783"></trkpt><trkpt lat="46.0435359" lon="8.8372752"></trkpt><trkpt lat="46.0434134" lon="8.837196"></trkpt><trkpt lat="46.0430416" lon="8.8367099"></trkpt><trkpt lat="46.0429792" lon="8.8366546"></trkpt><trkpt lat="46.0428665" lon="8.8366259"></trkpt><trkpt lat="46.0427101" lon="8.8364797"></trkpt><trkpt lat="46.04237677982279" lon="8.836273087465326"></trkpt><trkpt lat="46.0423476" lon="8.836255"></trkpt><trkpt lat="46.0416902" lon="8.8358238"></trkpt><trkpt lat="46.0411578" lon="8.8354691"></trkpt><trkpt lat="46.0411737" lon="8.8355728"></trkpt><trkpt lat="46.0412094" lon="8.8356808"></trkpt><trkpt lat="46.0412019" lon="8.8358238"></trkpt><trkpt lat="46.0411389" lon="8.835774"></trkpt><trkpt lat="46.0410965" lon="8.8357278"></trkpt><trkpt lat="46.04105899002685" lon="8.835681640097693"></trkpt><trkpt lat="46.0410501" lon="8.8356707"></trkpt><trkpt lat="46.0410346" lon="8.8356109"></trkpt><trkpt lat="46.0410211" lon="8.8355776"></trkpt><trkpt lat="46.0410195" lon="8.8355627"></trkpt><trkpt lat="46.0410144" lon="8.835516"></trkpt><trkpt lat="46.0408941" lon="8.8351318"></trkpt><trkpt lat="46.0408555" lon="8.8350168"></trkpt><trkpt lat="46.0408876" lon="8.8347584"></trkpt><trkpt lat="46.0409074" lon="8.8346821"></trkpt><trkpt lat="46.0409184" lon="8.8346459"></trkpt><trkpt lat="46.0409183" lon="8.8345897"></trkpt><trkpt lat="46.0408984" lon="8.834495"></trkpt><trkpt lat="46.0409117" lon="8.8344529"></trkpt><trkpt lat="46.04092389514745" lon="8.834421506551129"></trkpt><trkpt lat="46.04092389514745" lon="8.83442150655113"></trkpt></trkseg></trk></gpx>
