<?xml version="1.0" encoding="UTF-8"?>
<gpx version="1.1" creator="Good Shit" xmlns="http://www.topografix.com/GPX/1/1"><trk><name>Tour des Gastlosen — Gastlosen Tour 262</name><trkseg><trkpt lat="46.5953467" lon="7.2833348"></trkpt><trkpt lat="46.5952631" lon="7.2832712"></trkpt><trkpt lat="46.5951123" lon="7.2831482"></trkpt><trkpt lat="46.595039" lon="7.2830928"></trkpt><trkpt lat="46.594969" lon="7.2830189"></trkpt><trkpt lat="46.594918" lon="7.2829536"></trkpt><trkpt lat="46.5947764" lon="7.28273"></trkpt><trkpt lat="46.5947343" lon="7.282643"></trkpt><trkpt lat="46.5946992" lon="7.2825544"></trkpt><trkpt lat="46.5945987" lon="7.2822879"></trkpt><trkpt lat="46.5945478" lon="7.2821303"></trkpt><trkpt lat="46.5945129" lon="7.2820372"></trkpt><trkpt lat="46.5944847" lon="7.2819984"></trkpt><trkpt lat="46.5942855" lon="7.2818143"></trkpt><trkpt lat="46.5942618" lon="7.2817597"></trkpt><trkpt lat="46.5942464" lon="7.2816779"></trkpt><trkpt lat="46.5942244" lon="7.2816263"></trkpt><trkpt lat="46.594102" lon="7.2814454"></trkpt><trkpt lat="46.5940729" lon="7.2813823"></trkpt><trkpt lat="46.5940545" lon="7.2813185"></trkpt><trkpt lat="46.5940431" lon="7.2812497"></trkpt><trkpt lat="46.5940309" lon="7.2811884"></trkpt><trkpt lat="46.5940119" lon="7.2811281"></trkpt><trkpt lat="46.5939488" lon="7.2810383"></trkpt><trkpt lat="46.593913" lon="7.2809997"></trkpt><trkpt lat="46.5938852" lon="7.2809575"></trkpt><trkpt lat="46.5938739" lon="7.2809256"></trkpt><trkpt lat="46.5938739" lon="7.2808549"></trkpt><trkpt lat="46.5938662" lon="7.2808127"></trkpt><trkpt lat="46.5938471" lon="7.2807871"></trkpt><trkpt lat="46.5937253" lon="7.2806499"></trkpt><trkpt lat="46.5936823" lon="7.2805859"></trkpt><trkpt lat="46.5936785" lon="7.2805223"></trkpt><trkpt lat="46.5936821" lon="7.2804629"></trkpt><trkpt lat="46.5936922" lon="7.2803586"></trkpt><trkpt lat="46.593723" lon="7.2802235"></trkpt><trkpt lat="46.5937816" lon="7.2800923"></trkpt><trkpt lat="46.5938322" lon="7.2799914"></trkpt><trkpt lat="46.5938449" lon="7.2799243"></trkpt><trkpt lat="46.5938362" lon="7.2798569"></trkpt><trkpt lat="46.5937926" lon="7.2797731"></trkpt><trkpt lat="46.5937253" lon="7.2796942"></trkpt><trkpt lat="46.5936993" lon="7.2796563"></trkpt><trkpt lat="46.5936898" lon="7.2796235"></trkpt><trkpt lat="46.5936911" lon="7.2796022"></trkpt><trkpt lat="46.5937224" lon="7.2794684"></trkpt><trkpt lat="46.5937253" lon="7.2794038"></trkpt><trkpt lat="46.5937128" lon="7.2793136"></trkpt><trkpt lat="46.5937058" lon="7.2792746"></trkpt><trkpt lat="46.5936898" lon="7.2792375"></trkpt><trkpt lat="46.593663" lon="7.2792082"></trkpt><trkpt lat="46.5936127" lon="7.2791894"></trkpt><trkpt lat="46.5935116" lon="7.2791858"></trkpt><trkpt lat="46.5934403" lon="7.2791606"></trkpt><trkpt lat="46.593386" lon="7.2791436"></trkpt><trkpt lat="46.5933451" lon="7.2791394"></trkpt><trkpt lat="46.5932883" lon="7.2791384"></trkpt><trkpt lat="46.5932422" lon="7.2791238"></trkpt><trkpt lat="46.5932093" lon="7.2791168"></trkpt><trkpt lat="46.593185" lon="7.2790943"></trkpt><trkpt lat="46.5931502" lon="7.2790598"></trkpt><trkpt lat="46.5931261" lon="7.2788997"></trkpt><trkpt lat="46.5931006" lon="7.2787696"></trkpt><trkpt lat="46.5930929" lon="7.2786929"></trkpt><trkpt lat="46.5931019" lon="7.2783248"></trkpt><trkpt lat="46.5930973" lon="7.2782526"></trkpt><trkpt lat="46.5930857" lon="7.2782067"></trkpt><trkpt lat="46.5930406" lon="7.2780622"></trkpt><trkpt lat="46.5929949" lon="7.2779986"></trkpt><trkpt lat="46.5929555" lon="7.2779639"></trkpt><trkpt lat="46.5928697" lon="7.2778932"></trkpt><trkpt lat="46.592791" lon="7.2778285"></trkpt><trkpt lat="46.5927471" lon="7.2777795"></trkpt><trkpt lat="46.5927009" lon="7.2777683"></trkpt><trkpt lat="46.5926682" lon="7.2777771"></trkpt><trkpt lat="46.5925937" lon="7.2778398"></trkpt><trkpt lat="46.5925656" lon="7.2778521"></trkpt><trkpt lat="46.5925013" lon="7.2778631"></trkpt><trkpt lat="46.5924213" lon="7.2778583"></trkpt><trkpt lat="46.5923622" lon="7.2778295"></trkpt><trkpt lat="46.5923118" lon="7.2777964"></trkpt><trkpt lat="46.5922438" lon="7.2777502"></trkpt><trkpt lat="46.5922029" lon="7.2777304"></trkpt><trkpt lat="46.5921645" lon="7.2777223"></trkpt><trkpt lat="46.5921235" lon="7.2777192"></trkpt><trkpt lat="46.5920347" lon="7.2777206"></trkpt><trkpt lat="46.5919879" lon="7.2777131"></trkpt><trkpt lat="46.5919465" lon="7.2776916"></trkpt><trkpt lat="46.5918979" lon="7.2776468"></trkpt><trkpt lat="46.5918187" lon="7.2775573"></trkpt><trkpt lat="46.5917401" lon="7.277414"></trkpt><trkpt lat="46.591667" lon="7.277259"></trkpt><trkpt lat="46.5916243" lon="7.2771946"></trkpt><trkpt lat="46.5915628" lon="7.2771565"></trkpt><trkpt lat="46.5914745" lon="7.2771099"></trkpt><trkpt lat="46.5912951" lon="7.2770522"></trkpt><trkpt lat="46.5912246" lon="7.2770453"></trkpt><trkpt lat="46.591195" lon="7.2770375"></trkpt><trkpt lat="46.5911761" lon="7.2770212"></trkpt><trkpt lat="46.5911628" lon="7.2769991"></trkpt><trkpt lat="46.5911583" lon="7.2769608"></trkpt><trkpt lat="46.591169" lon="7.2769298"></trkpt><trkpt lat="46.5911867" lon="7.2769186"></trkpt><trkpt lat="46.5912267" lon="7.2769151"></trkpt><trkpt lat="46.591272" lon="7.2768867"></trkpt><trkpt lat="46.591349" lon="7.2768307"></trkpt><trkpt lat="46.5913693" lon="7.2768049"></trkpt><trkpt lat="46.5913757" lon="7.2767607"></trkpt><trkpt lat="46.5912951" lon="7.2767514"></trkpt><trkpt lat="46.5911767" lon="7.2766739"></trkpt><trkpt lat="46.5910975" lon="7.2766321"></trkpt><trkpt lat="46.5909558" lon="7.2766196"></trkpt><trkpt lat="46.5908179" lon="7.276591"></trkpt><trkpt lat="46.5906514" lon="7.2765541"></trkpt><trkpt lat="46.5906118" lon="7.2765308"></trkpt><trkpt lat="46.5905667" lon="7.2764552"></trkpt><trkpt lat="46.5905424" lon="7.2763783"></trkpt><trkpt lat="46.5905037" lon="7.2762949"></trkpt><trkpt lat="46.5904453" lon="7.2762353"></trkpt><trkpt lat="46.5904" lon="7.2762011"></trkpt><trkpt lat="46.5900658" lon="7.275951"></trkpt><trkpt lat="46.589849" lon="7.2757941"></trkpt><trkpt lat="46.5897687" lon="7.2757236"></trkpt><trkpt lat="46.5896927" lon="7.2756648"></trkpt><trkpt lat="46.5896318" lon="7.275632"></trkpt><trkpt lat="46.5895849" lon="7.2756195"></trkpt><trkpt lat="46.5895105" lon="7.2756194"></trkpt><trkpt lat="46.5894063" lon="7.2756206"></trkpt><trkpt lat="46.5893379" lon="7.2756071"></trkpt><trkpt lat="46.5892853" lon="7.2755774"></trkpt><trkpt lat="46.5891846" lon="7.2755183"></trkpt><trkpt lat="46.5891102" lon="7.2754478"></trkpt><trkpt lat="46.5890513" lon="7.2753744"></trkpt><trkpt lat="46.5890122" lon="7.2753038"></trkpt><trkpt lat="46.5889737" lon="7.2752193"></trkpt><trkpt lat="46.5889332" lon="7.2751607"></trkpt><trkpt lat="46.5888559" lon="7.2751021"></trkpt><trkpt lat="46.5887369" lon="7.2750434"></trkpt><trkpt lat="46.5886723" lon="7.2749961"></trkpt><trkpt lat="46.5886488" lon="7.2749669"></trkpt><trkpt lat="46.588619" lon="7.2749263"></trkpt><trkpt lat="46.5885711" lon="7.2748363"></trkpt><trkpt lat="46.5885249" lon="7.2748617"></trkpt><trkpt lat="46.588497" lon="7.2748669"></trkpt><trkpt lat="46.5884674" lon="7.2748643"></trkpt><trkpt lat="46.5884455" lon="7.2748496"></trkpt><trkpt lat="46.5884271" lon="7.2747979"></trkpt><trkpt lat="46.5884079" lon="7.2747317"></trkpt><trkpt lat="46.5883047" lon="7.274526"></trkpt><trkpt lat="46.5881908" lon="7.2743327"></trkpt><trkpt lat="46.5881474" lon="7.2742693"></trkpt><trkpt lat="46.5880574" lon="7.2742372"></trkpt><trkpt lat="46.5879604" lon="7.274268"></trkpt><trkpt lat="46.5878805" lon="7.27426"></trkpt><trkpt lat="46.5878321" lon="7.2741734"></trkpt><trkpt lat="46.5877731" lon="7.2741086"></trkpt><trkpt lat="46.5876591" lon="7.2741046"></trkpt><trkpt lat="46.5875637" lon="7.2740863"></trkpt><trkpt lat="46.5874608" lon="7.2739979"></trkpt><trkpt lat="46.5873832" lon="7.2738544"></trkpt><trkpt lat="46.587319" lon="7.2737867"></trkpt><trkpt lat="46.5872253" lon="7.2737689"></trkpt><trkpt lat="46.5870563" lon="7.2738139"></trkpt><trkpt lat="46.5868957" lon="7.2738469"></trkpt><trkpt lat="46.5867528" lon="7.2738435"></trkpt><trkpt lat="46.5865668" lon="7.2738478"></trkpt><trkpt lat="46.5863981" lon="7.27386"></trkpt><trkpt lat="46.5862879" lon="7.2738301"></trkpt><trkpt lat="46.5861945" lon="7.2737673"></trkpt><trkpt lat="46.5860775" lon="7.2737489"></trkpt><trkpt lat="46.5859271" lon="7.2737194"></trkpt><trkpt lat="46.5857552" lon="7.2737225"></trkpt><trkpt lat="46.5856511" lon="7.2737894"></trkpt><trkpt lat="46.5855645" lon="7.2738948"></trkpt><trkpt lat="46.5855203" lon="7.2739879"></trkpt><trkpt lat="46.5854484" lon="7.2740898"></trkpt><trkpt lat="46.585406" lon="7.2741515"></trkpt><trkpt lat="46.585347" lon="7.274173"></trkpt><trkpt lat="46.5852502" lon="7.2741314"></trkpt><trkpt lat="46.5851368" lon="7.2740764"></trkpt><trkpt lat="46.5850336" lon="7.2739987"></trkpt><trkpt lat="46.5849248" lon="7.2739423"></trkpt><trkpt lat="46.5848308" lon="7.2739236"></trkpt><trkpt lat="46.5847571" lon="7.2738699"></trkpt><trkpt lat="46.5846704" lon="7.2738216"></trkpt><trkpt lat="46.5845654" lon="7.2737975"></trkpt><trkpt lat="46.5844529" lon="7.2737573"></trkpt><trkpt lat="46.5843184" lon="7.2736594"></trkpt><trkpt lat="46.5841838" lon="7.2735521"></trkpt><trkpt lat="46.5840547" lon="7.273489"></trkpt><trkpt lat="46.5839165" lon="7.2734381"></trkpt><trkpt lat="46.583793" lon="7.2733818"></trkpt><trkpt lat="46.5836956" lon="7.273306"></trkpt><trkpt lat="46.5836059" lon="7.273261"></trkpt><trkpt lat="46.5835201" lon="7.2732476"></trkpt><trkpt lat="46.5833782" lon="7.273245"></trkpt><trkpt lat="46.5832528" lon="7.2732342"></trkpt><trkpt lat="46.5831607" lon="7.2732154"></trkpt><trkpt lat="46.5831238" lon="7.2732423"></trkpt><trkpt lat="46.5830869" lon="7.2731913"></trkpt><trkpt lat="46.5830131" lon="7.2730947"></trkpt><trkpt lat="46.5829573" lon="7.2730404"></trkpt><trkpt lat="46.5829219" lon="7.2729459"></trkpt><trkpt lat="46.5829044" lon="7.272848"></trkpt><trkpt lat="46.5829062" lon="7.2727112"></trkpt><trkpt lat="46.5829284" lon="7.2725449"></trkpt><trkpt lat="46.582956" lon="7.2723263"></trkpt><trkpt lat="46.5829804" lon="7.272229"></trkpt><trkpt lat="46.5830113" lon="7.2721318"></trkpt><trkpt lat="46.5830795" lon="7.2720031"></trkpt><trkpt lat="46.5831441" lon="7.2718878"></trkpt><trkpt lat="46.5832325" lon="7.2717563"></trkpt><trkpt lat="46.5832523" lon="7.2717033"></trkpt><trkpt lat="46.5832525" lon="7.2715565"></trkpt><trkpt lat="46.5832016" lon="7.2714217"></trkpt><trkpt lat="46.5832157" lon="7.2713185"></trkpt><trkpt lat="46.5832093" lon="7.2711629"></trkpt><trkpt lat="46.5831435" lon="7.2710784"></trkpt><trkpt lat="46.5831135" lon="7.2709604"></trkpt><trkpt lat="46.5831011" lon="7.2708625"></trkpt><trkpt lat="46.5830781" lon="7.2707592"></trkpt><trkpt lat="46.5830384" lon="7.2706854"></trkpt><trkpt lat="46.5829638" lon="7.2706117"></trkpt><trkpt lat="46.5827475" lon="7.2705474"></trkpt><trkpt lat="46.5826295" lon="7.2703918"></trkpt><trkpt lat="46.5825462" lon="7.2703636"></trkpt><trkpt lat="46.5824737" lon="7.2702966"></trkpt><trkpt lat="46.5823234" lon="7.2701842"></trkpt><trkpt lat="46.5823033" lon="7.2700605"></trkpt><trkpt lat="46.5823132" lon="7.2699983"></trkpt><trkpt lat="46.5823058" lon="7.2699115"></trkpt><trkpt lat="46.5822568" lon="7.2697882"></trkpt><trkpt lat="46.5821526" lon="7.2697748"></trkpt><trkpt lat="46.5820807" lon="7.269811"></trkpt><trkpt lat="46.5819992" lon="7.2697936"></trkpt><trkpt lat="46.5819323" lon="7.2697091"></trkpt><trkpt lat="46.5818696" lon="7.2696113"></trkpt><trkpt lat="46.5818884" lon="7.26949"></trkpt><trkpt lat="46.5818749" lon="7.2693823"></trkpt><trkpt lat="46.581878" lon="7.2692746"></trkpt><trkpt lat="46.5818419" lon="7.2692109"></trkpt><trkpt lat="46.5817339" lon="7.2692167"></trkpt><trkpt lat="46.5817166" lon="7.269151"></trkpt><trkpt lat="46.581685" lon="7.2690791"></trkpt><trkpt lat="46.5816773" lon="7.2689699"></trkpt><trkpt lat="46.5817261" lon="7.2689229"></trkpt><trkpt lat="46.5817521" lon="7.2688374"></trkpt><trkpt lat="46.581638" lon="7.2686194"></trkpt><trkpt lat="46.5815601" lon="7.2684858"></trkpt><trkpt lat="46.5815067" lon="7.2684338"></trkpt><trkpt lat="46.5814022" lon="7.2683891"></trkpt><trkpt lat="46.5813059" lon="7.268279"></trkpt><trkpt lat="46.5811905" lon="7.2681489"></trkpt><trkpt lat="46.5811129" lon="7.2680869"></trkpt><trkpt lat="46.5810409" lon="7.2680614"></trkpt><trkpt lat="46.5809658" lon="7.2680589"></trkpt><trkpt lat="46.5807983" lon="7.2680838"></trkpt><trkpt lat="46.5807367" lon="7.2680677"></trkpt><trkpt lat="46.5806984" lon="7.2680246"></trkpt><trkpt lat="46.5806918" lon="7.2679921"></trkpt><trkpt lat="46.5806901" lon="7.2679602"></trkpt><trkpt lat="46.5806961" lon="7.2679108"></trkpt><trkpt lat="46.5807444" lon="7.2677804"></trkpt><trkpt lat="46.5808068" lon="7.267652"></trkpt><trkpt lat="46.5809062" lon="7.2674977"></trkpt><trkpt lat="46.5809948" lon="7.2672489"></trkpt><trkpt lat="46.5810154" lon="7.2671906"></trkpt><trkpt lat="46.5810516" lon="7.2670993"></trkpt><trkpt lat="46.581075" lon="7.2670718"></trkpt><trkpt lat="46.5811142" lon="7.2670532"></trkpt><trkpt lat="46.5812213" lon="7.2670498"></trkpt><trkpt lat="46.5812904" lon="7.267043"></trkpt><trkpt lat="46.5813676" lon="7.267089"></trkpt><trkpt lat="46.5814363" lon="7.2671725"></trkpt><trkpt lat="46.581492" lon="7.2672269"></trkpt><trkpt lat="46.5815814" lon="7.2673081"></trkpt><trkpt lat="46.5816531" lon="7.2673441"></trkpt><trkpt lat="46.5817039" lon="7.2673617"></trkpt><trkpt lat="46.5817342" lon="7.2673599"></trkpt><trkpt lat="46.5817126" lon="7.2672776"></trkpt><trkpt lat="46.5816416" lon="7.2671724"></trkpt><trkpt lat="46.5815655" lon="7.2670725"></trkpt><trkpt lat="46.581487" lon="7.2669753"></trkpt><trkpt lat="46.5813728" lon="7.266807"></trkpt><trkpt lat="46.5813186" lon="7.266754"></trkpt><trkpt lat="46.5812705" lon="7.2667219"></trkpt><trkpt lat="46.581191" lon="7.2666875"></trkpt><trkpt lat="46.5810755" lon="7.2665841"></trkpt><trkpt lat="46.5810052" lon="7.266556"></trkpt><trkpt lat="46.5809013" lon="7.2665291"></trkpt><trkpt lat="46.5807463" lon="7.2664657"></trkpt><trkpt lat="46.5805572" lon="7.2663079"></trkpt><trkpt lat="46.5804077" lon="7.2661722"></trkpt><trkpt lat="46.5803629" lon="7.2661315"></trkpt><trkpt lat="46.5802151" lon="7.2660304"></trkpt><trkpt lat="46.5800423" lon="7.2659256"></trkpt><trkpt lat="46.5799314" lon="7.2658707"></trkpt><trkpt lat="46.5798565" lon="7.2658105"></trkpt><trkpt lat="46.5797932" lon="7.2657379"></trkpt><trkpt lat="46.5796629" lon="7.2655261"></trkpt><trkpt lat="46.5795918" lon="7.2654556"></trkpt><trkpt lat="46.5795039" lon="7.2654062"></trkpt><trkpt lat="46.5794564" lon="7.2653747"></trkpt><trkpt lat="46.5794025" lon="7.2652996"></trkpt><trkpt lat="46.5793415" lon="7.2652765"></trkpt><trkpt lat="46.5791753" lon="7.2651761"></trkpt><trkpt lat="46.5790854" lon="7.2650947"></trkpt><trkpt lat="46.5790199" lon="7.2650829"></trkpt><trkpt lat="46.5789071" lon="7.2650077"></trkpt><trkpt lat="46.5787564" lon="7.2649099"></trkpt><trkpt lat="46.5786327" lon="7.2647908"></trkpt><trkpt lat="46.5785483" lon="7.2646838"></trkpt><trkpt lat="46.5785163" lon="7.2646486"></trkpt><trkpt lat="46.5784326" lon="7.2645946"></trkpt><trkpt lat="46.578328" lon="7.2645555"></trkpt><trkpt lat="46.5782652" lon="7.2645228"></trkpt><trkpt lat="46.5782237" lon="7.2644803"></trkpt><trkpt lat="46.5781699" lon="7.2643865"></trkpt><trkpt lat="46.5780862" lon="7.2642606"></trkpt><trkpt lat="46.5780468" lon="7.2642099"></trkpt><trkpt lat="46.5780163" lon="7.2641847"></trkpt><trkpt lat="46.5779347" lon="7.2641505"></trkpt><trkpt lat="46.5778458" lon="7.2641316"></trkpt><trkpt lat="46.5777711" lon="7.264126"></trkpt><trkpt lat="46.5776962" lon="7.2641354"></trkpt><trkpt lat="46.5776027" lon="7.264169"></trkpt><trkpt lat="46.5775728" lon="7.2641689"></trkpt><trkpt lat="46.5775443" lon="7.2641541"></trkpt><trkpt lat="46.5774889" lon="7.2641056"></trkpt><trkpt lat="46.5774562" lon="7.2640939"></trkpt><trkpt lat="46.5773846" lon="7.2640978"></trkpt><trkpt lat="46.5773281" lon="7.264104"></trkpt><trkpt lat="46.5772878" lon="7.2640888"></trkpt><trkpt lat="46.5770481" lon="7.2640167"></trkpt><trkpt lat="46.5769917" lon="7.2640109"></trkpt><trkpt lat="46.5769292" lon="7.2640223"></trkpt><trkpt lat="46.5768148" lon="7.2640984"></trkpt><trkpt lat="46.5767548" lon="7.2641356"></trkpt><trkpt lat="46.5766869" lon="7.2641604"></trkpt><trkpt lat="46.5766177" lon="7.264177"></trkpt><trkpt lat="46.5765797" lon="7.2641807"></trkpt><trkpt lat="46.5765556" lon="7.2641784"></trkpt><trkpt lat="46.5765358" lon="7.2641598"></trkpt><trkpt lat="46.5765222" lon="7.264132"></trkpt><trkpt lat="46.5764771" lon="7.2640067"></trkpt><trkpt lat="46.5764484" lon="7.264157"></trkpt><trkpt lat="46.5764126" lon="7.264248"></trkpt><trkpt lat="46.5763683" lon="7.2643058"></trkpt><trkpt lat="46.5763044" lon="7.2643748"></trkpt><trkpt lat="46.5762503" lon="7.26446"></trkpt><trkpt lat="46.5762089" lon="7.2645421"></trkpt><trkpt lat="46.5761714" lon="7.264695"></trkpt><trkpt lat="46.5761586" lon="7.2647376"></trkpt><trkpt lat="46.5761415" lon="7.2647591"></trkpt><trkpt lat="46.5760927" lon="7.264794"></trkpt><trkpt lat="46.5760019" lon="7.2648723"></trkpt><trkpt lat="46.5759448" lon="7.2649379"></trkpt><trkpt lat="46.5758825" lon="7.2650421"></trkpt><trkpt lat="46.5758603" lon="7.2650991"></trkpt><trkpt lat="46.5758464" lon="7.2651234"></trkpt><trkpt lat="46.5758023" lon="7.2651546"></trkpt><trkpt lat="46.5756394" lon="7.2651747"></trkpt><trkpt lat="46.5755157" lon="7.2651907"></trkpt><trkpt lat="46.5754376" lon="7.2652239"></trkpt><trkpt lat="46.5753614" lon="7.2652469"></trkpt><trkpt lat="46.5751701" lon="7.2652661"></trkpt><trkpt lat="46.575093" lon="7.265298"></trkpt><trkpt lat="46.5749483" lon="7.2653362"></trkpt><trkpt lat="46.5749093" lon="7.2653565"></trkpt><trkpt lat="46.5747753" lon="7.2653723"></trkpt><trkpt lat="46.5747288" lon="7.2654115"></trkpt><trkpt lat="46.5745145" lon="7.2653737"></trkpt><trkpt lat="46.5743946" lon="7.2654387"></trkpt><trkpt lat="46.5741009" lon="7.2653703"></trkpt><trkpt lat="46.5739751" lon="7.2653953"></trkpt><trkpt lat="46.5739069" lon="7.2654373"></trkpt><trkpt lat="46.5738506" lon="7.2654765"></trkpt><trkpt lat="46.5738246" lon="7.265484"></trkpt><trkpt lat="46.5737242" lon="7.2654733"></trkpt><trkpt lat="46.5736448" lon="7.2654995"></trkpt><trkpt lat="46.5735857" lon="7.2655156"></trkpt><trkpt lat="46.5735493" lon="7.2655459"></trkpt><trkpt lat="46.5735253" lon="7.2655742"></trkpt><trkpt lat="46.5734738" lon="7.2656337"></trkpt><trkpt lat="46.573448" lon="7.2656512"></trkpt><trkpt lat="46.5733951" lon="7.2656436"></trkpt><trkpt lat="46.5733362" lon="7.2656193"></trkpt><trkpt lat="46.5733018" lon="7.2656254"></trkpt><trkpt lat="46.5732666" lon="7.2656426"></trkpt><trkpt lat="46.5732459" lon="7.2656547"></trkpt><trkpt lat="46.573216" lon="7.2656367"></trkpt><trkpt lat="46.573176" lon="7.2656419"></trkpt><trkpt lat="46.5731055" lon="7.2656672"></trkpt><trkpt lat="46.5730679" lon="7.2656346"></trkpt><trkpt lat="46.5730505" lon="7.2656294"></trkpt><trkpt lat="46.573022" lon="7.2656464"></trkpt><trkpt lat="46.5729623" lon="7.265663"></trkpt><trkpt lat="46.5727176" lon="7.2656666"></trkpt><trkpt lat="46.5726068" lon="7.2656044"></trkpt><trkpt lat="46.5725532" lon="7.2655504"></trkpt><trkpt lat="46.5724913" lon="7.2654863"></trkpt><trkpt lat="46.5724446" lon="7.2654229"></trkpt><trkpt lat="46.5724152" lon="7.2654089"></trkpt><trkpt lat="46.5723178" lon="7.2653655"></trkpt><trkpt lat="46.5722586" lon="7.2653215"></trkpt><trkpt lat="46.5722099" lon="7.2652958"></trkpt><trkpt lat="46.5721251" lon="7.2651767"></trkpt><trkpt lat="46.57207" lon="7.2651266"></trkpt><trkpt lat="46.572017" lon="7.2651008"></trkpt><trkpt lat="46.5719378" lon="7.2650222"></trkpt><trkpt lat="46.5719126" lon="7.2649549"></trkpt><trkpt lat="46.5718812" lon="7.2649119"></trkpt><trkpt lat="46.5718569" lon="7.2648898"></trkpt><trkpt lat="46.5717559" lon="7.2648394"></trkpt><trkpt lat="46.5717102" lon="7.2648344"></trkpt><trkpt lat="46.5716542" lon="7.2648364"></trkpt><trkpt lat="46.5716065" lon="7.2648281"></trkpt><trkpt lat="46.5714796" lon="7.2647429"></trkpt><trkpt lat="46.5714094" lon="7.2647272"></trkpt><trkpt lat="46.5712336" lon="7.2646912"></trkpt><trkpt lat="46.5711775" lon="7.2646439"></trkpt><trkpt lat="46.5710755" lon="7.2646027"></trkpt><trkpt lat="46.5710402" lon="7.264602"></trkpt><trkpt lat="46.5710085" lon="7.2646163"></trkpt><trkpt lat="46.5709641" lon="7.2646488"></trkpt><trkpt lat="46.5709427" lon="7.2646499"></trkpt><trkpt lat="46.5708859" lon="7.2646252"></trkpt><trkpt lat="46.5708617" lon="7.2646065"></trkpt><trkpt lat="46.5708252" lon="7.2645432"></trkpt><trkpt lat="46.5707901" lon="7.2645212"></trkpt><trkpt lat="46.570596" lon="7.2645483"></trkpt><trkpt lat="46.5705471" lon="7.2645845"></trkpt><trkpt lat="46.5704406" lon="7.2646147"></trkpt><trkpt lat="46.5703161" lon="7.2646263"></trkpt><trkpt lat="46.5702046" lon="7.2646665"></trkpt><trkpt lat="46.5701659" lon="7.2646531"></trkpt><trkpt lat="46.570118" lon="7.2646449"></trkpt><trkpt lat="46.5698975" lon="7.2645913"></trkpt><trkpt lat="46.569874" lon="7.2645676"></trkpt><trkpt lat="46.5698464" lon="7.2645195"></trkpt><trkpt lat="46.5698079" lon="7.264548"></trkpt><trkpt lat="46.5697444" lon="7.2645623"></trkpt><trkpt lat="46.5697167" lon="7.2645853"></trkpt><trkpt lat="46.569668" lon="7.2646422"></trkpt><trkpt lat="46.5696486" lon="7.2646507"></trkpt><trkpt lat="46.569548" lon="7.2646646"></trkpt><trkpt lat="46.5695307" lon="7.2646603"></trkpt><trkpt lat="46.5695145" lon="7.2646522"></trkpt><trkpt lat="46.5694701" lon="7.2646153"></trkpt><trkpt lat="46.5694555" lon="7.2646107"></trkpt><trkpt lat="46.5693371" lon="7.2646439"></trkpt><trkpt lat="46.5692446" lon="7.2646483"></trkpt><trkpt lat="46.5691562" lon="7.2646641"></trkpt><trkpt lat="46.5691396" lon="7.2646815"></trkpt><trkpt lat="46.5691271" lon="7.2647141"></trkpt><trkpt lat="46.5691073" lon="7.2647366"></trkpt><trkpt lat="46.5690139" lon="7.2647752"></trkpt><trkpt lat="46.568943" lon="7.26479"></trkpt><trkpt lat="46.568895" lon="7.2648212"></trkpt><trkpt lat="46.5685811" lon="7.2648444"></trkpt><trkpt lat="46.5685384" lon="7.2648918"></trkpt><trkpt lat="46.568517" lon="7.2648958"></trkpt><trkpt lat="46.5684449" lon="7.2648077"></trkpt><trkpt lat="46.5684204" lon="7.2647479"></trkpt><trkpt lat="46.5683721" lon="7.2646923"></trkpt><trkpt lat="46.5683282" lon="7.2645881"></trkpt><trkpt lat="46.5682581" lon="7.264536"></trkpt><trkpt lat="46.5681846" lon="7.2644993"></trkpt><trkpt lat="46.5681608" lon="7.2644927"></trkpt><trkpt lat="46.5681263" lon="7.2644592"></trkpt><trkpt lat="46.5680973" lon="7.264407"></trkpt><trkpt lat="46.5680281" lon="7.2644039"></trkpt><trkpt lat="46.5680036" lon="7.264385"></trkpt><trkpt lat="46.5679968" lon="7.2643593"></trkpt><trkpt lat="46.5679769" lon="7.2643"></trkpt><trkpt lat="46.5679293" lon="7.2642266"></trkpt><trkpt lat="46.5678413" lon="7.2641301"></trkpt><trkpt lat="46.5676867" lon="7.2639659"></trkpt><trkpt lat="46.5676368" lon="7.2639221"></trkpt><trkpt lat="46.5675644" lon="7.2639066"></trkpt><trkpt lat="46.5675007" lon="7.2638489"></trkpt><trkpt lat="46.5674606" lon="7.263828"></trkpt><trkpt lat="46.5673848" lon="7.2637294"></trkpt><trkpt lat="46.5673178" lon="7.2636875"></trkpt><trkpt lat="46.5672727" lon="7.2636788"></trkpt><trkpt lat="46.5671965" lon="7.2636344"></trkpt><trkpt lat="46.5671516" lon="7.2636717"></trkpt><trkpt lat="46.5671494" lon="7.2637231"></trkpt><trkpt lat="46.5671066" lon="7.2637889"></trkpt><trkpt lat="46.5670982" lon="7.2638207"></trkpt><trkpt lat="46.5671164" lon="7.2638286"></trkpt><trkpt lat="46.567126" lon="7.2638435"></trkpt><trkpt lat="46.5671286" lon="7.263874"></trkpt><trkpt lat="46.567193" lon="7.2639591"></trkpt><trkpt lat="46.5672356" lon="7.2640902"></trkpt><trkpt lat="46.5672652" lon="7.2641411"></trkpt><trkpt lat="46.5672456" lon="7.264193"></trkpt><trkpt lat="46.5671984" lon="7.2642233"></trkpt><trkpt lat="46.5671764" lon="7.2642654"></trkpt><trkpt lat="46.5670856" lon="7.2642801"></trkpt><trkpt lat="46.567138" lon="7.2644035"></trkpt><trkpt lat="46.5670827" lon="7.2643881"></trkpt><trkpt lat="46.5670095" lon="7.2643539"></trkpt><trkpt lat="46.5670445" lon="7.2644911"></trkpt><trkpt lat="46.56712" lon="7.2645838"></trkpt><trkpt lat="46.567026" lon="7.2645652"></trkpt><trkpt lat="46.5670682" lon="7.2646874"></trkpt><trkpt lat="46.5670243" lon="7.2646881"></trkpt><trkpt lat="46.5669276" lon="7.2646294"></trkpt><trkpt lat="46.5669781" lon="7.2648455"></trkpt><trkpt lat="46.5670235" lon="7.2648759"></trkpt><trkpt lat="46.567074" lon="7.2648895"></trkpt><trkpt lat="46.5670235" lon="7.2649221"></trkpt><trkpt lat="46.5669351" lon="7.2649124"></trkpt><trkpt lat="46.5670235" lon="7.2649944"></trkpt><trkpt lat="46.5670733" lon="7.2650805"></trkpt><trkpt lat="46.5671973" lon="7.2651948"></trkpt><trkpt lat="46.5672471" lon="7.2652661"></trkpt><trkpt lat="46.5672805" lon="7.2653328"></trkpt><trkpt lat="46.5672901" lon="7.2653542"></trkpt><trkpt lat="46.5672963" lon="7.2653736"></trkpt><trkpt lat="46.5672858" lon="7.2654126"></trkpt><trkpt lat="46.5672376" lon="7.2654251"></trkpt><trkpt lat="46.5672264" lon="7.2654622"></trkpt><trkpt lat="46.567213" lon="7.2654675"></trkpt><trkpt lat="46.5672069" lon="7.2654613"></trkpt><trkpt lat="46.5671889" lon="7.2654552"></trkpt><trkpt lat="46.5671606" lon="7.2654728"></trkpt><trkpt lat="46.5671467" lon="7.265503"></trkpt><trkpt lat="46.5671208" lon="7.2655116"></trkpt><trkpt lat="46.567071" lon="7.2655233"></trkpt><trkpt lat="46.5670163" lon="7.2655137"></trkpt><trkpt lat="46.5669982" lon="7.2655406"></trkpt><trkpt lat="46.5669966" lon="7.2656075"></trkpt><trkpt lat="46.5670138" lon="7.2657154"></trkpt><trkpt lat="46.5669868" lon="7.2657481"></trkpt><trkpt lat="46.5669748" lon="7.2658165"></trkpt><trkpt lat="46.566923" lon="7.2658092"></trkpt><trkpt lat="46.5668601" lon="7.2658608"></trkpt><trkpt lat="46.5668792" lon="7.2658945"></trkpt><trkpt lat="46.5668956" lon="7.2659449"></trkpt><trkpt lat="46.5669153" lon="7.2659717"></trkpt><trkpt lat="46.5669399" lon="7.2660721"></trkpt><trkpt lat="46.5669543" lon="7.2661318"></trkpt><trkpt lat="46.5670873" lon="7.2663394"></trkpt><trkpt lat="46.5671568" lon="7.2663651"></trkpt><trkpt lat="46.5672052" lon="7.2664627"></trkpt><trkpt lat="46.567365" lon="7.2666012"></trkpt><trkpt lat="46.5674295" lon="7.2666979"></trkpt><trkpt lat="46.5674768" lon="7.2668017"></trkpt><trkpt lat="46.5675507" lon="7.2670111"></trkpt><trkpt lat="46.5676251" lon="7.2671316"></trkpt><trkpt lat="46.567702" lon="7.2671791"></trkpt><trkpt lat="46.567763" lon="7.2671551"></trkpt><trkpt lat="46.5678253" lon="7.2671467"></trkpt><trkpt lat="46.5679169" lon="7.267197"></trkpt><trkpt lat="46.5679914" lon="7.2673408"></trkpt><trkpt lat="46.5680682" lon="7.2674212"></trkpt><trkpt lat="46.5681598" lon="7.2675865"></trkpt><trkpt lat="46.5682724" lon="7.2677108"></trkpt><trkpt lat="46.568319" lon="7.2678172"></trkpt><trkpt lat="46.5683464" lon="7.2678605"></trkpt><trkpt lat="46.5683861" lon="7.2680247"></trkpt><trkpt lat="46.568407" lon="7.2682092"></trkpt><trkpt lat="46.5684352" lon="7.2683509"></trkpt><trkpt lat="46.5684542" lon="7.2684356"></trkpt><trkpt lat="46.568482" lon="7.268485"></trkpt><trkpt lat="46.5685551" lon="7.2685629"></trkpt><trkpt lat="46.5687614" lon="7.2687361"></trkpt><trkpt lat="46.568868" lon="7.2688045"></trkpt><trkpt lat="46.5689306" lon="7.2688567"></trkpt><trkpt lat="46.5692287" lon="7.269003"></trkpt><trkpt lat="46.5693872" lon="7.2690525"></trkpt><trkpt lat="46.5694881" lon="7.2690487"></trkpt><trkpt lat="46.5695671" lon="7.2690746"></trkpt><trkpt lat="46.5697439" lon="7.2691503"></trkpt><trkpt lat="46.5699092" lon="7.2691924"></trkpt><trkpt lat="46.5700141" lon="7.269263"></trkpt><trkpt lat="46.5701745" lon="7.2694301"></trkpt><trkpt lat="46.5702913" lon="7.269531"></trkpt><trkpt lat="46.5703715" lon="7.2696852"></trkpt><trkpt lat="46.5704132" lon="7.2697164"></trkpt><trkpt lat="46.570478" lon="7.2697334"></trkpt><trkpt lat="46.5705573" lon="7.2697978"></trkpt><trkpt lat="46.5706635" lon="7.2699547"></trkpt><trkpt lat="46.5708623" lon="7.2701646"></trkpt><trkpt lat="46.5709805" lon="7.2703513"></trkpt><trkpt lat="46.5710252" lon="7.2704813"></trkpt><trkpt lat="46.5711112" lon="7.2707085"></trkpt><trkpt lat="46.571171" lon="7.2708581"></trkpt><trkpt lat="46.5713178" lon="7.2710476"></trkpt><trkpt lat="46.5714316" lon="7.2712711"></trkpt><trkpt lat="46.5715626" lon="7.2714448"></trkpt><trkpt lat="46.5716256" lon="7.2715079"></trkpt><trkpt lat="46.5717008" lon="7.2716635"></trkpt><trkpt lat="46.5718262" lon="7.27187"></trkpt><trkpt lat="46.5719663" lon="7.2719832"></trkpt><trkpt lat="46.5720309" lon="7.2720405"></trkpt><trkpt lat="46.572148" lon="7.2720996"></trkpt><trkpt lat="46.5723681" lon="7.2722831"></trkpt><trkpt lat="46.5724767" lon="7.2724413"></trkpt><trkpt lat="46.5725321" lon="7.2725981"></trkpt><trkpt lat="46.5726022" lon="7.2727603"></trkpt><trkpt lat="46.5726401" lon="7.2728156"></trkpt><trkpt lat="46.5726914" lon="7.2728638"></trkpt><trkpt lat="46.5727107" lon="7.2729046"></trkpt><trkpt lat="46.5728755" lon="7.2730326"></trkpt><trkpt lat="46.5729399" lon="7.273116"></trkpt><trkpt lat="46.5730039" lon="7.2732655"></trkpt><trkpt lat="46.5731472" lon="7.2734951"></trkpt><trkpt lat="46.5732146" lon="7.2736322"></trkpt><trkpt lat="46.5733455" lon="7.273828"></trkpt><trkpt lat="46.5734506" lon="7.2740614"></trkpt><trkpt lat="46.5734958" lon="7.2742319"></trkpt><trkpt lat="46.5735618" lon="7.2743882"></trkpt><trkpt lat="46.5735922" lon="7.2744889"></trkpt><trkpt lat="46.5736311" lon="7.2746092"></trkpt><trkpt lat="46.5736811" lon="7.2747668"></trkpt><trkpt lat="46.5738083" lon="7.2750646"></trkpt><trkpt lat="46.5738581" lon="7.275271"></trkpt><trkpt lat="46.5738852" lon="7.2754951"></trkpt><trkpt lat="46.5739392" lon="7.2757833"></trkpt><trkpt lat="46.57397" lon="7.2759156"></trkpt><trkpt lat="46.5740013" lon="7.2759746"></trkpt><trkpt lat="46.5740351" lon="7.2760194"></trkpt><trkpt lat="46.5741771" lon="7.2761964"></trkpt><trkpt lat="46.5742571" lon="7.2763674"></trkpt><trkpt lat="46.5743371" lon="7.2765668"></trkpt><trkpt lat="46.574367" lon="7.2766712"></trkpt><trkpt lat="46.5744613" lon="7.2768904"></trkpt><trkpt lat="46.5745109" lon="7.2769871"></trkpt><trkpt lat="46.5745859" lon="7.2770688"></trkpt><trkpt lat="46.5747333" lon="7.2771591"></trkpt><trkpt lat="46.5748044" lon="7.2772181"></trkpt><trkpt lat="46.5750074" lon="7.2772551"></trkpt><trkpt lat="46.5751865" lon="7.2773754"></trkpt><trkpt lat="46.5753498" lon="7.277488"></trkpt><trkpt lat="46.5754636" lon="7.2775289"></trkpt><trkpt lat="46.5756211" lon="7.2775813"></trkpt><trkpt lat="46.5756723" lon="7.2775651"></trkpt><trkpt lat="46.5757123" lon="7.277573"></trkpt><trkpt lat="46.5757566" lon="7.2776056"></trkpt><trkpt lat="46.5758089" lon="7.2776603"></trkpt><trkpt lat="46.575949" lon="7.2778399"></trkpt><trkpt lat="46.5760256" lon="7.2779579"></trkpt><trkpt lat="46.5760495" lon="7.2780102"></trkpt><trkpt lat="46.5760679" lon="7.2780707"></trkpt><trkpt lat="46.5760853" lon="7.2781613"></trkpt><trkpt lat="46.5761157" lon="7.2782399"></trkpt><trkpt lat="46.5762483" lon="7.2784873"></trkpt><trkpt lat="46.5763128" lon="7.2785978"></trkpt><trkpt lat="46.5763856" lon="7.2786882"></trkpt><trkpt lat="46.5764322" lon="7.278628"></trkpt><trkpt lat="46.5764767" lon="7.2785078"></trkpt><trkpt lat="46.5765372" lon="7.2782382"></trkpt><trkpt lat="46.5765671" lon="7.2781573"></trkpt><trkpt lat="46.5765909" lon="7.2780682"></trkpt><trkpt lat="46.5766066" lon="7.2779784"></trkpt><trkpt lat="46.5766347" lon="7.2778872"></trkpt><trkpt lat="46.5766771" lon="7.2778047"></trkpt><trkpt lat="46.5767195" lon="7.2776927"></trkpt><trkpt lat="46.5767592" lon="7.2775988"></trkpt><trkpt lat="46.5767887" lon="7.2775331"></trkpt><trkpt lat="46.5768251" lon="7.2774171"></trkpt><trkpt lat="46.576855" lon="7.2773246"></trkpt><trkpt lat="46.5768564" lon="7.2772508"></trkpt><trkpt lat="46.5768651" lon="7.2771704"></trkpt><trkpt lat="46.5768811" lon="7.277124"></trkpt><trkpt lat="46.5769152" lon="7.2770905"></trkpt><trkpt lat="46.5769492" lon="7.2770733"></trkpt><trkpt lat="46.5771429" lon="7.2770626"></trkpt><trkpt lat="46.5772791" lon="7.2770834"></trkpt><trkpt lat="46.5773953" lon="7.2771346"></trkpt><trkpt lat="46.5774205" lon="7.2771639"></trkpt><trkpt lat="46.5774516" lon="7.2772204"></trkpt><trkpt lat="46.5774802" lon="7.2772431"></trkpt><trkpt lat="46.5775223" lon="7.2772573"></trkpt><trkpt lat="46.5775477" lon="7.2773061"></trkpt><trkpt lat="46.5775755" lon="7.2773339"></trkpt><trkpt lat="46.5776001" lon="7.2774037"></trkpt><trkpt lat="46.5776244" lon="7.2774257"></trkpt><trkpt lat="46.5776495" lon="7.2774641"></trkpt><trkpt lat="46.5776794" lon="7.2775322"></trkpt><trkpt lat="46.5777054" lon="7.2775655"></trkpt><trkpt lat="46.5777734" lon="7.277634"></trkpt><trkpt lat="46.5778133" lon="7.2777028"></trkpt><trkpt lat="46.5778508" lon="7.2777294"></trkpt><trkpt lat="46.577877" lon="7.2778143"></trkpt><trkpt lat="46.5779201" lon="7.2778433"></trkpt><trkpt lat="46.5780224" lon="7.2780062"></trkpt><trkpt lat="46.5780462" lon="7.2780248"></trkpt><trkpt lat="46.5780851" lon="7.2780344"></trkpt><trkpt lat="46.578096" lon="7.2780715"></trkpt><trkpt lat="46.5781128" lon="7.2780905"></trkpt><trkpt lat="46.5781173" lon="7.2781436"></trkpt><trkpt lat="46.5781516" lon="7.2781505"></trkpt><trkpt lat="46.5782264" lon="7.2782399"></trkpt><trkpt lat="46.5782738" lon="7.2783294"></trkpt><trkpt lat="46.578307" lon="7.2783356"></trkpt><trkpt lat="46.5783148" lon="7.2783818"></trkpt><trkpt lat="46.5783872" lon="7.2784157"></trkpt><trkpt lat="46.5784764" lon="7.2786082"></trkpt><trkpt lat="46.5785397" lon="7.2786893"></trkpt><trkpt lat="46.578554" lon="7.2787562"></trkpt><trkpt lat="46.5785921" lon="7.2787908"></trkpt><trkpt lat="46.5786251" lon="7.278827"></trkpt><trkpt lat="46.57866" lon="7.2788447"></trkpt><trkpt lat="46.5786821" lon="7.2788957"></trkpt><trkpt lat="46.5787915" lon="7.278954"></trkpt><trkpt lat="46.5789955" lon="7.2791652"></trkpt><trkpt lat="46.5790332" lon="7.2791865"></trkpt><trkpt lat="46.5790616" lon="7.2792539"></trkpt><trkpt lat="46.5791065" lon="7.2792707"></trkpt><trkpt lat="46.5791739" lon="7.2793423"></trkpt><trkpt lat="46.5792107" lon="7.2793534"></trkpt><trkpt lat="46.5793145" lon="7.279444"></trkpt><trkpt lat="46.5793661" lon="7.2794675"></trkpt><trkpt lat="46.5793732" lon="7.279528"></trkpt><trkpt lat="46.5794065" lon="7.2795331"></trkpt><trkpt lat="46.5794271" lon="7.2795937"></trkpt><trkpt lat="46.5794704" lon="7.2796132"></trkpt><trkpt lat="46.5794574" lon="7.279686"></trkpt><trkpt lat="46.5796121" lon="7.2798191"></trkpt><trkpt lat="46.579662" lon="7.2798646"></trkpt><trkpt lat="46.5796976" lon="7.2799705"></trkpt><trkpt lat="46.5798058" lon="7.2802197"></trkpt><trkpt lat="46.579884" lon="7.2804824"></trkpt><trkpt lat="46.5799229" lon="7.2806988"></trkpt><trkpt lat="46.5799853" lon="7.2807736"></trkpt><trkpt lat="46.5800353" lon="7.2808894"></trkpt><trkpt lat="46.5800869" lon="7.2809885"></trkpt><trkpt lat="46.5801603" lon="7.2810901"></trkpt><trkpt lat="46.5801661" lon="7.281125"></trkpt><trkpt lat="46.5802337" lon="7.2811608"></trkpt><trkpt lat="46.5802558" lon="7.2811881"></trkpt><trkpt lat="46.5802966" lon="7.2811823"></trkpt><trkpt lat="46.580322" lon="7.2811977"></trkpt><trkpt lat="46.5803724" lon="7.2811922"></trkpt><trkpt lat="46.5805057" lon="7.2812671"></trkpt><trkpt lat="46.5806091" lon="7.2813022"></trkpt><trkpt lat="46.5806615" lon="7.28132"></trkpt><trkpt lat="46.5806871" lon="7.2813302"></trkpt><trkpt lat="46.5807167" lon="7.2813609"></trkpt><trkpt lat="46.5807723" lon="7.2813622"></trkpt><trkpt lat="46.580816" lon="7.2813888"></trkpt><trkpt lat="46.5809021" lon="7.2814426"></trkpt><trkpt lat="46.5809788" lon="7.281512"></trkpt><trkpt lat="46.5810215" lon="7.2816032"></trkpt><trkpt lat="46.5810917" lon="7.2816664"></trkpt><trkpt lat="46.581166" lon="7.2817236"></trkpt><trkpt lat="46.5812005" lon="7.281856"></trkpt><trkpt lat="46.5812194" lon="7.2819379"></trkpt><trkpt lat="46.5812581" lon="7.2819934"></trkpt><trkpt lat="46.5813118" lon="7.2821086"></trkpt><trkpt lat="46.5813346" lon="7.2821929"></trkpt><trkpt lat="46.5813603" lon="7.2822193"></trkpt><trkpt lat="46.5814916" lon="7.2822956"></trkpt><trkpt lat="46.5815972" lon="7.2824573"></trkpt><trkpt lat="46.5816664" lon="7.2825153"></trkpt><trkpt lat="46.5818303" lon="7.282717"></trkpt><trkpt lat="46.5818883" lon="7.2828252"></trkpt><trkpt lat="46.5820071" lon="7.2831541"></trkpt><trkpt lat="46.5821011" lon="7.2833928"></trkpt><trkpt lat="46.5821612" lon="7.2834373"></trkpt><trkpt lat="46.5822884" lon="7.2835322"></trkpt><trkpt lat="46.5823871" lon="7.28371"></trkpt><trkpt lat="46.5825233" lon="7.2839024"></trkpt><trkpt lat="46.5826904" lon="7.284123"></trkpt><trkpt lat="46.5827789" lon="7.28437"></trkpt><trkpt lat="46.5827893" lon="7.2845446"></trkpt><trkpt lat="46.582875" lon="7.2848645"></trkpt><trkpt lat="46.5829351" lon="7.2851718"></trkpt><trkpt lat="46.5830985" lon="7.2853593"></trkpt><trkpt lat="46.5832232" lon="7.2855404"></trkpt><trkpt lat="46.5833178" lon="7.2856324"></trkpt><trkpt lat="46.5834447" lon="7.2857062"></trkpt><trkpt lat="46.5836202" lon="7.2858818"></trkpt><trkpt lat="46.5836883" lon="7.2858909"></trkpt><trkpt lat="46.583738" lon="7.2859392"></trkpt><trkpt lat="46.5838543" lon="7.2858899"></trkpt><trkpt lat="46.5839292" lon="7.2858943"></trkpt><trkpt lat="46.5841234" lon="7.2859573"></trkpt><trkpt lat="46.5841547" lon="7.2861098"></trkpt><trkpt lat="46.5843136" lon="7.2862449"></trkpt><trkpt lat="46.5843376" lon="7.2862116"></trkpt><trkpt lat="46.5843585" lon="7.2862391"></trkpt><trkpt lat="46.584394" lon="7.2862301"></trkpt><trkpt lat="46.584484" lon="7.2863751"></trkpt><trkpt lat="46.5844913" lon="7.2863127"></trkpt><trkpt lat="46.584507" lon="7.2863049"></trkpt><trkpt lat="46.5845437" lon="7.2863605"></trkpt><trkpt lat="46.5845756" lon="7.2863718"></trkpt><trkpt lat="46.5846326" lon="7.2866386"></trkpt><trkpt lat="46.5847442" lon="7.2869139"></trkpt><trkpt lat="46.5848096" lon="7.2870369"></trkpt><trkpt lat="46.5848292" lon="7.2871137"></trkpt><trkpt lat="46.5848423" lon="7.2873866"></trkpt><trkpt lat="46.5849072" lon="7.2875427"></trkpt><trkpt lat="46.585001" lon="7.2879393"></trkpt><trkpt lat="46.5850566" lon="7.2880814"></trkpt><trkpt lat="46.5851468" lon="7.2882525"></trkpt><trkpt lat="46.5852026" lon="7.2884001"></trkpt><trkpt lat="46.5853733" lon="7.2886099"></trkpt><trkpt lat="46.5855795" lon="7.2887422"></trkpt><trkpt lat="46.5859466" lon="7.2890576"></trkpt><trkpt lat="46.5860774" lon="7.2892588"></trkpt><trkpt lat="46.586187" lon="7.2893281"></trkpt><trkpt lat="46.5862544" lon="7.2893339"></trkpt><trkpt lat="46.5864129" lon="7.289476"></trkpt><trkpt lat="46.5864847" lon="7.2894877"></trkpt><trkpt lat="46.5865935" lon="7.289468"></trkpt><trkpt lat="46.5867364" lon="7.2895025"></trkpt><trkpt lat="46.5867798" lon="7.289535"></trkpt><trkpt lat="46.5868783" lon="7.2896688"></trkpt><trkpt lat="46.5869069" lon="7.2897389"></trkpt><trkpt lat="46.5869705" lon="7.289768"></trkpt><trkpt lat="46.587058" lon="7.289831"></trkpt><trkpt lat="46.5870728" lon="7.2898918"></trkpt><trkpt lat="46.5871189" lon="7.2899571"></trkpt><trkpt lat="46.5871576" lon="7.289999"></trkpt><trkpt lat="46.5871797" lon="7.2900523"></trkpt><trkpt lat="46.587199" lon="7.2900791"></trkpt><trkpt lat="46.587235" lon="7.2901797"></trkpt><trkpt lat="46.5873779" lon="7.290388"></trkpt><trkpt lat="46.5874138" lon="7.2904614"></trkpt><trkpt lat="46.587482" lon="7.2905469"></trkpt><trkpt lat="46.5876072" lon="7.290665"></trkpt><trkpt lat="46.5877057" lon="7.2908507"></trkpt><trkpt lat="46.5877597" lon="7.2909188"></trkpt><trkpt lat="46.5878741" lon="7.2909572"></trkpt><trkpt lat="46.5879391" lon="7.2909696"></trkpt><trkpt lat="46.5881147" lon="7.2910543"></trkpt><trkpt lat="46.5882747" lon="7.2911604"></trkpt><trkpt lat="46.5884434" lon="7.2912731"></trkpt><trkpt lat="46.5885735" lon="7.2913577"></trkpt><trkpt lat="46.5886579" lon="7.2913797"></trkpt><trkpt lat="46.5887756" lon="7.2914099"></trkpt><trkpt lat="46.5888025" lon="7.2914126"></trkpt><trkpt lat="46.5888249" lon="7.29141"></trkpt><trkpt lat="46.5888486" lon="7.2914035"></trkpt><trkpt lat="46.5888742" lon="7.2913892"></trkpt><trkpt lat="46.588931" lon="7.2913552"></trkpt><trkpt lat="46.5889692" lon="7.2913368"></trkpt><trkpt lat="46.5890126" lon="7.2913211"></trkpt><trkpt lat="46.5890476" lon="7.291315"></trkpt><trkpt lat="46.5890793" lon="7.2913108"></trkpt><trkpt lat="46.5891134" lon="7.2913117"></trkpt><trkpt lat="46.5891492" lon="7.2913176"></trkpt><trkpt lat="46.5891862" lon="7.2913269"></trkpt><trkpt lat="46.5892203" lon="7.2913399"></trkpt><trkpt lat="46.5892609" lon="7.2913589"></trkpt><trkpt lat="46.5893192" lon="7.2913903"></trkpt><trkpt lat="46.5893741" lon="7.2914269"></trkpt><trkpt lat="46.5894534" lon="7.2914868"></trkpt><trkpt lat="46.5895382" lon="7.2915546"></trkpt><trkpt lat="46.5896252" lon="7.2916297"></trkpt><trkpt lat="46.5897676" lon="7.2917599"></trkpt><trkpt lat="46.5898269" lon="7.2918198"></trkpt><trkpt lat="46.5898594" lon="7.291858"></trkpt><trkpt lat="46.5899387" lon="7.2919675"></trkpt><trkpt lat="46.5900293" lon="7.2920925"></trkpt><trkpt lat="46.590085" lon="7.2921643"></trkpt><trkpt lat="46.5901229" lon="7.2922015"></trkpt><trkpt lat="46.5901744" lon="7.2922404"></trkpt><trkpt lat="46.590261" lon="7.2923044"></trkpt><trkpt lat="46.5903199" lon="7.2923522"></trkpt><trkpt lat="46.5904204" lon="7.2924467"></trkpt><trkpt lat="46.5904958" lon="7.2925196"></trkpt><trkpt lat="46.5905484" lon="7.2925863"></trkpt><trkpt lat="46.590629" lon="7.2926963"></trkpt><trkpt lat="46.5907645" lon="7.2928719"></trkpt><trkpt lat="46.5908965" lon="7.2930414"></trkpt><trkpt lat="46.5910826" lon="7.2932937"></trkpt><trkpt lat="46.5912124" lon="7.2934631"></trkpt><trkpt lat="46.5912713" lon="7.2935481"></trkpt><trkpt lat="46.5913688" lon="7.2937049"></trkpt><trkpt lat="46.5914501" lon="7.293831"></trkpt><trkpt lat="46.5914922" lon="7.2938845"></trkpt><trkpt lat="46.5915628" lon="7.2939723"></trkpt><trkpt lat="46.5916165" lon="7.2940437"></trkpt><trkpt lat="46.5916465" lon="7.2940901"></trkpt><trkpt lat="46.5916723" lon="7.2941425"></trkpt><trkpt lat="46.5916922" lon="7.2941941"></trkpt><trkpt lat="46.5917184" lon="7.2942846"></trkpt><trkpt lat="46.5917505" lon="7.2944063"></trkpt><trkpt lat="46.5918483" lon="7.2948638"></trkpt><trkpt lat="46.5918959" lon="7.2950726"></trkpt><trkpt lat="46.591946" lon="7.2952507"></trkpt><trkpt lat="46.5920384" lon="7.2955845"></trkpt><trkpt lat="46.5920643" lon="7.2956887"></trkpt><trkpt lat="46.5920782" lon="7.2957731"></trkpt><trkpt lat="46.5920867" lon="7.2958389"></trkpt><trkpt lat="46.5920876" lon="7.2958889"></trkpt><trkpt lat="46.5920814" lon="7.2959364"></trkpt><trkpt lat="46.5920675" lon="7.2959945"></trkpt><trkpt lat="46.5920511" lon="7.2960389"></trkpt><trkpt lat="46.5920213" lon="7.2960993"></trkpt><trkpt lat="46.5920093" lon="7.2961337"></trkpt><trkpt lat="46.5920037" lon="7.2961596"></trkpt><trkpt lat="46.5920004" lon="7.2961915"></trkpt><trkpt lat="46.5920016" lon="7.2962186"></trkpt><trkpt lat="46.5920046" lon="7.2962423"></trkpt><trkpt lat="46.5920109" lon="7.2962703"></trkpt><trkpt lat="46.5920217" lon="7.2963041"></trkpt><trkpt lat="46.5920462" lon="7.2963596"></trkpt><trkpt lat="46.5920885" lon="7.2964433"></trkpt><trkpt lat="46.5921253" lon="7.2964774"></trkpt><trkpt lat="46.5921673" lon="7.2964725"></trkpt><trkpt lat="46.5921917" lon="7.2964865"></trkpt><trkpt lat="46.5922417" lon="7.2965465"></trkpt><trkpt lat="46.5922383" lon="7.2965969"></trkpt><trkpt lat="46.5922116" lon="7.296618"></trkpt><trkpt lat="46.5922358" lon="7.2966936"></trkpt><trkpt lat="46.592265" lon="7.2967689"></trkpt><trkpt lat="46.5923552" lon="7.2968815"></trkpt><trkpt lat="46.5923923" lon="7.296926"></trkpt><trkpt lat="46.5924153" lon="7.2969339"></trkpt><trkpt lat="46.5924541" lon="7.2969833"></trkpt><trkpt lat="46.5925463" lon="7.2970252"></trkpt><trkpt lat="46.5925937" lon="7.2970469"></trkpt><trkpt lat="46.5926318" lon="7.2970751"></trkpt><trkpt lat="46.5926772" lon="7.297077"></trkpt><trkpt lat="46.5927688" lon="7.2971183"></trkpt><trkpt lat="46.5928164" lon="7.2971866"></trkpt><trkpt lat="46.5928578" lon="7.2972306"></trkpt><trkpt lat="46.5929026" lon="7.2972575"></trkpt><trkpt lat="46.5929491" lon="7.2973225"></trkpt><trkpt lat="46.5929677" lon="7.2974123"></trkpt><trkpt lat="46.5929923" lon="7.2974732"></trkpt><trkpt lat="46.5930389" lon="7.2975189"></trkpt><trkpt lat="46.5930925" lon="7.2975707"></trkpt><trkpt lat="46.5931436" lon="7.2976332"></trkpt><trkpt lat="46.5931905" lon="7.297663"></trkpt><trkpt lat="46.5932218" lon="7.2977296"></trkpt><trkpt lat="46.5933135" lon="7.2977618"></trkpt><trkpt lat="46.59338" lon="7.2977801"></trkpt><trkpt lat="46.5934331" lon="7.2978405"></trkpt><trkpt lat="46.5934965" lon="7.2979353"></trkpt><trkpt lat="46.5935669" lon="7.2980065"></trkpt><trkpt lat="46.5936038" lon="7.2980314"></trkpt><trkpt lat="46.5936385" lon="7.2980637"></trkpt><trkpt lat="46.5936785" lon="7.2981076"></trkpt><trkpt lat="46.5937253" lon="7.2981773"></trkpt><trkpt lat="46.5937617" lon="7.2982304"></trkpt><trkpt lat="46.593822" lon="7.2982822"></trkpt><trkpt lat="46.5939184" lon="7.2983413"></trkpt><trkpt lat="46.5940615" lon="7.2983333"></trkpt><trkpt lat="46.5941428" lon="7.298328"></trkpt><trkpt lat="46.5941596" lon="7.2982981"></trkpt><trkpt lat="46.5942153" lon="7.2983363"></trkpt><trkpt lat="46.5944144" lon="7.2983651"></trkpt><trkpt lat="46.5945084" lon="7.2983527"></trkpt><trkpt lat="46.5946774" lon="7.2982948"></trkpt><trkpt lat="46.5948235" lon="7.2982481"></trkpt><trkpt lat="46.5949151" lon="7.2981666"></trkpt><trkpt lat="46.5949701" lon="7.2981619"></trkpt><trkpt lat="46.5950189" lon="7.2981325"></trkpt><trkpt lat="46.5950871" lon="7.2980426"></trkpt><trkpt lat="46.5951056" lon="7.2979794"></trkpt><trkpt lat="46.595229" lon="7.2978804"></trkpt><trkpt lat="46.5953487" lon="7.2977652"></trkpt><trkpt lat="46.5953875" lon="7.2977369"></trkpt><trkpt lat="46.5954245" lon="7.2976659"></trkpt><trkpt lat="46.5953749" lon="7.2975656"></trkpt><trkpt lat="46.5954013" lon="7.2975008"></trkpt><trkpt lat="46.5954891" lon="7.2974121"></trkpt><trkpt lat="46.59557" lon="7.2974043"></trkpt><trkpt lat="46.5956262" lon="7.2973157"></trkpt><trkpt lat="46.5956791" lon="7.2973094"></trkpt><trkpt lat="46.5956405" lon="7.2972397"></trkpt><trkpt lat="46.5956071" lon="7.2971804"></trkpt><trkpt lat="46.5956059" lon="7.2971199"></trkpt><trkpt lat="46.5956251" lon="7.2970604"></trkpt><trkpt lat="46.5956972" lon="7.2969296"></trkpt><trkpt lat="46.595715" lon="7.2969971"></trkpt><trkpt lat="46.5957362" lon="7.2969584"></trkpt><trkpt lat="46.5957402" lon="7.2968904"></trkpt><trkpt lat="46.5957674" lon="7.2969276"></trkpt><trkpt lat="46.5957753" lon="7.2968906"></trkpt><trkpt lat="46.5957999" lon="7.2969725"></trkpt><trkpt lat="46.5958146" lon="7.2969494"></trkpt><trkpt lat="46.5958133" lon="7.2966967"></trkpt><trkpt lat="46.5958261" lon="7.2965848"></trkpt><trkpt lat="46.5958743" lon="7.2964927"></trkpt><trkpt lat="46.5958814" lon="7.2963957"></trkpt><trkpt lat="46.5959386" lon="7.2963099"></trkpt><trkpt lat="46.5959404" lon="7.296263"></trkpt><trkpt lat="46.5960228" lon="7.296139"></trkpt><trkpt lat="46.5960786" lon="7.2960457"></trkpt><trkpt lat="46.5961152" lon="7.2959184"></trkpt><trkpt lat="46.5960744" lon="7.2957849"></trkpt><trkpt lat="46.5961154" lon="7.295338"></trkpt><trkpt lat="46.5960785" lon="7.2951571"></trkpt><trkpt lat="46.596073" lon="7.2950182"></trkpt><trkpt lat="46.5959994" lon="7.2947811"></trkpt><trkpt lat="46.595992" lon="7.2946496"></trkpt><trkpt lat="46.5959585" lon="7.2945369"></trkpt><trkpt lat="46.595898" lon="7.2944283"></trkpt><trkpt lat="46.5958344" lon="7.2943653"></trkpt><trkpt lat="46.5958213" lon="7.2942193"></trkpt><trkpt lat="46.5958304" lon="7.2939323"></trkpt><trkpt lat="46.5957489" lon="7.2935132"></trkpt><trkpt lat="46.5955742" lon="7.2932314"></trkpt><trkpt lat="46.5955682" lon="7.2929416"></trkpt><trkpt lat="46.5955386" lon="7.2928579"></trkpt><trkpt lat="46.5955284" lon="7.2927926"></trkpt><trkpt lat="46.5955522" lon="7.2926436"></trkpt><trkpt lat="46.5955432" lon="7.2925776"></trkpt><trkpt lat="46.5955436" lon="7.2924279"></trkpt><trkpt lat="46.5955746" lon="7.2923872"></trkpt><trkpt lat="46.5955739" lon="7.292285"></trkpt><trkpt lat="46.5955949" lon="7.2922469"></trkpt><trkpt lat="46.5956137" lon="7.2921825"></trkpt><trkpt lat="46.5956252" lon="7.2920978"></trkpt><trkpt lat="46.5956531" lon="7.2919998"></trkpt><trkpt lat="46.5956473" lon="7.2919423"></trkpt><trkpt lat="46.5956567" lon="7.291818"></trkpt><trkpt lat="46.5956525" lon="7.2917519"></trkpt><trkpt lat="46.5956745" lon="7.291623"></trkpt><trkpt lat="46.5956816" lon="7.2915048"></trkpt><trkpt lat="46.5956979" lon="7.291354"></trkpt><trkpt lat="46.5956728" lon="7.2910776"></trkpt><trkpt lat="46.5956695" lon="7.2909965"></trkpt><trkpt lat="46.5956792" lon="7.2909517"></trkpt><trkpt lat="46.5956715" lon="7.2908421"></trkpt><trkpt lat="46.5956731" lon="7.2906833"></trkpt><trkpt lat="46.5956598" lon="7.2906216"></trkpt><trkpt lat="46.595647" lon="7.2905265"></trkpt><trkpt lat="46.5956543" lon="7.2904266"></trkpt><trkpt lat="46.5956734" lon="7.2903383"></trkpt><trkpt lat="46.5956935" lon="7.2903019"></trkpt><trkpt lat="46.595734" lon="7.2902656"></trkpt><trkpt lat="46.5957595" lon="7.290197"></trkpt><trkpt lat="46.5958132" lon="7.2901127"></trkpt><trkpt lat="46.5958311" lon="7.2900285"></trkpt><trkpt lat="46.5958539" lon="7.2899533"></trkpt><trkpt lat="46.5958695" lon="7.2896534"></trkpt><trkpt lat="46.5958556" lon="7.2895239"></trkpt><trkpt lat="46.5958957" lon="7.289426"></trkpt><trkpt lat="46.595875" lon="7.2893219"></trkpt><trkpt lat="46.5958887" lon="7.28927"></trkpt><trkpt lat="46.5959217" lon="7.2892283"></trkpt><trkpt lat="46.5959738" lon="7.2891869"></trkpt><trkpt lat="46.5960284" lon="7.289141"></trkpt><trkpt lat="46.5960338" lon="7.2890872"></trkpt><trkpt lat="46.5960799" lon="7.2890441"></trkpt><trkpt lat="46.5961018" lon="7.2889486"></trkpt><trkpt lat="46.5961169" lon="7.2889299"></trkpt><trkpt lat="46.59616" lon="7.288923"></trkpt><trkpt lat="46.5961854" lon="7.288886"></trkpt><trkpt lat="46.5961854" lon="7.2887704"></trkpt><trkpt lat="46.5961703" lon="7.2887378"></trkpt><trkpt lat="46.5962091" lon="7.2886795"></trkpt><trkpt lat="46.5962333" lon="7.2886565"></trkpt><trkpt lat="46.5962473" lon="7.2886433"></trkpt><trkpt lat="46.5962433" lon="7.2886012"></trkpt><trkpt lat="46.5963" lon="7.2885304"></trkpt><trkpt lat="46.5962952" lon="7.2884836"></trkpt><trkpt lat="46.5963194" lon="7.2884475"></trkpt><trkpt lat="46.5963222" lon="7.2884003"></trkpt><trkpt lat="46.5963666" lon="7.2883054"></trkpt><trkpt lat="46.5963631" lon="7.2882639"></trkpt><trkpt lat="46.596334" lon="7.2882207"></trkpt><trkpt lat="46.5962939" lon="7.2881854"></trkpt><trkpt lat="46.5962915" lon="7.2881422"></trkpt><trkpt lat="46.5962679" lon="7.2880645"></trkpt><trkpt lat="46.5962576" lon="7.2879525"></trkpt><trkpt lat="46.5961889" lon="7.2877452"></trkpt><trkpt lat="46.5961612" lon="7.2876225"></trkpt><trkpt lat="46.5961382" lon="7.2874287"></trkpt><trkpt lat="46.5961021" lon="7.2873728"></trkpt><trkpt lat="46.5960908" lon="7.2873119"></trkpt><trkpt lat="46.5960886" lon="7.2872555"></trkpt><trkpt lat="46.5960706" lon="7.2872033"></trkpt><trkpt lat="46.5960157" lon="7.287161"></trkpt><trkpt lat="46.5959896" lon="7.2871292"></trkpt><trkpt lat="46.5959684" lon="7.2870691"></trkpt><trkpt lat="46.5959672" lon="7.2869819"></trkpt><trkpt lat="46.5959593" lon="7.2869263"></trkpt><trkpt lat="46.5959431" lon="7.2868805"></trkpt><trkpt lat="46.5959199" lon="7.2868425"></trkpt><trkpt lat="46.5959085" lon="7.2867649"></trkpt><trkpt lat="46.5959073" lon="7.2866728"></trkpt><trkpt lat="46.5959273" lon="7.286571"></trkpt><trkpt lat="46.5959518" lon="7.2863322"></trkpt><trkpt lat="46.595898" lon="7.2861099"></trkpt><trkpt lat="46.5958502" lon="7.2860492"></trkpt><trkpt lat="46.5958265" lon="7.2859609"></trkpt><trkpt lat="46.5958168" lon="7.2858983"></trkpt><trkpt lat="46.5958203" lon="7.2858317"></trkpt><trkpt lat="46.5958507" lon="7.2857119"></trkpt><trkpt lat="46.5959143" lon="7.2856163"></trkpt><trkpt lat="46.5959828" lon="7.2855556"></trkpt><trkpt lat="46.5960638" lon="7.2855062"></trkpt><trkpt lat="46.5962012" lon="7.2854543"></trkpt><trkpt lat="46.5963467" lon="7.2854201"></trkpt><trkpt lat="46.5964852" lon="7.2853718"></trkpt><trkpt lat="46.5965348" lon="7.2853325"></trkpt><trkpt lat="46.5965528" lon="7.2852528"></trkpt><trkpt lat="46.596538" lon="7.2851478"></trkpt><trkpt lat="46.5964929" lon="7.2848757"></trkpt><trkpt lat="46.5964098" lon="7.2844864"></trkpt><trkpt lat="46.5962562" lon="7.2838086"></trkpt><trkpt lat="46.5962063" lon="7.2837075"></trkpt><trkpt lat="46.5961421" lon="7.2836638"></trkpt><trkpt lat="46.5959592" lon="7.2835953"></trkpt><trkpt lat="46.595875" lon="7.2835681"></trkpt><trkpt lat="46.5958121" lon="7.2835155"></trkpt><trkpt lat="46.5956575" lon="7.2833736"></trkpt><trkpt lat="46.595461" lon="7.2831645"></trkpt><trkpt lat="46.5954236" lon="7.2831355"></trkpt><trkpt lat="46.5953986" lon="7.2831389"></trkpt><trkpt lat="46.595378" lon="7.2831693"></trkpt><trkpt lat="46.5953596" lon="7.2832161"></trkpt><trkpt lat="46.5953492" lon="7.2832538"></trkpt><trkpt lat="46.5953467" lon="7.2833348"></trkpt></trkseg></trk></gpx>
