<?xml version="1.0" encoding="UTF-8"?>
<gpx version="1.1" creator="Good Shit" xmlns="http://www.topografix.com/GPX/1/1"><trk><name>Hammerknuden rundt — Hammerknuden rundt</name><trkseg><trkpt lat="55.29102965356291" lon="14.775777999547712"></trkpt><trkpt lat="55.2913078" lon="14.7757876"></trkpt><trkpt lat="55.2919082" lon="14.7758157"></trkpt><trkpt lat="55.291962" lon="14.7758182"></trkpt><trkpt lat="55.2920419" lon="14.7758497"></trkpt><trkpt lat="55.2921232" lon="14.7759114"></trkpt><trkpt lat="55.2922039" lon="14.7760119"></trkpt><trkpt lat="55.29230230926226" lon="14.776181885665352"></trkpt><trkpt lat="55.29230230926226" lon="14.77618188566535"></trkpt><trkpt lat="55.29230230926226" lon="14.776181885665352"></trkpt><trkpt lat="55.2925006" lon="14.7765244"></trkpt><trkpt lat="55.2925645" lon="14.7766105"></trkpt><trkpt lat="55.2925923" lon="14.7766165"></trkpt><trkpt lat="55.2926325" lon="14.7766519"></trkpt><trkpt lat="55.2926487" lon="14.776708"></trkpt><trkpt lat="55.2926855" lon="14.7767432"></trkpt><trkpt lat="55.2928235" lon="14.7768167"></trkpt><trkpt lat="55.2929844" lon="14.7770305"></trkpt><trkpt lat="55.2931485" lon="14.7771985"></trkpt><trkpt lat="55.293396052875615" lon="14.777524781137632"></trkpt><trkpt lat="55.293396052875615" lon="14.77752478113763"></trkpt><trkpt lat="55.293396052875615" lon="14.777524781137632"></trkpt><trkpt lat="55.2934403" lon="14.7775831"></trkpt><trkpt lat="55.2935381" lon="14.7776423"></trkpt><trkpt lat="55.2937734" lon="14.7777348"></trkpt><trkpt lat="55.2938994" lon="14.7777224"></trkpt><trkpt lat="55.2941129" lon="14.7776549"></trkpt><trkpt lat="55.2942751" lon="14.7776037"></trkpt><trkpt lat="55.2944072" lon="14.777597"></trkpt><trkpt lat="55.2945218" lon="14.7776185"></trkpt><trkpt lat="55.294708407140284" lon="14.777687783881827"></trkpt><trkpt lat="55.294708407140284" lon="14.777687783881825"></trkpt><trkpt lat="55.294708407140284" lon="14.777687783881827"></trkpt><trkpt lat="55.2947168" lon="14.7776909"></trkpt><trkpt lat="55.2948142" lon="14.7777137"></trkpt><trkpt lat="55.2950123" lon="14.7777084"></trkpt><trkpt lat="55.2950902" lon="14.7776916"></trkpt><trkpt lat="55.2954439" lon="14.7774864"></trkpt><trkpt lat="55.2957732" lon="14.7772349"></trkpt><trkpt lat="55.2958671" lon="14.7771545"></trkpt><trkpt lat="55.29599330881522" lon="14.777083958287207"></trkpt><trkpt lat="55.2960351" lon="14.7770606"></trkpt><trkpt lat="55.2960741" lon="14.7770056"></trkpt><trkpt lat="55.2961038" lon="14.7769419"></trkpt><trkpt lat="55.2961409" lon="14.7767884"></trkpt><trkpt lat="55.2961939" lon="14.7766945"></trkpt><trkpt lat="55.2962951" lon="14.7765885"></trkpt><trkpt lat="55.2963444" lon="14.7765107"></trkpt><trkpt lat="55.2963852" lon="14.7764269"></trkpt><trkpt lat="55.2964478" lon="14.7763357"></trkpt><trkpt lat="55.29651" lon="14.7762606"></trkpt><trkpt lat="55.2966524" lon="14.7760125"></trkpt><trkpt lat="55.296741" lon="14.7758503"></trkpt><trkpt lat="55.2969311" lon="14.7755411"></trkpt><trkpt lat="55.29696780589771" lon="14.775489422720394"></trkpt><trkpt lat="55.2971216" lon="14.7752729"></trkpt><trkpt lat="55.2974289" lon="14.7747505"></trkpt><trkpt lat="55.2975939" lon="14.7744374"></trkpt><trkpt lat="55.2976423" lon="14.7743677"></trkpt><trkpt lat="55.2976859" lon="14.7743402"></trkpt><trkpt lat="55.2978865" lon="14.7742878"></trkpt><trkpt lat="55.2979819" lon="14.7742385"></trkpt><trkpt lat="55.2980283" lon="14.7741666"></trkpt><trkpt lat="55.298033615070324" lon="14.774148750883244"></trkpt><trkpt lat="55.298033615070324" lon="14.774148750883246"></trkpt><trkpt lat="55.298033615070324" lon="14.774148750883244"></trkpt><trkpt lat="55.2980618" lon="14.7740541"></trkpt><trkpt lat="55.2981094" lon="14.7737957"></trkpt><trkpt lat="55.298129" lon="14.7735127"></trkpt><trkpt lat="55.2981539" lon="14.7734953"></trkpt><trkpt lat="55.2982525" lon="14.7733571"></trkpt><trkpt lat="55.2982781" lon="14.7732733"></trkpt><trkpt lat="55.2982823" lon="14.7732484"></trkpt><trkpt lat="55.2983291" lon="14.7729689"></trkpt><trkpt lat="55.298328" lon="14.7728576"></trkpt><trkpt lat="55.2983338" lon="14.7727771"></trkpt><trkpt lat="55.2983411" lon="14.7726769"></trkpt><trkpt lat="55.2982501" lon="14.7722353"></trkpt><trkpt lat="55.298194" lon="14.7720764"></trkpt><trkpt lat="55.298172734149695" lon="14.772008711250942"></trkpt><trkpt lat="55.298172734149695" lon="14.772008711250944"></trkpt><trkpt lat="55.298172734149695" lon="14.772008711250942"></trkpt><trkpt lat="55.298147" lon="14.7719268"></trkpt><trkpt lat="55.2980405" lon="14.7715205"></trkpt><trkpt lat="55.2979588" lon="14.7712885"></trkpt><trkpt lat="55.2978676" lon="14.7707192"></trkpt><trkpt lat="55.2978184" lon="14.7705103"></trkpt><trkpt lat="55.2977488" lon="14.7703926"></trkpt><trkpt lat="55.2976526" lon="14.7702961"></trkpt><trkpt lat="55.2976023" lon="14.7701385"></trkpt><trkpt lat="55.2975362" lon="14.7700573"></trkpt><trkpt lat="55.29752355695922" lon="14.770048990115763"></trkpt><trkpt lat="55.2972879" lon="14.7698941"></trkpt><trkpt lat="55.2971621" lon="14.7698857"></trkpt><trkpt lat="55.2971132" lon="14.7699058"></trkpt><trkpt lat="55.2970514" lon="14.7698723"></trkpt><trkpt lat="55.2969995" lon="14.769944"></trkpt><trkpt lat="55.2969583" lon="14.7699521"></trkpt><trkpt lat="55.2968858" lon="14.7698869"></trkpt><trkpt lat="55.2968238" lon="14.7696993"></trkpt><trkpt lat="55.2967788" lon="14.7695719"></trkpt><trkpt lat="55.2967101" lon="14.7694431"></trkpt><trkpt lat="55.2966226" lon="14.7691986"></trkpt><trkpt lat="55.2965944" lon="14.7690924"></trkpt><trkpt lat="55.29656856202319" lon="14.768819411739626"></trkpt><trkpt lat="55.2964927" lon="14.7680179"></trkpt><trkpt lat="55.2964721" lon="14.7679079"></trkpt><trkpt lat="55.2963705" lon="14.7674961"></trkpt><trkpt lat="55.296313" lon="14.767345"></trkpt><trkpt lat="55.2962497" lon="14.7672111"></trkpt><trkpt lat="55.2961771" lon="14.7670935"></trkpt><trkpt lat="55.2960313" lon="14.7669017"></trkpt><trkpt lat="55.295986255922585" lon="14.766820017808723"></trkpt><trkpt lat="55.295986255922585" lon="14.766820017808724"></trkpt><trkpt lat="55.295986255922585" lon="14.766820017808723"></trkpt><trkpt lat="55.2959252" lon="14.7667093"></trkpt><trkpt lat="55.2956585" lon="14.7663561"></trkpt><trkpt lat="55.2955583" lon="14.7661684"></trkpt><trkpt lat="55.2955407" lon="14.7661353"></trkpt><trkpt lat="55.2954392" lon="14.7660029"></trkpt><trkpt lat="55.2953555" lon="14.7657603"></trkpt><trkpt lat="55.295254" lon="14.7656485"></trkpt><trkpt lat="55.2951115" lon="14.7654267"></trkpt><trkpt lat="55.29498051670526" lon="14.765340713927934"></trkpt><trkpt lat="55.29498051670526" lon="14.765340713927936"></trkpt><trkpt lat="55.29498051670526" lon="14.765340713927934"></trkpt><trkpt lat="55.2949089" lon="14.7652937"></trkpt><trkpt lat="55.2947768" lon="14.7651315"></trkpt><trkpt lat="55.2944065" lon="14.7646031"></trkpt><trkpt lat="55.2940741" lon="14.7642514"></trkpt><trkpt lat="55.2940174" lon="14.7641706"></trkpt><trkpt lat="55.2939663" lon="14.7640606"></trkpt><trkpt lat="55.293887179779084" lon="14.763971665893683"></trkpt><trkpt lat="55.293887179779084" lon="14.763971665893681"></trkpt><trkpt lat="55.293887179779084" lon="14.763971665893683"></trkpt><trkpt lat="55.2938494" lon="14.7639292"></trkpt><trkpt lat="55.2936701" lon="14.7637222"></trkpt><trkpt lat="55.2935407" lon="14.7635574"></trkpt><trkpt lat="55.2934353" lon="14.7634924"></trkpt><trkpt lat="55.2933765" lon="14.7635367"></trkpt><trkpt lat="55.2933182" lon="14.7635289"></trkpt><trkpt lat="55.2931572" lon="14.7634497"></trkpt><trkpt lat="55.2929842" lon="14.7633197"></trkpt><trkpt lat="55.2927425" lon="14.7631059"></trkpt><trkpt lat="55.29269382346971" lon="14.763041822985553"></trkpt><trkpt lat="55.29269382346971" lon="14.763041822985555"></trkpt><trkpt lat="55.29269382346971" lon="14.763041822985553"></trkpt><trkpt lat="55.2926009" lon="14.7629195"></trkpt><trkpt lat="55.2924221" lon="14.762534"></trkpt><trkpt lat="55.2923066" lon="14.7623616"></trkpt><trkpt lat="55.2921762" lon="14.7623267"></trkpt><trkpt lat="55.2920882" lon="14.7622312"></trkpt><trkpt lat="55.2918672" lon="14.7617916"></trkpt><trkpt lat="55.291693080378224" lon="14.76156836583678"></trkpt><trkpt lat="55.291693080378224" lon="14.761568365836778"></trkpt><trkpt lat="55.291693080378224" lon="14.76156836583678"></trkpt><trkpt lat="55.2915219" lon="14.7613489"></trkpt><trkpt lat="55.2914" lon="14.7612341"></trkpt><trkpt lat="55.2911059" lon="14.7610957"></trkpt><trkpt lat="55.2909557" lon="14.7609487"></trkpt><trkpt lat="55.2906466" lon="14.7606955"></trkpt><trkpt lat="55.290512" lon="14.7606197"></trkpt><trkpt lat="55.29047869429917" lon="14.760565055581752"></trkpt><trkpt lat="55.29047869429917" lon="14.760565055581754"></trkpt><trkpt lat="55.29047869429917" lon="14.760565055581752"></trkpt><trkpt lat="55.2904196" lon="14.7604681"></trkpt><trkpt lat="55.2903329" lon="14.7601524"></trkpt><trkpt lat="55.2902513" lon="14.7597359"></trkpt><trkpt lat="55.2901598" lon="14.7595418"></trkpt><trkpt lat="55.2901373" lon="14.7594008"></trkpt><trkpt lat="55.2901339" lon="14.7591749"></trkpt><trkpt lat="55.2900916" lon="14.758852"></trkpt><trkpt lat="55.290032" lon="14.7586883"></trkpt><trkpt lat="55.29004237197879" lon="14.758433059130555"></trkpt><trkpt lat="55.2900458" lon="14.7583487"></trkpt><trkpt lat="55.2900295" lon="14.7579248"></trkpt><trkpt lat="55.2899431" lon="14.757092"></trkpt><trkpt lat="55.2899422" lon="14.7569176"></trkpt><trkpt lat="55.2899077" lon="14.756769"></trkpt><trkpt lat="55.2898404" lon="14.7565523"></trkpt><trkpt lat="55.289750919495944" lon="14.756156359472962"></trkpt><trkpt lat="55.289750919495944" lon="14.75615635947296"></trkpt><trkpt lat="55.289750919495944" lon="14.756156359472962"></trkpt><trkpt lat="55.2897359" lon="14.7560899"></trkpt><trkpt lat="55.2896858" lon="14.7558094"></trkpt><trkpt lat="55.2896548" lon="14.7557412"></trkpt><trkpt lat="55.2895806" lon="14.7556677"></trkpt><trkpt lat="55.289505" lon="14.7555995"></trkpt><trkpt lat="55.2894843" lon="14.7555229"></trkpt><trkpt lat="55.2895063" lon="14.7554259"></trkpt><trkpt lat="55.289502" lon="14.7553577"></trkpt><trkpt lat="55.2894787" lon="14.7552842"></trkpt><trkpt lat="55.289401" lon="14.7551727"></trkpt><trkpt lat="55.2893622" lon="14.7551743"></trkpt><trkpt lat="55.2893003" lon="14.7552063"></trkpt><trkpt lat="55.2891422" lon="14.7549111"></trkpt><trkpt lat="55.28884155110254" lon="14.754541784988932"></trkpt><trkpt lat="55.2888379" lon="14.7545373"></trkpt><trkpt lat="55.2887913" lon="14.7545055"></trkpt><trkpt lat="55.2887274" lon="14.7542932"></trkpt><trkpt lat="55.2886428" lon="14.754228"></trkpt><trkpt lat="55.2884779" lon="14.7541219"></trkpt><trkpt lat="55.2879349" lon="14.753517"></trkpt><trkpt lat="55.2877452" lon="14.753478"></trkpt><trkpt lat="55.28771676756772" lon="14.753480580686434"></trkpt><trkpt lat="55.2873651" lon="14.7535125"></trkpt><trkpt lat="55.2871336" lon="14.7531654"></trkpt><trkpt lat="55.2870207" lon="14.7531289"></trkpt><trkpt lat="55.2869231" lon="14.7530092"></trkpt><trkpt lat="55.286785" lon="14.7526832"></trkpt><trkpt lat="55.286591450057344" lon="14.752549869291759"></trkpt><trkpt lat="55.286591450057344" lon="14.75254986929176"></trkpt><trkpt lat="55.286591450057344" lon="14.752549869291759"></trkpt><trkpt lat="55.2863196" lon="14.7523626"></trkpt><trkpt lat="55.286156" lon="14.7523047"></trkpt><trkpt lat="55.2860461" lon="14.7523305"></trkpt><trkpt lat="55.2853868" lon="14.7521246"></trkpt><trkpt lat="55.28531463416395" lon="14.752139027564272"></trkpt><trkpt lat="55.2851292" lon="14.7521761"></trkpt><trkpt lat="55.2847092" lon="14.7521804"></trkpt><trkpt lat="55.2845636" lon="14.7522265"></trkpt><trkpt lat="55.2843478" lon="14.7524377"></trkpt><trkpt lat="55.2841829" lon="14.7524913"></trkpt><trkpt lat="55.2840352" lon="14.7524848"></trkpt><trkpt lat="55.28400725728836" lon="14.752492285001175"></trkpt><trkpt lat="55.28400725728836" lon="14.752492285001173"></trkpt><trkpt lat="55.28400725728836" lon="14.752492285001175"></trkpt><trkpt lat="55.283747" lon="14.752562"></trkpt><trkpt lat="55.2834454" lon="14.7525856"></trkpt><trkpt lat="55.2831471" lon="14.7526201"></trkpt><trkpt lat="55.2830245" lon="14.7527815"></trkpt><trkpt lat="55.282847" lon="14.7527879"></trkpt><trkpt lat="55.2827437" lon="14.7528815"></trkpt><trkpt lat="55.282701508707916" lon="14.752871082984255"></trkpt><trkpt lat="55.282701508707916" lon="14.752871082984257"></trkpt><trkpt lat="55.282701508707916" lon="14.752871082984255"></trkpt><trkpt lat="55.2824776" lon="14.7528158"></trkpt><trkpt lat="55.2824395" lon="14.7528114"></trkpt><trkpt lat="55.2824319" lon="14.7528114"></trkpt><trkpt lat="55.2824246" lon="14.7528134"></trkpt><trkpt lat="55.2823662" lon="14.7528483"></trkpt><trkpt lat="55.2822978" lon="14.7528765"></trkpt><trkpt lat="55.2821195" lon="14.7530112"></trkpt><trkpt lat="55.2819858" lon="14.7530811"></trkpt><trkpt lat="55.281964" lon="14.753093"></trkpt><trkpt lat="55.2819308" lon="14.7531051"></trkpt><trkpt lat="55.281901" lon="14.7531112"></trkpt><trkpt lat="55.2816425" lon="14.7531386"></trkpt><trkpt lat="55.281596" lon="14.7531505"></trkpt><trkpt lat="55.2815665" lon="14.7531682"></trkpt><trkpt lat="55.2815195" lon="14.753205"></trkpt><trkpt lat="55.2814931" lon="14.753229"></trkpt><trkpt lat="55.2814462" lon="14.753313"></trkpt><trkpt lat="55.28141630652711" lon="14.753365871050422"></trkpt><trkpt lat="55.28141630652711" lon="14.753365871050423"></trkpt><trkpt lat="55.28141630652711" lon="14.753365871050422"></trkpt><trkpt lat="55.2813537" lon="14.7534766"></trkpt><trkpt lat="55.2812979" lon="14.753628"></trkpt><trkpt lat="55.2812595" lon="14.7535819"></trkpt><trkpt lat="55.2812418" lon="14.7535638"></trkpt><trkpt lat="55.2812143" lon="14.7535738"></trkpt><trkpt lat="55.2811269" lon="14.7536308"></trkpt><trkpt lat="55.2810658" lon="14.7536483"></trkpt><trkpt lat="55.2810329" lon="14.7536664"></trkpt><trkpt lat="55.2810119" lon="14.7536872"></trkpt><trkpt lat="55.281002" lon="14.7537227"></trkpt><trkpt lat="55.2809898" lon="14.7538944"></trkpt><trkpt lat="55.2809985" lon="14.7539822"></trkpt><trkpt lat="55.2810008" lon="14.7540305"></trkpt><trkpt lat="55.2809826" lon="14.7540426"></trkpt><trkpt lat="55.28096" lon="14.754056"></trkpt><trkpt lat="55.280921" lon="14.7540781"></trkpt><trkpt lat="55.2808351" lon="14.7541672"></trkpt><trkpt lat="55.2808106" lon="14.7542021"></trkpt><trkpt lat="55.2807981" lon="14.7542658"></trkpt><trkpt lat="55.280795" lon="14.7542974"></trkpt><trkpt lat="55.2807862" lon="14.7543141"></trkpt><trkpt lat="55.2807715" lon="14.754297"></trkpt><trkpt lat="55.280751" lon="14.7542881"></trkpt><trkpt lat="55.2807254" lon="14.7544147"></trkpt><trkpt lat="55.2806873" lon="14.7545032"></trkpt><trkpt lat="55.280656" lon="14.7545448"></trkpt><trkpt lat="55.2806352" lon="14.7545958"></trkpt><trkpt lat="55.2806056" lon="14.7546481"></trkpt><trkpt lat="55.2805674" lon="14.7546802"></trkpt><trkpt lat="55.280549" lon="14.754707"></trkpt><trkpt lat="55.280528554116216" lon="14.754759409317824"></trkpt><trkpt lat="55.280528554116216" lon="14.754759409317826"></trkpt><trkpt lat="55.280528554116216" lon="14.754759409317824"></trkpt><trkpt lat="55.2805032" lon="14.7548244"></trkpt><trkpt lat="55.2804627" lon="14.7549136"></trkpt><trkpt lat="55.2803157" lon="14.7552784"></trkpt><trkpt lat="55.2801954" lon="14.7557598"></trkpt><trkpt lat="55.2801716" lon="14.7558669"></trkpt><trkpt lat="55.2801297" lon="14.7560938"></trkpt><trkpt lat="55.2801289" lon="14.7562855"></trkpt><trkpt lat="55.2800648" lon="14.7565618"></trkpt><trkpt lat="55.2800548" lon="14.7566973"></trkpt><trkpt lat="55.2800793915115" lon="14.756907765853342"></trkpt><trkpt lat="55.2801309" lon="14.7573486"></trkpt><trkpt lat="55.2802016" lon="14.7578434"></trkpt><trkpt lat="55.2803037" lon="14.7577981"></trkpt><trkpt lat="55.2804565" lon="14.7576425"></trkpt><trkpt lat="55.2806457" lon="14.7575808"></trkpt><trkpt lat="55.2808335" lon="14.7578123"></trkpt><trkpt lat="55.2808931" lon="14.7579447"></trkpt><trkpt lat="55.2809423" lon="14.7581551"></trkpt><trkpt lat="55.28117" lon="14.7582944"></trkpt><trkpt lat="55.28130108669789" lon="14.758383255158618"></trkpt><trkpt lat="55.28130108669789" lon="14.758383255158616"></trkpt><trkpt lat="55.28130108669789" lon="14.758383255158618"></trkpt><trkpt lat="55.281364" lon="14.7584259"></trkpt><trkpt lat="55.2814968" lon="14.7585359"></trkpt><trkpt lat="55.2816062" lon="14.7586685"></trkpt><trkpt lat="55.2817595" lon="14.7587016"></trkpt><trkpt lat="55.2819705" lon="14.7587236"></trkpt><trkpt lat="55.2821554" lon="14.7586953"></trkpt><trkpt lat="55.2821975" lon="14.7588224"></trkpt><trkpt lat="55.2822271" lon="14.7589108"></trkpt><trkpt lat="55.282321" lon="14.7589476"></trkpt><trkpt lat="55.2824118" lon="14.7590793"></trkpt><trkpt lat="55.2824886757267" lon="14.759154113925598"></trkpt><trkpt lat="55.2825684" lon="14.7592317"></trkpt><trkpt lat="55.2828283" lon="14.7590047"></trkpt><trkpt lat="55.2831313" lon="14.7591576"></trkpt><trkpt lat="55.2832109" lon="14.7591373"></trkpt><trkpt lat="55.2833705" lon="14.7589685"></trkpt><trkpt lat="55.2834649" lon="14.7587193"></trkpt><trkpt lat="55.2834937" lon="14.7585388"></trkpt><trkpt lat="55.2836091" lon="14.7584874"></trkpt><trkpt lat="55.28364044758421" lon="14.75848885938474"></trkpt><trkpt lat="55.2837702" lon="14.7584949"></trkpt><trkpt lat="55.2841219" lon="14.7583464"></trkpt><trkpt lat="55.2842727" lon="14.7583282"></trkpt><trkpt lat="55.2843307" lon="14.7584212"></trkpt><trkpt lat="55.2844009" lon="14.7585613"></trkpt><trkpt lat="55.2844978" lon="14.7586137"></trkpt><trkpt lat="55.2846098" lon="14.7588288"></trkpt><trkpt lat="55.2846364" lon="14.7588611"></trkpt><trkpt lat="55.2846726" lon="14.7588731"></trkpt><trkpt lat="55.2847235" lon="14.7588691"></trkpt><trkpt lat="55.2847881" lon="14.7588553"></trkpt><trkpt lat="55.2848415" lon="14.7588084"></trkpt><trkpt lat="55.284844229191755" lon="14.758806003795755"></trkpt><trkpt lat="55.2848415" lon="14.7588084"></trkpt><trkpt lat="55.2849179" lon="14.7591043"></trkpt><trkpt lat="55.2849429" lon="14.7592194"></trkpt><trkpt lat="55.2849701" lon="14.7593422"></trkpt><trkpt lat="55.2848808" lon="14.7595458"></trkpt><trkpt lat="55.284857" lon="14.7597693"></trkpt><trkpt lat="55.284818" lon="14.759876"></trkpt><trkpt lat="55.2847528" lon="14.759998"></trkpt><trkpt lat="55.2846947" lon="14.7600346"></trkpt><trkpt lat="55.284633" lon="14.760006"></trkpt><trkpt lat="55.284599012633535" lon="14.759956744052193"></trkpt><trkpt lat="55.284599012633535" lon="14.759956744052195"></trkpt><trkpt lat="55.284599012633535" lon="14.759956744052193"></trkpt><trkpt lat="55.2844547" lon="14.7597476"></trkpt><trkpt lat="55.2844211" lon="14.7596989"></trkpt><trkpt lat="55.2843793" lon="14.7596009"></trkpt><trkpt lat="55.2843296" lon="14.7595058"></trkpt><trkpt lat="55.284234" lon="14.7594721"></trkpt><trkpt lat="55.2841619" lon="14.7596155"></trkpt><trkpt lat="55.2841696" lon="14.7597161"></trkpt><trkpt lat="55.2842095" lon="14.7598261"></trkpt><trkpt lat="55.2842522" lon="14.7600803"></trkpt><trkpt lat="55.2843332" lon="14.7603847"></trkpt><trkpt lat="55.2843958" lon="14.7604659"></trkpt><trkpt lat="55.2845095" lon="14.7605918"></trkpt><trkpt lat="55.28455204111425" lon="14.760727491485122"></trkpt><trkpt lat="55.28455204111425" lon="14.760727491485124"></trkpt><trkpt lat="55.28455204111425" lon="14.760727491485122"></trkpt><trkpt lat="55.2845907" lon="14.7608508"></trkpt><trkpt lat="55.2846313" lon="14.7609445"></trkpt><trkpt lat="55.2847208" lon="14.7610991"></trkpt><trkpt lat="55.2846436" lon="14.7613113"></trkpt><trkpt lat="55.2845303" lon="14.7615015"></trkpt><trkpt lat="55.2845079" lon="14.7615751"></trkpt><trkpt lat="55.2844821" lon="14.7616972"></trkpt><trkpt lat="55.2844641" lon="14.7617787"></trkpt><trkpt lat="55.2844553" lon="14.7618544"></trkpt><trkpt lat="55.2844074" lon="14.7619744"></trkpt><trkpt lat="55.2843496" lon="14.7620447"></trkpt><trkpt lat="55.2843456" lon="14.762114"></trkpt><trkpt lat="55.2843284" lon="14.7621717"></trkpt><trkpt lat="55.284304" lon="14.7622013"></trkpt><trkpt lat="55.2842369" lon="14.7622829"></trkpt><trkpt lat="55.2841512" lon="14.762442"></trkpt><trkpt lat="55.284096815941474" lon="14.762544920368827"></trkpt><trkpt lat="55.284096815941474" lon="14.762544920368828"></trkpt><trkpt lat="55.284096815941474" lon="14.762544920368827"></trkpt><trkpt lat="55.2840861" lon="14.7625652"></trkpt><trkpt lat="55.284044" lon="14.7625993"></trkpt><trkpt lat="55.2840186" lon="14.7625816"></trkpt><trkpt lat="55.2840259" lon="14.7623475"></trkpt><trkpt lat="55.2839792" lon="14.7622765"></trkpt><trkpt lat="55.2839485" lon="14.7622622"></trkpt><trkpt lat="55.2838518" lon="14.7622847"></trkpt><trkpt lat="55.2837591" lon="14.7623036"></trkpt><trkpt lat="55.28369" lon="14.7622978"></trkpt><trkpt lat="55.2836057" lon="14.7623057"></trkpt><trkpt lat="55.2835147" lon="14.7622431"></trkpt><trkpt lat="55.2834413" lon="14.762234"></trkpt><trkpt lat="55.2833457" lon="14.7622628"></trkpt><trkpt lat="55.2833177" lon="14.7623067"></trkpt><trkpt lat="55.2832471" lon="14.76244"></trkpt><trkpt lat="55.2832296" lon="14.7624874"></trkpt><trkpt lat="55.2832239" lon="14.7625494"></trkpt><trkpt lat="55.2832312" lon="14.7626043"></trkpt><trkpt lat="55.2832291" lon="14.7626455"></trkpt><trkpt lat="55.2832157" lon="14.7626638"></trkpt><trkpt lat="55.2830955" lon="14.7626391"></trkpt><trkpt lat="55.283045" lon="14.7625921"></trkpt><trkpt lat="55.283022616191175" lon="14.762581395947832"></trkpt><trkpt lat="55.282967" lon="14.7625548"></trkpt><trkpt lat="55.2829259" lon="14.7625617"></trkpt><trkpt lat="55.2828921" lon="14.7625914"></trkpt><trkpt lat="55.2830672" lon="14.7628795"></trkpt><trkpt lat="55.2831557" lon="14.7631389"></trkpt><trkpt lat="55.2832096" lon="14.7632816"></trkpt><trkpt lat="55.2833385" lon="14.7635989"></trkpt><trkpt lat="55.2834328" lon="14.7639055"></trkpt><trkpt lat="55.2834977" lon="14.7642358"></trkpt><trkpt lat="55.283526745040035" lon="14.764310992448957"></trkpt><trkpt lat="55.283526745040035" lon="14.764310992448955"></trkpt><trkpt lat="55.283526745040035" lon="14.764310992448957"></trkpt><trkpt lat="55.2835979" lon="14.7644952"></trkpt><trkpt lat="55.2837512" lon="14.7647606"></trkpt><trkpt lat="55.2839105" lon="14.7650613"></trkpt><trkpt lat="55.2839871" lon="14.7652736"></trkpt><trkpt lat="55.2841699" lon="14.7654859"></trkpt><trkpt lat="55.2843692" lon="14.7658396"></trkpt><trkpt lat="55.2844058" lon="14.7659046"></trkpt><trkpt lat="55.28442107152686" lon="14.765967995751629"></trkpt><trkpt lat="55.28442107152686" lon="14.765967995751627"></trkpt><trkpt lat="55.28442107152686" lon="14.765967995751629"></trkpt><trkpt lat="55.2844825" lon="14.766223"></trkpt><trkpt lat="55.2845886" lon="14.7666712"></trkpt><trkpt lat="55.2847891" lon="14.7670604"></trkpt><trkpt lat="55.2850545" lon="14.7676088"></trkpt><trkpt lat="55.285176518412015" lon="14.767852836824028"></trkpt><trkpt lat="55.285176518412015" lon="14.767852836824026"></trkpt><trkpt lat="55.285176518412015" lon="14.767852836824028"></trkpt><trkpt lat="55.2852727" lon="14.7680452"></trkpt><trkpt lat="55.2854107" lon="14.7681802"></trkpt><trkpt lat="55.2856128" lon="14.7690303"></trkpt><trkpt lat="55.2856402" lon="14.7692215"></trkpt><trkpt lat="55.2857414" lon="14.7693308"></trkpt><trkpt lat="55.28589204426602" lon="14.76973312750942"></trkpt><trkpt lat="55.28589204426602" lon="14.769733127509422"></trkpt><trkpt lat="55.28589204426602" lon="14.76973312750942"></trkpt><trkpt lat="55.2859309" lon="14.7698369"></trkpt><trkpt lat="55.2859569" lon="14.7699763"></trkpt><trkpt lat="55.2859628" lon="14.7702692"></trkpt><trkpt lat="55.2859696" lon="14.7704999"></trkpt><trkpt lat="55.2860704" lon="14.7709022"></trkpt><trkpt lat="55.2861376" lon="14.7711544"></trkpt><trkpt lat="55.2863095" lon="14.771436"></trkpt><trkpt lat="55.286486440933054" lon="14.771739316352278"></trkpt><trkpt lat="55.286486440933054" lon="14.77173931635228"></trkpt><trkpt lat="55.286486440933054" lon="14.771739316352278"></trkpt><trkpt lat="55.2865401" lon="14.7718313"></trkpt><trkpt lat="55.2866593" lon="14.7720355"></trkpt><trkpt lat="55.2868239" lon="14.7722353"></trkpt><trkpt lat="55.2870037" lon="14.7722822"></trkpt><trkpt lat="55.2871015" lon="14.7723895"></trkpt><trkpt lat="55.2872176" lon="14.7725183"></trkpt><trkpt lat="55.2873367" lon="14.7726095"></trkpt><trkpt lat="55.2874452" lon="14.7726872"></trkpt><trkpt lat="55.2875788" lon="14.772698"></trkpt><trkpt lat="55.28762431778422" lon="14.772671979763938"></trkpt><trkpt lat="55.2877079" lon="14.7726242"></trkpt><trkpt lat="55.2877804" lon="14.7725585"></trkpt><trkpt lat="55.287898" lon="14.7723493"></trkpt><trkpt lat="55.2879201" lon="14.7722192"></trkpt><trkpt lat="55.2880026" lon="14.7719658"></trkpt><trkpt lat="55.2880156" lon="14.7718598"></trkpt><trkpt lat="55.288011" lon="14.7717149"></trkpt><trkpt lat="55.2880301" lon="14.771499"></trkpt><trkpt lat="55.2880729" lon="14.7712201"></trkpt><trkpt lat="55.2881485" lon="14.7708566"></trkpt><trkpt lat="55.28818959281989" lon="14.770719209400855"></trkpt><trkpt lat="55.28818959281989" lon="14.770719209400854"></trkpt><trkpt lat="55.28818959281989" lon="14.770719209400855"></trkpt><trkpt lat="55.2882245" lon="14.7706025"></trkpt><trkpt lat="55.2883226" lon="14.7708566"></trkpt><trkpt lat="55.2886861" lon="14.7715218"></trkpt><trkpt lat="55.2890794" lon="14.7719242"></trkpt><trkpt lat="55.28917739357487" lon="14.771961614838181"></trkpt><trkpt lat="55.2892795" lon="14.7720006"></trkpt><trkpt lat="55.2894185" lon="14.7721106"></trkpt><trkpt lat="55.2894792" lon="14.7723057"></trkpt><trkpt lat="55.2894888" lon="14.7724103"></trkpt><trkpt lat="55.2895926" lon="14.772474"></trkpt><trkpt lat="55.2897576" lon="14.7726698"></trkpt><trkpt lat="55.2897759" lon="14.7727597"></trkpt><trkpt lat="55.290215" lon="14.7731365"></trkpt><trkpt lat="55.29024499469181" lon="14.773170697623357"></trkpt><trkpt lat="55.29024499469181" lon="14.773170697623359"></trkpt><trkpt lat="55.29024499469181" lon="14.773170697623357"></trkpt><trkpt lat="55.2903456" lon="14.7732854"></trkpt><trkpt lat="55.2904311" lon="14.7733712"></trkpt><trkpt lat="55.290538" lon="14.7734731"></trkpt><trkpt lat="55.2906287" lon="14.7734986"></trkpt><trkpt lat="55.2907305" lon="14.7736502"></trkpt><trkpt lat="55.2908251" lon="14.773677"></trkpt><trkpt lat="55.2909198" lon="14.7738111"></trkpt><trkpt lat="55.2910298" lon="14.773972"></trkpt><trkpt lat="55.2910329" lon="14.7741008"></trkpt><trkpt lat="55.2910329" lon="14.7743851"></trkpt><trkpt lat="55.290998433791025" lon="14.774702433297385"></trkpt><trkpt lat="55.2909962" lon="14.774723"></trkpt><trkpt lat="55.2909748" lon="14.775061"></trkpt><trkpt lat="55.2909962" lon="14.7753131"></trkpt><trkpt lat="55.2909949" lon="14.7757768"></trkpt><trkpt lat="55.29102965356291" lon="14.775777999547712"></trkpt></trkseg></trk></gpx>
