<?xml version="1.0" encoding="UTF-8"?>
<gpx version="1.1" creator="Good Shit" xmlns="http://www.topografix.com/GPX/1/1"><trk><name>Lai da Rims from Prà da Vau — Prà da Vau – Lai da Rims – Alp Sot – Prà da Vau</name><desc>Dense path-following geometry derived from a pinned OpenStreetMap walking network through OSM-projected controls selected against the official GPX. Official GPX coordinates are not copied; current signs, closures and conditions remain authoritative.

Route geometry: © OpenStreetMap contributors — OpenStreetMap route and path geometry. Licence: ODbL-1.0 (https://opendatacommons.org/licenses/odbl/1.0/). Source: https://www.openstreetmap.org/copyright. Dataset: https://www.openstreetmap.org/.</desc><trkseg><trkpt lat="46.582187660917654" lon="10.389744045027301"></trkpt><trkpt lat="46.582187660917654" lon="10.389744045027303"></trkpt><trkpt lat="46.5821629" lon="10.3897289"></trkpt><trkpt lat="46.5820323" lon="10.3896006"></trkpt><trkpt lat="46.5819101" lon="10.3893761"></trkpt><trkpt lat="46.581866717527085" lon="10.389286099655736"></trkpt><trkpt lat="46.581866717527085" lon="10.389286099655738"></trkpt><trkpt lat="46.581866717527085" lon="10.389286099655736"></trkpt><trkpt lat="46.5817559" lon="10.3890562"></trkpt><trkpt lat="46.5815821" lon="10.3888767"></trkpt><trkpt lat="46.581553137703004" lon="10.388831387529047"></trkpt><trkpt lat="46.5814868" lon="10.3887276"></trkpt><trkpt lat="46.5813179" lon="10.3883418"></trkpt><trkpt lat="46.58128782152283" lon="10.388313631052444"></trkpt><trkpt lat="46.58128782152283" lon="10.388313631052442"></trkpt><trkpt lat="46.58128782152283" lon="10.388313631052444"></trkpt><trkpt lat="46.5810958" lon="10.3881338"></trkpt><trkpt lat="46.58090155892903" lon="10.38798677994526"></trkpt><trkpt lat="46.5809" lon="10.3879856"></trkpt><trkpt lat="46.5808216" lon="10.3879561"></trkpt><trkpt lat="46.5806116" lon="10.3878772"></trkpt><trkpt lat="46.58047196476435" lon="10.387797194064643"></trkpt><trkpt lat="46.5804348" lon="10.3877759"></trkpt><trkpt lat="46.5802095" lon="10.3877653"></trkpt><trkpt lat="46.5801053" lon="10.3877074"></trkpt><trkpt lat="46.58005127301054" lon="10.38763041154002"></trkpt><trkpt lat="46.58005127301054" lon="10.387630411540018"></trkpt><trkpt lat="46.58005127301054" lon="10.38763041154002"></trkpt><trkpt lat="46.5800213" lon="10.3875877"></trkpt><trkpt lat="46.5799629" lon="10.387449"></trkpt><trkpt lat="46.5798766" lon="10.3873798"></trkpt><trkpt lat="46.5797321" lon="10.3873921"></trkpt><trkpt lat="46.579693154546874" lon="10.387406034887789"></trkpt><trkpt lat="46.5796027" lon="10.3874384"></trkpt><trkpt lat="46.5794806" lon="10.3874448"></trkpt><trkpt lat="46.5793198" lon="10.3873943"></trkpt><trkpt lat="46.57924707193417" lon="10.387348060399908"></trkpt><trkpt lat="46.5789884" lon="10.3871836"></trkpt><trkpt lat="46.57883655638174" lon="10.387081250304051"></trkpt><trkpt lat="46.57883655638174" lon="10.38708125030405"></trkpt><trkpt lat="46.57883655638174" lon="10.387081250304051"></trkpt><trkpt lat="46.5788258" lon="10.387074"></trkpt><trkpt lat="46.5787584" lon="10.3870445"></trkpt><trkpt lat="46.5785691" lon="10.3869647"></trkpt><trkpt lat="46.5784634" lon="10.386895"></trkpt><trkpt lat="46.57842585000015" lon="10.386823094357934"></trkpt><trkpt lat="46.5784058" lon="10.3867847"></trkpt><trkpt lat="46.5784211" lon="10.3866406"></trkpt><trkpt lat="46.5786208" lon="10.3863198"></trkpt><trkpt lat="46.578630851161726" lon="10.386291300603657"></trkpt><trkpt lat="46.578630851161726" lon="10.38629130060366"></trkpt><trkpt lat="46.578630851161726" lon="10.386291300603657"></trkpt><trkpt lat="46.578835929838974" lon="10.385709813740053"></trkpt><trkpt lat="46.5788748" lon="10.3855996"></trkpt><trkpt lat="46.57906332866669" lon="10.385146253755593"></trkpt><trkpt lat="46.57906332866669" lon="10.385146253755591"></trkpt><trkpt lat="46.57906332866669" lon="10.385146253755593"></trkpt><trkpt lat="46.5791842" lon="10.3848556"></trkpt><trkpt lat="46.5793118" lon="10.3846249"></trkpt><trkpt lat="46.579308980321386" lon="10.384601225866684"></trkpt><trkpt lat="46.5793017" lon="10.3845401"></trkpt><trkpt lat="46.5792682" lon="10.3845077"></trkpt><trkpt lat="46.5790691" lon="10.3845399"></trkpt><trkpt lat="46.5789144" lon="10.3845297"></trkpt><trkpt lat="46.578907307192715" lon="10.384527318404482"></trkpt><trkpt lat="46.5787643" lon="10.3844793"></trkpt><trkpt lat="46.5785439" lon="10.3842862"></trkpt><trkpt lat="46.57849747697062" lon="10.384266214063645"></trkpt><trkpt lat="46.57849747697062" lon="10.384266214063643"></trkpt><trkpt lat="46.57849747697062" lon="10.384266214063645"></trkpt><trkpt lat="46.5784338" lon="10.3842388"></trkpt><trkpt lat="46.578051745039616" lon="10.384217400862303"></trkpt><trkpt lat="46.5779821" lon="10.3842135"></trkpt><trkpt lat="46.5777842" lon="10.3841343"></trkpt><trkpt lat="46.57761791979676" lon="10.384042043959782"></trkpt><trkpt lat="46.57761791979676" lon="10.384042043959784"></trkpt><trkpt lat="46.57761791979676" lon="10.384042043959782"></trkpt><trkpt lat="46.5775416" lon="10.3839997"></trkpt><trkpt lat="46.5773953" lon="10.3838398"></trkpt><trkpt lat="46.577256428806336" lon="10.383654231161543"></trkpt><trkpt lat="46.5771907" lon="10.3835664"></trkpt><trkpt lat="46.5771825" lon="10.3833934"></trkpt><trkpt lat="46.5771868" lon="10.383204"></trkpt><trkpt lat="46.5772524" lon="10.3831622"></trkpt><trkpt lat="46.5774641" lon="10.3829837"></trkpt><trkpt lat="46.5775647" lon="10.3828351"></trkpt><trkpt lat="46.57758671213144" lon="10.382788480556853"></trkpt><trkpt lat="46.5776351" lon="10.382686"></trkpt><trkpt lat="46.5777448" lon="10.3824152"></trkpt><trkpt lat="46.57780458962579" lon="10.382216867327475"></trkpt><trkpt lat="46.5779119" lon="10.3818609"></trkpt><trkpt lat="46.5778849" lon="10.3817311"></trkpt><trkpt lat="46.5778111" lon="10.3817084"></trkpt><trkpt lat="46.5776273" lon="10.381781"></trkpt><trkpt lat="46.5775482" lon="10.3817578"></trkpt><trkpt lat="46.5774642" lon="10.3816844"></trkpt><trkpt lat="46.5774348" lon="10.3816292"></trkpt><trkpt lat="46.57741238153663" lon="10.381594925809775"></trkpt><trkpt lat="46.5773221" lon="10.3814569"></trkpt><trkpt lat="46.5771648" lon="10.3813731"></trkpt><trkpt lat="46.5770430831773" lon="10.381247576396015"></trkpt><trkpt lat="46.5770430831773" lon="10.381247576396014"></trkpt><trkpt lat="46.5770430831773" lon="10.381247576396015"></trkpt><trkpt lat="46.5769218" lon="10.3811225"></trkpt><trkpt lat="46.5767916" lon="10.3810048"></trkpt><trkpt lat="46.5767518" lon="10.3809167"></trkpt><trkpt lat="46.5767795" lon="10.3808301"></trkpt><trkpt lat="46.57678595258481" lon="10.38082878015311"></trkpt><trkpt lat="46.57678595258481" lon="10.380828780153108"></trkpt><trkpt lat="46.57678595258481" lon="10.38082878015311"></trkpt><trkpt lat="46.5768895" lon="10.3808076"></trkpt><trkpt lat="46.576974" lon="10.3807522"></trkpt><trkpt lat="46.5771516" lon="10.3805179"></trkpt><trkpt lat="46.57716747948419" lon="10.38050325136578"></trkpt><trkpt lat="46.5773606" lon="10.3803251"></trkpt><trkpt lat="46.5775131" lon="10.3801791"></trkpt><trkpt lat="46.577539490702144" lon="10.380134186631132"></trkpt><trkpt lat="46.5775614" lon="10.3800969"></trkpt><trkpt lat="46.5775617" lon="10.3800319"></trkpt><trkpt lat="46.5775216" lon="10.3799883"></trkpt><trkpt lat="46.5773011" lon="10.3799018"></trkpt><trkpt lat="46.5772183615453" lon="10.379861279994326"></trkpt><trkpt lat="46.5771306" lon="10.3798183"></trkpt><trkpt lat="46.576963" lon="10.3796283"></trkpt><trkpt lat="46.5768813" lon="10.3795202"></trkpt><trkpt lat="46.576850656094436" lon="10.379485065535684"></trkpt><trkpt lat="46.576850656094436" lon="10.379485065535686"></trkpt><trkpt lat="46.576850656094436" lon="10.379485065535684"></trkpt><trkpt lat="46.5768076" lon="10.3794357"></trkpt><trkpt lat="46.5768333" lon="10.3793453"></trkpt><trkpt lat="46.5769475" lon="10.3793052"></trkpt><trkpt lat="46.57715247218683" lon="10.37918803614184"></trkpt><trkpt lat="46.57715247218683" lon="10.379188036141839"></trkpt><trkpt lat="46.57715247218683" lon="10.37918803614184"></trkpt><trkpt lat="46.5771856" lon="10.3791691"></trkpt><trkpt lat="46.57750941194034" lon="10.378789251382718"></trkpt><trkpt lat="46.57750941194034" lon="10.37878925138272"></trkpt><trkpt lat="46.57750941194034" lon="10.378789251382718"></trkpt><trkpt lat="46.5775901" lon="10.3786946"></trkpt><trkpt lat="46.57764" lon="10.378636"></trkpt><trkpt lat="46.5776727" lon="10.3785977"></trkpt><trkpt lat="46.5778024" lon="10.3785787"></trkpt><trkpt lat="46.5779007646536" lon="10.378597726045182"></trkpt><trkpt lat="46.5779058" lon="10.3785987"></trkpt><trkpt lat="46.577954" lon="10.3786365"></trkpt><trkpt lat="46.5779945" lon="10.3786734"></trkpt><trkpt lat="46.5780732" lon="10.3787994"></trkpt><trkpt lat="46.5781258" lon="10.378956"></trkpt><trkpt lat="46.57815264607794" lon="10.379078724927714"></trkpt><trkpt lat="46.57815264607794" lon="10.379078724927712"></trkpt><trkpt lat="46.57815264607794" lon="10.379078724927714"></trkpt><trkpt lat="46.5781692" lon="10.3791544"></trkpt><trkpt lat="46.5781817" lon="10.3792239"></trkpt><trkpt lat="46.57823" lon="10.3792436"></trkpt><trkpt lat="46.5782563" lon="10.3792257"></trkpt><trkpt lat="46.5782697" lon="10.3791625"></trkpt><trkpt lat="46.5782422" lon="10.3790637"></trkpt><trkpt lat="46.5781981" lon="10.3788996"></trkpt><trkpt lat="46.5781759" lon="10.3786491"></trkpt><trkpt lat="46.578122" lon="10.3784912"></trkpt><trkpt lat="46.5780732" lon="10.3784294"></trkpt><trkpt lat="46.577942914037905" lon="10.37835412739733"></trkpt><trkpt lat="46.5778404" lon="10.3782949"></trkpt><trkpt lat="46.577577237741075" lon="10.37797522018532"></trkpt><trkpt lat="46.577577237741075" lon="10.377975220185318"></trkpt><trkpt lat="46.577577237741075" lon="10.37797522018532"></trkpt><trkpt lat="46.5774963" lon="10.3778769"></trkpt><trkpt lat="46.577229231878114" lon="10.377561611244994"></trkpt><trkpt lat="46.577229231878114" lon="10.377561611244992"></trkpt><trkpt lat="46.577229231878114" lon="10.377561611244994"></trkpt><trkpt lat="46.5771363" lon="10.3774519"></trkpt><trkpt lat="46.5770168" lon="10.3773108"></trkpt><trkpt lat="46.577007" lon="10.3772992"></trkpt><trkpt lat="46.5768852" lon="10.3772151"></trkpt><trkpt lat="46.5768621862754" lon="10.377194765627953"></trkpt><trkpt lat="46.5766928" lon="10.3770451"></trkpt><trkpt lat="46.5765632" lon="10.3768508"></trkpt><trkpt lat="46.57652575115354" lon="10.376759711034545"></trkpt><trkpt lat="46.57652575115354" lon="10.376759711034543"></trkpt><trkpt lat="46.57652575115354" lon="10.376759711034545"></trkpt><trkpt lat="46.5764198" lon="10.376502"></trkpt><trkpt lat="46.5762831" lon="10.3763793"></trkpt><trkpt lat="46.576221411142384" lon="10.376391795522302"></trkpt><trkpt lat="46.5761345" lon="10.3764094"></trkpt><trkpt lat="46.5758498" lon="10.3764019"></trkpt><trkpt lat="46.57576761870154" lon="10.376375554799058"></trkpt><trkpt lat="46.57576761870154" lon="10.37637555479906"></trkpt><trkpt lat="46.57576761870154" lon="10.376375554799058"></trkpt><trkpt lat="46.5757035" lon="10.376355"></trkpt><trkpt lat="46.5755801" lon="10.3762604"></trkpt><trkpt lat="46.5754531" lon="10.3761204"></trkpt><trkpt lat="46.57538912332474" lon="10.376003980994998"></trkpt><trkpt lat="46.57538912332474" lon="10.376003980995"></trkpt><trkpt lat="46.57538912332474" lon="10.376003980994998"></trkpt><trkpt lat="46.5752806" lon="10.3758065"></trkpt><trkpt lat="46.5751188" lon="10.375587"></trkpt><trkpt lat="46.57507948391495" lon="10.375554511188083"></trkpt><trkpt lat="46.57507948391495" lon="10.375554511188081"></trkpt><trkpt lat="46.57507948391495" lon="10.375554511188083"></trkpt><trkpt lat="46.5747871" lon="10.3753129"></trkpt><trkpt lat="46.57469514403453" lon="10.375210573511696"></trkpt><trkpt lat="46.57469514403453" lon="10.375210573511698"></trkpt><trkpt lat="46.57469514403453" lon="10.375210573511696"></trkpt><trkpt lat="46.5746337" lon="10.3751422"></trkpt><trkpt lat="46.57443554865841" lon="10.374671924777008"></trkpt><trkpt lat="46.57443554865841" lon="10.37467192477701"></trkpt><trkpt lat="46.57443554865841" lon="10.374671924777008"></trkpt><trkpt lat="46.5744336" lon="10.3746673"></trkpt><trkpt lat="46.5742582" lon="10.3741985"></trkpt><trkpt lat="46.574248722932325" lon="10.374076926338857"></trkpt><trkpt lat="46.5742355" lon="10.3739073"></trkpt><trkpt lat="46.5742382" lon="10.3736391"></trkpt><trkpt lat="46.57419125225124" lon="10.373435648902891"></trkpt><trkpt lat="46.574094" lon="10.3730142"></trkpt><trkpt lat="46.5740423" lon="10.3728722"></trkpt><trkpt lat="46.57402170973221" lon="10.372839851264816"></trkpt><trkpt lat="46.57402170973221" lon="10.372839851264818"></trkpt><trkpt lat="46.57402170973221" lon="10.372839851264816"></trkpt><trkpt lat="46.5739628" lon="10.3727473"></trkpt><trkpt lat="46.573959" lon="10.372544"></trkpt><trkpt lat="46.5739286" lon="10.3723596"></trkpt><trkpt lat="46.573913135734855" lon="10.372218628375956"></trkpt><trkpt lat="46.5738484" lon="10.3716285"></trkpt><trkpt lat="46.57383878993463" lon="10.37157458158011"></trkpt><trkpt lat="46.5738032" lon="10.3713749"></trkpt><trkpt lat="46.5737444" lon="10.3711543"></trkpt><trkpt lat="46.57367755709664" lon="10.370969863099985"></trkpt><trkpt lat="46.5736364" lon="10.3708563"></trkpt><trkpt lat="46.5734589" lon="10.3705668"></trkpt><trkpt lat="46.573395321896534" lon="10.370472454766098"></trkpt><trkpt lat="46.5732847" lon="10.3703083"></trkpt><trkpt lat="46.5730829734582" lon="10.370002191241353"></trkpt><trkpt lat="46.5730829734582" lon="10.370002191241351"></trkpt><trkpt lat="46.5730829734582" lon="10.370002191241353"></trkpt><trkpt lat="46.5730296" lon="10.3699212"></trkpt><trkpt lat="46.5729584" lon="10.3696928"></trkpt><trkpt lat="46.57281446788241" lon="10.369489231204263"></trkpt><trkpt lat="46.57281446788241" lon="10.36948923120426"></trkpt><trkpt lat="46.57281446788241" lon="10.369489231204263"></trkpt><trkpt lat="46.5727436" lon="10.369389"></trkpt><trkpt lat="46.5726549" lon="10.3691859"></trkpt><trkpt lat="46.5726127" lon="10.3689571"></trkpt><trkpt lat="46.572599710702136" lon="10.368925235240608"></trkpt><trkpt lat="46.5725081" lon="10.3687005"></trkpt><trkpt lat="46.57235293410905" lon="10.368381195675234"></trkpt><trkpt lat="46.5722193" lon="10.3681062"></trkpt><trkpt lat="46.5721407" lon="10.3678224"></trkpt><trkpt lat="46.57213645017641" lon="10.367810962645471"></trkpt><trkpt lat="46.5720458" lon="10.367567"></trkpt><trkpt lat="46.571915833200464" lon="10.367242177453772"></trkpt><trkpt lat="46.571915833200464" lon="10.367242177453774"></trkpt><trkpt lat="46.571915833200464" lon="10.367242177453772"></trkpt><trkpt lat="46.5719082" lon="10.3672231"></trkpt><trkpt lat="46.5717637" lon="10.3669743"></trkpt><trkpt lat="46.57160117651179" lon="10.366790052673965"></trkpt><trkpt lat="46.57160117651179" lon="10.366790052673963"></trkpt><trkpt lat="46.57160117651179" lon="10.366790052673965"></trkpt><trkpt lat="46.5713627" lon="10.3665197"></trkpt><trkpt lat="46.571269856615054" lon="10.366346982681769"></trkpt><trkpt lat="46.5712589" lon="10.3663266"></trkpt><trkpt lat="46.5711532" lon="10.3658613"></trkpt><trkpt lat="46.571139699867864" lon="10.365715667324553"></trkpt><trkpt lat="46.5711372" lon="10.3656887"></trkpt><trkpt lat="46.5711087" lon="10.3655869"></trkpt><trkpt lat="46.5710393" lon="10.3655727"></trkpt><trkpt lat="46.5708587" lon="10.3656349"></trkpt><trkpt lat="46.57077902366988" lon="10.365600812568752"></trkpt><trkpt lat="46.5706294" lon="10.3655368"></trkpt><trkpt lat="46.5705303" lon="10.3654873"></trkpt><trkpt lat="46.5704326" lon="10.3653808"></trkpt><trkpt lat="46.5703784389568" lon="10.365303456389071"></trkpt><trkpt lat="46.5702214" lon="10.3650792"></trkpt><trkpt lat="46.570126949439754" lon="10.364765281159427"></trkpt><trkpt lat="46.570126949439754" lon="10.364765281159425"></trkpt><trkpt lat="46.570126949439754" lon="10.364765281159427"></trkpt><trkpt lat="46.5700771" lon="10.3645996"></trkpt><trkpt lat="46.5700569" lon="10.364395"></trkpt><trkpt lat="46.57008978404572" lon="10.364127903019682"></trkpt><trkpt lat="46.5701239" lon="10.3638508"></trkpt><trkpt lat="46.5700999" lon="10.3636265"></trkpt><trkpt lat="46.5701401" lon="10.3635248"></trkpt><trkpt lat="46.57015094652628" lon="10.363518573290468"></trkpt><trkpt lat="46.57015094652628" lon="10.36351857329047"></trkpt><trkpt lat="46.57015094652628" lon="10.363518573290468"></trkpt><trkpt lat="46.5702103" lon="10.3634845"></trkpt><trkpt lat="46.570278" lon="10.3635147"></trkpt><trkpt lat="46.5704016" lon="10.3637342"></trkpt><trkpt lat="46.57045644482697" lon="10.36385572072866"></trkpt><trkpt lat="46.57045644482697" lon="10.363855720728658"></trkpt><trkpt lat="46.57045644482697" lon="10.36385572072866"></trkpt><trkpt lat="46.5704614" lon="10.3638667"></trkpt><trkpt lat="46.5706315" lon="10.3639528"></trkpt><trkpt lat="46.5708884405374" lon="10.364076883013794"></trkpt><trkpt lat="46.5708884405374" lon="10.364076883013793"></trkpt><trkpt lat="46.5708884405374" lon="10.364076883013794"></trkpt><trkpt lat="46.5709009" lon="10.3640829"></trkpt><trkpt lat="46.5709573" lon="10.3641615"></trkpt><trkpt lat="46.5709953" lon="10.3643766"></trkpt><trkpt lat="46.5710535" lon="10.3644878"></trkpt><trkpt lat="46.57116316364677" lon="10.364518717104128"></trkpt><trkpt lat="46.5712798" lon="10.3645516"></trkpt><trkpt lat="46.5713718" lon="10.3645101"></trkpt><trkpt lat="46.571385" lon="10.364413"></trkpt><trkpt lat="46.5713387" lon="10.3642692"></trkpt><trkpt lat="46.5713095" lon="10.3640442"></trkpt><trkpt lat="46.5713558" lon="10.363696"></trkpt><trkpt lat="46.5714213940355" lon="10.363530293784962"></trkpt><trkpt lat="46.5714213940355" lon="10.363530293784963"></trkpt><trkpt lat="46.5714213940355" lon="10.363530293784962"></trkpt><trkpt lat="46.5714244" lon="10.3635227"></trkpt><trkpt lat="46.5714611" lon="10.3633548"></trkpt><trkpt lat="46.5714508" lon="10.3631337"></trkpt><trkpt lat="46.5713911" lon="10.3629888"></trkpt><trkpt lat="46.57135638542874" lon="10.36297342603379"></trkpt><trkpt lat="46.5712572" lon="10.3629295"></trkpt><trkpt lat="46.5711316" lon="10.3628465"></trkpt><trkpt lat="46.57099631046192" lon="10.362592555608705"></trkpt><trkpt lat="46.57099631046192" lon="10.362592555608703"></trkpt><trkpt lat="46.57099631046192" lon="10.362592555608705"></trkpt><trkpt lat="46.5708258" lon="10.3622725"></trkpt><trkpt lat="46.57071899029304" lon="10.362078445728653"></trkpt><trkpt lat="46.57071899029304" lon="10.36207844572865"></trkpt><trkpt lat="46.57071899029304" lon="10.362078445728653"></trkpt><trkpt lat="46.5706653" lon="10.3619809"></trkpt><trkpt lat="46.5705374" lon="10.3616503"></trkpt><trkpt lat="46.57052663908011" lon="10.361492873034209"></trkpt><trkpt lat="46.5705069" lon="10.3612041"></trkpt><trkpt lat="46.5704216" lon="10.3608706"></trkpt><trkpt lat="46.57042043823332" lon="10.36086556435149"></trkpt><trkpt lat="46.570334" lon="10.3604909"></trkpt><trkpt lat="46.570340008793934" lon="10.360226998625985"></trkpt><trkpt lat="46.5703439" lon="10.3600561"></trkpt><trkpt lat="46.570492829559605" lon="10.359625491136905"></trkpt><trkpt lat="46.570492829559605" lon="10.359625491136903"></trkpt><trkpt lat="46.570492829559605" lon="10.359625491136905"></trkpt><trkpt lat="46.5705418" lon="10.3594839"></trkpt><trkpt lat="46.5705576" lon="10.3592603"></trkpt><trkpt lat="46.5705486" lon="10.359017"></trkpt><trkpt lat="46.570541904190925" lon="10.358998776354671"></trkpt><trkpt lat="46.570541904190925" lon="10.35899877635467"></trkpt><trkpt lat="46.570541904190925" lon="10.358998776354671"></trkpt><trkpt lat="46.5704516" lon="10.358753"></trkpt><trkpt lat="46.5704243" lon="10.3586486"></trkpt><trkpt lat="46.5704123" lon="10.3585342"></trkpt><trkpt lat="46.570436279714556" lon="10.35838493301276"></trkpt><trkpt lat="46.5704479" lon="10.3583126"></trkpt><trkpt lat="46.5705183" lon="10.3581015"></trkpt><trkpt lat="46.5705388" lon="10.3578727"></trkpt><trkpt lat="46.57056868466547" lon="10.357767420748896"></trkpt><trkpt lat="46.5706482" lon="10.3574873"></trkpt><trkpt lat="46.570727229151686" lon="10.357156623609521"></trkpt><trkpt lat="46.570874659591446" lon="10.356539740287028"></trkpt><trkpt lat="46.5708816" lon="10.3565107"></trkpt><trkpt lat="46.5709423" lon="10.35602"></trkpt><trkpt lat="46.570937539728384" lon="10.355899869999437"></trkpt><trkpt lat="46.5709334" lon="10.3557954"></trkpt><trkpt lat="46.570816583889616" lon="10.355279363849096"></trkpt><trkpt lat="46.5708146" lon="10.3552706"></trkpt><trkpt lat="46.5707861" lon="10.3549591"></trkpt><trkpt lat="46.5707353" lon="10.3547865"></trkpt><trkpt lat="46.57068026346512" lon="10.354672153768382"></trkpt><trkpt lat="46.5704893" lon="10.3542754"></trkpt><trkpt lat="46.570441594702" lon="10.354116056729238"></trkpt><trkpt lat="46.57026240694413" lon="10.353517541163576"></trkpt><trkpt lat="46.57025" lon="10.3534761"></trkpt><trkpt lat="46.57009054201231" lon="10.352913148982656"></trkpt><trkpt lat="46.57009054201231" lon="10.352913148982658"></trkpt><trkpt lat="46.57009054201231" lon="10.352913148982656"></trkpt><trkpt lat="46.5700839" lon="10.3528897"></trkpt><trkpt lat="46.569960075824454" lon="10.352285741266186"></trkpt><trkpt lat="46.569960075824454" lon="10.352285741266185"></trkpt><trkpt lat="46.569960075824454" lon="10.352285741266186"></trkpt><trkpt lat="46.5699565" lon="10.3522683"></trkpt><trkpt lat="46.56989394500693" lon="10.351636547518599"></trkpt><trkpt lat="46.5698738" lon="10.3514331"></trkpt><trkpt lat="46.5697842" lon="10.3511021"></trkpt><trkpt lat="46.56977803938588" lon="10.35107416693437"></trkpt><trkpt lat="46.5697842" lon="10.3511021"></trkpt><trkpt lat="46.5696285" lon="10.3513996"></trkpt><trkpt lat="46.5695466" lon="10.351473"></trkpt><trkpt lat="46.5694747" lon="10.3514184"></trkpt><trkpt lat="46.5693536" lon="10.3515478"></trkpt><trkpt lat="46.5692121" lon="10.3517697"></trkpt><trkpt lat="46.56913030400468" lon="10.35189129009706"></trkpt><trkpt lat="46.56913030400468" lon="10.351891290097061"></trkpt><trkpt lat="46.56913030400468" lon="10.35189129009706"></trkpt><trkpt lat="46.5689083" lon="10.3522213"></trkpt><trkpt lat="46.56881032939169" lon="10.35233677895323"></trkpt><trkpt lat="46.5687796" lon="10.352373"></trkpt><trkpt lat="46.5686848" lon="10.3528155"></trkpt><trkpt lat="46.5686388113215" lon="10.352918324779445"></trkpt><trkpt lat="46.56839555127066" lon="10.353462223014631"></trkpt><trkpt lat="46.56839555127066" lon="10.353462223014633"></trkpt><trkpt lat="46.56839555127066" lon="10.353462223014631"></trkpt><trkpt lat="46.56815294461622" lon="10.354004660339367"></trkpt><trkpt lat="46.56815294461622" lon="10.354004660339365"></trkpt><trkpt lat="46.56815294461622" lon="10.354004660339367"></trkpt><trkpt lat="46.567931" lon="10.3545009"></trkpt><trkpt lat="46.567884767889645" lon="10.35454588496756"></trkpt><trkpt lat="46.567884767889645" lon="10.354545884967559"></trkpt><trkpt lat="46.567884767889645" lon="10.35454588496756"></trkpt><trkpt lat="46.5676678" lon="10.354757"></trkpt><trkpt lat="46.5676048" lon="10.3549774"></trkpt><trkpt lat="46.56757966302444" lon="10.355010731074916"></trkpt><trkpt lat="46.56757966302444" lon="10.355010731074918"></trkpt><trkpt lat="46.56757966302444" lon="10.355010731074916"></trkpt><trkpt lat="46.5675051" lon="10.3551096"></trkpt><trkpt lat="46.5674455" lon="10.3554171"></trkpt><trkpt lat="46.5673715" lon="10.3554953"></trkpt><trkpt lat="46.56736835810154" lon="10.355540319531352"></trkpt><trkpt lat="46.5673642" lon="10.3555999"></trkpt><trkpt lat="46.5671631" lon="10.3558407"></trkpt><trkpt lat="46.567075482686036" lon="10.356030735854992"></trkpt><trkpt lat="46.567075482686036" lon="10.356030735854993"></trkpt><trkpt lat="46.567075482686036" lon="10.356030735854992"></trkpt><trkpt lat="46.5670453" lon="10.3560962"></trkpt><trkpt lat="46.5669548" lon="10.3562407"></trkpt><trkpt lat="46.566799" lon="10.3564259"></trkpt><trkpt lat="46.56677542135665" lon="10.35650170920371"></trkpt><trkpt lat="46.56677542135665" lon="10.356501709203709"></trkpt><trkpt lat="46.56677542135665" lon="10.35650170920371"></trkpt><trkpt lat="46.5667502" lon="10.3565828"></trkpt><trkpt lat="46.5666552" lon="10.3566812"></trkpt><trkpt lat="46.5665387" lon="10.3568866"></trkpt><trkpt lat="46.566467659128335" lon="10.356958096261868"></trkpt><trkpt lat="46.5663827" lon="10.3570436"></trkpt><trkpt lat="46.5662566" lon="10.357341"></trkpt><trkpt lat="46.5661808" lon="10.3574038"></trkpt><trkpt lat="46.56617299472456" lon="10.357418588287217"></trkpt><trkpt lat="46.56617299472456" lon="10.357418588287215"></trkpt><trkpt lat="46.56617299472456" lon="10.357418588287217"></trkpt><trkpt lat="46.5660555" lon="10.3576412"></trkpt><trkpt lat="46.5658515" lon="10.3578112"></trkpt><trkpt lat="46.565840608218025" lon="10.357824050916848"></trkpt><trkpt lat="46.565840608218025" lon="10.357824050916847"></trkpt><trkpt lat="46.565840608218025" lon="10.357824050916848"></trkpt><trkpt lat="46.5656786" lon="10.3580152"></trkpt><trkpt lat="46.5654957" lon="10.3581212"></trkpt><trkpt lat="46.56546606991659" lon="10.358161470721098"></trkpt><trkpt lat="46.56546606991659" lon="10.358161470721097"></trkpt><trkpt lat="46.56546606991659" lon="10.358161470721098"></trkpt><trkpt lat="46.5654233" lon="10.3582196"></trkpt><trkpt lat="46.565297" lon="10.358339"></trkpt><trkpt lat="46.56511146679938" lon="10.358560092098097"></trkpt><trkpt lat="46.56511146679938" lon="10.358560092098099"></trkpt><trkpt lat="46.56511146679938" lon="10.358560092098097"></trkpt><trkpt lat="46.5651076" lon="10.3585647"></trkpt><trkpt lat="46.5649226" lon="10.3586179"></trkpt><trkpt lat="46.5649382" lon="10.3588102"></trkpt><trkpt lat="46.5649049" lon="10.3589188"></trkpt><trkpt lat="46.5648978" lon="10.3589846"></trkpt><trkpt lat="46.56486782583449" lon="10.359035367055096"></trkpt><trkpt lat="46.56486782583449" lon="10.359035367055098"></trkpt><trkpt lat="46.56486782583449" lon="10.359035367055096"></trkpt><trkpt lat="46.5648534" lon="10.3590598"></trkpt><trkpt lat="46.564724" lon="10.3594004"></trkpt><trkpt lat="46.56462400231705" lon="10.359575414153035"></trkpt><trkpt lat="46.56462400231705" lon="10.359575414153033"></trkpt><trkpt lat="46.56462400231705" lon="10.359575414153035"></trkpt><trkpt lat="46.5645867" lon="10.3596407"></trkpt><trkpt lat="46.5645697" lon="10.3598007"></trkpt><trkpt lat="46.5646492" lon="10.3600098"></trkpt><trkpt lat="46.5646529" lon="10.3601056"></trkpt><trkpt lat="46.56463211146552" lon="10.36015826111595"></trkpt><trkpt lat="46.56463211146552" lon="10.360158261115952"></trkpt><trkpt lat="46.56463211146552" lon="10.36015826111595"></trkpt><trkpt lat="46.5645655" lon="10.360327"></trkpt><trkpt lat="46.5643558" lon="10.3605172"></trkpt><trkpt lat="46.56431885957396" lon="10.360597214144452"></trkpt><trkpt lat="46.5642245" lon="10.3608016"></trkpt><trkpt lat="46.5642051" lon="10.3608931"></trkpt><trkpt lat="46.5641606" lon="10.3609776"></trkpt><trkpt lat="46.56408815117092" lon="10.361151050537568"></trkpt><trkpt lat="46.5640723" lon="10.361189"></trkpt><trkpt lat="46.5641361" lon="10.3614305"></trkpt><trkpt lat="46.5642248" lon="10.3614764"></trkpt><trkpt lat="46.564315850983284" lon="10.361610059509788"></trkpt><trkpt lat="46.5643996" lon="10.361733"></trkpt><trkpt lat="46.5643106" lon="10.3618242"></trkpt><trkpt lat="46.5642924" lon="10.3618639"></trkpt><trkpt lat="46.5642323" lon="10.36189"></trkpt><trkpt lat="46.5641994" lon="10.3619617"></trkpt><trkpt lat="46.5640406" lon="10.3620115"></trkpt><trkpt lat="46.5637782" lon="10.3620231"></trkpt><trkpt lat="46.56378541039695" lon="10.362111859564779"></trkpt><trkpt lat="46.5637953" lon="10.3622336"></trkpt><trkpt lat="46.5638306" lon="10.3623248"></trkpt><trkpt lat="46.5638991" lon="10.3623959"></trkpt><trkpt lat="46.5639433" lon="10.3625328"></trkpt><trkpt lat="46.5640115" lon="10.3625545"></trkpt><trkpt lat="46.5639731" lon="10.3626924"></trkpt><trkpt lat="46.563968119813055" lon="10.362703987929914"></trkpt><trkpt lat="46.563968119813055" lon="10.362703987929912"></trkpt><trkpt lat="46.563968119813055" lon="10.362703987929914"></trkpt><trkpt lat="46.563825" lon="10.363037"></trkpt><trkpt lat="46.5637703" lon="10.3631814"></trkpt><trkpt lat="46.563733883960104" lon="10.363247750624137"></trkpt><trkpt lat="46.563733883960104" lon="10.363247750624138"></trkpt><trkpt lat="46.563733883960104" lon="10.363247750624137"></trkpt><trkpt lat="46.5635759" lon="10.3635356"></trkpt><trkpt lat="46.5634274" lon="10.3637803"></trkpt><trkpt lat="46.563358" lon="10.3637186"></trkpt><trkpt lat="46.56335946328016" lon="10.363586498319389"></trkpt><trkpt lat="46.5633598" lon="10.3635561"></trkpt><trkpt lat="46.5633486" lon="10.3635208"></trkpt><trkpt lat="46.5631984" lon="10.3635938"></trkpt><trkpt lat="46.5630781" lon="10.3635821"></trkpt><trkpt lat="46.5628541" lon="10.363625"></trkpt><trkpt lat="46.5627233" lon="10.3637524"></trkpt><trkpt lat="46.562620491298006" lon="10.36371296312758"></trkpt><trkpt lat="46.5623917" lon="10.3636252"></trkpt><trkpt lat="46.5622426" lon="10.3635476"></trkpt><trkpt lat="46.562197215135825" lon="10.363496907598012"></trkpt><trkpt lat="46.562197215135825" lon="10.36349690759801"></trkpt><trkpt lat="46.562197215135825" lon="10.363496907598012"></trkpt><trkpt lat="46.5621588" lon="10.363454"></trkpt><trkpt lat="46.5620041" lon="10.3636136"></trkpt><trkpt lat="46.56186831179193" lon="10.363791139730436"></trkpt><trkpt lat="46.56186831179193" lon="10.363791139730434"></trkpt><trkpt lat="46.56186831179193" lon="10.363791139730436"></trkpt><trkpt lat="46.5618623" lon="10.363799"></trkpt><trkpt lat="46.5619013" lon="10.3639997"></trkpt><trkpt lat="46.5619311" lon="10.3640733"></trkpt><trkpt lat="46.5619709" lon="10.3641186"></trkpt><trkpt lat="46.5619521" lon="10.3642006"></trkpt><trkpt lat="46.5618416" lon="10.3642722"></trkpt><trkpt lat="46.5617563" lon="10.3643187"></trkpt><trkpt lat="46.5616685" lon="10.3642547"></trkpt><trkpt lat="46.5616232" lon="10.3644457"></trkpt><trkpt lat="46.56146845301683" lon="10.364555434679419"></trkpt><trkpt lat="46.56146845301683" lon="10.364555434679417"></trkpt><trkpt lat="46.56146845301683" lon="10.364555434679419"></trkpt><trkpt lat="46.5614544" lon="10.3645654"></trkpt><trkpt lat="46.5614106" lon="10.3646436"></trkpt><trkpt lat="46.5613643" lon="10.364695"></trkpt><trkpt lat="46.5612939" lon="10.3647969"></trkpt><trkpt lat="46.5612548" lon="10.3648907"></trkpt><trkpt lat="46.5611598" lon="10.364954"></trkpt><trkpt lat="46.56114778706946" lon="10.364966766445288"></trkpt><trkpt lat="46.5610211" lon="10.3651014"></trkpt><trkpt lat="46.5609648" lon="10.3651978"></trkpt><trkpt lat="46.5608104" lon="10.3653016"></trkpt><trkpt lat="46.5607826566706" lon="10.365329321535743"></trkpt><trkpt lat="46.5607826566706" lon="10.365329321535741"></trkpt><trkpt lat="46.5607826566706" lon="10.365329321535743"></trkpt><trkpt lat="46.5606831" lon="10.3654288"></trkpt><trkpt lat="46.5605761" lon="10.3656105"></trkpt><trkpt lat="46.5605139" lon="10.365628"></trkpt><trkpt lat="46.56044084504632" lon="10.36573780763074"></trkpt><trkpt lat="46.5603517" lon="10.3658718"></trkpt><trkpt lat="46.5602001" lon="10.3660838"></trkpt><trkpt lat="46.5601955" lon="10.3661456"></trkpt><trkpt lat="46.56017099854603" lon="10.366229970899042"></trkpt><trkpt lat="46.56017099854603" lon="10.36622997089904"></trkpt><trkpt lat="46.56017099854603" lon="10.366229970899042"></trkpt><trkpt lat="46.5601008" lon="10.3664717"></trkpt><trkpt lat="46.5600928" lon="10.3665412"></trkpt><trkpt lat="46.5600502" lon="10.3665909"></trkpt><trkpt lat="46.5599967" lon="10.3666799"></trkpt><trkpt lat="46.5599829" lon="10.366782"></trkpt><trkpt lat="46.55997221514967" lon="10.366803471267682"></trkpt><trkpt lat="46.55997221514967" lon="10.366803471267684"></trkpt><trkpt lat="46.55997221514967" lon="10.366803471267682"></trkpt><trkpt lat="46.5599303" lon="10.3668877"></trkpt><trkpt lat="46.5598799" lon="10.3670588"></trkpt><trkpt lat="46.5598289" lon="10.3671351"></trkpt><trkpt lat="46.5597809" lon="10.3673486"></trkpt><trkpt lat="46.5597702537657" lon="10.367373925133107"></trkpt><trkpt lat="46.5597702537657" lon="10.367373925133105"></trkpt><trkpt lat="46.5597702537657" lon="10.367373925133107"></trkpt><trkpt lat="46.5597347" lon="10.3674585"></trkpt><trkpt lat="46.5596726" lon="10.3676667"></trkpt><trkpt lat="46.559603" lon="10.3678018"></trkpt><trkpt lat="46.55956264653446" lon="10.367948242429009"></trkpt><trkpt lat="46.5595623" lon="10.3679495"></trkpt><trkpt lat="46.559482" lon="10.3681204"></trkpt><trkpt lat="46.5594864" lon="10.3682031"></trkpt><trkpt lat="46.5596042" lon="10.3683127"></trkpt><trkpt lat="46.5596339" lon="10.3683923"></trkpt><trkpt lat="46.5596421" lon="10.3684719"></trkpt><trkpt lat="46.55965166519479" lon="10.36846979454167"></trkpt><trkpt lat="46.5597107" lon="10.3684568"></trkpt><trkpt lat="46.5598058" lon="10.3684846"></trkpt><trkpt lat="46.5598925" lon="10.3684674"></trkpt><trkpt lat="46.5599867" lon="10.3684833"></trkpt><trkpt lat="46.560036" lon="10.3684632"></trkpt><trkpt lat="46.56008396785082" lon="10.368487892809908"></trkpt><trkpt lat="46.5601578" lon="10.3685259"></trkpt><trkpt lat="46.5601101" lon="10.3687262"></trkpt><trkpt lat="46.560066398125414" lon="10.36901094808869"></trkpt><trkpt lat="46.5600655" lon="10.3690168"></trkpt><trkpt lat="46.5600236" lon="10.3693012"></trkpt><trkpt lat="46.55988" lon="10.3695239"></trkpt><trkpt lat="46.559850785563775" lon="10.369546322284387"></trkpt><trkpt lat="46.5598443" lon="10.3695513"></trkpt><trkpt lat="46.5597882" lon="10.3696919"></trkpt><trkpt lat="46.5597384" lon="10.3697456"></trkpt><trkpt lat="46.5596326" lon="10.3697752"></trkpt><trkpt lat="46.559559" lon="10.3698679"></trkpt><trkpt lat="46.559505956901376" lon="10.369902769983259"></trkpt><trkpt lat="46.5594548" lon="10.3699364"></trkpt><trkpt lat="46.5594294" lon="10.369958"></trkpt><trkpt lat="46.5594049" lon="10.3699404"></trkpt><trkpt lat="46.5593825" lon="10.3699474"></trkpt><trkpt lat="46.5593584" lon="10.3700304"></trkpt><trkpt lat="46.5592624" lon="10.3702157"></trkpt><trkpt lat="46.5592436952935" lon="10.370328223965553"></trkpt><trkpt lat="46.5592371" lon="10.3703679"></trkpt><trkpt lat="46.5592491" lon="10.3703919"></trkpt><trkpt lat="46.5592732" lon="10.3704071"></trkpt><trkpt lat="46.5592968" lon="10.3704686"></trkpt><trkpt lat="46.5592798" lon="10.3705085"></trkpt><trkpt lat="46.5592905" lon="10.3705551"></trkpt><trkpt lat="46.5593039" lon="10.3706942"></trkpt><trkpt lat="46.5593372" lon="10.3707651"></trkpt><trkpt lat="46.5592414" lon="10.3709746"></trkpt><trkpt lat="46.559228152185504" lon="10.370995436578934"></trkpt><trkpt lat="46.559228152185504" lon="10.370995436578932"></trkpt><trkpt lat="46.559228152185504" lon="10.370995436578934"></trkpt><trkpt lat="46.5591803" lon="10.3710707"></trkpt><trkpt lat="46.5591428" lon="10.3712217"></trkpt><trkpt lat="46.5591693" lon="10.3712813"></trkpt><trkpt lat="46.5591523" lon="10.3713802"></trkpt><trkpt lat="46.5591363" lon="10.3715095"></trkpt><trkpt lat="46.5591659" lon="10.3715989"></trkpt><trkpt lat="46.5591757" lon="10.3716788"></trkpt><trkpt lat="46.559255" lon="10.3716865"></trkpt><trkpt lat="46.559338" lon="10.3717235"></trkpt><trkpt lat="46.5593923919392" lon="10.371688280698374"></trkpt><trkpt lat="46.5594424" lon="10.3716559"></trkpt><trkpt lat="46.5595075" lon="10.3713756"></trkpt><trkpt lat="46.5596497" lon="10.371728"></trkpt><trkpt lat="46.559754" lon="10.3716187"></trkpt><trkpt lat="46.559789267383834" lon="10.371521284335262"></trkpt><trkpt lat="46.5598339" lon="10.371398"></trkpt><trkpt lat="46.559966" lon="10.3712133"></trkpt><trkpt lat="46.560114025425236" lon="10.371104734334448"></trkpt><trkpt lat="46.5603265" lon="10.3709489"></trkpt><trkpt lat="46.5604522" lon="10.3708738"></trkpt><trkpt lat="46.56053066832339" lon="10.3708738"></trkpt><trkpt lat="46.5608779" lon="10.3708738"></trkpt><trkpt lat="46.560951073997856" lon="10.370750049085549"></trkpt><trkpt lat="46.56124142090615" lon="10.3702590181666"></trkpt><trkpt lat="46.56124142090615" lon="10.370259018166601"></trkpt><trkpt lat="46.56124142090615" lon="10.3702590181666"></trkpt><trkpt lat="46.5612966" lon="10.3701657"></trkpt><trkpt lat="46.56161231814387" lon="10.369945066560275"></trkpt><trkpt lat="46.56161231814387" lon="10.369945066560277"></trkpt><trkpt lat="46.56161231814387" lon="10.369945066560275"></trkpt><trkpt lat="46.5616728" lon="10.3699028"></trkpt><trkpt lat="46.5617226" lon="10.3700101"></trkpt><trkpt lat="46.56173123268995" lon="10.37100426684875"></trkpt><trkpt lat="46.5617226" lon="10.3700101"></trkpt><trkpt lat="46.56172156058731" lon="10.370007860462204"></trkpt><trkpt lat="46.56172156058731" lon="10.370007860462202"></trkpt><trkpt lat="46.56172156058731" lon="10.370007860462204"></trkpt><trkpt lat="46.5616728" lon="10.3699028"></trkpt><trkpt lat="46.5612966" lon="10.3701657"></trkpt><trkpt lat="46.561079173673996" lon="10.370533408577604"></trkpt><trkpt lat="46.561079173673996" lon="10.370533408577602"></trkpt><trkpt lat="46.561079173673996" lon="10.370533408577604"></trkpt><trkpt lat="46.5608779" lon="10.3708738"></trkpt><trkpt lat="46.560722883385985" lon="10.3708738"></trkpt><trkpt lat="46.5604522" lon="10.3708738"></trkpt><trkpt lat="46.5603265" lon="10.3709489"></trkpt><trkpt lat="46.56028845930151" lon="10.370976800029629"></trkpt><trkpt lat="46.559966" lon="10.3712133"></trkpt><trkpt lat="46.55990523990854" lon="10.371298253738786"></trkpt><trkpt lat="46.5598339" lon="10.371398"></trkpt><trkpt lat="46.559754" lon="10.3716187"></trkpt><trkpt lat="46.5596497" lon="10.371728"></trkpt><trkpt lat="46.55965259215234" lon="10.371739990760952"></trkpt><trkpt lat="46.55979700773414" lon="10.372338732637894"></trkpt><trkpt lat="46.5598244" lon="10.3724523"></trkpt><trkpt lat="46.5598099" lon="10.3725214"></trkpt><trkpt lat="46.5598136" lon="10.3726163"></trkpt><trkpt lat="46.5597828" lon="10.3727724"></trkpt><trkpt lat="46.5597325" lon="10.3728954"></trkpt><trkpt lat="46.55972991566157" lon="10.372934267089823"></trkpt><trkpt lat="46.5597173" lon="10.373124"></trkpt><trkpt lat="46.55963315469312" lon="10.373540061220046"></trkpt><trkpt lat="46.55963315469312" lon="10.373540061220048"></trkpt><trkpt lat="46.55963315469312" lon="10.373540061220046"></trkpt><trkpt lat="46.5596181" lon="10.3736145"></trkpt><trkpt lat="46.5595783" lon="10.3736566"></trkpt><trkpt lat="46.5594996" lon="10.3736762"></trkpt><trkpt lat="46.5593875" lon="10.3737768"></trkpt><trkpt lat="46.55929149011234" lon="10.373928511276297"></trkpt><trkpt lat="46.55929149011234" lon="10.373928511276299"></trkpt><trkpt lat="46.55929149011234" lon="10.373928511276297"></trkpt><trkpt lat="46.5591667" lon="10.3741257"></trkpt><trkpt lat="46.5590858" lon="10.37439"></trkpt><trkpt lat="46.559030823524715" lon="10.37444490095815"></trkpt><trkpt lat="46.559013" lon="10.3744627"></trkpt><trkpt lat="46.5589289" lon="10.3745896"></trkpt><trkpt lat="46.5589116" lon="10.3746983"></trkpt><trkpt lat="46.55875381049927" lon="10.374932624781929"></trkpt><trkpt lat="46.55875381049927" lon="10.374932624781927"></trkpt><trkpt lat="46.55875381049927" lon="10.374932624781929"></trkpt><trkpt lat="46.5586976" lon="10.3750161"></trkpt><trkpt lat="46.5586501" lon="10.3751516"></trkpt><trkpt lat="46.558533" lon="10.375284"></trkpt><trkpt lat="46.5584978" lon="10.3753467"></trkpt><trkpt lat="46.55844581172207" lon="10.375386681747228"></trkpt><trkpt lat="46.5584112" lon="10.3754133"></trkpt><trkpt lat="46.5583889" lon="10.3754768"></trkpt><trkpt lat="46.5583144" lon="10.3756553"></trkpt><trkpt lat="46.55815064448355" lon="10.375853355135268"></trkpt><trkpt lat="46.55815064448355" lon="10.375853355135272"></trkpt><trkpt lat="46.55815064448355" lon="10.375853355135268"></trkpt><trkpt lat="46.5581029" lon="10.3759111"></trkpt><trkpt lat="46.5577752" lon="10.3761914"></trkpt><trkpt lat="46.55776988297727" lon="10.37619325524755"></trkpt><trkpt lat="46.55776988297727" lon="10.376193255247548"></trkpt><trkpt lat="46.55776988297727" lon="10.37619325524755"></trkpt><trkpt lat="46.5575657" lon="10.3762645"></trkpt><trkpt lat="46.5575832" lon="10.3763314"></trkpt><trkpt lat="46.5576311" lon="10.3764108"></trkpt><trkpt lat="46.5576777" lon="10.3765395"></trkpt><trkpt lat="46.5579228" lon="10.3768061"></trkpt><trkpt lat="46.557924" lon="10.3769114"></trkpt><trkpt lat="46.557916175068485" lon="10.376987924133376"></trkpt><trkpt lat="46.5579113" lon="10.3770356"></trkpt><trkpt lat="46.558026" lon="10.377249"></trkpt><trkpt lat="46.5580417" lon="10.3772784"></trkpt><trkpt lat="46.5580615" lon="10.3775068"></trkpt><trkpt lat="46.5580788" lon="10.3775239"></trkpt><trkpt lat="46.55806934910102" lon="10.377543016591126"></trkpt><trkpt lat="46.55806934910102" lon="10.377543016591128"></trkpt><trkpt lat="46.55806934910102" lon="10.377543016591126"></trkpt><trkpt lat="46.5580568" lon="10.3775684"></trkpt><trkpt lat="46.5581104" lon="10.3777414"></trkpt><trkpt lat="46.5582751" lon="10.3781029"></trkpt><trkpt lat="46.558276202930124" lon="10.378105774190011"></trkpt><trkpt lat="46.558276202930124" lon="10.37810577419001"></trkpt><trkpt lat="46.558276202930124" lon="10.378105774190011"></trkpt><trkpt lat="46.558453" lon="10.3785665"></trkpt><trkpt lat="46.558495544390325" lon="10.378656121668511"></trkpt><trkpt lat="46.558495544390325" lon="10.378656121668513"></trkpt><trkpt lat="46.558495544390325" lon="10.378656121668511"></trkpt><trkpt lat="46.5585844" lon="10.3788433"></trkpt><trkpt lat="46.55873711041813" lon="10.379163185642946"></trkpt><trkpt lat="46.5587776" lon="10.379248"></trkpt><trkpt lat="46.5590199" lon="10.3793812"></trkpt><trkpt lat="46.55916521722358" lon="10.37937723608228"></trkpt><trkpt lat="46.5592032" lon="10.3793762"></trkpt><trkpt lat="46.5594385" lon="10.3794054"></trkpt><trkpt lat="46.55958180573433" lon="10.379526506229153"></trkpt><trkpt lat="46.55958180573433" lon="10.379526506229155"></trkpt><trkpt lat="46.55958180573433" lon="10.379526506229153"></trkpt><trkpt lat="46.5595831" lon="10.3795276"></trkpt><trkpt lat="46.5598312" lon="10.3798567"></trkpt><trkpt lat="46.55987486098217" lon="10.37998005645028"></trkpt><trkpt lat="46.5599852" lon="10.3802918"></trkpt><trkpt lat="46.56017120271898" lon="10.380443708945114"></trkpt><trkpt lat="46.5602618" lon="10.3805177"></trkpt><trkpt lat="46.56057539067291" lon="10.380703589088688"></trkpt><trkpt lat="46.5609678" lon="10.3809362"></trkpt><trkpt lat="46.560967922742094" lon="10.380936201018056"></trkpt><trkpt lat="46.5612451" lon="10.3809385"></trkpt><trkpt lat="46.5613830232568" lon="10.380910497835648"></trkpt><trkpt lat="46.5614367" lon="10.3808996"></trkpt><trkpt lat="46.5616184" lon="10.3808967"></trkpt><trkpt lat="46.561770702629765" lon="10.381096838186743"></trkpt><trkpt lat="46.561770702629765" lon="10.381096838186744"></trkpt><trkpt lat="46.561770702629765" lon="10.381096838186743"></trkpt><trkpt lat="46.5618712" lon="10.3812289"></trkpt><trkpt lat="46.5620094" lon="10.381498"></trkpt><trkpt lat="46.56203546397189" lon="10.38159166637444"></trkpt><trkpt lat="46.56203546397189" lon="10.381591666374439"></trkpt><trkpt lat="46.56203546397189" lon="10.38159166637444"></trkpt><trkpt lat="46.5621684" lon="10.3820694"></trkpt><trkpt lat="46.56223133465927" lon="10.382167808289699"></trkpt><trkpt lat="46.5623357" lon="10.382331"></trkpt><trkpt lat="46.56246" lon="10.3825593"></trkpt><trkpt lat="46.5624187" lon="10.3826256"></trkpt><trkpt lat="46.5623554" lon="10.3826452"></trkpt><trkpt lat="46.5623153" lon="10.3827017"></trkpt><trkpt lat="46.5622784" lon="10.3827262"></trkpt><trkpt lat="46.5622943" lon="10.3829565"></trkpt><trkpt lat="46.5622688" lon="10.3830163"></trkpt><trkpt lat="46.562186627241026" lon="10.383057436978476"></trkpt><trkpt lat="46.562186627241026" lon="10.383057436978474"></trkpt><trkpt lat="46.562186627241026" lon="10.383057436978476"></trkpt><trkpt lat="46.5621064" lon="10.3830976"></trkpt><trkpt lat="46.5620791" lon="10.3830934"></trkpt><trkpt lat="46.5620421" lon="10.383193"></trkpt><trkpt lat="46.56204293508524" lon="10.383562757184862"></trkpt><trkpt lat="46.562043" lon="10.3835915"></trkpt><trkpt lat="46.562079324957914" lon="10.384208099343477"></trkpt><trkpt lat="46.56211712111827" lon="10.384849671667272"></trkpt><trkpt lat="46.5621294" lon="10.3850581"></trkpt><trkpt lat="46.56227889713603" lon="10.385463557212326"></trkpt><trkpt lat="46.56227889713603" lon="10.385463557212328"></trkpt><trkpt lat="46.56227889713603" lon="10.385463557212326"></trkpt><trkpt lat="46.562479356559344" lon="10.386007231299445"></trkpt><trkpt lat="46.562479356559344" lon="10.386007231299443"></trkpt><trkpt lat="46.562479356559344" lon="10.386007231299445"></trkpt><trkpt lat="46.56269024981328" lon="10.38657920339944"></trkpt><trkpt lat="46.562885861454845" lon="10.387109729622182"></trkpt><trkpt lat="46.562885861454845" lon="10.387109729622184"></trkpt><trkpt lat="46.562885861454845" lon="10.387109729622182"></trkpt><trkpt lat="46.5629218" lon="10.3872072"></trkpt><trkpt lat="46.56296518149917" lon="10.387798201575066"></trkpt><trkpt lat="46.56301088248407" lon="10.388420802328291"></trkpt><trkpt lat="46.5630434" lon="10.3888638"></trkpt><trkpt lat="46.5631464851508" lon="10.38911629937513"></trkpt><trkpt lat="46.56337012486926" lon="10.38966408815677"></trkpt><trkpt lat="46.5633914" lon="10.3897162"></trkpt><trkpt lat="46.5634255" lon="10.3899581"></trkpt><trkpt lat="46.5634683" lon="10.3900536"></trkpt><trkpt lat="46.56361684740344" lon="10.390162746535223"></trkpt><trkpt lat="46.5640014" lon="10.3904453"></trkpt><trkpt lat="46.564012859986605" lon="10.39045795988704"></trkpt><trkpt lat="46.56436283380038" lon="10.3908445771758"></trkpt><trkpt lat="46.56436283380038" lon="10.390844577175802"></trkpt><trkpt lat="46.56436283380038" lon="10.3908445771758"></trkpt><trkpt lat="46.5644904" lon="10.3909855"></trkpt><trkpt lat="46.564561" lon="10.3910725"></trkpt><trkpt lat="46.564733236627916" lon="10.391141411316541"></trkpt><trkpt lat="46.564733236627916" lon="10.39114141131654"></trkpt><trkpt lat="46.564733236627916" lon="10.391141411316541"></trkpt><trkpt lat="46.5647677" lon="10.3911552"></trkpt><trkpt lat="46.5649196" lon="10.3912186"></trkpt><trkpt lat="46.5653833" lon="10.390939"></trkpt><trkpt lat="46.5654008" lon="10.39101"></trkpt><trkpt lat="46.5654569590267" lon="10.39103088392888"></trkpt><trkpt lat="46.5654847" lon="10.3910412"></trkpt><trkpt lat="46.5655706" lon="10.39101"></trkpt><trkpt lat="46.5656525" lon="10.3910469"></trkpt><trkpt lat="46.5657267" lon="10.3911349"></trkpt><trkpt lat="46.5658203" lon="10.39122"></trkpt><trkpt lat="46.56583963819396" lon="10.391245148949352"></trkpt><trkpt lat="46.56583963819396" lon="10.39124514894935"></trkpt><trkpt lat="46.56583963819396" lon="10.391245148949352"></trkpt><trkpt lat="46.5658619" lon="10.3912741"></trkpt><trkpt lat="46.5659185" lon="10.3913733"></trkpt><trkpt lat="46.565992" lon="10.3915322"></trkpt><trkpt lat="46.5661091" lon="10.3916826"></trkpt><trkpt lat="46.56614646052002" lon="10.391720884427777"></trkpt><trkpt lat="46.5662385" lon="10.3918152"></trkpt><trkpt lat="46.5663842" lon="10.3920203"></trkpt><trkpt lat="46.56647653437691" lon="10.392158801565373"></trkpt><trkpt lat="46.56647653437691" lon="10.392158801565374"></trkpt><trkpt lat="46.56647653437691" lon="10.392158801565373"></trkpt><trkpt lat="46.5665072" lon="10.3922048"></trkpt><trkpt lat="46.5666055" lon="10.3923638"></trkpt><trkpt lat="46.5667701" lon="10.3926083"></trkpt><trkpt lat="46.56679544575345" lon="10.392625935394795"></trkpt><trkpt lat="46.5668937" lon="10.3926943"></trkpt><trkpt lat="46.5670893" lon="10.3928229"></trkpt><trkpt lat="46.5671519" lon="10.3929392"></trkpt><trkpt lat="46.56715670020753" lon="10.392951798346886"></trkpt><trkpt lat="46.5672065" lon="10.3930825"></trkpt><trkpt lat="46.5673343" lon="10.3931135"></trkpt><trkpt lat="46.567457" lon="10.3932469"></trkpt><trkpt lat="46.567518655584045" lon="10.393288206204092"></trkpt><trkpt lat="46.5676194" lon="10.3933557"></trkpt><trkpt lat="46.5676513" lon="10.3934506"></trkpt><trkpt lat="46.5677445" lon="10.3934428"></trkpt><trkpt lat="46.567868160843304" lon="10.393591461379298"></trkpt><trkpt lat="46.567868160843304" lon="10.3935914613793"></trkpt><trkpt lat="46.567868160843304" lon="10.393591461379298"></trkpt><trkpt lat="46.5679196" lon="10.3936533"></trkpt><trkpt lat="46.5680482" lon="10.393776"></trkpt><trkpt lat="46.568196" lon="10.3938903"></trkpt><trkpt lat="46.5682517510675" lon="10.393920249082226"></trkpt><trkpt lat="46.568481" lon="10.3940434"></trkpt><trkpt lat="46.5685565" lon="10.3941263"></trkpt><trkpt lat="46.568621" lon="10.3941988"></trkpt><trkpt lat="46.568632649970354" lon="10.39422672101454"></trkpt><trkpt lat="46.568632649970354" lon="10.394226721014538"></trkpt><trkpt lat="46.568632649970354" lon="10.39422672101454"></trkpt><trkpt lat="46.5686689" lon="10.3943136"></trkpt><trkpt lat="46.5686875" lon="10.394427"></trkpt><trkpt lat="46.5686595" lon="10.3945199"></trkpt><trkpt lat="46.5686888" lon="10.3945897"></trkpt><trkpt lat="46.5686703" lon="10.3947591"></trkpt><trkpt lat="46.5687038" lon="10.3947919"></trkpt><trkpt lat="46.568714525131966" lon="10.394773877705463"></trkpt><trkpt lat="46.5687354" lon="10.3947388"></trkpt><trkpt lat="46.5687843" lon="10.3947195"></trkpt><trkpt lat="46.5689456" lon="10.3948527"></trkpt><trkpt lat="46.5689179" lon="10.3949965"></trkpt><trkpt lat="46.5688646" lon="10.3950682"></trkpt><trkpt lat="46.5687341" lon="10.3950895"></trkpt><trkpt lat="46.5687124" lon="10.395126"></trkpt><trkpt lat="46.5688662" lon="10.3951647"></trkpt><trkpt lat="46.56897759231081" lon="10.395222519204314"></trkpt><trkpt lat="46.5689895" lon="10.3952287"></trkpt><trkpt lat="46.5691424" lon="10.3950859"></trkpt><trkpt lat="46.5690321" lon="10.3953993"></trkpt><trkpt lat="46.5691489" lon="10.3953327"></trkpt><trkpt lat="46.569261" lon="10.3952623"></trkpt><trkpt lat="46.5693303" lon="10.3951279"></trkpt><trkpt lat="46.5693605" lon="10.395345"></trkpt><trkpt lat="46.56938672640718" lon="10.395317521208208"></trkpt><trkpt lat="46.5694317" lon="10.3952704"></trkpt><trkpt lat="46.5694421" lon="10.3951817"></trkpt><trkpt lat="46.5695004" lon="10.3950629"></trkpt><trkpt lat="46.5694995" lon="10.394868"></trkpt><trkpt lat="46.5695272590025" lon="10.394725830032797"></trkpt><trkpt lat="46.5695324" lon="10.3946995"></trkpt><trkpt lat="46.5696146" lon="10.3945327"></trkpt><trkpt lat="46.5696757" lon="10.3943645"></trkpt><trkpt lat="46.5696587" lon="10.3942214"></trkpt><trkpt lat="46.569675421854434" lon="10.394146622183415"></trkpt><trkpt lat="46.5697049" lon="10.3940148"></trkpt><trkpt lat="46.5697305" lon="10.3938187"></trkpt><trkpt lat="46.5696903" lon="10.3935726"></trkpt><trkpt lat="46.56971217766627" lon="10.393534118917723"></trkpt><trkpt lat="46.56971217766627" lon="10.39353411891772"></trkpt><trkpt lat="46.56971217766627" lon="10.393534118917723"></trkpt><trkpt lat="46.5698052" lon="10.3933705"></trkpt><trkpt lat="46.5698856" lon="10.3931534"></trkpt><trkpt lat="46.56991063749057" lon="10.392964540426894"></trkpt><trkpt lat="46.5699123" lon="10.392952"></trkpt><trkpt lat="46.5699678" lon="10.3926939"></trkpt><trkpt lat="46.5700299" lon="10.3927997"></trkpt><trkpt lat="46.570112" lon="10.3933257"></trkpt><trkpt lat="46.5701454" lon="10.3934961"></trkpt><trkpt lat="46.570213623067964" lon="10.393247662115526"></trkpt><trkpt lat="46.5702768" lon="10.3930176"></trkpt><trkpt lat="46.57039848445723" lon="10.392653457335252"></trkpt><trkpt lat="46.5704505" lon="10.3924978"></trkpt><trkpt lat="46.570499" lon="10.3922672"></trkpt><trkpt lat="46.57050784917345" lon="10.392033594645786"></trkpt><trkpt lat="46.5705128" lon="10.3919029"></trkpt><trkpt lat="46.5705026" lon="10.391625"></trkpt><trkpt lat="46.570463303042864" lon="10.391386664664328"></trkpt><trkpt lat="46.570463303042864" lon="10.39138666466433"></trkpt><trkpt lat="46.570463303042864" lon="10.391386664664328"></trkpt><trkpt lat="46.5704195" lon="10.391121"></trkpt><trkpt lat="46.5707278" lon="10.391373"></trkpt><trkpt lat="46.5710281" lon="10.3913814"></trkpt><trkpt lat="46.57104590336153" lon="10.391410241902763"></trkpt><trkpt lat="46.57104590336153" lon="10.391410241902765"></trkpt><trkpt lat="46.57104590336153" lon="10.391410241902763"></trkpt><trkpt lat="46.571106" lon="10.3915076"></trkpt><trkpt lat="46.5711919" lon="10.3918201"></trkpt><trkpt lat="46.5712396" lon="10.3918545"></trkpt><trkpt lat="46.57126344281032" lon="10.391957883197785"></trkpt><trkpt lat="46.571289" lon="10.3920687"></trkpt><trkpt lat="46.5713435" lon="10.3921441"></trkpt><trkpt lat="46.5713785" lon="10.3920442"></trkpt><trkpt lat="46.5714554" lon="10.392003"></trkpt><trkpt lat="46.5716113" lon="10.3918098"></trkpt><trkpt lat="46.5716718" lon="10.3914822"></trkpt><trkpt lat="46.5717499" lon="10.3915998"></trkpt><trkpt lat="46.57176458882608" lon="10.391636477553599"></trkpt><trkpt lat="46.57176458882608" lon="10.3916364775536"></trkpt><trkpt lat="46.57176458882608" lon="10.391636477553599"></trkpt><trkpt lat="46.5717994" lon="10.3917234"></trkpt><trkpt lat="46.5718286" lon="10.3917983"></trkpt><trkpt lat="46.5718389" lon="10.3916178"></trkpt><trkpt lat="46.5718423" lon="10.3914654"></trkpt><trkpt lat="46.5718182" lon="10.391282"></trkpt><trkpt lat="46.5717499" lon="10.3911714"></trkpt><trkpt lat="46.5716836" lon="10.3909372"></trkpt><trkpt lat="46.5715912" lon="10.3908556"></trkpt><trkpt lat="46.5715383761949" lon="10.39082081660553"></trkpt><trkpt lat="46.5715057" lon="10.3907993"></trkpt><trkpt lat="46.5714874" lon="10.3907688"></trkpt><trkpt lat="46.5715899" lon="10.3907764"></trkpt><trkpt lat="46.5715856" lon="10.3907545"></trkpt><trkpt lat="46.5714909" lon="10.3906242"></trkpt><trkpt lat="46.5714913" lon="10.3904634"></trkpt><trkpt lat="46.5715801" lon="10.3905545"></trkpt><trkpt lat="46.5717754" lon="10.3906217"></trkpt><trkpt lat="46.5718881" lon="10.3907323"></trkpt><trkpt lat="46.5718739" lon="10.3906783"></trkpt><trkpt lat="46.5718739" lon="10.3905292"></trkpt><trkpt lat="46.571873719274066" lon="10.39052877295648"></trkpt><trkpt lat="46.571848" lon="10.390468"></trkpt><trkpt lat="46.5717702" lon="10.3904406"></trkpt><trkpt lat="46.5717108" lon="10.3903645"></trkpt><trkpt lat="46.571737" lon="10.3902074"></trkpt><trkpt lat="46.5717477" lon="10.3901197"></trkpt><trkpt lat="46.5717681" lon="10.3900172"></trkpt><trkpt lat="46.5717945" lon="10.3901968"></trkpt><trkpt lat="46.5718195" lon="10.3902444"></trkpt><trkpt lat="46.5718263" lon="10.3902366"></trkpt><trkpt lat="46.5718236" lon="10.3901966"></trkpt><trkpt lat="46.571837" lon="10.3901383"></trkpt><trkpt lat="46.571844" lon="10.3900531"></trkpt><trkpt lat="46.5718671" lon="10.389962"></trkpt><trkpt lat="46.571931374845455" lon="10.389774424145783"></trkpt><trkpt lat="46.571931374845455" lon="10.38977442414578"></trkpt><trkpt lat="46.571931374845455" lon="10.389774424145783"></trkpt><trkpt lat="46.5719418" lon="10.389744"></trkpt><trkpt lat="46.5719463" lon="10.3894073"></trkpt><trkpt lat="46.5718713" lon="10.3892557"></trkpt><trkpt lat="46.5718263033823" lon="10.38919533499664"></trkpt><trkpt lat="46.571782" lon="10.3891359"></trkpt><trkpt lat="46.571953" lon="10.3891907"></trkpt><trkpt lat="46.5720449" lon="10.3892858"></trkpt><trkpt lat="46.5721217" lon="10.3893954"></trkpt><trkpt lat="46.5721948" lon="10.3894621"></trkpt><trkpt lat="46.5721757" lon="10.3895695"></trkpt><trkpt lat="46.5722076" lon="10.3896932"></trkpt><trkpt lat="46.5722703" lon="10.3898375"></trkpt><trkpt lat="46.572276" lon="10.3898978"></trkpt><trkpt lat="46.57230750684763" lon="10.38990897230947"></trkpt><trkpt lat="46.5723434" lon="10.3899217"></trkpt><trkpt lat="46.5723686" lon="10.389962"></trkpt><trkpt lat="46.5723739" lon="10.3899135"></trkpt><trkpt lat="46.572347" lon="10.3898345"></trkpt><trkpt lat="46.5723563" lon="10.3897563"></trkpt><trkpt lat="46.5723455" lon="10.3896665"></trkpt><trkpt lat="46.5723365" lon="10.389549"></trkpt><trkpt lat="46.572338" lon="10.3893943"></trkpt><trkpt lat="46.5723647" lon="10.3892416"></trkpt><trkpt lat="46.5723566" lon="10.3891335"></trkpt><trkpt lat="46.5723669" lon="10.3890244"></trkpt><trkpt lat="46.5723308" lon="10.3887982"></trkpt><trkpt lat="46.5723370203644" lon="10.388776045277481"></trkpt><trkpt lat="46.5723381" lon="10.3887722"></trkpt><trkpt lat="46.5724122" lon="10.3887927"></trkpt><trkpt lat="46.5725185" lon="10.3887845"></trkpt><trkpt lat="46.5726753" lon="10.3889628"></trkpt><trkpt lat="46.57273015099369" lon="10.388980000917268"></trkpt><trkpt lat="46.5727496" lon="10.3889861"></trkpt><trkpt lat="46.5728599" lon="10.3889494"></trkpt><trkpt lat="46.5729005" lon="10.388994"></trkpt><trkpt lat="46.5729482" lon="10.3890122"></trkpt><trkpt lat="46.5730244" lon="10.3890121"></trkpt><trkpt lat="46.5731108" lon="10.3889615"></trkpt><trkpt lat="46.57316257203898" lon="10.38897215791123"></trkpt><trkpt lat="46.5732575" lon="10.3889917"></trkpt><trkpt lat="46.5733035" lon="10.3890518"></trkpt><trkpt lat="46.573387" lon="10.3890521"></trkpt><trkpt lat="46.5735068" lon="10.3889462"></trkpt><trkpt lat="46.5735055" lon="10.388886"></trkpt><trkpt lat="46.57350944406262" lon="10.388813692185328"></trkpt><trkpt lat="46.5735103" lon="10.388798"></trkpt><trkpt lat="46.5735301" lon="10.3886747"></trkpt><trkpt lat="46.5734806" lon="10.3885292"></trkpt><trkpt lat="46.5733539" lon="10.3883606"></trkpt><trkpt lat="46.57329718286546" lon="10.38831250327795"></trkpt><trkpt lat="46.57329718286546" lon="10.388312503277952"></trkpt><trkpt lat="46.57329718286546" lon="10.38831250327795"></trkpt><trkpt lat="46.5732006" lon="10.3882306"></trkpt><trkpt lat="46.5731013" lon="10.3880544"></trkpt><trkpt lat="46.5730379" lon="10.3879778"></trkpt><trkpt lat="46.5729997" lon="10.3879653"></trkpt><trkpt lat="46.5729641" lon="10.3879013"></trkpt><trkpt lat="46.57296902919879" lon="10.387886593475994"></trkpt><trkpt lat="46.57296902919879" lon="10.387886593475995"></trkpt><trkpt lat="46.57296902919879" lon="10.387886593475994"></trkpt><trkpt lat="46.5729945" lon="10.3878106"></trkpt><trkpt lat="46.5730633" lon="10.387746"></trkpt><trkpt lat="46.5730987" lon="10.3876175"></trkpt><trkpt lat="46.5731106" lon="10.3874871"></trkpt><trkpt lat="46.5731035" lon="10.387419"></trkpt><trkpt lat="46.5730732" lon="10.3873723"></trkpt><trkpt lat="46.57309157952537" lon="10.38732579269272"></trkpt><trkpt lat="46.5731456" lon="10.3871891"></trkpt><trkpt lat="46.5731719" lon="10.3870932"></trkpt><trkpt lat="46.5731697" lon="10.3870519"></trkpt><trkpt lat="46.5731377" lon="10.386997"></trkpt><trkpt lat="46.5730954" lon="10.3869195"></trkpt><trkpt lat="46.5730941" lon="10.386839"></trkpt><trkpt lat="46.5731655" lon="10.3867785"></trkpt><trkpt lat="46.57318149578478" lon="10.386723184527494"></trkpt><trkpt lat="46.57318149578478" lon="10.386723184527492"></trkpt><trkpt lat="46.57318149578478" lon="10.386723184527494"></trkpt><trkpt lat="46.5731858" lon="10.3867083"></trkpt><trkpt lat="46.5732029" lon="10.3865834"></trkpt><trkpt lat="46.5732606" lon="10.386519"></trkpt><trkpt lat="46.5732975" lon="10.3865008"></trkpt><trkpt lat="46.5734791" lon="10.3865115"></trkpt><trkpt lat="46.57352589483441" lon="10.38650940810264"></trkpt><trkpt lat="46.573582" lon="10.3865069"></trkpt><trkpt lat="46.5736552" lon="10.3864276"></trkpt><trkpt lat="46.5736559" lon="10.3863503"></trkpt><trkpt lat="46.5736151" lon="10.3862656"></trkpt><trkpt lat="46.57371152007881" lon="10.3859998289616"></trkpt><trkpt lat="46.5737247" lon="10.3859635"></trkpt><trkpt lat="46.5737169" lon="10.3858352"></trkpt><trkpt lat="46.5737337" lon="10.3857748"></trkpt><trkpt lat="46.5737874" lon="10.3855014"></trkpt><trkpt lat="46.57385034737812" lon="10.385414805973454"></trkpt><trkpt lat="46.57385034737812" lon="10.385414805973456"></trkpt><trkpt lat="46.57385034737812" lon="10.385414805973454"></trkpt><trkpt lat="46.5739205" lon="10.3853183"></trkpt><trkpt lat="46.5740886" lon="10.3851988"></trkpt><trkpt lat="46.5741695" lon="10.3850202"></trkpt><trkpt lat="46.57418418025589" lon="10.384997593382986"></trkpt><trkpt lat="46.57418418025589" lon="10.384997593382982"></trkpt><trkpt lat="46.57418418025589" lon="10.384997593382986"></trkpt><trkpt lat="46.5742897" lon="10.3848351"></trkpt><trkpt lat="46.5743005" lon="10.3846995"></trkpt><trkpt lat="46.5744198" lon="10.3844957"></trkpt><trkpt lat="46.574427745214074" lon="10.384469697481212"></trkpt><trkpt lat="46.574427745214074" lon="10.38446969748121"></trkpt><trkpt lat="46.574427745214074" lon="10.384469697481212"></trkpt><trkpt lat="46.5744561" lon="10.3843769"></trkpt><trkpt lat="46.5746196" lon="10.3841467"></trkpt><trkpt lat="46.5746473" lon="10.3840584"></trkpt><trkpt lat="46.57469284660931" lon="10.383976865611999"></trkpt><trkpt lat="46.57469284660931" lon="10.383976865612"></trkpt><trkpt lat="46.57469284660931" lon="10.383976865611999"></trkpt><trkpt lat="46.5748155" lon="10.3837573"></trkpt><trkpt lat="46.57493682863735" lon="10.383427789682514"></trkpt><trkpt lat="46.575148222147384" lon="10.38285367672675"></trkpt><trkpt lat="46.575254" lon="10.3825664"></trkpt><trkpt lat="46.575376298840865" lon="10.38229749566289"></trkpt><trkpt lat="46.5754457" lon="10.3821449"></trkpt><trkpt lat="46.5754664" lon="10.3818163"></trkpt><trkpt lat="46.57549602119634" lon="10.381659935025247"></trkpt><trkpt lat="46.575541" lon="10.3814225"></trkpt><trkpt lat="46.5756199" lon="10.3811217"></trkpt><trkpt lat="46.57565593856724" lon="10.381062784777034"></trkpt><trkpt lat="46.57565593856724" lon="10.381062784777031"></trkpt><trkpt lat="46.57565593856724" lon="10.381062784777034"></trkpt><trkpt lat="46.5757349" lon="10.3809337"></trkpt><trkpt lat="46.5757517" lon="10.380839"></trkpt><trkpt lat="46.5757193" lon="10.3807413"></trkpt><trkpt lat="46.5757025" lon="10.3805734"></trkpt><trkpt lat="46.57572736120326" lon="10.380443929935543"></trkpt><trkpt lat="46.57572736120326" lon="10.380443929935545"></trkpt><trkpt lat="46.57572736120326" lon="10.380443929935543"></trkpt><trkpt lat="46.5757362" lon="10.3803979"></trkpt><trkpt lat="46.5758139" lon="10.3802016"></trkpt><trkpt lat="46.5758412" lon="10.3800357"></trkpt><trkpt lat="46.5758814" lon="10.3798432"></trkpt><trkpt lat="46.575882884384896" lon="10.379839847462408"></trkpt><trkpt lat="46.5760454" lon="10.3794728"></trkpt><trkpt lat="46.5761499" lon="10.3793446"></trkpt><trkpt lat="46.576151212694555" lon="10.379344405022914"></trkpt><trkpt lat="46.5762078" lon="10.379336"></trkpt><trkpt lat="46.5762745" lon="10.3793261"></trkpt><trkpt lat="46.5763714" lon="10.3794371"></trkpt><trkpt lat="46.5764504" lon="10.379495"></trkpt><trkpt lat="46.5765188" lon="10.3795407"></trkpt><trkpt lat="46.57653943742902" lon="10.379539893988824"></trkpt><trkpt lat="46.5767518" lon="10.3795316"></trkpt><trkpt lat="46.5768076" lon="10.3794357"></trkpt><trkpt lat="46.5768813" lon="10.3795202"></trkpt><trkpt lat="46.57695417951839" lon="10.379616629326042"></trkpt><trkpt lat="46.57695417951839" lon="10.37961662932604"></trkpt><trkpt lat="46.57695417951839" lon="10.379616629326042"></trkpt><trkpt lat="46.576963" lon="10.3796283"></trkpt><trkpt lat="46.5771306" lon="10.3798183"></trkpt><trkpt lat="46.5773011" lon="10.3799018"></trkpt><trkpt lat="46.57735166145687" lon="10.37992163476653"></trkpt><trkpt lat="46.5775216" lon="10.3799883"></trkpt><trkpt lat="46.5775617" lon="10.3800319"></trkpt><trkpt lat="46.5775614" lon="10.3800969"></trkpt><trkpt lat="46.5775131" lon="10.3801791"></trkpt><trkpt lat="46.5773606" lon="10.3803251"></trkpt><trkpt lat="46.5771516" lon="10.3805179"></trkpt><trkpt lat="46.57706353119219" lon="10.380634085369765"></trkpt><trkpt lat="46.57706353119219" lon="10.380634085369763"></trkpt><trkpt lat="46.57706353119219" lon="10.380634085369765"></trkpt><trkpt lat="46.576974" lon="10.3807522"></trkpt><trkpt lat="46.5768895" lon="10.3808076"></trkpt><trkpt lat="46.5767795" lon="10.3808301"></trkpt><trkpt lat="46.5767518" lon="10.3809167"></trkpt><trkpt lat="46.57678336802359" lon="10.380986577961766"></trkpt><trkpt lat="46.57678336802359" lon="10.380986577961764"></trkpt><trkpt lat="46.57678336802359" lon="10.380986577961766"></trkpt><trkpt lat="46.5767916" lon="10.3810048"></trkpt><trkpt lat="46.5769218" lon="10.3811225"></trkpt><trkpt lat="46.577155943420784" lon="10.381363966424892"></trkpt><trkpt lat="46.5771648" lon="10.3813731"></trkpt><trkpt lat="46.5773221" lon="10.3814569"></trkpt><trkpt lat="46.5774348" lon="10.3816292"></trkpt><trkpt lat="46.5774642" lon="10.3816844"></trkpt><trkpt lat="46.57751631604312" lon="10.381729939494823"></trkpt><trkpt lat="46.5775482" lon="10.3817578"></trkpt><trkpt lat="46.5776273" lon="10.381781"></trkpt><trkpt lat="46.5778111" lon="10.3817084"></trkpt><trkpt lat="46.5778849" lon="10.3817311"></trkpt><trkpt lat="46.57789814948551" lon="10.3817947956748"></trkpt><trkpt lat="46.5779119" lon="10.3818609"></trkpt><trkpt lat="46.577748943088736" lon="10.382401456648193"></trkpt><trkpt lat="46.5777448" lon="10.3824152"></trkpt><trkpt lat="46.5776351" lon="10.382686"></trkpt><trkpt lat="46.5775647" lon="10.3828351"></trkpt><trkpt lat="46.577494084809516" lon="10.382939408323123"></trkpt><trkpt lat="46.577494084809516" lon="10.382939408323125"></trkpt><trkpt lat="46.577494084809516" lon="10.382939408323123"></trkpt><trkpt lat="46.5774641" lon="10.3829837"></trkpt><trkpt lat="46.5772524" lon="10.3831622"></trkpt><trkpt lat="46.5771868" lon="10.383204"></trkpt><trkpt lat="46.5771534" lon="10.3832345"></trkpt><trkpt lat="46.5771196616491" lon="10.383291605056858"></trkpt><trkpt lat="46.5770981" lon="10.3833281"></trkpt><trkpt lat="46.577113" lon="10.3834568"></trkpt><trkpt lat="46.5771907" lon="10.3835664"></trkpt><trkpt lat="46.57735867009225" lon="10.38379085270392"></trkpt><trkpt lat="46.5773953" lon="10.3838398"></trkpt><trkpt lat="46.5775416" lon="10.3839997"></trkpt><trkpt lat="46.57774756653921" lon="10.38411397492241"></trkpt><trkpt lat="46.5777842" lon="10.3841343"></trkpt><trkpt lat="46.5779821" lon="10.3842135"></trkpt><trkpt lat="46.578190438684175" lon="10.38422516918023"></trkpt><trkpt lat="46.5784338" lon="10.3842388"></trkpt><trkpt lat="46.5785439" lon="10.3842862"></trkpt><trkpt lat="46.57862077352554" lon="10.384353551532588"></trkpt><trkpt lat="46.57862077352554" lon="10.38435355153259"></trkpt><trkpt lat="46.57862077352554" lon="10.384353551532588"></trkpt><trkpt lat="46.5787643" lon="10.3844793"></trkpt><trkpt lat="46.5789144" lon="10.3845297"></trkpt><trkpt lat="46.579047370774695" lon="10.384538467303827"></trkpt><trkpt lat="46.5790691" lon="10.3845399"></trkpt><trkpt lat="46.5792682" lon="10.3845077"></trkpt><trkpt lat="46.5793017" lon="10.3845401"></trkpt><trkpt lat="46.5793118" lon="10.3846249"></trkpt><trkpt lat="46.5791842" lon="10.3848556"></trkpt><trkpt lat="46.578991463194555" lon="10.385319065362804"></trkpt><trkpt lat="46.5788748" lon="10.3855996"></trkpt><trkpt lat="46.578772563385975" lon="10.385889485076465"></trkpt><trkpt lat="46.5786208" lon="10.3863198"></trkpt><trkpt lat="46.57854115066626" lon="10.386447749455503"></trkpt><trkpt lat="46.5784211" lon="10.3866406"></trkpt><trkpt lat="46.5784058" lon="10.3867847"></trkpt><trkpt lat="46.5784634" lon="10.386895"></trkpt><trkpt lat="46.5785691" lon="10.3869647"></trkpt><trkpt lat="46.5787584" lon="10.3870445"></trkpt><trkpt lat="46.5788258" lon="10.387074"></trkpt><trkpt lat="46.57896250990572" lon="10.387166148866342"></trkpt><trkpt lat="46.57896250990572" lon="10.387166148866344"></trkpt><trkpt lat="46.57896250990572" lon="10.387166148866342"></trkpt><trkpt lat="46.5789884" lon="10.3871836"></trkpt><trkpt lat="46.5793198" lon="10.3873943"></trkpt><trkpt lat="46.57938102176767" lon="10.387413526985494"></trkpt><trkpt lat="46.5794806" lon="10.3874448"></trkpt><trkpt lat="46.5796027" lon="10.3874384"></trkpt><trkpt lat="46.5797321" lon="10.3873921"></trkpt><trkpt lat="46.57982806282581" lon="10.387383931538011"></trkpt><trkpt lat="46.57982806282581" lon="10.38738393153801"></trkpt><trkpt lat="46.57982806282581" lon="10.387383931538011"></trkpt><trkpt lat="46.5798766" lon="10.3873798"></trkpt><trkpt lat="46.5799629" lon="10.387449"></trkpt><trkpt lat="46.5800213" lon="10.3875877"></trkpt><trkpt lat="46.5801053" lon="10.3877074"></trkpt><trkpt lat="46.58016808887127" lon="10.387742289401597"></trkpt><trkpt lat="46.58016808887127" lon="10.387742289401595"></trkpt><trkpt lat="46.58016808887127" lon="10.387742289401597"></trkpt><trkpt lat="46.5802095" lon="10.3877653"></trkpt><trkpt lat="46.5804348" lon="10.3877759"></trkpt><trkpt lat="46.58060093500607" lon="10.387871089344541"></trkpt><trkpt lat="46.58060093500607" lon="10.387871089344543"></trkpt><trkpt lat="46.58060093500607" lon="10.387871089344541"></trkpt><trkpt lat="46.5806116" lon="10.3878772"></trkpt><trkpt lat="46.5808216" lon="10.3879561"></trkpt><trkpt lat="46.5809" lon="10.3879856"></trkpt><trkpt lat="46.58102450564051" lon="10.3880798376707"></trkpt><trkpt lat="46.58102450564051" lon="10.388079837670702"></trkpt><trkpt lat="46.58102450564051" lon="10.3880798376707"></trkpt><trkpt lat="46.5810958" lon="10.3881338"></trkpt><trkpt lat="46.5813179" lon="10.3883418"></trkpt><trkpt lat="46.58137154318578" lon="10.388464331326661"></trkpt><trkpt lat="46.58137154318578" lon="10.38846433132666"></trkpt><trkpt lat="46.58137154318578" lon="10.388464331326661"></trkpt><trkpt lat="46.5814868" lon="10.3887276"></trkpt><trkpt lat="46.5815821" lon="10.3888767"></trkpt><trkpt lat="46.58166284069703" lon="10.388960088694576"></trkpt><trkpt lat="46.58166284069703" lon="10.388960088694578"></trkpt><trkpt lat="46.58166284069703" lon="10.388960088694576"></trkpt><trkpt lat="46.5817559" lon="10.3890562"></trkpt><trkpt lat="46.5819101" lon="10.3893761"></trkpt><trkpt lat="46.5820323" lon="10.3896006"></trkpt><trkpt lat="46.5821629" lon="10.3897289"></trkpt><trkpt lat="46.582187660917654" lon="10.389744045027303"></trkpt><trkpt lat="46.582187660917654" lon="10.389744045027301"></trkpt></trkseg></trk></gpx>
