<?xml version="1.0" encoding="UTF-8"?>
<gpx version="1.1" creator="Good Shit" xmlns="http://www.topografix.com/GPX/1/1"><trk><name>Mardalsfossen — Mardalen–Mardalsfossen return</name><desc>Walk from the Mardalen car park through the elm forest, cross the wooden bridge and follow the steeper upper path to the endpoint of the marked waterfall approach. Return by the same path.

Route geometry: © OpenStreetMap contributors — OpenStreetMap route and path geometry. Licence: ODbL-1.0 (https://opendatacommons.org/licenses/odbl/1.0/). Source: https://www.openstreetmap.org/api/0.6/map.json?bbox=8.03983,62.43189,8.19983,62.51189. Dataset: https://www.openstreetmap.org/.</desc><trkseg><trkpt lat="62.4894466" lon="8.140968"></trkpt><trkpt lat="62.489185" lon="8.1401621"></trkpt><trkpt lat="62.4891387" lon="8.1400654"></trkpt><trkpt lat="62.4890892" lon="8.1399956"></trkpt><trkpt lat="62.4890448" lon="8.1399672"></trkpt><trkpt lat="62.4888564" lon="8.1391361"></trkpt><trkpt lat="62.4887022" lon="8.1387728"></trkpt><trkpt lat="62.4886459" lon="8.1382095"></trkpt><trkpt lat="62.4885091" lon="8.1377717"></trkpt><trkpt lat="62.4883919" lon="8.1375349"></trkpt><trkpt lat="62.4879176" lon="8.1370572"></trkpt><trkpt lat="62.4877878" lon="8.13697"></trkpt><trkpt lat="62.4875665" lon="8.1369239"></trkpt><trkpt lat="62.4874511" lon="8.1368008"></trkpt><trkpt lat="62.487246" lon="8.136429"></trkpt><trkpt lat="62.487164" lon="8.1363472"></trkpt><trkpt lat="62.4866319" lon="8.1361659"></trkpt><trkpt lat="62.4864352" lon="8.1360216"></trkpt><trkpt lat="62.4863037" lon="8.1357674"></trkpt><trkpt lat="62.4862225" lon="8.1355621"></trkpt><trkpt lat="62.4861624" lon="8.1354594"></trkpt><trkpt lat="62.4859876" lon="8.1353868"></trkpt><trkpt lat="62.4855291" lon="8.1350808"></trkpt><trkpt lat="62.4854265" lon="8.1349377"></trkpt><trkpt lat="62.4853631" lon="8.1347497"></trkpt><trkpt lat="62.4852997" lon="8.1342975"></trkpt><trkpt lat="62.4852399" lon="8.1340128"></trkpt><trkpt lat="62.4850146" lon="8.133617"></trkpt><trkpt lat="62.484959" lon="8.1333589"></trkpt><trkpt lat="62.4849103" lon="8.1332547"></trkpt><trkpt lat="62.4846179" lon="8.1331149"></trkpt><trkpt lat="62.4844514" lon="8.1329751"></trkpt><trkpt lat="62.4843115" lon="8.1326275"></trkpt><trkpt lat="62.484173" lon="8.1324069"></trkpt><trkpt lat="62.4837095" lon="8.1319269"></trkpt><trkpt lat="62.4834908" lon="8.1317228"></trkpt><trkpt lat="62.4833787" lon="8.1317545"></trkpt><trkpt lat="62.4832412" lon="8.1317625"></trkpt><trkpt lat="62.4829599" lon="8.1313084"></trkpt><trkpt lat="62.4826647" lon="8.1305828"></trkpt><trkpt lat="62.4823655" lon="8.1303086"></trkpt><trkpt lat="62.4822889" lon="8.1301813"></trkpt><trkpt lat="62.4822215" lon="8.1298001"></trkpt><trkpt lat="62.4818536" lon="8.128982"></trkpt><trkpt lat="62.4816264" lon="8.128291"></trkpt><trkpt lat="62.4815739" lon="8.1279364"></trkpt><trkpt lat="62.4814452" lon="8.1272776"></trkpt><trkpt lat="62.4814272" lon="8.127024"></trkpt><trkpt lat="62.4813843" lon="8.1265975"></trkpt><trkpt lat="62.4813959" lon="8.1264928"></trkpt><trkpt lat="62.481436" lon="8.1262845"></trkpt><trkpt lat="62.4815387" lon="8.1261044"></trkpt><trkpt lat="62.481579" lon="8.1259318"></trkpt><trkpt lat="62.48158" lon="8.1257474"></trkpt><trkpt lat="62.4815158" lon="8.1254421"></trkpt><trkpt lat="62.4814327" lon="8.1248646"></trkpt><trkpt lat="62.4814144" lon="8.1242798"></trkpt><trkpt lat="62.4813446" lon="8.1238666"></trkpt><trkpt lat="62.4812533" lon="8.1233036"></trkpt><trkpt lat="62.4812298" lon="8.123201"></trkpt><trkpt lat="62.4812044" lon="8.1231236"></trkpt><trkpt lat="62.4811571" lon="8.123097"></trkpt><trkpt lat="62.4810112" lon="8.1230435"></trkpt><trkpt lat="62.4808369" lon="8.1230958"></trkpt><trkpt lat="62.4806852" lon="8.1230852"></trkpt><trkpt lat="62.4805516" lon="8.1231661"></trkpt><trkpt lat="62.4804362" lon="8.1232192"></trkpt><trkpt lat="62.4803532" lon="8.1233101"></trkpt><trkpt lat="62.480298" lon="8.1234275"></trkpt><trkpt lat="62.4802743" lon="8.1236531"></trkpt><trkpt lat="62.4801655" lon="8.1237141"></trkpt><trkpt lat="62.4800442" lon="8.1238069"></trkpt><trkpt lat="62.4798995" lon="8.1237905"></trkpt><trkpt lat="62.4798268" lon="8.1236704"></trkpt><trkpt lat="62.479753" lon="8.1234748"></trkpt><trkpt lat="62.4796152" lon="8.1233594"></trkpt><trkpt lat="62.4793939" lon="8.1232924"></trkpt><trkpt lat="62.4792459" lon="8.123144"></trkpt><trkpt lat="62.4790902" lon="8.1229356"></trkpt><trkpt lat="62.4789922" lon="8.1229035"></trkpt><trkpt lat="62.4788482" lon="8.1229909"></trkpt><trkpt lat="62.4786113" lon="8.1229726"></trkpt><trkpt lat="62.4783873" lon="8.1229412"></trkpt><trkpt lat="62.4783341" lon="8.12299"></trkpt><trkpt lat="62.4783873" lon="8.1229412"></trkpt><trkpt lat="62.4786113" lon="8.1229726"></trkpt><trkpt lat="62.4788482" lon="8.1229909"></trkpt><trkpt lat="62.4789922" lon="8.1229035"></trkpt><trkpt lat="62.4790902" lon="8.1229356"></trkpt><trkpt lat="62.4792459" lon="8.123144"></trkpt><trkpt lat="62.4793939" lon="8.1232924"></trkpt><trkpt lat="62.4796152" lon="8.1233594"></trkpt><trkpt lat="62.479753" lon="8.1234748"></trkpt><trkpt lat="62.4798268" lon="8.1236704"></trkpt><trkpt lat="62.4798995" lon="8.1237905"></trkpt><trkpt lat="62.4800442" lon="8.1238069"></trkpt><trkpt lat="62.4801655" lon="8.1237141"></trkpt><trkpt lat="62.4802743" lon="8.1236531"></trkpt><trkpt lat="62.480298" lon="8.1234275"></trkpt><trkpt lat="62.4803532" lon="8.1233101"></trkpt><trkpt lat="62.4804362" lon="8.1232192"></trkpt><trkpt lat="62.4805516" lon="8.1231661"></trkpt><trkpt lat="62.4806852" lon="8.1230852"></trkpt><trkpt lat="62.4808369" lon="8.1230958"></trkpt><trkpt lat="62.4810112" lon="8.1230435"></trkpt><trkpt lat="62.4811571" lon="8.123097"></trkpt><trkpt lat="62.4812044" lon="8.1231236"></trkpt><trkpt lat="62.4812298" lon="8.123201"></trkpt><trkpt lat="62.4812533" lon="8.1233036"></trkpt><trkpt lat="62.4813446" lon="8.1238666"></trkpt><trkpt lat="62.4814144" lon="8.1242798"></trkpt><trkpt lat="62.4814327" lon="8.1248646"></trkpt><trkpt lat="62.4815158" lon="8.1254421"></trkpt><trkpt lat="62.48158" lon="8.1257474"></trkpt><trkpt lat="62.481579" lon="8.1259318"></trkpt><trkpt lat="62.4815387" lon="8.1261044"></trkpt><trkpt lat="62.481436" lon="8.1262845"></trkpt><trkpt lat="62.4813959" lon="8.1264928"></trkpt><trkpt lat="62.4813843" lon="8.1265975"></trkpt><trkpt lat="62.4814272" lon="8.127024"></trkpt><trkpt lat="62.4814452" lon="8.1272776"></trkpt><trkpt lat="62.4815739" lon="8.1279364"></trkpt><trkpt lat="62.4816264" lon="8.128291"></trkpt><trkpt lat="62.4818536" lon="8.128982"></trkpt><trkpt lat="62.4822215" lon="8.1298001"></trkpt><trkpt lat="62.4822889" lon="8.1301813"></trkpt><trkpt lat="62.4823655" lon="8.1303086"></trkpt><trkpt lat="62.4826647" lon="8.1305828"></trkpt><trkpt lat="62.4829599" lon="8.1313084"></trkpt><trkpt lat="62.4832412" lon="8.1317625"></trkpt><trkpt lat="62.4833787" lon="8.1317545"></trkpt><trkpt lat="62.4834908" lon="8.1317228"></trkpt><trkpt lat="62.4837095" lon="8.1319269"></trkpt><trkpt lat="62.484173" lon="8.1324069"></trkpt><trkpt lat="62.4843115" lon="8.1326275"></trkpt><trkpt lat="62.4844514" lon="8.1329751"></trkpt><trkpt lat="62.4846179" lon="8.1331149"></trkpt><trkpt lat="62.4849103" lon="8.1332547"></trkpt><trkpt lat="62.484959" lon="8.1333589"></trkpt><trkpt lat="62.4850146" lon="8.133617"></trkpt><trkpt lat="62.4852399" lon="8.1340128"></trkpt><trkpt lat="62.4852997" lon="8.1342975"></trkpt><trkpt lat="62.4853631" lon="8.1347497"></trkpt><trkpt lat="62.4854265" lon="8.1349377"></trkpt><trkpt lat="62.4855291" lon="8.1350808"></trkpt><trkpt lat="62.4859876" lon="8.1353868"></trkpt><trkpt lat="62.4861624" lon="8.1354594"></trkpt><trkpt lat="62.4862225" lon="8.1355621"></trkpt><trkpt lat="62.4863037" lon="8.1357674"></trkpt><trkpt lat="62.4864352" lon="8.1360216"></trkpt><trkpt lat="62.4866319" lon="8.1361659"></trkpt><trkpt lat="62.487164" lon="8.1363472"></trkpt><trkpt lat="62.487246" lon="8.136429"></trkpt><trkpt lat="62.4874511" lon="8.1368008"></trkpt><trkpt lat="62.4875665" lon="8.1369239"></trkpt><trkpt lat="62.4877878" lon="8.13697"></trkpt><trkpt lat="62.4879176" lon="8.1370572"></trkpt><trkpt lat="62.4883919" lon="8.1375349"></trkpt><trkpt lat="62.4885091" lon="8.1377717"></trkpt><trkpt lat="62.4886459" lon="8.1382095"></trkpt><trkpt lat="62.4887022" lon="8.1387728"></trkpt><trkpt lat="62.4888564" lon="8.1391361"></trkpt><trkpt lat="62.4890448" lon="8.1399672"></trkpt><trkpt lat="62.4890892" lon="8.1399956"></trkpt><trkpt lat="62.4891387" lon="8.1400654"></trkpt><trkpt lat="62.489185" lon="8.1401621"></trkpt><trkpt lat="62.4894466" lon="8.140968"></trkpt></trkseg></trk></gpx>
