<?xml version="1.0" encoding="UTF-8"?>
<gpx version="1.1" creator="Good Shit" xmlns="http://www.topografix.com/GPX/1/1"><trk><name>Pellenzer Seepfad — Pellenzer Seepfad</name><trkseg><trkpt lat="50.4138873" lon="7.3137554"></trkpt><trkpt lat="50.4138908" lon="7.3132337"></trkpt><trkpt lat="50.4140537" lon="7.3126799"></trkpt><trkpt lat="50.4147854" lon="7.3119269"></trkpt><trkpt lat="50.4146766" lon="7.3117083"></trkpt><trkpt lat="50.4145348" lon="7.311526"></trkpt><trkpt lat="50.4144812" lon="7.3114374"></trkpt><trkpt lat="50.4144374" lon="7.3113328"></trkpt><trkpt lat="50.4143622" lon="7.3112685"></trkpt><trkpt lat="50.4142254" lon="7.3113757"></trkpt><trkpt lat="50.4140477" lon="7.3116869"></trkpt><trkpt lat="50.4138699" lon="7.3118478"></trkpt><trkpt lat="50.4133571" lon="7.3118585"></trkpt><trkpt lat="50.4127908" lon="7.3119758"></trkpt><trkpt lat="50.4128105" lon="7.3115948"></trkpt><trkpt lat="50.4128361" lon="7.3108098"></trkpt><trkpt lat="50.412424" lon="7.3107647"></trkpt><trkpt lat="50.4120958" lon="7.3107218"></trkpt><trkpt lat="50.4119857" lon="7.3111923"></trkpt><trkpt lat="50.411955" lon="7.3118842"></trkpt><trkpt lat="50.4119106" lon="7.312316"></trkpt><trkpt lat="50.4118404" lon="7.3126933"></trkpt><trkpt lat="50.4116302" lon="7.3133138"></trkpt><trkpt lat="50.4114226" lon="7.3140356"></trkpt><trkpt lat="50.4114205" lon="7.3141102"></trkpt><trkpt lat="50.4114172" lon="7.3142238"></trkpt><trkpt lat="50.4114491" lon="7.3146254"></trkpt><trkpt lat="50.4114223" lon="7.3149866"></trkpt><trkpt lat="50.4113129" lon="7.3158449"></trkpt><trkpt lat="50.4110394" lon="7.3165058"></trkpt><trkpt lat="50.4109532" lon="7.3168614"></trkpt><trkpt lat="50.4109395" lon="7.3171833"></trkpt><trkpt lat="50.4109738" lon="7.3176474"></trkpt><trkpt lat="50.411001" lon="7.3182132"></trkpt><trkpt lat="50.4109773" lon="7.3185387"></trkpt><trkpt lat="50.41089" lon="7.3186989"></trkpt><trkpt lat="50.4107961" lon="7.3187801"></trkpt><trkpt lat="50.4106791" lon="7.3188061"></trkpt><trkpt lat="50.4105226" lon="7.3187372"></trkpt><trkpt lat="50.4103954" lon="7.3186012"></trkpt><trkpt lat="50.4100269" lon="7.3175678"></trkpt><trkpt lat="50.4098901" lon="7.3174339"></trkpt><trkpt lat="50.4097042" lon="7.3173664"></trkpt><trkpt lat="50.4095059" lon="7.3174334"></trkpt><trkpt lat="50.4094358" lon="7.3175353"></trkpt><trkpt lat="50.4093294" lon="7.318145"></trkpt><trkpt lat="50.4092837" lon="7.3182569"></trkpt><trkpt lat="50.4091726" lon="7.3183963"></trkpt><trkpt lat="50.4090783" lon="7.3184729"></trkpt><trkpt lat="50.4088752" lon="7.3186377"></trkpt><trkpt lat="50.4083384" lon="7.3189596"></trkpt><trkpt lat="50.4078495" lon="7.3192225"></trkpt><trkpt lat="50.4076" lon="7.3193029"></trkpt><trkpt lat="50.4073196" lon="7.3193405"></trkpt><trkpt lat="50.406988" lon="7.3192976"></trkpt><trkpt lat="50.4067521" lon="7.3192385"></trkpt><trkpt lat="50.4066573" lon="7.3191931"></trkpt><trkpt lat="50.4065309" lon="7.3190953"></trkpt><trkpt lat="50.4064335" lon="7.3188985"></trkpt><trkpt lat="50.406166" lon="7.3179558"></trkpt><trkpt lat="50.4061089" lon="7.317726"></trkpt><trkpt lat="50.4060702" lon="7.3174301"></trkpt><trkpt lat="50.4060301" lon="7.316852"></trkpt><trkpt lat="50.4060104" lon="7.3166589"></trkpt><trkpt lat="50.4060199" lon="7.316532"></trkpt><trkpt lat="50.4060654" lon="7.3159729"></trkpt><trkpt lat="50.4061616" lon="7.3153277"></trkpt><trkpt lat="50.406217" lon="7.3150308"></trkpt><trkpt lat="50.4063035" lon="7.3145898"></trkpt><trkpt lat="50.4061724" lon="7.3145524"></trkpt><trkpt lat="50.4058442" lon="7.3145632"></trkpt><trkpt lat="50.4055904" lon="7.3145782"></trkpt><trkpt lat="50.4054818" lon="7.3145846"></trkpt><trkpt lat="50.4054457" lon="7.3145907"></trkpt><trkpt lat="50.4052288" lon="7.3146275"></trkpt><trkpt lat="50.4049826" lon="7.314649"></trkpt><trkpt lat="50.4049393" lon="7.3146571"></trkpt><trkpt lat="50.4046954" lon="7.3147026"></trkpt><trkpt lat="50.404577" lon="7.3147359"></trkpt><trkpt lat="50.4044817" lon="7.3147595"></trkpt><trkpt lat="50.4041826" lon="7.3148461"></trkpt><trkpt lat="50.4038577" lon="7.3149226"></trkpt><trkpt lat="50.4034859" lon="7.3150071"></trkpt><trkpt lat="50.4031679" lon="7.3150835"></trkpt><trkpt lat="50.4030132" lon="7.3151331"></trkpt><trkpt lat="50.402803" lon="7.3151023"></trkpt><trkpt lat="50.4025482" lon="7.314936"></trkpt><trkpt lat="50.4023841" lon="7.3146704"></trkpt><trkpt lat="50.4022678" lon="7.314413"></trkpt><trkpt lat="50.4021242" lon="7.3141125"></trkpt><trkpt lat="50.4019942" lon="7.3138953"></trkpt><trkpt lat="50.4015612" lon="7.3139728"></trkpt><trkpt lat="50.401339" lon="7.3140612"></trkpt><trkpt lat="50.4012911" lon="7.313911"></trkpt><trkpt lat="50.400915" lon="7.3134389"></trkpt><trkpt lat="50.4003816" lon="7.3128917"></trkpt><trkpt lat="50.3999439" lon="7.3123553"></trkpt><trkpt lat="50.3994541" lon="7.3117625"></trkpt><trkpt lat="50.3984257" lon="7.3101344"></trkpt><trkpt lat="50.3983424" lon="7.309939"></trkpt><trkpt lat="50.3982535" lon="7.3097352"></trkpt><trkpt lat="50.3981175" lon="7.3094951"></trkpt><trkpt lat="50.3972297" lon="7.3091394"></trkpt><trkpt lat="50.3964473" lon="7.3075203"></trkpt><trkpt lat="50.3965784" lon="7.3073278"></trkpt><trkpt lat="50.3966564" lon="7.3071191"></trkpt><trkpt lat="50.3967264" lon="7.3070344"></trkpt><trkpt lat="50.3967974" lon="7.3069545"></trkpt><trkpt lat="50.3969972" lon="7.3066306"></trkpt><trkpt lat="50.3971044" lon="7.3063759"></trkpt><trkpt lat="50.397197" lon="7.3061013"></trkpt><trkpt lat="50.397235" lon="7.3059332"></trkpt><trkpt lat="50.397282" lon="7.3054509"></trkpt><trkpt lat="50.3973226" lon="7.3047312"></trkpt><trkpt lat="50.3973052" lon="7.3044003"></trkpt><trkpt lat="50.3972878" lon="7.3041179"></trkpt><trkpt lat="50.3973304" lon="7.3038355"></trkpt><trkpt lat="50.3974772" lon="7.3030269"></trkpt><trkpt lat="50.3973383" lon="7.3029354"></trkpt><trkpt lat="50.3972072" lon="7.3028546"></trkpt><trkpt lat="50.3974955" lon="7.3021185"></trkpt><trkpt lat="50.3977044" lon="7.3017588"></trkpt><trkpt lat="50.3979569" lon="7.3014101"></trkpt><trkpt lat="50.3981249" lon="7.3012781"></trkpt><trkpt lat="50.3982674" lon="7.3011716"></trkpt><trkpt lat="50.3984117" lon="7.3010921"></trkpt><trkpt lat="50.3989204" lon="7.3007976"></trkpt><trkpt lat="50.3991359" lon="7.3007042"></trkpt><trkpt lat="50.3996157" lon="7.3004955"></trkpt><trkpt lat="50.3993129" lon="7.2996967"></trkpt><trkpt lat="50.3991102" lon="7.2990515"></trkpt><trkpt lat="50.3993129" lon="7.2983778"></trkpt><trkpt lat="50.3993854" lon="7.2982022"></trkpt><trkpt lat="50.3994489" lon="7.2980836"></trkpt><trkpt lat="50.3994308" lon="7.2979033"></trkpt><trkpt lat="50.3993817" lon="7.2970984"></trkpt><trkpt lat="50.3995708" lon="7.2970773"></trkpt><trkpt lat="50.3999004" lon="7.297028"></trkpt><trkpt lat="50.4000882" lon="7.2969628"></trkpt><trkpt lat="50.40029" lon="7.2968323"></trkpt><trkpt lat="50.4003103" lon="7.2968272"></trkpt><trkpt lat="50.4002994" lon="7.2967708"></trkpt><trkpt lat="50.4002566" lon="7.2967"></trkpt><trkpt lat="50.4001051" lon="7.296636"></trkpt><trkpt lat="50.3997834" lon="7.2964939"></trkpt><trkpt lat="50.3995508" lon="7.2963424"></trkpt><trkpt lat="50.3994174" lon="7.2961925"></trkpt><trkpt lat="50.3993682" lon="7.296064"></trkpt><trkpt lat="50.3993909" lon="7.2959331"></trkpt><trkpt lat="50.3994852" lon="7.2958289"></trkpt><trkpt lat="50.3996087" lon="7.295758"></trkpt><trkpt lat="50.3997223" lon="7.2957372"></trkpt><trkpt lat="50.3998816" lon="7.2958481"></trkpt><trkpt lat="50.3999743" lon="7.2959344"></trkpt><trkpt lat="50.4000575" lon="7.2960472"></trkpt><trkpt lat="50.400123" lon="7.2961153"></trkpt><trkpt lat="50.400178" lon="7.2961942"></trkpt><trkpt lat="50.4002246" lon="7.2962189"></trkpt><trkpt lat="50.400237" lon="7.2961845"></trkpt><trkpt lat="50.4002122" lon="7.296134"></trkpt><trkpt lat="50.4002092" lon="7.2960275"></trkpt><trkpt lat="50.4003109" lon="7.2961294"></trkpt><trkpt lat="50.4003387" lon="7.2961226"></trkpt><trkpt lat="50.4003233" lon="7.2960962"></trkpt><trkpt lat="50.4003098" lon="7.295977"></trkpt><trkpt lat="50.4003694" lon="7.2960735"></trkpt><trkpt lat="50.4003796" lon="7.296045"></trkpt><trkpt lat="50.40038" lon="7.2960025"></trkpt><trkpt lat="50.4003804" lon="7.2959562"></trkpt><trkpt lat="50.4003741" lon="7.2959295"></trkpt><trkpt lat="50.4003668" lon="7.2958886"></trkpt><trkpt lat="50.4004048" lon="7.2958897"></trkpt><trkpt lat="50.400378" lon="7.2957968"></trkpt><trkpt lat="50.4003845" lon="7.2957667"></trkpt><trkpt lat="50.4004552" lon="7.2958282"></trkpt><trkpt lat="50.4004883" lon="7.2957984"></trkpt><trkpt lat="50.4004294" lon="7.2956934"></trkpt><trkpt lat="50.4004097" lon="7.2956223"></trkpt><trkpt lat="50.4003925" lon="7.2955585"></trkpt><trkpt lat="50.4003925" lon="7.2955086"></trkpt><trkpt lat="50.4004234" lon="7.2955238"></trkpt><trkpt lat="50.4004499" lon="7.2955709"></trkpt><trkpt lat="50.4004825" lon="7.2956111"></trkpt><trkpt lat="50.4005152" lon="7.2956069"></trkpt><trkpt lat="50.4005196" lon="7.2955488"></trkpt><trkpt lat="50.4005037" lon="7.2954975"></trkpt><trkpt lat="50.4004878" lon="7.2954366"></trkpt><trkpt lat="50.4004875" lon="7.2953241"></trkpt><trkpt lat="50.4005245" lon="7.2953389"></trkpt><trkpt lat="50.4005533" lon="7.2953693"></trkpt><trkpt lat="50.4005687" lon="7.2954015"></trkpt><trkpt lat="50.4005755" lon="7.2954471"></trkpt><trkpt lat="50.4006111" lon="7.2955285"></trkpt><trkpt lat="50.4006455" lon="7.2955985"></trkpt><trkpt lat="50.4006631" lon="7.2954784"></trkpt><trkpt lat="50.4006873" lon="7.2953468"></trkpt><trkpt lat="50.4005619" lon="7.2951332"></trkpt><trkpt lat="50.4004887" lon="7.2950119"></trkpt><trkpt lat="50.4003549" lon="7.2947922"></trkpt><trkpt lat="50.4002345" lon="7.2946131"></trkpt><trkpt lat="50.4001558" lon="7.2944947"></trkpt><trkpt lat="50.4001376" lon="7.2944767"></trkpt><trkpt lat="50.4001131" lon="7.2944637"></trkpt><trkpt lat="50.4000028" lon="7.2944278"></trkpt><trkpt lat="50.3996265" lon="7.2943691"></trkpt><trkpt lat="50.3993229" lon="7.2942556"></trkpt><trkpt lat="50.3992837" lon="7.2942208"></trkpt><trkpt lat="50.3991943" lon="7.2941021"></trkpt><trkpt lat="50.3991802" lon="7.2940738"></trkpt><trkpt lat="50.3991747" lon="7.2940368"></trkpt><trkpt lat="50.399173" lon="7.2940014"></trkpt><trkpt lat="50.3991761" lon="7.2939487"></trkpt><trkpt lat="50.3992035" lon="7.2937497"></trkpt><trkpt lat="50.3992419" lon="7.2935179"></trkpt><trkpt lat="50.3994749" lon="7.2935453"></trkpt><trkpt lat="50.3994721" lon="7.2935027"></trkpt><trkpt lat="50.3994629" lon="7.2934374"></trkpt><trkpt lat="50.3994384" lon="7.2931415"></trkpt><trkpt lat="50.399422" lon="7.2929819"></trkpt><trkpt lat="50.3994026" lon="7.2927971"></trkpt><trkpt lat="50.3993763" lon="7.2926796"></trkpt><trkpt lat="50.3993323" lon="7.2926162"></trkpt><trkpt lat="50.3994659" lon="7.2922984"></trkpt><trkpt lat="50.399691" lon="7.2920181"></trkpt><trkpt lat="50.3997311" lon="7.2919555"></trkpt><trkpt lat="50.3997124" lon="7.2919354"></trkpt><trkpt lat="50.3996875" lon="7.2919179"></trkpt><trkpt lat="50.3996606" lon="7.291912"></trkpt><trkpt lat="50.3996385" lon="7.2919134"></trkpt><trkpt lat="50.3995262" lon="7.2920389"></trkpt><trkpt lat="50.3994753" lon="7.2921016"></trkpt><trkpt lat="50.3992601" lon="7.2922759"></trkpt><trkpt lat="50.3991287" lon="7.2923902"></trkpt><trkpt lat="50.3990905" lon="7.2924249"></trkpt><trkpt lat="50.3990702" lon="7.2924625"></trkpt><trkpt lat="50.3990578" lon="7.2925014"></trkpt><trkpt lat="50.3989928" lon="7.2928429"></trkpt><trkpt lat="50.3989282" lon="7.2931551"></trkpt><trkpt lat="50.3988825" lon="7.2934808"></trkpt><trkpt lat="50.3988605" lon="7.2938019"></trkpt><trkpt lat="50.3988197" lon="7.2944153"></trkpt><trkpt lat="50.3988202" lon="7.2945482"></trkpt><trkpt lat="50.398815" lon="7.2946006"></trkpt><trkpt lat="50.3987972" lon="7.294627"></trkpt><trkpt lat="50.3987745" lon="7.2946339"></trkpt><trkpt lat="50.3987533" lon="7.2946185"></trkpt><trkpt lat="50.3987325" lon="7.294569"></trkpt><trkpt lat="50.398659" lon="7.294231"></trkpt><trkpt lat="50.3984504" lon="7.293295"></trkpt><trkpt lat="50.3984249" lon="7.2931307"></trkpt><trkpt lat="50.3983349" lon="7.2922985"></trkpt><trkpt lat="50.3983145" lon="7.2920051"></trkpt><trkpt lat="50.3983047" lon="7.2919364"></trkpt><trkpt lat="50.3982903" lon="7.2918898"></trkpt><trkpt lat="50.3983924" lon="7.291709"></trkpt><trkpt lat="50.3985748" lon="7.2914076"></trkpt><trkpt lat="50.3988074" lon="7.291024"></trkpt><trkpt lat="50.3990656" lon="7.2906084"></trkpt><trkpt lat="50.3992161" lon="7.2903768"></trkpt><trkpt lat="50.3993408" lon="7.290337"></trkpt><trkpt lat="50.3994913" lon="7.290255"></trkpt><trkpt lat="50.3995443" lon="7.2901666"></trkpt><trkpt lat="50.3995765" lon="7.2900643"></trkpt><trkpt lat="50.3995884" lon="7.2898958"></trkpt><trkpt lat="50.3996162" lon="7.2898186"></trkpt><trkpt lat="50.3996587" lon="7.2897274"></trkpt><trkpt lat="50.3997388" lon="7.2896822"></trkpt><trkpt lat="50.3998309" lon="7.2896649"></trkpt><trkpt lat="50.3999746" lon="7.2897184"></trkpt><trkpt lat="50.4000726" lon="7.2898117"></trkpt><trkpt lat="50.4001797" lon="7.2898909"></trkpt><trkpt lat="50.4003051" lon="7.2899656"></trkpt><trkpt lat="50.4003723" lon="7.2899706"></trkpt><trkpt lat="50.4004668" lon="7.2899044"></trkpt><trkpt lat="50.400533" lon="7.2898293"></trkpt><trkpt lat="50.4005886" lon="7.2897984"></trkpt><trkpt lat="50.4006675" lon="7.2898154"></trkpt><trkpt lat="50.4007518" lon="7.2898729"></trkpt><trkpt lat="50.4008546" lon="7.2899619"></trkpt><trkpt lat="50.4009491" lon="7.2899706"></trkpt><trkpt lat="50.4010271" lon="7.2899148"></trkpt><trkpt lat="50.4011121" lon="7.2899297"></trkpt><trkpt lat="50.4011839" lon="7.2899299"></trkpt><trkpt lat="50.4012693" lon="7.2899872"></trkpt><trkpt lat="50.4013161" lon="7.2900334"></trkpt><trkpt lat="50.4013787" lon="7.2900441"></trkpt><trkpt lat="50.4014822" lon="7.2899849"></trkpt><trkpt lat="50.4015244" lon="7.2898332"></trkpt><trkpt lat="50.4015598" lon="7.289622"></trkpt><trkpt lat="50.4016025" lon="7.2895364"></trkpt><trkpt lat="50.4016797" lon="7.2894684"></trkpt><trkpt lat="50.4018015" lon="7.2895303"></trkpt><trkpt lat="50.4019055" lon="7.2896139"></trkpt><trkpt lat="50.4021994" lon="7.2898868"></trkpt><trkpt lat="50.4023841" lon="7.2901658"></trkpt><trkpt lat="50.4025277" lon="7.2904233"></trkpt><trkpt lat="50.4026166" lon="7.29067"></trkpt><trkpt lat="50.4027055" lon="7.2907451"></trkpt><trkpt lat="50.4028559" lon="7.2906808"></trkpt><trkpt lat="50.4029957" lon="7.2906428"></trkpt><trkpt lat="50.4031841" lon="7.2907562"></trkpt><trkpt lat="50.4033415" lon="7.2909017"></trkpt><trkpt lat="50.4035159" lon="7.2909448"></trkpt><trkpt lat="50.4036453" lon="7.2909017"></trkpt><trkpt lat="50.4034987" lon="7.2906593"></trkpt><trkpt lat="50.4032012" lon="7.2903589"></trkpt><trkpt lat="50.4029141" lon="7.289978"></trkpt><trkpt lat="50.4026439" lon="7.2896293"></trkpt><trkpt lat="50.4024251" lon="7.2891465"></trkpt><trkpt lat="50.402302" lon="7.2886101"></trkpt><trkpt lat="50.4022268" lon="7.288138"></trkpt><trkpt lat="50.4021379" lon="7.287784"></trkpt><trkpt lat="50.4019396" lon="7.2874943"></trkpt><trkpt lat="50.4017549" lon="7.2871403"></trkpt><trkpt lat="50.4016353" lon="7.2868613"></trkpt><trkpt lat="50.4014198" lon="7.2865341"></trkpt><trkpt lat="50.4011292" lon="7.2861961"></trkpt><trkpt lat="50.400866" lon="7.2857724"></trkpt><trkpt lat="50.4006266" lon="7.2852949"></trkpt><trkpt lat="50.4004282" lon="7.2846512"></trkpt><trkpt lat="50.4002915" lon="7.2840987"></trkpt><trkpt lat="50.4002316" lon="7.2837473"></trkpt><trkpt lat="50.400223" lon="7.2835729"></trkpt><trkpt lat="50.4002256" lon="7.2833167"></trkpt><trkpt lat="50.4002049" lon="7.2828721"></trkpt><trkpt lat="50.4002576" lon="7.2825551"></trkpt><trkpt lat="50.4003224" lon="7.2823645"></trkpt><trkpt lat="50.400438" lon="7.2819989"></trkpt><trkpt lat="50.4005135" lon="7.2817009"></trkpt><trkpt lat="50.4006341" lon="7.281366"></trkpt><trkpt lat="50.4007672" lon="7.2810569"></trkpt><trkpt lat="50.4010183" lon="7.2805577"></trkpt><trkpt lat="50.4012324" lon="7.2800003"></trkpt><trkpt lat="50.4013894" lon="7.2795311"></trkpt><trkpt lat="50.4014607" lon="7.2790803"></trkpt><trkpt lat="50.4015099" lon="7.2786496"></trkpt><trkpt lat="50.401633" lon="7.2779254"></trkpt><trkpt lat="50.4016688" lon="7.2774371"></trkpt><trkpt lat="50.401645" lon="7.2768277"></trkpt><trkpt lat="50.4021693" lon="7.2768451"></trkpt><trkpt lat="50.4027027" lon="7.2768278"></trkpt><trkpt lat="50.4030632" lon="7.2768294"></trkpt><trkpt lat="50.403082" lon="7.2768298"></trkpt><trkpt lat="50.4032607" lon="7.2768142"></trkpt><trkpt lat="50.4033797" lon="7.276829"></trkpt><trkpt lat="50.403457" lon="7.2768696"></trkpt><trkpt lat="50.4044066" lon="7.2774251"></trkpt><trkpt lat="50.4047441" lon="7.2776494"></trkpt><trkpt lat="50.4052566" lon="7.2779811"></trkpt><trkpt lat="50.4057841" lon="7.2783726"></trkpt><trkpt lat="50.4061337" lon="7.2786087"></trkpt><trkpt lat="50.4063115" lon="7.2786756"></trkpt><trkpt lat="50.4064577" lon="7.2786771"></trkpt><trkpt lat="50.4065597" lon="7.2786633"></trkpt><trkpt lat="50.4067902" lon="7.2785121"></trkpt><trkpt lat="50.407031" lon="7.2784033"></trkpt><trkpt lat="50.407197" lon="7.2783216"></trkpt><trkpt lat="50.4073672" lon="7.2782636"></trkpt><trkpt lat="50.4075124" lon="7.2782882"></trkpt><trkpt lat="50.4076882" lon="7.2783419"></trkpt><trkpt lat="50.4078052" lon="7.2784063"></trkpt><trkpt lat="50.4079009" lon="7.2786022"></trkpt><trkpt lat="50.4079329" lon="7.2787589"></trkpt><trkpt lat="50.4079078" lon="7.2790828"></trkpt><trkpt lat="50.4078912" lon="7.2792975"></trkpt><trkpt lat="50.4079008" lon="7.2799867"></trkpt><trkpt lat="50.4078737" lon="7.2807287"></trkpt><trkpt lat="50.4078662" lon="7.2810824"></trkpt><trkpt lat="50.4078619" lon="7.2817358"></trkpt><trkpt lat="50.4079125" lon="7.2824662"></trkpt><trkpt lat="50.4080309" lon="7.2830047"></trkpt><trkpt lat="50.4082847" lon="7.2835371"></trkpt><trkpt lat="50.4085081" lon="7.2838899"></trkpt><trkpt lat="50.4086796" lon="7.2842116"></trkpt><trkpt lat="50.4094295" lon="7.2852845"></trkpt><trkpt lat="50.4096811" lon="7.2856965"></trkpt><trkpt lat="50.4100588" lon="7.286092"></trkpt><trkpt lat="50.4105678" lon="7.2864237"></trkpt><trkpt lat="50.4112513" lon="7.2864634"></trkpt><trkpt lat="50.411559" lon="7.2863883"></trkpt><trkpt lat="50.4118598" lon="7.2860771"></trkpt><trkpt lat="50.4120709" lon="7.285876"></trkpt><trkpt lat="50.4122285" lon="7.2858158"></trkpt><trkpt lat="50.4123778" lon="7.285825"></trkpt><trkpt lat="50.4126577" lon="7.2860897"></trkpt><trkpt lat="50.4129069" lon="7.2862102"></trkpt><trkpt lat="50.4129845" lon="7.2862198"></trkpt><trkpt lat="50.4133566" lon="7.286312"></trkpt><trkpt lat="50.4135989" lon="7.2862638"></trkpt><trkpt lat="50.4138681" lon="7.2861574"></trkpt><trkpt lat="50.4143932" lon="7.2859832"></trkpt><trkpt lat="50.4148501" lon="7.2859471"></trkpt><trkpt lat="50.4153815" lon="7.2859858"></trkpt><trkpt lat="50.415879" lon="7.2859622"></trkpt><trkpt lat="50.4161632" lon="7.285943"></trkpt><trkpt lat="50.4164569" lon="7.2858219"></trkpt><trkpt lat="50.4168433" lon="7.2856615"></trkpt><trkpt lat="50.4171009" lon="7.2855146"></trkpt><trkpt lat="50.4179376" lon="7.284736"></trkpt><trkpt lat="50.4183922" lon="7.2842747"></trkpt><trkpt lat="50.4184498" lon="7.2844425"></trkpt><trkpt lat="50.4184757" lon="7.2848242"></trkpt><trkpt lat="50.4185096" lon="7.2850536"></trkpt><trkpt lat="50.4184002" lon="7.2853759"></trkpt><trkpt lat="50.4184012" lon="7.2855877"></trkpt><trkpt lat="50.4186254" lon="7.2854553"></trkpt><trkpt lat="50.4186339" lon="7.2856082"></trkpt><trkpt lat="50.4187523" lon="7.2855797"></trkpt><trkpt lat="50.4188304" lon="7.285627"></trkpt><trkpt lat="50.4189689" lon="7.285619"></trkpt><trkpt lat="50.4189693" lon="7.2857729"></trkpt><trkpt lat="50.4190732" lon="7.2856484"></trkpt><trkpt lat="50.4190937" lon="7.2858546"></trkpt><trkpt lat="50.4192287" lon="7.2857798"></trkpt><trkpt lat="50.4192423" lon="7.2860427"></trkpt><trkpt lat="50.4194064" lon="7.2856317"></trkpt><trkpt lat="50.4195077" lon="7.2860384"></trkpt><trkpt lat="50.4195402" lon="7.286371"></trkpt><trkpt lat="50.4196316" lon="7.2865574"></trkpt><trkpt lat="50.4197572" lon="7.2866982"></trkpt><trkpt lat="50.4198486" lon="7.2868779"></trkpt><trkpt lat="50.4199811" lon="7.287177"></trkpt><trkpt lat="50.420046" lon="7.2874975"></trkpt><trkpt lat="50.4200951" lon="7.287784"></trkpt><trkpt lat="50.4201748" lon="7.2879973"></trkpt><trkpt lat="50.4202288" lon="7.2881094"></trkpt><trkpt lat="50.4203105" lon="7.2882405"></trkpt><trkpt lat="50.4203632" lon="7.2883164"></trkpt><trkpt lat="50.4204231" lon="7.2884759"></trkpt><trkpt lat="50.4205474" lon="7.2891452"></trkpt><trkpt lat="50.4206025" lon="7.2893731"></trkpt><trkpt lat="50.4207037" lon="7.2894924"></trkpt><trkpt lat="50.4208336" lon="7.2896131"></trkpt><trkpt lat="50.4209963" lon="7.2897762"></trkpt><trkpt lat="50.4213034" lon="7.2899925"></trkpt><trkpt lat="50.4216418" lon="7.2901862"></trkpt><trkpt lat="50.4227339" lon="7.2906648"></trkpt><trkpt lat="50.4229514" lon="7.2907429"></trkpt><trkpt lat="50.42271" lon="7.2917111"></trkpt><trkpt lat="50.4231076" lon="7.2921312"></trkpt><trkpt lat="50.4234132" lon="7.2923964"></trkpt><trkpt lat="50.4238199" lon="7.2927451"></trkpt><trkpt lat="50.4239786" lon="7.2928969"></trkpt><trkpt lat="50.4239648" lon="7.2929496"></trkpt><trkpt lat="50.4241202" lon="7.2931807"></trkpt><trkpt lat="50.4243085" lon="7.2929223"></trkpt><trkpt lat="50.4244324" lon="7.292536"></trkpt><trkpt lat="50.4245177" lon="7.2922915"></trkpt><trkpt lat="50.424578" lon="7.2921053"></trkpt><trkpt lat="50.4246765" lon="7.2918729"></trkpt><trkpt lat="50.4247548" lon="7.2917693"></trkpt><trkpt lat="50.4248608" lon="7.2916969"></trkpt><trkpt lat="50.4249736" lon="7.2916754"></trkpt><trkpt lat="50.4250522" lon="7.2916861"></trkpt><trkpt lat="50.4251803" lon="7.2917022"></trkpt><trkpt lat="50.4253407" lon="7.2916742"></trkpt><trkpt lat="50.4253987" lon="7.2919267"></trkpt><trkpt lat="50.4255019" lon="7.2922976"></trkpt><trkpt lat="50.4255531" lon="7.2924366"></trkpt><trkpt lat="50.425581" lon="7.2924932"></trkpt><trkpt lat="50.4256665" lon="7.2926711"></trkpt><trkpt lat="50.425719" lon="7.2929124"></trkpt><trkpt lat="50.4257455" lon="7.293132"></trkpt><trkpt lat="50.4257584" lon="7.293439"></trkpt><trkpt lat="50.425779" lon="7.2937386"></trkpt><trkpt lat="50.4254974" lon="7.2952347"></trkpt><trkpt lat="50.4254347" lon="7.2955804"></trkpt><trkpt lat="50.4252843" lon="7.2964095"></trkpt><trkpt lat="50.4252252" lon="7.2967354"></trkpt><trkpt lat="50.425161" lon="7.2971349"></trkpt><trkpt lat="50.4251014" lon="7.2975059"></trkpt><trkpt lat="50.4249324" lon="7.2983847"></trkpt><trkpt lat="50.4248159" lon="7.2991533"></trkpt><trkpt lat="50.4248193" lon="7.2993805"></trkpt><trkpt lat="50.4248523" lon="7.2996374"></trkpt><trkpt lat="50.4247629" lon="7.3000499"></trkpt><trkpt lat="50.4247144" lon="7.3012341"></trkpt><trkpt lat="50.4246732" lon="7.3020877"></trkpt><trkpt lat="50.4246368" lon="7.3027944"></trkpt><trkpt lat="50.4246449" lon="7.3030956"></trkpt><trkpt lat="50.4247872" lon="7.3032834"></trkpt><trkpt lat="50.4251653" lon="7.3033924"></trkpt><trkpt lat="50.4254208" lon="7.3034428"></trkpt><trkpt lat="50.4256117" lon="7.3034693"></trkpt><trkpt lat="50.4256599" lon="7.3035124"></trkpt><trkpt lat="50.4256895" lon="7.3036664"></trkpt><trkpt lat="50.4257467" lon="7.3038919"></trkpt><trkpt lat="50.4258204" lon="7.3042488"></trkpt><trkpt lat="50.4258222" lon="7.3044488"></trkpt><trkpt lat="50.425781" lon="7.3045805"></trkpt><trkpt lat="50.4256958" lon="7.3046966"></trkpt><trkpt lat="50.4255146" lon="7.3049504"></trkpt><trkpt lat="50.4253609" lon="7.3051808"></trkpt><trkpt lat="50.425284" lon="7.3051674"></trkpt><trkpt lat="50.4252071" lon="7.3051888"></trkpt><trkpt lat="50.4250738" lon="7.3053229"></trkpt><trkpt lat="50.4249576" lon="7.3055268"></trkpt><trkpt lat="50.4247218" lon="7.305956"></trkpt><trkpt lat="50.4243496" lon="7.306537"></trkpt><trkpt lat="50.424028" lon="7.3071017"></trkpt><trkpt lat="50.4239528" lon="7.3072649"></trkpt><trkpt lat="50.4239477" lon="7.3078415"></trkpt><trkpt lat="50.4239631" lon="7.3080615"></trkpt><trkpt lat="50.4239836" lon="7.3082278"></trkpt><trkpt lat="50.4240434" lon="7.3085926"></trkpt><trkpt lat="50.4241442" lon="7.309188"></trkpt><trkpt lat="50.4241972" lon="7.3097861"></trkpt><trkpt lat="50.4241579" lon="7.310344"></trkpt><trkpt lat="50.4241252" lon="7.3104782"></trkpt><trkpt lat="50.4240263" lon="7.3108832"></trkpt><trkpt lat="50.4240109" lon="7.3112533"></trkpt><trkpt lat="50.4241377" lon="7.3117942"></trkpt><trkpt lat="50.4241801" lon="7.3121438"></trkpt><trkpt lat="50.424165" lon="7.3124486"></trkpt><trkpt lat="50.424134" lon="7.31275"></trkpt><trkpt lat="50.4240554" lon="7.3129833"></trkpt><trkpt lat="50.4239446" lon="7.3132639"></trkpt><trkpt lat="50.4238383" lon="7.3135546"></trkpt><trkpt lat="50.4236045" lon="7.3138648"></trkpt><trkpt lat="50.4234678" lon="7.3140901"></trkpt><trkpt lat="50.4233342" lon="7.3145095"></trkpt><trkpt lat="50.4232286" lon="7.3148841"></trkpt><trkpt lat="50.4231739" lon="7.3153991"></trkpt><trkpt lat="50.4233174" lon="7.3157424"></trkpt><trkpt lat="50.4236931" lon="7.3159767"></trkpt><trkpt lat="50.4238916" lon="7.3162252"></trkpt><trkpt lat="50.4240246" lon="7.316371"></trkpt><trkpt lat="50.4241784" lon="7.3165507"></trkpt><trkpt lat="50.4243356" lon="7.3168323"></trkpt><trkpt lat="50.424433" lon="7.3170737"></trkpt><trkpt lat="50.4244416" lon="7.3172293"></trkpt><trkpt lat="50.4243219" lon="7.3176182"></trkpt><trkpt lat="50.4241647" lon="7.3180071"></trkpt><trkpt lat="50.424001" lon="7.3184568"></trkpt><trkpt lat="50.4238418" lon="7.3190237"></trkpt><trkpt lat="50.4237068" lon="7.3196111"></trkpt><trkpt lat="50.4236319" lon="7.3199374"></trkpt><trkpt lat="50.4234815" lon="7.320742"></trkpt><trkpt lat="50.4231055" lon="7.3214823"></trkpt><trkpt lat="50.422504" lon="7.322126"></trkpt><trkpt lat="50.422193" lon="7.3224774"></trkpt><trkpt lat="50.4220469" lon="7.3226964"></trkpt><trkpt lat="50.4219685" lon="7.3227747"></trkpt><trkpt lat="50.4219411" lon="7.3227602"></trkpt><trkpt lat="50.4219193" lon="7.3227198"></trkpt><trkpt lat="50.4218813" lon="7.3226139"></trkpt><trkpt lat="50.4217911" lon="7.3224354"></trkpt><trkpt lat="50.4217091" lon="7.3223577"></trkpt><trkpt lat="50.4215758" lon="7.3222691"></trkpt><trkpt lat="50.4214288" lon="7.3222128"></trkpt><trkpt lat="50.4212545" lon="7.3222021"></trkpt><trkpt lat="50.4210426" lon="7.322186"></trkpt><trkpt lat="50.4209435" lon="7.3221726"></trkpt><trkpt lat="50.4207196" lon="7.3221753"></trkpt><trkpt lat="50.4205384" lon="7.322186"></trkpt><trkpt lat="50.420487" lon="7.3221711"></trkpt><trkpt lat="50.4204086" lon="7.3221484"></trkpt><trkpt lat="50.4202633" lon="7.3220331"></trkpt><trkpt lat="50.4200018" lon="7.3218051"></trkpt><trkpt lat="50.4198429" lon="7.3216817"></trkpt><trkpt lat="50.419701" lon="7.3216174"></trkpt><trkpt lat="50.4196071" lon="7.3216147"></trkpt><trkpt lat="50.4193968" lon="7.3216227"></trkpt><trkpt lat="50.4190995" lon="7.3216603"></trkpt><trkpt lat="50.4188004" lon="7.3217193"></trkpt><trkpt lat="50.4186586" lon="7.3217676"></trkpt><trkpt lat="50.4184244" lon="7.3219205"></trkpt><trkpt lat="50.4183658" lon="7.3219701"></trkpt><trkpt lat="50.4181424" lon="7.3221592"></trkpt><trkpt lat="50.4178074" lon="7.3223979"></trkpt><trkpt lat="50.4175784" lon="7.3225105"></trkpt><trkpt lat="50.4174742" lon="7.3225588"></trkpt><trkpt lat="50.417316" lon="7.3227284"></trkpt><trkpt lat="50.4173956" lon="7.3223486"></trkpt><trkpt lat="50.4173688" lon="7.322075"></trkpt><trkpt lat="50.4173424" lon="7.3219846"></trkpt><trkpt lat="50.4173151" lon="7.3218909"></trkpt><trkpt lat="50.4168894" lon="7.3212384"></trkpt><trkpt lat="50.416772" lon="7.3210543"></trkpt><trkpt lat="50.4167352" lon="7.320928"></trkpt><trkpt lat="50.4167285" lon="7.3207597"></trkpt><trkpt lat="50.4168091" lon="7.3205138"></trkpt><trkpt lat="50.4171755" lon="7.3193788"></trkpt><trkpt lat="50.416609" lon="7.3192648"></trkpt><trkpt lat="50.4164518" lon="7.3191951"></trkpt><trkpt lat="50.4163732" lon="7.3190985"></trkpt><trkpt lat="50.4163253" lon="7.3189215"></trkpt><trkpt lat="50.4162912" lon="7.3186863"></trkpt><trkpt lat="50.4163151" lon="7.3184441"></trkpt><trkpt lat="50.4163594" lon="7.3183835"></trkpt><trkpt lat="50.4164039" lon="7.3183207"></trkpt><trkpt lat="50.4169407" lon="7.3180212"></trkpt><trkpt lat="50.4171184" lon="7.3177529"></trkpt><trkpt lat="50.4172545" lon="7.3172819"></trkpt><trkpt lat="50.4173912" lon="7.3160809"></trkpt><trkpt lat="50.4167998" lon="7.3159597"></trkpt><trkpt lat="50.4167793" lon="7.3154013"></trkpt><trkpt lat="50.4169966" lon="7.315023"></trkpt><trkpt lat="50.4172138" lon="7.3145901"></trkpt><trkpt lat="50.4172065" lon="7.3142834"></trkpt><trkpt lat="50.4171595" lon="7.3140953"></trkpt><trkpt lat="50.4171355" lon="7.3140796"></trkpt><trkpt lat="50.4167869" lon="7.3141729"></trkpt><trkpt lat="50.4167271" lon="7.3142722"></trkpt><trkpt lat="50.4165972" lon="7.3144304"></trkpt><trkpt lat="50.4161665" lon="7.3147469"></trkpt><trkpt lat="50.4159974" lon="7.3149039"></trkpt><trkpt lat="50.4157358" lon="7.3152324"></trkpt><trkpt lat="50.4155871" lon="7.3154506"></trkpt><trkpt lat="50.415525" lon="7.3153534"></trkpt><trkpt lat="50.4158627" lon="7.3148436"></trkpt><trkpt lat="50.4157247" lon="7.3148574"></trkpt><trkpt lat="50.4155819" lon="7.3148269"></trkpt><trkpt lat="50.4154833" lon="7.3147453"></trkpt><trkpt lat="50.415404" lon="7.3146796"></trkpt><trkpt lat="50.4150843" lon="7.3144405"></trkpt><trkpt lat="50.4146381" lon="7.3141449"></trkpt><trkpt lat="50.4144005" lon="7.3139568"></trkpt><trkpt lat="50.4141141" lon="7.3137539"></trkpt><trkpt lat="50.414001" lon="7.3137268"></trkpt><trkpt lat="50.4138873" lon="7.3137554"></trkpt></trkseg></trk></gpx>
