<?xml version="1.0" encoding="UTF-8"?>
<gpx version="1.1" creator="Good Shit" xmlns="http://www.topografix.com/GPX/1/1"><trk><name>Brecca–Euschels: Schwarzsee–Jaun — Brecca–Euschels: Schwarzsee–Jaun</name><trkseg><trkpt lat="46.6705009" lon="7.2876107"></trkpt><trkpt lat="46.6704244" lon="7.2875431"></trkpt><trkpt lat="46.6703711" lon="7.2875162"></trkpt><trkpt lat="46.6702981" lon="7.2874729"></trkpt><trkpt lat="46.670245" lon="7.2874388"></trkpt><trkpt lat="46.6701934" lon="7.2873881"></trkpt><trkpt lat="46.6701563" lon="7.2873456"></trkpt><trkpt lat="46.6701038" lon="7.2872943"></trkpt><trkpt lat="46.6700508" lon="7.2872464"></trkpt><trkpt lat="46.6700206" lon="7.2872313"></trkpt><trkpt lat="46.6699883" lon="7.2872221"></trkpt><trkpt lat="46.6699383" lon="7.2872143"></trkpt><trkpt lat="46.6698869" lon="7.2872155"></trkpt><trkpt lat="46.669828" lon="7.2872268"></trkpt><trkpt lat="46.6697736" lon="7.2872487"></trkpt><trkpt lat="46.6697086" lon="7.2872923"></trkpt><trkpt lat="46.6696337" lon="7.2873584"></trkpt><trkpt lat="46.6695315" lon="7.287471"></trkpt><trkpt lat="46.6694228" lon="7.2875811"></trkpt><trkpt lat="46.6693102" lon="7.2877095"></trkpt><trkpt lat="46.6692811" lon="7.2877403"></trkpt><trkpt lat="46.6692301" lon="7.287752"></trkpt><trkpt lat="46.6691781" lon="7.2877482"></trkpt><trkpt lat="46.6691241" lon="7.2877319"></trkpt><trkpt lat="46.6690701" lon="7.2876953"></trkpt><trkpt lat="46.6689958" lon="7.2876442"></trkpt><trkpt lat="46.6689657" lon="7.2876261"></trkpt><trkpt lat="46.6689222" lon="7.2876136"></trkpt><trkpt lat="46.6688021" lon="7.2875938"></trkpt><trkpt lat="46.6686889" lon="7.2875563"></trkpt><trkpt lat="46.668578" lon="7.287511"></trkpt><trkpt lat="46.6684089" lon="7.2873664"></trkpt><trkpt lat="46.6680163" lon="7.2871387"></trkpt><trkpt lat="46.6675735" lon="7.2869377"></trkpt><trkpt lat="46.6673703" lon="7.2868425"></trkpt><trkpt lat="46.6672582" lon="7.2867526"></trkpt><trkpt lat="46.6669493" lon="7.2863665"></trkpt><trkpt lat="46.6666807" lon="7.2860016"></trkpt><trkpt lat="46.6666375" lon="7.2859501"></trkpt><trkpt lat="46.6665768" lon="7.2859175"></trkpt><trkpt lat="46.666484" lon="7.2859195"></trkpt><trkpt lat="46.6664355" lon="7.2859176"></trkpt><trkpt lat="46.6663667" lon="7.2859051"></trkpt><trkpt lat="46.6662978" lon="7.285849"></trkpt><trkpt lat="46.6659529" lon="7.2854866"></trkpt><trkpt lat="46.6659376" lon="7.2854698"></trkpt><trkpt lat="46.665896" lon="7.2854337"></trkpt><trkpt lat="46.6657094" lon="7.2851966"></trkpt><trkpt lat="46.6654928" lon="7.285062"></trkpt><trkpt lat="46.6654161" lon="7.2849505"></trkpt><trkpt lat="46.6653973" lon="7.284932"></trkpt><trkpt lat="46.6653837" lon="7.2849164"></trkpt><trkpt lat="46.6653656" lon="7.2848862"></trkpt><trkpt lat="46.6652016" lon="7.2846881"></trkpt><trkpt lat="46.6651654" lon="7.2846471"></trkpt><trkpt lat="46.6651236" lon="7.2845747"></trkpt><trkpt lat="46.6650538" lon="7.2844483"></trkpt><trkpt lat="46.6649799" lon="7.2843384"></trkpt><trkpt lat="46.6647501" lon="7.2840515"></trkpt><trkpt lat="46.6644983" lon="7.283767"></trkpt><trkpt lat="46.6643485" lon="7.2836134"></trkpt><trkpt lat="46.6642686" lon="7.2835412"></trkpt><trkpt lat="46.6642192" lon="7.2835035"></trkpt><trkpt lat="46.6641097" lon="7.2834336"></trkpt><trkpt lat="46.66406" lon="7.2833997"></trkpt><trkpt lat="46.6640268" lon="7.2833692"></trkpt><trkpt lat="46.6639556" lon="7.2832913"></trkpt><trkpt lat="46.6639336" lon="7.2832711"></trkpt><trkpt lat="46.6639062" lon="7.2832577"></trkpt><trkpt lat="46.6638713" lon="7.2832484"></trkpt><trkpt lat="46.6637981" lon="7.283239"></trkpt><trkpt lat="46.6637345" lon="7.2832257"></trkpt><trkpt lat="46.6636915" lon="7.2832066"></trkpt><trkpt lat="46.6636575" lon="7.2831838"></trkpt><trkpt lat="46.6636311" lon="7.283158"></trkpt><trkpt lat="46.6635847" lon="7.2830943"></trkpt><trkpt lat="46.6635424" lon="7.2830426"></trkpt><trkpt lat="46.6635079" lon="7.2830126"></trkpt><trkpt lat="46.6634793" lon="7.2829992"></trkpt><trkpt lat="46.6634405" lon="7.2829936"></trkpt><trkpt lat="46.6633881" lon="7.2830016"></trkpt><trkpt lat="46.6632801" lon="7.2830317"></trkpt><trkpt lat="46.6632337" lon="7.2830415"></trkpt><trkpt lat="46.6632033" lon="7.2830377"></trkpt><trkpt lat="46.6631631" lon="7.2830272"></trkpt><trkpt lat="46.663115" lon="7.283007"></trkpt><trkpt lat="46.6630679" lon="7.2829898"></trkpt><trkpt lat="46.6629218" lon="7.2829614"></trkpt><trkpt lat="46.6628337" lon="7.2829382"></trkpt><trkpt lat="46.6626257" lon="7.2828626"></trkpt><trkpt lat="46.6625834" lon="7.282854"></trkpt><trkpt lat="46.6625074" lon="7.2828569"></trkpt><trkpt lat="46.6624289" lon="7.2828724"></trkpt><trkpt lat="46.66234" lon="7.2828751"></trkpt><trkpt lat="46.6622818" lon="7.2828818"></trkpt><trkpt lat="46.662239" lon="7.2828966"></trkpt><trkpt lat="46.6621577" lon="7.2829377"></trkpt><trkpt lat="46.6621142" lon="7.2829517"></trkpt><trkpt lat="46.6620793" lon="7.2829522"></trkpt><trkpt lat="46.662017" lon="7.2829512"></trkpt><trkpt lat="46.6619773" lon="7.2829541"></trkpt><trkpt lat="46.6619235" lon="7.2829694"></trkpt><trkpt lat="46.6618577" lon="7.2829838"></trkpt><trkpt lat="46.6618245" lon="7.2829845"></trkpt><trkpt lat="46.6618" lon="7.2829766"></trkpt><trkpt lat="46.6617801" lon="7.2829625"></trkpt><trkpt lat="46.6617615" lon="7.2829388"></trkpt><trkpt lat="46.6617212" lon="7.2828649"></trkpt><trkpt lat="46.6616969" lon="7.282826"></trkpt><trkpt lat="46.6616745" lon="7.2828008"></trkpt><trkpt lat="46.6616441" lon="7.2827777"></trkpt><trkpt lat="46.6614516" lon="7.2826925"></trkpt><trkpt lat="46.6612745" lon="7.2826215"></trkpt><trkpt lat="46.6612292" lon="7.2825893"></trkpt><trkpt lat="46.6610332" lon="7.282393"></trkpt><trkpt lat="46.6609797" lon="7.2823587"></trkpt><trkpt lat="46.6609223" lon="7.2823367"></trkpt><trkpt lat="46.6608756" lon="7.2823263"></trkpt><trkpt lat="46.6608154" lon="7.2823242"></trkpt><trkpt lat="46.6607405" lon="7.2823347"></trkpt><trkpt lat="46.6604928" lon="7.2823989"></trkpt><trkpt lat="46.6603839" lon="7.28242"></trkpt><trkpt lat="46.6602821" lon="7.2824209"></trkpt><trkpt lat="46.6602385" lon="7.282411"></trkpt><trkpt lat="46.660205" lon="7.2823965"></trkpt><trkpt lat="46.6601719" lon="7.2823769"></trkpt><trkpt lat="46.6601287" lon="7.2823366"></trkpt><trkpt lat="46.6598621" lon="7.2820569"></trkpt><trkpt lat="46.659762" lon="7.2821491"></trkpt><trkpt lat="46.6596984" lon="7.2821928"></trkpt><trkpt lat="46.6595794" lon="7.2822061"></trkpt><trkpt lat="46.6594801" lon="7.2822141"></trkpt><trkpt lat="46.6591532" lon="7.2823496"></trkpt><trkpt lat="46.6589162" lon="7.2824459"></trkpt><trkpt lat="46.6588091" lon="7.2825186"></trkpt><trkpt lat="46.6587287" lon="7.2826121"></trkpt><trkpt lat="46.6586136" lon="7.2827708"></trkpt><trkpt lat="46.6585556" lon="7.2828254"></trkpt><trkpt lat="46.6583556" lon="7.282941"></trkpt><trkpt lat="46.6583128" lon="7.2829629"></trkpt><trkpt lat="46.658274" lon="7.2829596"></trkpt><trkpt lat="46.6581745" lon="7.2829094"></trkpt><trkpt lat="46.6579541" lon="7.2828456"></trkpt><trkpt lat="46.6578846" lon="7.2827959"></trkpt><trkpt lat="46.6578135" lon="7.2826861"></trkpt><trkpt lat="46.6573791" lon="7.2817665"></trkpt><trkpt lat="46.6572872" lon="7.2815385"></trkpt><trkpt lat="46.6571269" lon="7.2813821"></trkpt><trkpt lat="46.6570895" lon="7.2813187"></trkpt><trkpt lat="46.6568543" lon="7.281305"></trkpt><trkpt lat="46.6565472" lon="7.2811909"></trkpt><trkpt lat="46.6565218" lon="7.281176"></trkpt><trkpt lat="46.6564472" lon="7.2810626"></trkpt><trkpt lat="46.6564053" lon="7.2809845"></trkpt><trkpt lat="46.6563635" lon="7.280871"></trkpt><trkpt lat="46.6562694" lon="7.2806371"></trkpt><trkpt lat="46.6562862" lon="7.2805459"></trkpt><trkpt lat="46.6562923" lon="7.2804975"></trkpt><trkpt lat="46.6564024" lon="7.2803793"></trkpt><trkpt lat="46.6565117" lon="7.2802389"></trkpt><trkpt lat="46.6565966" lon="7.2801092"></trkpt><trkpt lat="46.656645" lon="7.2799971"></trkpt><trkpt lat="46.656678" lon="7.2798844"></trkpt><trkpt lat="46.6566861" lon="7.2797771"></trkpt><trkpt lat="46.656642" lon="7.2793614"></trkpt><trkpt lat="46.6566504" lon="7.2792498"></trkpt><trkpt lat="46.6567066" lon="7.2791996"></trkpt><trkpt lat="46.6567723" lon="7.2792763"></trkpt><trkpt lat="46.6567995" lon="7.2792735"></trkpt><trkpt lat="46.6568204" lon="7.2792316"></trkpt><trkpt lat="46.6569758" lon="7.2787574"></trkpt><trkpt lat="46.6570116" lon="7.2785299"></trkpt><trkpt lat="46.6570563" lon="7.2782513"></trkpt><trkpt lat="46.6571433" lon="7.2781506"></trkpt><trkpt lat="46.6572036" lon="7.2781341"></trkpt><trkpt lat="46.6573232" lon="7.2779721"></trkpt><trkpt lat="46.657405" lon="7.2777933"></trkpt><trkpt lat="46.6575293" lon="7.2775627"></trkpt><trkpt lat="46.6575891" lon="7.2775419"></trkpt><trkpt lat="46.6576539" lon="7.2774653"></trkpt><trkpt lat="46.6577062" lon="7.2774468"></trkpt><trkpt lat="46.6578213" lon="7.2773436"></trkpt><trkpt lat="46.6578955" lon="7.2773006"></trkpt><trkpt lat="46.6579561" lon="7.2772499"></trkpt><trkpt lat="46.6581141" lon="7.2771104"></trkpt><trkpt lat="46.658087" lon="7.2770253"></trkpt><trkpt lat="46.6580626" lon="7.2769281"></trkpt><trkpt lat="46.658034" lon="7.2768371"></trkpt><trkpt lat="46.6579655" lon="7.2766659"></trkpt><trkpt lat="46.6579411" lon="7.2765867"></trkpt><trkpt lat="46.6579319" lon="7.2765339"></trkpt><trkpt lat="46.6579185" lon="7.2763555"></trkpt><trkpt lat="46.6579009" lon="7.2761928"></trkpt><trkpt lat="46.6578795" lon="7.27609"></trkpt><trkpt lat="46.6578487" lon="7.2759918"></trkpt><trkpt lat="46.6577808" lon="7.2757801"></trkpt><trkpt lat="46.6577316" lon="7.2756364"></trkpt><trkpt lat="46.6577108" lon="7.2755463"></trkpt><trkpt lat="46.6576982" lon="7.2754346"></trkpt><trkpt lat="46.6576888" lon="7.275329"></trkpt><trkpt lat="46.6576863" lon="7.2752023"></trkpt><trkpt lat="46.6576934" lon="7.2750282"></trkpt><trkpt lat="46.6577161" lon="7.2748061"></trkpt><trkpt lat="46.6577214" lon="7.2747521"></trkpt><trkpt lat="46.6577283" lon="7.2747176"></trkpt><trkpt lat="46.6577419" lon="7.2746793"></trkpt><trkpt lat="46.6577663" lon="7.2746438"></trkpt><trkpt lat="46.6578338" lon="7.2745782"></trkpt><trkpt lat="46.6578951" lon="7.2745367"></trkpt><trkpt lat="46.6578486" lon="7.2744984"></trkpt><trkpt lat="46.6578082" lon="7.2744905"></trkpt><trkpt lat="46.6577081" lon="7.2744918"></trkpt><trkpt lat="46.6576181" lon="7.2745023"></trkpt><trkpt lat="46.6572494" lon="7.2746025"></trkpt><trkpt lat="46.6570765" lon="7.2746998"></trkpt><trkpt lat="46.6569592" lon="7.2747872"></trkpt><trkpt lat="46.6566744" lon="7.2750886"></trkpt><trkpt lat="46.6566128" lon="7.2751689"></trkpt><trkpt lat="46.656527" lon="7.2753178"></trkpt><trkpt lat="46.6563126" lon="7.2756498"></trkpt><trkpt lat="46.6561732" lon="7.2758413"></trkpt><trkpt lat="46.6561228" lon="7.275934"></trkpt><trkpt lat="46.6560851" lon="7.2760376"></trkpt><trkpt lat="46.6560634" lon="7.2761516"></trkpt><trkpt lat="46.6560265" lon="7.2763466"></trkpt><trkpt lat="46.6559819" lon="7.2765208"></trkpt><trkpt lat="46.6559284" lon="7.2766586"></trkpt><trkpt lat="46.6558446" lon="7.2768402"></trkpt><trkpt lat="46.6557696" lon="7.2770561"></trkpt><trkpt lat="46.6557477" lon="7.2771551"></trkpt><trkpt lat="46.6557443" lon="7.2772366"></trkpt><trkpt lat="46.6557533" lon="7.2773416"></trkpt><trkpt lat="46.6557664" lon="7.277404"></trkpt><trkpt lat="46.6557697" lon="7.2774756"></trkpt><trkpt lat="46.6557445" lon="7.2775373"></trkpt><trkpt lat="46.6557126" lon="7.2775642"></trkpt><trkpt lat="46.6556736" lon="7.2775806"></trkpt><trkpt lat="46.6555569" lon="7.2775798"></trkpt><trkpt lat="46.655433" lon="7.2775737"></trkpt><trkpt lat="46.6553429" lon="7.2775604"></trkpt><trkpt lat="46.6552663" lon="7.2775375"></trkpt><trkpt lat="46.6552007" lon="7.2775833"></trkpt><trkpt lat="46.6551775" lon="7.2775975"></trkpt><trkpt lat="46.6551575" lon="7.2776052"></trkpt><trkpt lat="46.655085" lon="7.2776235"></trkpt><trkpt lat="46.65505" lon="7.2776418"></trkpt><trkpt lat="46.6550204" lon="7.2776704"></trkpt><trkpt lat="46.6549735" lon="7.277737"></trkpt><trkpt lat="46.6549463" lon="7.2777682"></trkpt><trkpt lat="46.6549198" lon="7.2777864"></trkpt><trkpt lat="46.6548887" lon="7.277795"></trkpt><trkpt lat="46.6548596" lon="7.2777937"></trkpt><trkpt lat="46.654837" lon="7.2777855"></trkpt><trkpt lat="46.6547711" lon="7.2777509"></trkpt><trkpt lat="46.6547379" lon="7.2777374"></trkpt><trkpt lat="46.6546738" lon="7.2777283"></trkpt><trkpt lat="46.6546392" lon="7.2777178"></trkpt><trkpt lat="46.6546004" lon="7.2776951"></trkpt><trkpt lat="46.6545359" lon="7.2776429"></trkpt><trkpt lat="46.6544683" lon="7.2776239"></trkpt><trkpt lat="46.6543927" lon="7.2776109"></trkpt><trkpt lat="46.6543298" lon="7.2775952"></trkpt><trkpt lat="46.6542073" lon="7.2775352"></trkpt><trkpt lat="46.654137" lon="7.2775273"></trkpt><trkpt lat="46.6540488" lon="7.2775291"></trkpt><trkpt lat="46.6540084" lon="7.2775256"></trkpt><trkpt lat="46.6539638" lon="7.2775069"></trkpt><trkpt lat="46.6539246" lon="7.2774868"></trkpt><trkpt lat="46.6538925" lon="7.2774777"></trkpt><trkpt lat="46.6538375" lon="7.2774764"></trkpt><trkpt lat="46.6537477" lon="7.2774979"></trkpt><trkpt lat="46.6536744" lon="7.2774933"></trkpt><trkpt lat="46.6533815" lon="7.2774274"></trkpt><trkpt lat="46.653322" lon="7.2774419"></trkpt><trkpt lat="46.6532388" lon="7.2775049"></trkpt><trkpt lat="46.6530951" lon="7.2776713"></trkpt><trkpt lat="46.6529774" lon="7.2778645"></trkpt><trkpt lat="46.6528887" lon="7.277846"></trkpt><trkpt lat="46.652824" lon="7.2778741"></trkpt><trkpt lat="46.6527606" lon="7.2779504"></trkpt><trkpt lat="46.6526928" lon="7.2779585"></trkpt><trkpt lat="46.6526564" lon="7.2779324"></trkpt><trkpt lat="46.6526217" lon="7.2778511"></trkpt><trkpt lat="46.6526507" lon="7.2777105"></trkpt><trkpt lat="46.6526339" lon="7.277608"></trkpt><trkpt lat="46.6525079" lon="7.2775801"></trkpt><trkpt lat="46.6524108" lon="7.2775163"></trkpt><trkpt lat="46.6523703" lon="7.2773371"></trkpt><trkpt lat="46.6523457" lon="7.2771823"></trkpt><trkpt lat="46.6523347" lon="7.2769964"></trkpt><trkpt lat="46.6522946" lon="7.2767812"></trkpt><trkpt lat="46.6522013" lon="7.276698"></trkpt><trkpt lat="46.6520661" lon="7.2765953"></trkpt><trkpt lat="46.6519489" lon="7.2764941"></trkpt><trkpt lat="46.6519118" lon="7.2764875"></trkpt><trkpt lat="46.6518605" lon="7.2765121"></trkpt><trkpt lat="46.6518205" lon="7.2764456"></trkpt><trkpt lat="46.6518163" lon="7.2763149"></trkpt><trkpt lat="46.6517867" lon="7.2762616"></trkpt><trkpt lat="46.651681" lon="7.2762664"></trkpt><trkpt lat="46.6516575" lon="7.2761983"></trkpt><trkpt lat="46.651664" lon="7.2761091"></trkpt><trkpt lat="46.6517235" lon="7.2759705"></trkpt><trkpt lat="46.6517526" lon="7.2758631"></trkpt><trkpt lat="46.6518092" lon="7.2758129"></trkpt><trkpt lat="46.65163" lon="7.27567"></trkpt><trkpt lat="46.6515685" lon="7.275678"></trkpt><trkpt lat="46.6514427" lon="7.2758004"></trkpt><trkpt lat="46.6514126" lon="7.275715"></trkpt><trkpt lat="46.6513968" lon="7.2756321"></trkpt><trkpt lat="46.6514285" lon="7.2754811"></trkpt><trkpt lat="46.6515589" lon="7.2752858"></trkpt><trkpt lat="46.6515528" lon="7.2750476"></trkpt><trkpt lat="46.6514649" lon="7.2749226"></trkpt><trkpt lat="46.6513137" lon="7.2748571"></trkpt><trkpt lat="46.6511073" lon="7.2748779"></trkpt><trkpt lat="46.6509765" lon="7.2750059"></trkpt><trkpt lat="46.6508458" lon="7.275069"></trkpt><trkpt lat="46.6508186" lon="7.275102"></trkpt><trkpt lat="46.6507929" lon="7.2752004"></trkpt><trkpt lat="46.6507462" lon="7.2753292"></trkpt><trkpt lat="46.6506701" lon="7.2756033"></trkpt><trkpt lat="46.6506598" lon="7.2756352"></trkpt><trkpt lat="46.6506279" lon="7.27557"></trkpt><trkpt lat="46.6505882" lon="7.2754644"></trkpt><trkpt lat="46.650565" lon="7.2753792"></trkpt><trkpt lat="46.6505609" lon="7.2752603"></trkpt><trkpt lat="46.6505743" lon="7.2750873"></trkpt><trkpt lat="46.6505901" lon="7.2749264"></trkpt><trkpt lat="46.6505746" lon="7.2748068"></trkpt><trkpt lat="46.6505518" lon="7.2747363"></trkpt><trkpt lat="46.6504574" lon="7.274613"></trkpt><trkpt lat="46.6504186" lon="7.2745548"></trkpt><trkpt lat="46.6503894" lon="7.2744464"></trkpt><trkpt lat="46.6503288" lon="7.2742916"></trkpt><trkpt lat="46.6502694" lon="7.274114"></trkpt><trkpt lat="46.6502509" lon="7.2738591"></trkpt><trkpt lat="46.6502303" lon="7.2737846"></trkpt><trkpt lat="46.6502424" lon="7.2736237"></trkpt><trkpt lat="46.650293" lon="7.2734186"></trkpt><trkpt lat="46.6503078" lon="7.2733392"></trkpt><trkpt lat="46.6503119" lon="7.2732539"></trkpt><trkpt lat="46.6502311" lon="7.2731891"></trkpt><trkpt lat="46.6501759" lon="7.2731068"></trkpt><trkpt lat="46.6501927" lon="7.2730567"></trkpt><trkpt lat="46.6502035" lon="7.272991"></trkpt><trkpt lat="46.650159" lon="7.2729234"></trkpt><trkpt lat="46.6501564" lon="7.2728694"></trkpt><trkpt lat="46.6501631" lon="7.2728468"></trkpt><trkpt lat="46.6502142" lon="7.2727704"></trkpt><trkpt lat="46.6502654" lon="7.2727017"></trkpt><trkpt lat="46.6502856" lon="7.2726458"></trkpt><trkpt lat="46.6502864" lon="7.2725919"></trkpt><trkpt lat="46.650268" lon="7.2725229"></trkpt><trkpt lat="46.6502731" lon="7.2724457"></trkpt><trkpt lat="46.6503042" lon="7.2724116"></trkpt><trkpt lat="46.6503231" lon="7.2723641"></trkpt><trkpt lat="46.6502529" lon="7.2723048"></trkpt><trkpt lat="46.65022" lon="7.2722612"></trkpt><trkpt lat="46.6501996" lon="7.2722088"></trkpt><trkpt lat="46.6501899" lon="7.2721357"></trkpt><trkpt lat="46.6501777" lon="7.2719258"></trkpt><trkpt lat="46.6501637" lon="7.2718393"></trkpt><trkpt lat="46.6501285" lon="7.2717401"></trkpt><trkpt lat="46.6500746" lon="7.2715236"></trkpt><trkpt lat="46.6500632" lon="7.2714553"></trkpt><trkpt lat="46.650068" lon="7.2712901"></trkpt><trkpt lat="46.6500556" lon="7.2711048"></trkpt><trkpt lat="46.6499893" lon="7.2708456"></trkpt><trkpt lat="46.6499539" lon="7.2706789"></trkpt><trkpt lat="46.6499403" lon="7.27047"></trkpt><trkpt lat="46.649845" lon="7.2702398"></trkpt><trkpt lat="46.6496965" lon="7.2699972"></trkpt><trkpt lat="46.6494873" lon="7.2697971"></trkpt><trkpt lat="46.6493925" lon="7.269722"></trkpt><trkpt lat="46.6492225" lon="7.2694449"></trkpt><trkpt lat="46.6490614" lon="7.2692425"></trkpt><trkpt lat="46.6490141" lon="7.2691597"></trkpt><trkpt lat="46.6489413" lon="7.2690996"></trkpt><trkpt lat="46.648733" lon="7.2691281"></trkpt><trkpt lat="46.648654" lon="7.269075"></trkpt><trkpt lat="46.6485412" lon="7.269064"></trkpt><trkpt lat="46.648253" lon="7.2690767"></trkpt><trkpt lat="46.6477843" lon="7.2688584"></trkpt><trkpt lat="46.6475595" lon="7.2687103"></trkpt><trkpt lat="46.6474746" lon="7.2686634"></trkpt><trkpt lat="46.6474282" lon="7.2686546"></trkpt><trkpt lat="46.6473716" lon="7.2686617"></trkpt><trkpt lat="46.6472206" lon="7.2687261"></trkpt><trkpt lat="46.6470803" lon="7.268837"></trkpt><trkpt lat="46.6469992" lon="7.268886"></trkpt><trkpt lat="46.6468947" lon="7.2689836"></trkpt><trkpt lat="46.6467032" lon="7.2693135"></trkpt><trkpt lat="46.6466561" lon="7.2693519"></trkpt><trkpt lat="46.6466147" lon="7.2693754"></trkpt><trkpt lat="46.6466" lon="7.2693837"></trkpt><trkpt lat="46.6465417" lon="7.2694594"></trkpt><trkpt lat="46.6464715" lon="7.269549"></trkpt><trkpt lat="46.6464271" lon="7.269644"></trkpt><trkpt lat="46.6463547" lon="7.2697124"></trkpt><trkpt lat="46.6462314" lon="7.2698055"></trkpt><trkpt lat="46.6457919" lon="7.2701496"></trkpt><trkpt lat="46.6456635" lon="7.2702457"></trkpt><trkpt lat="46.6455507" lon="7.2702735"></trkpt><trkpt lat="46.6454084" lon="7.270276"></trkpt><trkpt lat="46.645239" lon="7.2702563"></trkpt><trkpt lat="46.6451185" lon="7.2702987"></trkpt><trkpt lat="46.6449832" lon="7.2703973"></trkpt><trkpt lat="46.6447176" lon="7.270549"></trkpt><trkpt lat="46.6445945" lon="7.2706243"></trkpt><trkpt lat="46.6444833" lon="7.2707715"></trkpt><trkpt lat="46.6443593" lon="7.270835"></trkpt><trkpt lat="46.6442698" lon="7.2708625"></trkpt><trkpt lat="46.6441154" lon="7.2708372"></trkpt><trkpt lat="46.6440821" lon="7.2709622"></trkpt><trkpt lat="46.644063" lon="7.2709861"></trkpt><trkpt lat="46.6439908" lon="7.2710157"></trkpt><trkpt lat="46.6438707" lon="7.2709794"></trkpt><trkpt lat="46.6437871" lon="7.270963"></trkpt><trkpt lat="46.6436878" lon="7.2709867"></trkpt><trkpt lat="46.6435751" lon="7.2709973"></trkpt><trkpt lat="46.6434775" lon="7.2709983"></trkpt><trkpt lat="46.6434254" lon="7.2710001"></trkpt><trkpt lat="46.6433342" lon="7.271003"></trkpt><trkpt lat="46.6431926" lon="7.2710183"></trkpt><trkpt lat="46.643128" lon="7.2710681"></trkpt><trkpt lat="46.6430825" lon="7.2711731"></trkpt><trkpt lat="46.6431058" lon="7.2713065"></trkpt><trkpt lat="46.6431589" lon="7.2715351"></trkpt><trkpt lat="46.6431672" lon="7.2716724"></trkpt><trkpt lat="46.643249" lon="7.2718274"></trkpt><trkpt lat="46.6433" lon="7.2719715"></trkpt><trkpt lat="46.6433181" lon="7.2720778"></trkpt><trkpt lat="46.6432888" lon="7.2721536"></trkpt><trkpt lat="46.6431476" lon="7.2723929"></trkpt><trkpt lat="46.6431142" lon="7.2724994"></trkpt><trkpt lat="46.6431836" lon="7.2726436"></trkpt><trkpt lat="46.6432372" lon="7.2728274"></trkpt><trkpt lat="46.6433082" lon="7.2729649"></trkpt><trkpt lat="46.6433802" lon="7.2730544"></trkpt><trkpt lat="46.6433952" lon="7.2731322"></trkpt><trkpt lat="46.643437" lon="7.273179"></trkpt><trkpt lat="46.6434852" lon="7.2732061"></trkpt><trkpt lat="46.6435391" lon="7.2732317"></trkpt><trkpt lat="46.6435989" lon="7.2732114"></trkpt><trkpt lat="46.6436683" lon="7.2731665"></trkpt><trkpt lat="46.6437724" lon="7.2731861"></trkpt><trkpt lat="46.6438527" lon="7.2732556"></trkpt><trkpt lat="46.6439839" lon="7.2733103"></trkpt><trkpt lat="46.6439996" lon="7.2733733"></trkpt><trkpt lat="46.6439689" lon="7.2736756"></trkpt><trkpt lat="46.6439612" lon="7.2737928"></trkpt><trkpt lat="46.6440328" lon="7.273894"></trkpt><trkpt lat="46.6441543" lon="7.2739951"></trkpt><trkpt lat="46.6442148" lon="7.2740428"></trkpt><trkpt lat="46.6442866" lon="7.2741531"></trkpt><trkpt lat="46.644484" lon="7.2743522"></trkpt><trkpt lat="46.6445703" lon="7.2744158"></trkpt><trkpt lat="46.6446438" lon="7.2745198"></trkpt><trkpt lat="46.6447214" lon="7.2747075"></trkpt><trkpt lat="46.6447856" lon="7.2747914"></trkpt><trkpt lat="46.6448548" lon="7.2748833"></trkpt><trkpt lat="46.6450038" lon="7.275161"></trkpt><trkpt lat="46.6451505" lon="7.2753002"></trkpt><trkpt lat="46.6453887" lon="7.2754013"></trkpt><trkpt lat="46.6455905" lon="7.275414"></trkpt><trkpt lat="46.6458232" lon="7.2753871"></trkpt><trkpt lat="46.6458957" lon="7.2753276"></trkpt><trkpt lat="46.6459619" lon="7.2751955"></trkpt><trkpt lat="46.6460267" lon="7.2751445"></trkpt><trkpt lat="46.6460976" lon="7.2751793"></trkpt><trkpt lat="46.6461518" lon="7.2753198"></trkpt><trkpt lat="46.646199" lon="7.275527"></trkpt><trkpt lat="46.6462037" lon="7.2756489"></trkpt><trkpt lat="46.64625" lon="7.2758279"></trkpt><trkpt lat="46.6463106" lon="7.2760254"></trkpt><trkpt lat="46.6463498" lon="7.2761931"></trkpt><trkpt lat="46.6464223" lon="7.2765037"></trkpt><trkpt lat="46.6464779" lon="7.2765975"></trkpt><trkpt lat="46.6466139" lon="7.2766435"></trkpt><trkpt lat="46.6466964" lon="7.2766818"></trkpt><trkpt lat="46.6468019" lon="7.276672"></trkpt><trkpt lat="46.6470041" lon="7.2767584"></trkpt><trkpt lat="46.6471356" lon="7.2768515"></trkpt><trkpt lat="46.6472191" lon="7.2769611"></trkpt><trkpt lat="46.6473004" lon="7.2771131"></trkpt><trkpt lat="46.6473214" lon="7.277269"></trkpt><trkpt lat="46.6475658" lon="7.2774955"></trkpt><trkpt lat="46.6476684" lon="7.2775544"></trkpt><trkpt lat="46.6477859" lon="7.277704"></trkpt><trkpt lat="46.6479089" lon="7.2777829"></trkpt><trkpt lat="46.6480258" lon="7.2778981"></trkpt><trkpt lat="46.6481041" lon="7.2779893"></trkpt><trkpt lat="46.6482189" lon="7.2781488"></trkpt><trkpt lat="46.6482806" lon="7.2783216"></trkpt><trkpt lat="46.6483631" lon="7.2784231"></trkpt><trkpt lat="46.6484152" lon="7.2785326"></trkpt><trkpt lat="46.6484879" lon="7.2785958"></trkpt><trkpt lat="46.6485501" lon="7.2787021"></trkpt><trkpt lat="46.6486276" lon="7.2787896"></trkpt><trkpt lat="46.6487096" lon="7.2788956"></trkpt><trkpt lat="46.6487866" lon="7.2790017"></trkpt><trkpt lat="46.6489091" lon="7.2791858"></trkpt><trkpt lat="46.6490126" lon="7.2793363"></trkpt><trkpt lat="46.6491894" lon="7.2795821"></trkpt><trkpt lat="46.6493926" lon="7.279894"></trkpt><trkpt lat="46.6494058" lon="7.2799847"></trkpt><trkpt lat="46.6494124" lon="7.2802976"></trkpt><trkpt lat="46.6494273" lon="7.280506"></trkpt><trkpt lat="46.6493844" lon="7.2808853"></trkpt><trkpt lat="46.6493914" lon="7.2811931"></trkpt><trkpt lat="46.649416" lon="7.281345"></trkpt><trkpt lat="46.6493788" lon="7.2814501"></trkpt><trkpt lat="46.6493741" lon="7.2815908"></trkpt><trkpt lat="46.6493144" lon="7.2818124"></trkpt><trkpt lat="46.6492826" lon="7.2820293"></trkpt><trkpt lat="46.6492791" lon="7.282228"></trkpt><trkpt lat="46.6493104" lon="7.2823668"></trkpt><trkpt lat="46.6493604" lon="7.2824837"></trkpt><trkpt lat="46.6493898" lon="7.2826139"></trkpt><trkpt lat="46.6494054" lon="7.2827748"></trkpt><trkpt lat="46.6494074" lon="7.2829266"></trkpt><trkpt lat="46.6493898" lon="7.2830281"></trkpt><trkpt lat="46.649361" lon="7.283157"></trkpt><trkpt lat="46.6493382" lon="7.2832369"></trkpt><trkpt lat="46.6493417" lon="7.283354"></trkpt><trkpt lat="46.6493226" lon="7.2834275"></trkpt><trkpt lat="46.6492838" lon="7.2834714"></trkpt><trkpt lat="46.6491911" lon="7.2834686"></trkpt><trkpt lat="46.6490188" lon="7.2835011"></trkpt><trkpt lat="46.6489154" lon="7.2836137"></trkpt><trkpt lat="46.648893" lon="7.2837022"></trkpt><trkpt lat="46.6488179" lon="7.2838091"></trkpt><trkpt lat="46.6487651" lon="7.2838487"></trkpt><trkpt lat="46.6486388" lon="7.2838908"></trkpt><trkpt lat="46.6484593" lon="7.2840583"></trkpt><trkpt lat="46.6484341" lon="7.2841676"></trkpt><trkpt lat="46.6484267" lon="7.2841996"></trkpt><trkpt lat="46.6484447" lon="7.2842886"></trkpt><trkpt lat="46.648383" lon="7.2844411"></trkpt><trkpt lat="46.6482844" lon="7.2846493"></trkpt><trkpt lat="46.6482647" lon="7.284698"></trkpt><trkpt lat="46.6482132" lon="7.2847762"></trkpt><trkpt lat="46.6480021" lon="7.2849554"></trkpt><trkpt lat="46.6479165" lon="7.2849778"></trkpt><trkpt lat="46.6478545" lon="7.2849737"></trkpt><trkpt lat="46.6477846" lon="7.2850114"></trkpt><trkpt lat="46.6476915" lon="7.2850653"></trkpt><trkpt lat="46.6476176" lon="7.2851281"></trkpt><trkpt lat="46.6475673" lon="7.2851519"></trkpt><trkpt lat="46.6474135" lon="7.2851511"></trkpt><trkpt lat="46.6473388" lon="7.2851506"></trkpt><trkpt lat="46.6471654" lon="7.2850759"></trkpt><trkpt lat="46.6470696" lon="7.285131"></trkpt><trkpt lat="46.6469528" lon="7.2852227"></trkpt><trkpt lat="46.6468379" lon="7.2853134"></trkpt><trkpt lat="46.6467443" lon="7.2853644"></trkpt><trkpt lat="46.6466206" lon="7.2853915"></trkpt><trkpt lat="46.6465123" lon="7.285433"></trkpt><trkpt lat="46.6463475" lon="7.28544"></trkpt><trkpt lat="46.6461041" lon="7.2855345"></trkpt><trkpt lat="46.6459429" lon="7.2855648"></trkpt><trkpt lat="46.6458086" lon="7.2855696"></trkpt><trkpt lat="46.6456879" lon="7.2855759"></trkpt><trkpt lat="46.6456072" lon="7.2855833"></trkpt><trkpt lat="46.6455138" lon="7.2855805"></trkpt><trkpt lat="46.6454159" lon="7.2855338"></trkpt><trkpt lat="46.6453431" lon="7.2855084"></trkpt><trkpt lat="46.6452658" lon="7.2854619"></trkpt><trkpt lat="46.64518" lon="7.2854211"></trkpt><trkpt lat="46.6450806" lon="7.2854068"></trkpt><trkpt lat="46.6449892" lon="7.2853794"></trkpt><trkpt lat="46.6448428" lon="7.2853152"></trkpt><trkpt lat="46.6447051" lon="7.2853096"></trkpt><trkpt lat="46.6445926" lon="7.2853596"></trkpt><trkpt lat="46.6444972" lon="7.2853865"></trkpt><trkpt lat="46.6444002" lon="7.2854097"></trkpt><trkpt lat="46.6443391" lon="7.2854313"></trkpt><trkpt lat="46.6442691" lon="7.2854525"></trkpt><trkpt lat="46.644199" lon="7.2854657"></trkpt><trkpt lat="46.644118" lon="7.2854828"></trkpt><trkpt lat="46.6440533" lon="7.2854891"></trkpt><trkpt lat="46.6439692" lon="7.2854922"></trkpt><trkpt lat="46.6438645" lon="7.2855256"></trkpt><trkpt lat="46.6437855" lon="7.2856003"></trkpt><trkpt lat="46.6437114" lon="7.2856568"></trkpt><trkpt lat="46.6436493" lon="7.2856895"></trkpt><trkpt lat="46.6436005" lon="7.2857151"></trkpt><trkpt lat="46.6435697" lon="7.285844"></trkpt><trkpt lat="46.6435373" lon="7.2859568"></trkpt><trkpt lat="46.6434874" lon="7.2860635"></trkpt><trkpt lat="46.6434188" lon="7.2861471"></trkpt><trkpt lat="46.6433381" lon="7.2862119"></trkpt><trkpt lat="46.643248" lon="7.2862652"></trkpt><trkpt lat="46.6431673" lon="7.286295"></trkpt><trkpt lat="46.6430957" lon="7.2863187"></trkpt><trkpt lat="46.6430176" lon="7.2864027"></trkpt><trkpt lat="46.6429819" lon="7.2865524"></trkpt><trkpt lat="46.6429755" lon="7.2866731"></trkpt><trkpt lat="46.6429625" lon="7.2868065"></trkpt><trkpt lat="46.6429159" lon="7.2869045"></trkpt><trkpt lat="46.6428352" lon="7.2869586"></trkpt><trkpt lat="46.6427531" lon="7.2869761"></trkpt><trkpt lat="46.6426594" lon="7.2869677"></trkpt><trkpt lat="46.6425784" lon="7.2869512"></trkpt><trkpt lat="46.6424701" lon="7.2869275"></trkpt><trkpt lat="46.6423947" lon="7.2869044"></trkpt><trkpt lat="46.6423068" lon="7.28688"></trkpt><trkpt lat="46.6422079" lon="7.2868438"></trkpt><trkpt lat="46.6421485" lon="7.2868473"></trkpt><trkpt lat="46.6420962" lon="7.2868777"></trkpt><trkpt lat="46.6420304" lon="7.2869241"></trkpt><trkpt lat="46.6419246" lon="7.2869432"></trkpt><trkpt lat="46.6418428" lon="7.2869586"></trkpt><trkpt lat="46.6417488" lon="7.2869968"></trkpt><trkpt lat="46.6416443" lon="7.2870499"></trkpt><trkpt lat="46.6415636" lon="7.2871054"></trkpt><trkpt lat="46.6414808" lon="7.2871551"></trkpt><trkpt lat="46.6413992" lon="7.2872107"></trkpt><trkpt lat="46.64133" lon="7.2873572"></trkpt><trkpt lat="46.6412866" lon="7.2873982"></trkpt><trkpt lat="46.6412009" lon="7.2874552"></trkpt><trkpt lat="46.6411251" lon="7.2875274"></trkpt><trkpt lat="46.6410624" lon="7.2876056"></trkpt><trkpt lat="46.6409976" lon="7.2876906"></trkpt><trkpt lat="46.6409264" lon="7.287733"></trkpt><trkpt lat="46.6408886" lon="7.2877492"></trkpt><trkpt lat="46.6408555" lon="7.2877847"></trkpt><trkpt lat="46.6408452" lon="7.2878506"></trkpt><trkpt lat="46.6408578" lon="7.2879358"></trkpt><trkpt lat="46.6408869" lon="7.2880336"></trkpt><trkpt lat="46.6409069" lon="7.2881492"></trkpt><trkpt lat="46.6409179" lon="7.2882839"></trkpt><trkpt lat="46.6409132" lon="7.288359"></trkpt><trkpt lat="46.6409049" lon="7.288427"></trkpt><trkpt lat="46.6408798" lon="7.2884945"></trkpt><trkpt lat="46.6408439" lon="7.2885629"></trkpt><trkpt lat="46.64077" lon="7.2886462"></trkpt><trkpt lat="46.6407125" lon="7.2886828"></trkpt><trkpt lat="46.6406794" lon="7.2887208"></trkpt><trkpt lat="46.6406663" lon="7.2887518"></trkpt><trkpt lat="46.6406833" lon="7.288792"></trkpt><trkpt lat="46.6407476" lon="7.2888302"></trkpt><trkpt lat="46.6408255" lon="7.2888812"></trkpt><trkpt lat="46.6409228" lon="7.2889323"></trkpt><trkpt lat="46.6410494" lon="7.2889988"></trkpt><trkpt lat="46.6410838" lon="7.2890663"></trkpt><trkpt lat="46.641093" lon="7.2891969"></trkpt><trkpt lat="46.6411048" lon="7.2892353"></trkpt><trkpt lat="46.6411398" lon="7.2893122"></trkpt><trkpt lat="46.6411864" lon="7.2893762"></trkpt><trkpt lat="46.641251" lon="7.2894486"></trkpt><trkpt lat="46.6413599" lon="7.289524"></trkpt><trkpt lat="46.6414758" lon="7.2895693"></trkpt><trkpt lat="46.6414715" lon="7.2896791"></trkpt><trkpt lat="46.6414607" lon="7.2898271"></trkpt><trkpt lat="46.6414459" lon="7.2899244"></trkpt><trkpt lat="46.6413911" lon="7.2900296"></trkpt><trkpt lat="46.641239" lon="7.2902074"></trkpt><trkpt lat="46.6411935" lon="7.2903389"></trkpt><trkpt lat="46.6411559" lon="7.2905382"></trkpt><trkpt lat="46.6411272" lon="7.2906809"></trkpt><trkpt lat="46.6410969" lon="7.2907582"></trkpt><trkpt lat="46.6410153" lon="7.2908459"></trkpt><trkpt lat="46.6409298" lon="7.2908968"></trkpt><trkpt lat="46.6407969" lon="7.2909111"></trkpt><trkpt lat="46.6406682" lon="7.2908964"></trkpt><trkpt lat="46.6405718" lon="7.290853"></trkpt><trkpt lat="46.6404241" lon="7.2907788"></trkpt><trkpt lat="46.640254" lon="7.2907225"></trkpt><trkpt lat="46.6402007" lon="7.2906715"></trkpt><trkpt lat="46.6401709" lon="7.2906162"></trkpt><trkpt lat="46.6401332" lon="7.2905677"></trkpt><trkpt lat="46.6399948" lon="7.2904731"></trkpt><trkpt lat="46.6398732" lon="7.2903508"></trkpt><trkpt lat="46.6397138" lon="7.2902045"></trkpt><trkpt lat="46.6395489" lon="7.2900976"></trkpt><trkpt lat="46.6393009" lon="7.2899995"></trkpt><trkpt lat="46.6381926" lon="7.2893723"></trkpt><trkpt lat="46.6371717" lon="7.2887722"></trkpt><trkpt lat="46.6369283" lon="7.2886711"></trkpt><trkpt lat="46.6368096" lon="7.2886184"></trkpt><trkpt lat="46.6366025" lon="7.2884592"></trkpt><trkpt lat="46.6364767" lon="7.2884048"></trkpt><trkpt lat="46.6363306" lon="7.2883514"></trkpt><trkpt lat="46.6362228" lon="7.288248"></trkpt><trkpt lat="46.6360986" lon="7.288191"></trkpt><trkpt lat="46.6359743" lon="7.2881327"></trkpt><trkpt lat="46.6358889" lon="7.2880209"></trkpt><trkpt lat="46.6357892" lon="7.2879241"></trkpt><trkpt lat="46.6354115" lon="7.2877839"></trkpt><trkpt lat="46.6351739" lon="7.2876424"></trkpt><trkpt lat="46.6350621" lon="7.2875864"></trkpt><trkpt lat="46.6349467" lon="7.2875408"></trkpt><trkpt lat="46.6348572" lon="7.2875378"></trkpt><trkpt lat="46.6347704" lon="7.2875113"></trkpt><trkpt lat="46.6346275" lon="7.2874161"></trkpt><trkpt lat="46.6344522" lon="7.2873249"></trkpt><trkpt lat="46.6342914" lon="7.2871998"></trkpt><trkpt lat="46.6342618" lon="7.2871341"></trkpt><trkpt lat="46.6342575" lon="7.2870613"></trkpt><trkpt lat="46.6342622" lon="7.2869282"></trkpt><trkpt lat="46.6342521" lon="7.2868451"></trkpt><trkpt lat="46.6342186" lon="7.2867672"></trkpt><trkpt lat="46.6340976" lon="7.2866204"></trkpt><trkpt lat="46.634045" lon="7.2865536"></trkpt><trkpt lat="46.6339914" lon="7.2864531"></trkpt><trkpt lat="46.6339512" lon="7.2863838"></trkpt><trkpt lat="46.633895" lon="7.2863446"></trkpt><trkpt lat="46.6337943" lon="7.2862901"></trkpt><trkpt lat="46.633721" lon="7.2861983"></trkpt><trkpt lat="46.6334301" lon="7.2858467"></trkpt><trkpt lat="46.6333387" lon="7.2856989"></trkpt><trkpt lat="46.633258" lon="7.2856542"></trkpt><trkpt lat="46.633152" lon="7.2856306"></trkpt><trkpt lat="46.6330963" lon="7.2855855"></trkpt><trkpt lat="46.6330781" lon="7.285545"></trkpt><trkpt lat="46.633024" lon="7.285425"></trkpt><trkpt lat="46.6329657" lon="7.2853231"></trkpt><trkpt lat="46.6328056" lon="7.2850429"></trkpt><trkpt lat="46.6327484" lon="7.2848841"></trkpt><trkpt lat="46.6327431" lon="7.2847818"></trkpt><trkpt lat="46.6327694" lon="7.2846822"></trkpt><trkpt lat="46.6328115" lon="7.2846095"></trkpt><trkpt lat="46.6328232" lon="7.2845472"></trkpt><trkpt lat="46.632831" lon="7.2844907"></trkpt><trkpt lat="46.6328203" lon="7.2844072"></trkpt><trkpt lat="46.6327838" lon="7.2843523"></trkpt><trkpt lat="46.6327368" lon="7.2843084"></trkpt><trkpt lat="46.6326717" lon="7.2842822"></trkpt><trkpt lat="46.632402" lon="7.2842566"></trkpt><trkpt lat="46.632349" lon="7.2842656"></trkpt><trkpt lat="46.6321657" lon="7.2842221"></trkpt><trkpt lat="46.6320379" lon="7.2841725"></trkpt><trkpt lat="46.6319384" lon="7.2841436"></trkpt><trkpt lat="46.6318742" lon="7.2841332"></trkpt><trkpt lat="46.6318211" lon="7.2841198"></trkpt><trkpt lat="46.631778" lon="7.2841005"></trkpt><trkpt lat="46.6316758" lon="7.2841005"></trkpt><trkpt lat="46.6315817" lon="7.2840751"></trkpt><trkpt lat="46.6314519" lon="7.2840486"></trkpt><trkpt lat="46.6313785" lon="7.2840277"></trkpt><trkpt lat="46.6313133" lon="7.283992"></trkpt><trkpt lat="46.6312662" lon="7.2839589"></trkpt><trkpt lat="46.6312015" lon="7.2839113"></trkpt><trkpt lat="46.6311445" lon="7.283883"></trkpt><trkpt lat="46.6310886" lon="7.2838555"></trkpt><trkpt lat="46.631002" lon="7.2838274"></trkpt><trkpt lat="46.6308325" lon="7.2837963"></trkpt><trkpt lat="46.6307193" lon="7.2837597"></trkpt><trkpt lat="46.6306263" lon="7.283752"></trkpt><trkpt lat="46.6305718" lon="7.2837325"></trkpt><trkpt lat="46.6304899" lon="7.2836881"></trkpt><trkpt lat="46.6304222" lon="7.2836285"></trkpt><trkpt lat="46.6303039" lon="7.2834948"></trkpt><trkpt lat="46.6301464" lon="7.2832854"></trkpt><trkpt lat="46.6300382" lon="7.2831772"></trkpt><trkpt lat="46.6299977" lon="7.2831156"></trkpt><trkpt lat="46.62995" lon="7.2830622"></trkpt><trkpt lat="46.6298867" lon="7.283038"></trkpt><trkpt lat="46.6298528" lon="7.2830335"></trkpt><trkpt lat="46.6298189" lon="7.283005"></trkpt><trkpt lat="46.6297536" lon="7.2828555"></trkpt><trkpt lat="46.6297313" lon="7.2829225"></trkpt><trkpt lat="46.6297019" lon="7.2829845"></trkpt><trkpt lat="46.6296546" lon="7.2830635"></trkpt><trkpt lat="46.6296273" lon="7.2831025"></trkpt><trkpt lat="46.6296051" lon="7.2831237"></trkpt><trkpt lat="46.6295791" lon="7.2831399"></trkpt><trkpt lat="46.6295504" lon="7.2831485"></trkpt><trkpt lat="46.6295052" lon="7.2831476"></trkpt><trkpt lat="46.6294801" lon="7.2831429"></trkpt><trkpt lat="46.6294538" lon="7.2831298"></trkpt><trkpt lat="46.6294337" lon="7.2831105"></trkpt><trkpt lat="46.629418" lon="7.2830824"></trkpt><trkpt lat="46.6294101" lon="7.2830519"></trkpt><trkpt lat="46.6294048" lon="7.2830099"></trkpt><trkpt lat="46.629409" lon="7.2828669"></trkpt><trkpt lat="46.6294042" lon="7.2828296"></trkpt><trkpt lat="46.6293898" lon="7.2827961"></trkpt><trkpt lat="46.6293698" lon="7.2827723"></trkpt><trkpt lat="46.6293501" lon="7.282765"></trkpt><trkpt lat="46.6293305" lon="7.2827718"></trkpt><trkpt lat="46.6293054" lon="7.2827963"></trkpt><trkpt lat="46.6292682" lon="7.2828488"></trkpt><trkpt lat="46.6291314" lon="7.2830683"></trkpt><trkpt lat="46.629092" lon="7.2831224"></trkpt><trkpt lat="46.6290541" lon="7.283159"></trkpt><trkpt lat="46.6290198" lon="7.283179"></trkpt><trkpt lat="46.6289804" lon="7.2831917"></trkpt><trkpt lat="46.6289432" lon="7.2831942"></trkpt><trkpt lat="46.6289061" lon="7.2831891"></trkpt><trkpt lat="46.628689" lon="7.2831198"></trkpt><trkpt lat="46.6285143" lon="7.2830711"></trkpt><trkpt lat="46.6284037" lon="7.2830389"></trkpt><trkpt lat="46.6282477" lon="7.2829861"></trkpt><trkpt lat="46.6281533" lon="7.2829608"></trkpt><trkpt lat="46.6280603" lon="7.2829422"></trkpt><trkpt lat="46.6279637" lon="7.2829321"></trkpt><trkpt lat="46.6278062" lon="7.282927"></trkpt><trkpt lat="46.6276851" lon="7.2829185"></trkpt><trkpt lat="46.6273947" lon="7.2828756"></trkpt><trkpt lat="46.6273076" lon="7.2828601"></trkpt><trkpt lat="46.6269165" lon="7.2827488"></trkpt><trkpt lat="46.6264793" lon="7.282626"></trkpt><trkpt lat="46.626389" lon="7.2825991"></trkpt><trkpt lat="46.6263036" lon="7.2825797"></trkpt><trkpt lat="46.6261983" lon="7.2825687"></trkpt><trkpt lat="46.626037" lon="7.2825708"></trkpt><trkpt lat="46.6259784" lon="7.2825758"></trkpt><trkpt lat="46.625908" lon="7.282591"></trkpt><trkpt lat="46.6258143" lon="7.2826214"></trkpt><trkpt lat="46.6257639" lon="7.2826367"></trkpt><trkpt lat="46.6257171" lon="7.2826383"></trkpt><trkpt lat="46.6256658" lon="7.2826312"></trkpt><trkpt lat="46.6254189" lon="7.282556"></trkpt><trkpt lat="46.625299" lon="7.2825151"></trkpt><trkpt lat="46.6251894" lon="7.2824686"></trkpt><trkpt lat="46.6251299" lon="7.2824314"></trkpt><trkpt lat="46.6250062" lon="7.2823353"></trkpt><trkpt lat="46.6249743" lon="7.28231"></trkpt><trkpt lat="46.6249263" lon="7.2822836"></trkpt><trkpt lat="46.6248641" lon="7.2822528"></trkpt><trkpt lat="46.624758" lon="7.2822147"></trkpt><trkpt lat="46.6245522" lon="7.2821642"></trkpt><trkpt lat="46.6243261" lon="7.2821228"></trkpt><trkpt lat="46.6242738" lon="7.281849"></trkpt><trkpt lat="46.6242486" lon="7.2817922"></trkpt><trkpt lat="46.6241921" lon="7.2817057"></trkpt><trkpt lat="46.6241118" lon="7.2816279"></trkpt><trkpt lat="46.6240642" lon="7.2815999"></trkpt><trkpt lat="46.6240058" lon="7.2815878"></trkpt><trkpt lat="46.6239253" lon="7.2815913"></trkpt><trkpt lat="46.6237853" lon="7.2816189"></trkpt><trkpt lat="46.6237178" lon="7.2816087"></trkpt><trkpt lat="46.6236544" lon="7.2815813"></trkpt><trkpt lat="46.6236143" lon="7.281548"></trkpt><trkpt lat="46.6235823" lon="7.2814964"></trkpt><trkpt lat="46.6235595" lon="7.2814368"></trkpt><trkpt lat="46.6235503" lon="7.2813633"></trkpt><trkpt lat="46.6235687" lon="7.2810755"></trkpt><trkpt lat="46.6235652" lon="7.281009"></trkpt><trkpt lat="46.623543" lon="7.2809638"></trkpt><trkpt lat="46.6235273" lon="7.2809503"></trkpt><trkpt lat="46.623499" lon="7.2809505"></trkpt><trkpt lat="46.6233214" lon="7.2811664"></trkpt><trkpt lat="46.6232964" lon="7.2811898"></trkpt><trkpt lat="46.6232773" lon="7.2811918"></trkpt><trkpt lat="46.623251" lon="7.2811714"></trkpt><trkpt lat="46.6232281" lon="7.2811058"></trkpt><trkpt lat="46.6231505" lon="7.2807697"></trkpt><trkpt lat="46.6231339" lon="7.2806523"></trkpt><trkpt lat="46.6231294" lon="7.280596"></trkpt><trkpt lat="46.6231413" lon="7.2804677"></trkpt><trkpt lat="46.6231397" lon="7.2804245"></trkpt><trkpt lat="46.623126" lon="7.2804042"></trkpt><trkpt lat="46.623101" lon="7.2803981"></trkpt><trkpt lat="46.6230758" lon="7.2804088"></trkpt><trkpt lat="46.6229903" lon="7.2806114"></trkpt><trkpt lat="46.6229315" lon="7.2808778"></trkpt><trkpt lat="46.6229156" lon="7.2809279"></trkpt><trkpt lat="46.6228982" lon="7.2809628"></trkpt><trkpt lat="46.6228767" lon="7.2809788"></trkpt><trkpt lat="46.6228311" lon="7.2809879"></trkpt><trkpt lat="46.6227846" lon="7.2809881"></trkpt><trkpt lat="46.6227532" lon="7.2809752"></trkpt><trkpt lat="46.6227224" lon="7.2809417"></trkpt><trkpt lat="46.6227122" lon="7.2809162"></trkpt><trkpt lat="46.6227081" lon="7.2808885"></trkpt><trkpt lat="46.6227296" lon="7.2806678"></trkpt><trkpt lat="46.6226747" lon="7.2804377"></trkpt><trkpt lat="46.6225697" lon="7.280258"></trkpt><trkpt lat="46.6224588" lon="7.2801898"></trkpt><trkpt lat="46.6219316" lon="7.2799231"></trkpt><trkpt lat="46.6217797" lon="7.2798779"></trkpt><trkpt lat="46.6216006" lon="7.2798844"></trkpt><trkpt lat="46.621298" lon="7.2798963"></trkpt><trkpt lat="46.6211631" lon="7.2799404"></trkpt><trkpt lat="46.6211055" lon="7.2799415"></trkpt><trkpt lat="46.6210535" lon="7.2799208"></trkpt><trkpt lat="46.6209266" lon="7.279868"></trkpt><trkpt lat="46.6208525" lon="7.2798843"></trkpt><trkpt lat="46.6206221" lon="7.2799129"></trkpt><trkpt lat="46.6205456" lon="7.2799323"></trkpt><trkpt lat="46.6205082" lon="7.2799474"></trkpt><trkpt lat="46.6204758" lon="7.2799725"></trkpt><trkpt lat="46.6203983" lon="7.2800523"></trkpt><trkpt lat="46.6203139" lon="7.2801594"></trkpt><trkpt lat="46.6202882" lon="7.2801954"></trkpt><trkpt lat="46.6202694" lon="7.2802304"></trkpt><trkpt lat="46.6202468" lon="7.2802854"></trkpt><trkpt lat="46.6202129" lon="7.280407"></trkpt><trkpt lat="46.6201895" lon="7.280458"></trkpt><trkpt lat="46.6201706" lon="7.2804893"></trkpt><trkpt lat="46.6201522" lon="7.2805093"></trkpt><trkpt lat="46.6201262" lon="7.2805254"></trkpt><trkpt lat="46.6200986" lon="7.2805339"></trkpt><trkpt lat="46.6200646" lon="7.2805356"></trkpt><trkpt lat="46.6200294" lon="7.2805305"></trkpt><trkpt lat="46.6199762" lon="7.2805209"></trkpt><trkpt lat="46.6198969" lon="7.2804975"></trkpt><trkpt lat="46.6197779" lon="7.2804474"></trkpt><trkpt lat="46.6197481" lon="7.280439"></trkpt><trkpt lat="46.6197192" lon="7.2804361"></trkpt><trkpt lat="46.6196838" lon="7.2804367"></trkpt><trkpt lat="46.6196492" lon="7.2804427"></trkpt><trkpt lat="46.6196091" lon="7.2804541"></trkpt><trkpt lat="46.6195863" lon="7.2804534"></trkpt><trkpt lat="46.6195694" lon="7.280446"></trkpt><trkpt lat="46.6195576" lon="7.280427"></trkpt><trkpt lat="46.6195499" lon="7.2803971"></trkpt><trkpt lat="46.6195497" lon="7.2803662"></trkpt><trkpt lat="46.6195591" lon="7.2803403"></trkpt><trkpt lat="46.619579" lon="7.2803167"></trkpt><trkpt lat="46.6198467" lon="7.2801384"></trkpt><trkpt lat="46.6198807" lon="7.2801109"></trkpt><trkpt lat="46.6199008" lon="7.2800879"></trkpt><trkpt lat="46.6199107" lon="7.2800615"></trkpt><trkpt lat="46.6199122" lon="7.2800395"></trkpt><trkpt lat="46.6199074" lon="7.280017"></trkpt><trkpt lat="46.6198969" lon="7.2799989"></trkpt><trkpt lat="46.6198791" lon="7.2799871"></trkpt><trkpt lat="46.6198568" lon="7.2799818"></trkpt><trkpt lat="46.6197864" lon="7.279982"></trkpt><trkpt lat="46.6197636" lon="7.279981"></trkpt><trkpt lat="46.6197378" lon="7.2799734"></trkpt><trkpt lat="46.6196745" lon="7.2799359"></trkpt><trkpt lat="46.6194955" lon="7.2798648"></trkpt><trkpt lat="46.619332" lon="7.2797725"></trkpt><trkpt lat="46.619217" lon="7.279714"></trkpt><trkpt lat="46.6190533" lon="7.2796461"></trkpt><trkpt lat="46.6189769" lon="7.279621"></trkpt><trkpt lat="46.6189472" lon="7.2796432"></trkpt><trkpt lat="46.6189301" lon="7.2795914"></trkpt><trkpt lat="46.6189237" lon="7.2795041"></trkpt><trkpt lat="46.6189098" lon="7.2794863"></trkpt><trkpt lat="46.6188854" lon="7.2794875"></trkpt><trkpt lat="46.6188539" lon="7.2795128"></trkpt><trkpt lat="46.6188257" lon="7.2795267"></trkpt><trkpt lat="46.6188114" lon="7.2795254"></trkpt><trkpt lat="46.6188021" lon="7.2794822"></trkpt><trkpt lat="46.6187638" lon="7.2794189"></trkpt><trkpt lat="46.6187665" lon="7.2793492"></trkpt><trkpt lat="46.6187583" lon="7.2793272"></trkpt><trkpt lat="46.618738" lon="7.2793078"></trkpt><trkpt lat="46.6187025" lon="7.2792994"></trkpt><trkpt lat="46.6186667" lon="7.2793451"></trkpt><trkpt lat="46.6186484" lon="7.2794237"></trkpt><trkpt lat="46.6185712" lon="7.2795746"></trkpt><trkpt lat="46.618356" lon="7.2797313"></trkpt><trkpt lat="46.6183269" lon="7.2792055"></trkpt><trkpt lat="46.6182977" lon="7.2791505"></trkpt><trkpt lat="46.6181714" lon="7.2792705"></trkpt><trkpt lat="46.6180113" lon="7.279363"></trkpt><trkpt lat="46.6179278" lon="7.2793192"></trkpt><trkpt lat="46.61794" lon="7.2789915"></trkpt><trkpt lat="46.6179023" lon="7.2788884"></trkpt><trkpt lat="46.6178353" lon="7.2788809"></trkpt><trkpt lat="46.6177026" lon="7.2790092"></trkpt><trkpt lat="46.6176608" lon="7.2789861"></trkpt><trkpt lat="46.6176726" lon="7.2788272"></trkpt><trkpt lat="46.6176462" lon="7.2786493"></trkpt><trkpt lat="46.6174995" lon="7.2786205"></trkpt><trkpt lat="46.617371" lon="7.2785086"></trkpt><trkpt lat="46.6173247" lon="7.2784453"></trkpt><trkpt lat="46.6172248" lon="7.2785201"></trkpt><trkpt lat="46.6169911" lon="7.2783511"></trkpt><trkpt lat="46.6168495" lon="7.278367"></trkpt><trkpt lat="46.6167557" lon="7.2784005"></trkpt><trkpt lat="46.6165561" lon="7.2783538"></trkpt><trkpt lat="46.6164479" lon="7.2783468"></trkpt><trkpt lat="46.616393" lon="7.2782603"></trkpt><trkpt lat="46.6163618" lon="7.2782662"></trkpt><trkpt lat="46.6162085" lon="7.2783149"></trkpt><trkpt lat="46.6160603" lon="7.2782211"></trkpt><trkpt lat="46.6159366" lon="7.2780754"></trkpt><trkpt lat="46.6158542" lon="7.2779053"></trkpt><trkpt lat="46.6157473" lon="7.277799"></trkpt><trkpt lat="46.615621" lon="7.2777494"></trkpt><trkpt lat="46.6155254" lon="7.2776453"></trkpt><trkpt lat="46.615412" lon="7.2776926"></trkpt><trkpt lat="46.61528" lon="7.2776742"></trkpt><trkpt lat="46.6152056" lon="7.2776021"></trkpt><trkpt lat="46.6151265" lon="7.2775063"></trkpt><trkpt lat="46.6150558" lon="7.2775207"></trkpt><trkpt lat="46.6150197" lon="7.2774042"></trkpt><trkpt lat="46.6149943" lon="7.2774679"></trkpt><trkpt lat="46.6149745" lon="7.2774244"></trkpt><trkpt lat="46.6149509" lon="7.2774666"></trkpt><trkpt lat="46.614944" lon="7.2774982"></trkpt><trkpt lat="46.6149196" lon="7.2775003"></trkpt><trkpt lat="46.6149163" lon="7.2773804"></trkpt><trkpt lat="46.6148233" lon="7.2774437"></trkpt><trkpt lat="46.6148527" lon="7.2773755"></trkpt><trkpt lat="46.6148454" lon="7.2773502"></trkpt><trkpt lat="46.6146842" lon="7.277489"></trkpt><trkpt lat="46.614663" lon="7.2774624"></trkpt><trkpt lat="46.6146814" lon="7.277344"></trkpt><trkpt lat="46.6146673" lon="7.2772936"></trkpt><trkpt lat="46.6146756" lon="7.2772567"></trkpt><trkpt lat="46.614698" lon="7.2771585"></trkpt><trkpt lat="46.6146847" lon="7.2771374"></trkpt><trkpt lat="46.6146166" lon="7.2771143"></trkpt><trkpt lat="46.6145935" lon="7.2771109"></trkpt><trkpt lat="46.6141873" lon="7.2771771"></trkpt><trkpt lat="46.6140672" lon="7.2771539"></trkpt><trkpt lat="46.6139246" lon="7.2771332"></trkpt><trkpt lat="46.6138329" lon="7.2770946"></trkpt><trkpt lat="46.6137727" lon="7.2770181"></trkpt><trkpt lat="46.6136869" lon="7.2769767"></trkpt><trkpt lat="46.613544" lon="7.2769025"></trkpt><trkpt lat="46.613299" lon="7.2767511"></trkpt><trkpt lat="46.6131085" lon="7.276707"></trkpt><trkpt lat="46.6128899" lon="7.2767072"></trkpt><trkpt lat="46.6124477" lon="7.2770011"></trkpt><trkpt lat="46.6122373" lon="7.2771595"></trkpt><trkpt lat="46.6122085" lon="7.2771633"></trkpt><trkpt lat="46.6121754" lon="7.2771366"></trkpt><trkpt lat="46.61215" lon="7.2771027"></trkpt><trkpt lat="46.6120977" lon="7.2770278"></trkpt><trkpt lat="46.6120717" lon="7.2769976"></trkpt><trkpt lat="46.6119272" lon="7.2769692"></trkpt><trkpt lat="46.61173" lon="7.2771001"></trkpt><trkpt lat="46.6117163" lon="7.2769759"></trkpt><trkpt lat="46.6116538" lon="7.2767632"></trkpt><trkpt lat="46.6115407" lon="7.2766197"></trkpt><trkpt lat="46.6115098" lon="7.2764704"></trkpt><trkpt lat="46.6114307" lon="7.276484"></trkpt><trkpt lat="46.6113742" lon="7.2764964"></trkpt><trkpt lat="46.6113332" lon="7.2766179"></trkpt><trkpt lat="46.6112953" lon="7.2766659"></trkpt><trkpt lat="46.6112746" lon="7.2766815"></trkpt><trkpt lat="46.6112555" lon="7.2766825"></trkpt><trkpt lat="46.6112378" lon="7.2766756"></trkpt><trkpt lat="46.6112126" lon="7.2766421"></trkpt><trkpt lat="46.6111823" lon="7.276593"></trkpt><trkpt lat="46.6111644" lon="7.2765708"></trkpt><trkpt lat="46.6111178" lon="7.2765481"></trkpt><trkpt lat="46.611081" lon="7.2765494"></trkpt><trkpt lat="46.6110226" lon="7.2765614"></trkpt><trkpt lat="46.6110096" lon="7.2764868"></trkpt></trkseg></trk></gpx>
