<?xml version="1.0" encoding="UTF-8"?>
<gpx version="1.1" creator="Good Shit" xmlns="http://www.topografix.com/GPX/1/1"><trk><name>Stoos ridge: Klingenstock–Fronalpstock — Gratweg Stoos 827: Klingenstock–Fronalpstock</name><trkseg><trkpt lat="46.9570652" lon="8.6757196"></trkpt><trkpt lat="46.9570959" lon="8.6756725"></trkpt><trkpt lat="46.9571697" lon="8.6754916"></trkpt><trkpt lat="46.9572364" lon="8.675357"></trkpt><trkpt lat="46.9573883" lon="8.6752151"></trkpt><trkpt lat="46.9575153" lon="8.6751228"></trkpt><trkpt lat="46.9575877" lon="8.6750538"></trkpt><trkpt lat="46.9576263" lon="8.6749934"></trkpt><trkpt lat="46.9576433" lon="8.6749423"></trkpt><trkpt lat="46.9576484" lon="8.6748806"></trkpt><trkpt lat="46.9576628" lon="8.6745748"></trkpt><trkpt lat="46.9576537" lon="8.6743201"></trkpt><trkpt lat="46.957604" lon="8.6741857"></trkpt><trkpt lat="46.9575159" lon="8.6740298"></trkpt><trkpt lat="46.9574719" lon="8.6739651"></trkpt><trkpt lat="46.9574474" lon="8.673949"></trkpt><trkpt lat="46.9574173" lon="8.6739191"></trkpt><trkpt lat="46.9573865" lon="8.6738297"></trkpt><trkpt lat="46.9573548" lon="8.6737281"></trkpt><trkpt lat="46.9573531" lon="8.6736221"></trkpt><trkpt lat="46.9573433" lon="8.6734926"></trkpt><trkpt lat="46.9573261" lon="8.6733973"></trkpt><trkpt lat="46.9572989" lon="8.6732907"></trkpt><trkpt lat="46.9572452" lon="8.6731577"></trkpt><trkpt lat="46.9571459" lon="8.6730182"></trkpt><trkpt lat="46.9571251" lon="8.6729613"></trkpt><trkpt lat="46.9570916" lon="8.6729122"></trkpt><trkpt lat="46.9570644" lon="8.672867"></trkpt><trkpt lat="46.957016" lon="8.6727347"></trkpt><trkpt lat="46.9569859" lon="8.6726749"></trkpt><trkpt lat="46.9569446" lon="8.6726333"></trkpt><trkpt lat="46.9569316" lon="8.6725834"></trkpt><trkpt lat="46.9569213" lon="8.6724477"></trkpt><trkpt lat="46.9569048" lon="8.6723064"></trkpt><trkpt lat="46.9568924" lon="8.6722098"></trkpt><trkpt lat="46.9568689" lon="8.6721306"></trkpt><trkpt lat="46.9567994" lon="8.6720402"></trkpt><trkpt lat="46.9567623" lon="8.6719085"></trkpt><trkpt lat="46.9566905" lon="8.6717559"></trkpt><trkpt lat="46.956663" lon="8.6716597"></trkpt><trkpt lat="46.9566672" lon="8.6715036"></trkpt><trkpt lat="46.9566709" lon="8.6712041"></trkpt><trkpt lat="46.9566602" lon="8.6710846"></trkpt><trkpt lat="46.9566389" lon="8.6709447"></trkpt><trkpt lat="46.9566035" lon="8.6707867"></trkpt><trkpt lat="46.9565735" lon="8.6706399"></trkpt><trkpt lat="46.9565745" lon="8.6705377"></trkpt><trkpt lat="46.9565981" lon="8.670426"></trkpt><trkpt lat="46.9566782" lon="8.6701648"></trkpt><trkpt lat="46.9566828" lon="8.6701474"></trkpt><trkpt lat="46.9567205" lon="8.670004"></trkpt><trkpt lat="46.9567642" lon="8.6698715"></trkpt><trkpt lat="46.9568347" lon="8.6696935"></trkpt><trkpt lat="46.9568583" lon="8.6695654"></trkpt><trkpt lat="46.9569935" lon="8.6693213"></trkpt><trkpt lat="46.9570526" lon="8.6692406"></trkpt><trkpt lat="46.9571147" lon="8.6691125"></trkpt><trkpt lat="46.9571534" lon="8.6690582"></trkpt><trkpt lat="46.9572066" lon="8.6689039"></trkpt><trkpt lat="46.9572526" lon="8.6687911"></trkpt><trkpt lat="46.9572872" lon="8.668697"></trkpt><trkpt lat="46.9573243" lon="8.6686315"></trkpt><trkpt lat="46.9573305" lon="8.6685322"></trkpt><trkpt lat="46.9573468" lon="8.6684173"></trkpt><trkpt lat="46.9573741" lon="8.6682778"></trkpt><trkpt lat="46.9573925" lon="8.6682088"></trkpt><trkpt lat="46.9573983" lon="8.6681283"></trkpt><trkpt lat="46.9573764" lon="8.6680211"></trkpt><trkpt lat="46.9573545" lon="8.6678685"></trkpt><trkpt lat="46.9573514" lon="8.6678471"></trkpt><trkpt lat="46.9573255" lon="8.6677261"></trkpt><trkpt lat="46.9572639" lon="8.6675351"></trkpt><trkpt lat="46.9572559" lon="8.6674802"></trkpt><trkpt lat="46.9572195" lon="8.667316"></trkpt><trkpt lat="46.9571596" lon="8.6670824"></trkpt><trkpt lat="46.9571024" lon="8.6668564"></trkpt><trkpt lat="46.9570626" lon="8.6666964"></trkpt><trkpt lat="46.957054" lon="8.666662"></trkpt><trkpt lat="46.9570203" lon="8.6665687"></trkpt><trkpt lat="46.9569779" lon="8.6663695"></trkpt><trkpt lat="46.9569373" lon="8.6662236"></trkpt><trkpt lat="46.9569219" lon="8.6661278"></trkpt><trkpt lat="46.9569138" lon="8.6660576"></trkpt><trkpt lat="46.9568527" lon="8.6658603"></trkpt><trkpt lat="46.9568134" lon="8.6657394"></trkpt><trkpt lat="46.9567941" lon="8.6656098"></trkpt><trkpt lat="46.9568005" lon="8.665405"></trkpt><trkpt lat="46.9568493" lon="8.665244"></trkpt><trkpt lat="46.9569378" lon="8.6649753"></trkpt><trkpt lat="46.9569514" lon="8.6648882"></trkpt><trkpt lat="46.9569891" lon="8.6647154"></trkpt><trkpt lat="46.9570027" lon="8.664374"></trkpt><trkpt lat="46.9569856" lon="8.664312"></trkpt><trkpt lat="46.9569959" lon="8.6642105"></trkpt><trkpt lat="46.9569886" lon="8.6641304"></trkpt><trkpt lat="46.9569912" lon="8.6640389"></trkpt><trkpt lat="46.9570378" lon="8.6638598"></trkpt><trkpt lat="46.9570609" lon="8.6636437"></trkpt><trkpt lat="46.9570904" lon="8.6635147"></trkpt><trkpt lat="46.9571207" lon="8.6634333"></trkpt><trkpt lat="46.9571537" lon="8.6633587"></trkpt><trkpt lat="46.9571267" lon="8.6633431"></trkpt><trkpt lat="46.9570558" lon="8.6633575"></trkpt><trkpt lat="46.9570485" lon="8.6633424"></trkpt><trkpt lat="46.9571584" lon="8.6632435"></trkpt><trkpt lat="46.957199" lon="8.6632335"></trkpt><trkpt lat="46.9571981" lon="8.6631965"></trkpt><trkpt lat="46.9571831" lon="8.6631564"></trkpt><trkpt lat="46.9571867" lon="8.6631462"></trkpt><trkpt lat="46.9572242" lon="8.663038"></trkpt><trkpt lat="46.9574268" lon="8.6623441"></trkpt><trkpt lat="46.9574255" lon="8.6622557"></trkpt><trkpt lat="46.9574324" lon="8.6621486"></trkpt><trkpt lat="46.9574615" lon="8.6620735"></trkpt><trkpt lat="46.9574717" lon="8.6619751"></trkpt><trkpt lat="46.9575264" lon="8.6617359"></trkpt><trkpt lat="46.9575503" lon="8.6614901"></trkpt><trkpt lat="46.9575423" lon="8.6613887"></trkpt><trkpt lat="46.9575451" lon="8.6612685"></trkpt><trkpt lat="46.9575162" lon="8.6611852"></trkpt><trkpt lat="46.9574649" lon="8.6611374"></trkpt><trkpt lat="46.9574425" lon="8.6610555"></trkpt><trkpt lat="46.9574416" lon="8.66099"></trkpt><trkpt lat="46.9574649" lon="8.6608944"></trkpt><trkpt lat="46.957477" lon="8.6608165"></trkpt><trkpt lat="46.9574696" lon="8.6607332"></trkpt><trkpt lat="46.9574845" lon="8.6606527"></trkpt><trkpt lat="46.9575041" lon="8.6606076"></trkpt><trkpt lat="46.9575085" lon="8.6605445"></trkpt><trkpt lat="46.957519" lon="8.6604588"></trkpt><trkpt lat="46.9576271" lon="8.6603004"></trkpt><trkpt lat="46.9576746" lon="8.6602499"></trkpt><trkpt lat="46.9577315" lon="8.6601229"></trkpt><trkpt lat="46.9577594" lon="8.6599986"></trkpt><trkpt lat="46.9577678" lon="8.659903"></trkpt><trkpt lat="46.9577594" lon="8.6598129"></trkpt><trkpt lat="46.9577986" lon="8.6596381"></trkpt><trkpt lat="46.957793" lon="8.6595767"></trkpt><trkpt lat="46.9577361" lon="8.659492"></trkpt><trkpt lat="46.9578051" lon="8.6594046"></trkpt><trkpt lat="46.9578489" lon="8.6593172"></trkpt><trkpt lat="46.9579738" lon="8.6592025"></trkpt><trkpt lat="46.9579962" lon="8.6591315"></trkpt><trkpt lat="46.9580437" lon="8.658939"></trkpt><trkpt lat="46.958075" lon="8.6587609"></trkpt><trkpt lat="46.9580949" lon="8.6586481"></trkpt><trkpt lat="46.9580949" lon="8.6585512"></trkpt><trkpt lat="46.9581555" lon="8.6583996"></trkpt><trkpt lat="46.9582504" lon="8.6582694"></trkpt><trkpt lat="46.958298" lon="8.6581647"></trkpt><trkpt lat="46.9583361" lon="8.658148"></trkpt><trkpt lat="46.958398" lon="8.6580127"></trkpt><trkpt lat="46.9583961" lon="8.657975"></trkpt><trkpt lat="46.9585037" lon="8.657802"></trkpt><trkpt lat="46.9585732" lon="8.6577294"></trkpt><trkpt lat="46.9586151" lon="8.6575899"></trkpt><trkpt lat="46.9586647" lon="8.6574867"></trkpt><trkpt lat="46.9587665" lon="8.6573722"></trkpt><trkpt lat="46.9588313" lon="8.6572816"></trkpt><trkpt lat="46.9588884" lon="8.6571392"></trkpt><trkpt lat="46.958996" lon="8.6569048"></trkpt><trkpt lat="46.9590418" lon="8.6567946"></trkpt><trkpt lat="46.9590808" lon="8.6567528"></trkpt><trkpt lat="46.9592274" lon="8.6565295"></trkpt><trkpt lat="46.9593645" lon="8.6562773"></trkpt><trkpt lat="46.959418" lon="8.6560364"></trkpt><trkpt lat="46.9594929" lon="8.6559209"></trkpt><trkpt lat="46.9595348" lon="8.6558325"></trkpt><trkpt lat="46.9596564" lon="8.6555616"></trkpt><trkpt lat="46.9597248" lon="8.6554655"></trkpt><trkpt lat="46.9598848" lon="8.655282"></trkpt><trkpt lat="46.9599415" lon="8.65518"></trkpt><trkpt lat="46.9599574" lon="8.655097"></trkpt><trkpt lat="46.9600558" lon="8.6549149"></trkpt><trkpt lat="46.9601214" lon="8.6547722"></trkpt><trkpt lat="46.960204" lon="8.6546804"></trkpt><trkpt lat="46.96037" lon="8.6544707"></trkpt><trkpt lat="46.960448" lon="8.654353"></trkpt><trkpt lat="46.9605649" lon="8.654222"></trkpt><trkpt lat="46.9605943" lon="8.6541714"></trkpt><trkpt lat="46.9607" lon="8.6540955"></trkpt><trkpt lat="46.9608665" lon="8.6538856"></trkpt><trkpt lat="46.9610443" lon="8.6537487"></trkpt><trkpt lat="46.9610717" lon="8.6536862"></trkpt><trkpt lat="46.9611239" lon="8.6536384"></trkpt><trkpt lat="46.9612941" lon="8.653424"></trkpt><trkpt lat="46.9613678" lon="8.6533099"></trkpt><trkpt lat="46.9614633" lon="8.653205"></trkpt><trkpt lat="46.9615712" lon="8.6531518"></trkpt><trkpt lat="46.9615888" lon="8.6530818"></trkpt><trkpt lat="46.9617283" lon="8.6529349"></trkpt><trkpt lat="46.9617919" lon="8.6527668"></trkpt><trkpt lat="46.9618153" lon="8.6524892"></trkpt><trkpt lat="46.9618723" lon="8.6524464"></trkpt><trkpt lat="46.9618796" lon="8.6524103"></trkpt><trkpt lat="46.9618221" lon="8.6522886"></trkpt><trkpt lat="46.961814" lon="8.6521281"></trkpt><trkpt lat="46.9617458" lon="8.6519553"></trkpt><trkpt lat="46.9617265" lon="8.6518054"></trkpt><trkpt lat="46.9616253" lon="8.6515629"></trkpt><trkpt lat="46.9616241" lon="8.6515087"></trkpt><trkpt lat="46.9616005" lon="8.6514709"></trkpt><trkpt lat="46.9615503" lon="8.6512913"></trkpt><trkpt lat="46.9615186" lon="8.6511418"></trkpt><trkpt lat="46.9614548" lon="8.6509799"></trkpt><trkpt lat="46.9614485" lon="8.6508894"></trkpt><trkpt lat="46.961505" lon="8.6508166"></trkpt><trkpt lat="46.9614783" lon="8.6508082"></trkpt><trkpt lat="46.9614348" lon="8.6507596"></trkpt><trkpt lat="46.9614844" lon="8.6507307"></trkpt><trkpt lat="46.9615193" lon="8.6506226"></trkpt><trkpt lat="46.9615158" lon="8.6506064"></trkpt><trkpt lat="46.9614218" lon="8.6506416"></trkpt><trkpt lat="46.9614225" lon="8.650621"></trkpt><trkpt lat="46.9614439" lon="8.6505716"></trkpt><trkpt lat="46.9614682" lon="8.6504311"></trkpt><trkpt lat="46.9614497" lon="8.6503197"></trkpt><trkpt lat="46.9614546" lon="8.6501232"></trkpt><trkpt lat="46.961487" lon="8.6499592"></trkpt><trkpt lat="46.9614913" lon="8.6498372"></trkpt><trkpt lat="46.961516" lon="8.6495265"></trkpt><trkpt lat="46.9615105" lon="8.6494205"></trkpt><trkpt lat="46.9615433" lon="8.6493219"></trkpt><trkpt lat="46.9615828" lon="8.6493011"></trkpt><trkpt lat="46.9616559" lon="8.6493215"></trkpt><trkpt lat="46.961785" lon="8.6493253"></trkpt><trkpt lat="46.9618729" lon="8.6492423"></trkpt><trkpt lat="46.9619295" lon="8.6491497"></trkpt><trkpt lat="46.9620329" lon="8.649123"></trkpt><trkpt lat="46.9622525" lon="8.6491704"></trkpt><trkpt lat="46.9623627" lon="8.6491294"></trkpt><trkpt lat="46.9624115" lon="8.6490439"></trkpt><trkpt lat="46.9624312" lon="8.6489251"></trkpt><trkpt lat="46.9624737" lon="8.6488408"></trkpt><trkpt lat="46.9625249" lon="8.6484552"></trkpt><trkpt lat="46.962531" lon="8.6482105"></trkpt><trkpt lat="46.9625717" lon="8.6480406"></trkpt><trkpt lat="46.9625981" lon="8.6477207"></trkpt><trkpt lat="46.9625949" lon="8.6474278"></trkpt><trkpt lat="46.9626434" lon="8.6471426"></trkpt><trkpt lat="46.9626241" lon="8.6469156"></trkpt><trkpt lat="46.9626039" lon="8.6468406"></trkpt><trkpt lat="46.9625404" lon="8.6467804"></trkpt><trkpt lat="46.9625351" lon="8.6467007"></trkpt><trkpt lat="46.9625505" lon="8.6465552"></trkpt><trkpt lat="46.9626342" lon="8.6463709"></trkpt><trkpt lat="46.9626616" lon="8.6462004"></trkpt><trkpt lat="46.9626653" lon="8.6459851"></trkpt><trkpt lat="46.9626049" lon="8.6457544"></trkpt><trkpt lat="46.962487" lon="8.6454553"></trkpt><trkpt lat="46.9623747" lon="8.6451508"></trkpt><trkpt lat="46.9623454" lon="8.6449792"></trkpt><trkpt lat="46.9623192" lon="8.6446828"></trkpt><trkpt lat="46.9622428" lon="8.6444804"></trkpt><trkpt lat="46.9622264" lon="8.6444865"></trkpt><trkpt lat="46.9622354" lon="8.6445807"></trkpt><trkpt lat="46.9622251" lon="8.6447016"></trkpt><trkpt lat="46.9621747" lon="8.6448354"></trkpt><trkpt lat="46.9621545" lon="8.6446849"></trkpt><trkpt lat="46.962127" lon="8.6445586"></trkpt><trkpt lat="46.9621199" lon="8.6442932"></trkpt><trkpt lat="46.9621237" lon="8.6442733"></trkpt><trkpt lat="46.9621511" lon="8.644262"></trkpt><trkpt lat="46.9621903" lon="8.6442546"></trkpt><trkpt lat="46.9622192" lon="8.6442691"></trkpt><trkpt lat="46.9622533" lon="8.6442739"></trkpt><trkpt lat="46.962291" lon="8.6442266"></trkpt><trkpt lat="46.962329" lon="8.6442196"></trkpt><trkpt lat="46.9624149" lon="8.6442053"></trkpt><trkpt lat="46.962419" lon="8.64419"></trkpt><trkpt lat="46.9624123" lon="8.6441833"></trkpt><trkpt lat="46.9623771" lon="8.6441872"></trkpt><trkpt lat="46.9623407" lon="8.6441708"></trkpt><trkpt lat="46.9624134" lon="8.6441094"></trkpt><trkpt lat="46.9624546" lon="8.6441117"></trkpt><trkpt lat="46.9625192" lon="8.6441634"></trkpt><trkpt lat="46.9625727" lon="8.6442111"></trkpt><trkpt lat="46.9625786" lon="8.6442157"></trkpt><trkpt lat="46.9625876" lon="8.6442087"></trkpt><trkpt lat="46.9625852" lon="8.6441937"></trkpt><trkpt lat="46.9625729" lon="8.6441649"></trkpt><trkpt lat="46.9625421" lon="8.6440579"></trkpt><trkpt lat="46.9624328" lon="8.6439365"></trkpt><trkpt lat="46.9623105" lon="8.6438842"></trkpt><trkpt lat="46.9622697" lon="8.6438813"></trkpt><trkpt lat="46.9622646" lon="8.6438766"></trkpt><trkpt lat="46.9622668" lon="8.6438657"></trkpt><trkpt lat="46.9622882" lon="8.6438433"></trkpt><trkpt lat="46.9623971" lon="8.6437725"></trkpt><trkpt lat="46.962601" lon="8.6436868"></trkpt><trkpt lat="46.9626977" lon="8.6436802"></trkpt><trkpt lat="46.9627133" lon="8.6436681"></trkpt><trkpt lat="46.9627392" lon="8.6436502"></trkpt><trkpt lat="46.9627725" lon="8.6436433"></trkpt><trkpt lat="46.9628531" lon="8.6436358"></trkpt><trkpt lat="46.9628865" lon="8.6436146"></trkpt><trkpt lat="46.9629276" lon="8.6435313"></trkpt><trkpt lat="46.9630222" lon="8.6434439"></trkpt><trkpt lat="46.9630668" lon="8.6433854"></trkpt><trkpt lat="46.9630841" lon="8.6433427"></trkpt><trkpt lat="46.9631037" lon="8.6432304"></trkpt><trkpt lat="46.9631901" lon="8.6430524"></trkpt><trkpt lat="46.9632528" lon="8.6428497"></trkpt><trkpt lat="46.9633238" lon="8.642778"></trkpt><trkpt lat="46.9633467" lon="8.6427153"></trkpt><trkpt lat="46.9633849" lon="8.6426862"></trkpt><trkpt lat="46.9633712" lon="8.642572"></trkpt><trkpt lat="46.9634354" lon="8.6425418"></trkpt><trkpt lat="46.9634339" lon="8.6424701"></trkpt><trkpt lat="46.9633819" lon="8.6423156"></trkpt><trkpt lat="46.9634652" lon="8.6423089"></trkpt><trkpt lat="46.9634675" lon="8.6422854"></trkpt><trkpt lat="46.9634323" lon="8.6422149"></trkpt><trkpt lat="46.9633658" lon="8.6421734"></trkpt><trkpt lat="46.9633088" lon="8.6420885"></trkpt><trkpt lat="46.96344" lon="8.6420771"></trkpt><trkpt lat="46.9635024" lon="8.6421022"></trkpt><trkpt lat="46.963593" lon="8.6420805"></trkpt><trkpt lat="46.963561" lon="8.642021"></trkpt><trkpt lat="46.9635149" lon="8.6419787"></trkpt><trkpt lat="46.9635899" lon="8.6419489"></trkpt><trkpt lat="46.9637156" lon="8.6419638"></trkpt><trkpt lat="46.9637507" lon="8.6419055"></trkpt><trkpt lat="46.9636914" lon="8.6418597"></trkpt><trkpt lat="46.9636383" lon="8.6418483"></trkpt><trkpt lat="46.9636032" lon="8.6417865"></trkpt><trkpt lat="46.9635017" lon="8.6416972"></trkpt><trkpt lat="46.9635321" lon="8.6416801"></trkpt><trkpt lat="46.9634806" lon="8.6416206"></trkpt><trkpt lat="46.9634993" lon="8.641576"></trkpt><trkpt lat="46.9634595" lon="8.6415211"></trkpt><trkpt lat="46.9634696" lon="8.6414902"></trkpt><trkpt lat="46.9634361" lon="8.6414421"></trkpt><trkpt lat="46.96334" lon="8.6413815"></trkpt><trkpt lat="46.9633603" lon="8.6413323"></trkpt><trkpt lat="46.9633447" lon="8.6412945"></trkpt><trkpt lat="46.9633182" lon="8.6412785"></trkpt><trkpt lat="46.9633174" lon="8.641211"></trkpt><trkpt lat="46.9632869" lon="8.641084"></trkpt><trkpt lat="46.9632807" lon="8.6410349"></trkpt><trkpt lat="46.9631901" lon="8.6407992"></trkpt><trkpt lat="46.9631538" lon="8.6405921"></trkpt><trkpt lat="46.9631562" lon="8.640536"></trkpt><trkpt lat="46.9631378" lon="8.6404682"></trkpt><trkpt lat="46.963157" lon="8.6404436"></trkpt><trkpt lat="46.9632072" lon="8.6404834"></trkpt><trkpt lat="46.9634027" lon="8.6404845"></trkpt><trkpt lat="46.963484" lon="8.6404752"></trkpt><trkpt lat="46.9633979" lon="8.6402987"></trkpt><trkpt lat="46.9633692" lon="8.640211"></trkpt><trkpt lat="46.9633819" lon="8.6401841"></trkpt><trkpt lat="46.9634976" lon="8.6402426"></trkpt><trkpt lat="46.9638916" lon="8.6401693"></trkpt><trkpt lat="46.963921" lon="8.6401467"></trkpt><trkpt lat="46.9638704" lon="8.6401192"></trkpt><trkpt lat="46.9637498" lon="8.6398624"></trkpt><trkpt lat="46.9637604" lon="8.6398242"></trkpt><trkpt lat="46.9638941" lon="8.6397717"></trkpt><trkpt lat="46.9639299" lon="8.6398087"></trkpt><trkpt lat="46.9640039" lon="8.6398033"></trkpt><trkpt lat="46.9640888" lon="8.6397776"></trkpt><trkpt lat="46.9642119" lon="8.6396773"></trkpt><trkpt lat="46.9642347" lon="8.6396451"></trkpt><trkpt lat="46.9642333" lon="8.6395898"></trkpt><trkpt lat="46.9642183" lon="8.6395227"></trkpt><trkpt lat="46.9642103" lon="8.6395028"></trkpt><trkpt lat="46.9642103" lon="8.6394369"></trkpt><trkpt lat="46.9642878" lon="8.6393247"></trkpt><trkpt lat="46.9643746" lon="8.6392424"></trkpt><trkpt lat="46.9645013" lon="8.63921"></trkpt><trkpt lat="46.9645736" lon="8.6391589"></trkpt><trkpt lat="46.9646451" lon="8.639028"></trkpt><trkpt lat="46.9647319" lon="8.6387737"></trkpt><trkpt lat="46.9647753" lon="8.6385069"></trkpt><trkpt lat="46.9647991" lon="8.6384657"></trkpt><trkpt lat="46.9648961" lon="8.6385118"></trkpt><trkpt lat="46.9649386" lon="8.6384981"></trkpt><trkpt lat="46.9650612" lon="8.6382139"></trkpt><trkpt lat="46.9651462" lon="8.6379496"></trkpt><trkpt lat="46.9651845" lon="8.6378823"></trkpt><trkpt lat="46.9653419" lon="8.6377563"></trkpt><trkpt lat="46.9654142" lon="8.637689"></trkpt><trkpt lat="46.9655172" lon="8.6375855"></trkpt><trkpt lat="46.9655863" lon="8.6375497"></trkpt><trkpt lat="46.9657584" lon="8.637551"></trkpt><trkpt lat="46.9658314" lon="8.637528"></trkpt><trkpt lat="46.9659044" lon="8.6374363"></trkpt><trkpt lat="46.9660322" lon="8.6372478"></trkpt><trkpt lat="46.966067" lon="8.6372313"></trkpt><trkpt lat="46.9661183" lon="8.6373446"></trkpt><trkpt lat="46.9661522" lon="8.6373825"></trkpt><trkpt lat="46.9661815" lon="8.6373877"></trkpt><trkpt lat="46.9661998" lon="8.6373743"></trkpt><trkpt lat="46.9662738" lon="8.6373201"></trkpt><trkpt lat="46.9663644" lon="8.6372107"></trkpt><trkpt lat="46.9664408" lon="8.6370988"></trkpt><trkpt lat="46.9664719" lon="8.6370155"></trkpt><trkpt lat="46.9664897" lon="8.6369296"></trkpt><trkpt lat="46.9665572" lon="8.6369869"></trkpt><trkpt lat="46.9666294" lon="8.6370245"></trkpt><trkpt lat="46.9667927" lon="8.6370777"></trkpt><trkpt lat="46.966868" lon="8.6371495"></trkpt><trkpt lat="46.9669488" lon="8.6372825"></trkpt><trkpt lat="46.9670005" lon="8.6374341"></trkpt><trkpt lat="46.9670147" lon="8.6374668"></trkpt><trkpt lat="46.9670259" lon="8.6374926"></trkpt><trkpt lat="46.9670713" lon="8.6375418"></trkpt><trkpt lat="46.9671376" lon="8.6375631"></trkpt><trkpt lat="46.9672946" lon="8.6375804"></trkpt><trkpt lat="46.9673802" lon="8.6375973"></trkpt><trkpt lat="46.9675175" lon="8.6375482"></trkpt><trkpt lat="46.9676643" lon="8.6375034"></trkpt><trkpt lat="46.9678132" lon="8.6374361"></trkpt><trkpt lat="46.9679377" lon="8.6373898"></trkpt><trkpt lat="46.9680644" lon="8.6373635"></trkpt><trkpt lat="46.9681613" lon="8.6373774"></trkpt><trkpt lat="46.9682706" lon="8.6373811"></trkpt><trkpt lat="46.9685266" lon="8.6374182"></trkpt><trkpt lat="46.9688851" lon="8.637387"></trkpt><trkpt lat="46.9690276" lon="8.6373533"></trkpt><trkpt lat="46.9693352" lon="8.6370589"></trkpt><trkpt lat="46.9694058" lon="8.6370597"></trkpt><trkpt lat="46.9694507" lon="8.6370605"></trkpt><trkpt lat="46.9693604" lon="8.6368161"></trkpt><trkpt lat="46.9694252" lon="8.6365835"></trkpt></trkseg></trk></gpx>
