<?xml version="1.0" encoding="UTF-8"?>
<gpx version="1.1" creator="Good Shit" xmlns="http://www.topografix.com/GPX/1/1"><trk><name>Rebild Bakker Ruten — Rebild Bakker Ruten — complete white-marked loop</name><trkseg><trkpt lat="56.83157218681946" lon="9.841388064574538"></trkpt><trkpt lat="56.8315343" lon="9.8407938"></trkpt><trkpt lat="56.8315026" lon="9.840565"></trkpt><trkpt lat="56.831581" lon="9.8403583"></trkpt><trkpt lat="56.831603" lon="9.8402457"></trkpt><trkpt lat="56.831603" lon="9.8401384"></trkpt><trkpt lat="56.8315766" lon="9.8399091"></trkpt><trkpt lat="56.8315758" lon="9.8395497"></trkpt><trkpt lat="56.8315645" lon="9.8394028"></trkpt><trkpt lat="56.8315369" lon="9.8392881"></trkpt><trkpt lat="56.8315113" lon="9.8391021"></trkpt><trkpt lat="56.8314297" lon="9.8389289"></trkpt><trkpt lat="56.8314025" lon="9.8388135"></trkpt><trkpt lat="56.8314012" lon="9.8387726"></trkpt><trkpt lat="56.8313955" lon="9.8386147"></trkpt><trkpt lat="56.8313771" lon="9.8384591"></trkpt><trkpt lat="56.8313578" lon="9.8383405"></trkpt><trkpt lat="56.831358446498015" lon="9.838292316883052"></trkpt><trkpt lat="56.8313595" lon="9.8382138"></trkpt><trkpt lat="56.8313587" lon="9.838039"></trkpt><trkpt lat="56.8313306" lon="9.8378739"></trkpt><trkpt lat="56.8313078" lon="9.8377055"></trkpt><trkpt lat="56.8312894" lon="9.8375965"></trkpt><trkpt lat="56.8312885" lon="9.8375099"></trkpt><trkpt lat="56.8312699" lon="9.8373261"></trkpt><trkpt lat="56.831198" lon="9.8371786"></trkpt><trkpt lat="56.8311671" lon="9.837015"></trkpt><trkpt lat="56.8311877" lon="9.836728"></trkpt><trkpt lat="56.8311011" lon="9.8364705"></trkpt><trkpt lat="56.8308492" lon="9.8362044"></trkpt><trkpt lat="56.8307218" lon="9.8360682"></trkpt><trkpt lat="56.8305919" lon="9.835989"></trkpt><trkpt lat="56.830511" lon="9.8358841"></trkpt><trkpt lat="56.83049504337434" lon="9.835858117716683"></trkpt><trkpt lat="56.8304354" lon="9.835761"></trkpt><trkpt lat="56.8303076" lon="9.8354531"></trkpt><trkpt lat="56.8302067" lon="9.8353088"></trkpt><trkpt lat="56.8301347" lon="9.835271"></trkpt><trkpt lat="56.8300557" lon="9.8351783"></trkpt><trkpt lat="56.8300403" lon="9.8350878"></trkpt><trkpt lat="56.8300391" lon="9.8349381"></trkpt><trkpt lat="56.8300373" lon="9.8348548"></trkpt><trkpt lat="56.8300198" lon="9.8347714"></trkpt><trkpt lat="56.8299707" lon="9.8346078"></trkpt><trkpt lat="56.8299566" lon="9.8345052"></trkpt><trkpt lat="56.8299531" lon="9.8344026"></trkpt><trkpt lat="56.8299707" lon="9.8342808"></trkpt><trkpt lat="56.8300664" lon="9.8338902"></trkpt><trkpt lat="56.8301286" lon="9.8336458"></trkpt><trkpt lat="56.8301848" lon="9.8333842"></trkpt><trkpt lat="56.8301988" lon="9.8332418"></trkpt><trkpt lat="56.83019526780287" lon="9.833118402836812"></trkpt><trkpt lat="56.8301865" lon="9.8328121"></trkpt><trkpt lat="56.8301986" lon="9.8327109"></trkpt><trkpt lat="56.8301911" lon="9.8325781"></trkpt><trkpt lat="56.8301485" lon="9.8324476"></trkpt><trkpt lat="56.8301128" lon="9.8322598"></trkpt><trkpt lat="56.830042" lon="9.8320388"></trkpt><trkpt lat="56.830004" lon="9.8319527"></trkpt><trkpt lat="56.8299759" lon="9.8318372"></trkpt><trkpt lat="56.8299619" lon="9.8317891"></trkpt><trkpt lat="56.8299286" lon="9.8317955"></trkpt><trkpt lat="56.8298171" lon="9.8318683"></trkpt><trkpt lat="56.8296768" lon="9.8319015"></trkpt><trkpt lat="56.8295784" lon="9.8319129"></trkpt><trkpt lat="56.8295063" lon="9.8318727"></trkpt><trkpt lat="56.8294639" lon="9.8317476"></trkpt><trkpt lat="56.8293781" lon="9.831538"></trkpt><trkpt lat="56.8293309" lon="9.8313453"></trkpt><trkpt lat="56.8293247" lon="9.8311457"></trkpt><trkpt lat="56.82932973223259" lon="9.831060152045968"></trkpt><trkpt lat="56.8293359" lon="9.8309553"></trkpt><trkpt lat="56.8293346" lon="9.8308442"></trkpt><trkpt lat="56.8293185" lon="9.8307104"></trkpt><trkpt lat="56.8292574" lon="9.8305506"></trkpt><trkpt lat="56.8291093" lon="9.8307414"></trkpt><trkpt lat="56.828852" lon="9.8310476"></trkpt><trkpt lat="56.8287262" lon="9.8311743"></trkpt><trkpt lat="56.828609" lon="9.8312654"></trkpt><trkpt lat="56.8284314" lon="9.8313855"></trkpt><trkpt lat="56.8283391" lon="9.8314026"></trkpt><trkpt lat="56.8282472" lon="9.8313769"></trkpt><trkpt lat="56.8281428" lon="9.8312161"></trkpt><trkpt lat="56.8280923" lon="9.831283"></trkpt><trkpt lat="56.8280132" lon="9.8315289"></trkpt><trkpt lat="56.82789946479055" lon="9.831723874644767"></trkpt><trkpt lat="56.82789" lon="9.8317401"></trkpt><trkpt lat="56.8277878" lon="9.83189"></trkpt><trkpt lat="56.827717" lon="9.8319644"></trkpt><trkpt lat="56.82756" lon="9.8320824"></trkpt><trkpt lat="56.8273369" lon="9.8323238"></trkpt><trkpt lat="56.8270419" lon="9.8327234"></trkpt><trkpt lat="56.8268855" lon="9.8329077"></trkpt><trkpt lat="56.8268109" lon="9.8330343"></trkpt><trkpt lat="56.826685" lon="9.8333103"></trkpt><trkpt lat="56.8265872" lon="9.833544"></trkpt><trkpt lat="56.8265612" lon="9.8336408"></trkpt><trkpt lat="56.826507652160274" lon="9.833669028687762"></trkpt><trkpt lat="56.826507652160274" lon="9.83366902868776"></trkpt><trkpt lat="56.826507652160274" lon="9.833669028687762"></trkpt><trkpt lat="56.8264747" lon="9.8336864"></trkpt><trkpt lat="56.8262905" lon="9.8337682"></trkpt><trkpt lat="56.8261364" lon="9.8338459"></trkpt><trkpt lat="56.8260658" lon="9.8339881"></trkpt><trkpt lat="56.8260509" lon="9.8341725"></trkpt><trkpt lat="56.8261048" lon="9.8342442"></trkpt><trkpt lat="56.8261254" lon="9.8343395"></trkpt><trkpt lat="56.826129" lon="9.8347083"></trkpt><trkpt lat="56.8260775" lon="9.8350164"></trkpt><trkpt lat="56.8259727" lon="9.8355451"></trkpt><trkpt lat="56.825958" lon="9.8357946"></trkpt><trkpt lat="56.8259557" lon="9.8360967"></trkpt><trkpt lat="56.82595012284087" lon="9.836243189081355"></trkpt><trkpt lat="56.8259384" lon="9.8365511"></trkpt><trkpt lat="56.8258758" lon="9.8369705"></trkpt><trkpt lat="56.8257402" lon="9.8373455"></trkpt><trkpt lat="56.8256269" lon="9.837655"></trkpt><trkpt lat="56.8256063" lon="9.8379079"></trkpt><trkpt lat="56.8256619" lon="9.8382574"></trkpt><trkpt lat="56.8256393" lon="9.8387721"></trkpt><trkpt lat="56.825515511246365" lon="9.839279482840288"></trkpt><trkpt lat="56.825515511246365" lon="9.83927948284029"></trkpt><trkpt lat="56.825515511246365" lon="9.839279482840288"></trkpt><trkpt lat="56.8254672" lon="9.8394775"></trkpt><trkpt lat="56.8254602" lon="9.8400113"></trkpt><trkpt lat="56.8254933" lon="9.8404434"></trkpt><trkpt lat="56.825332" lon="9.8405068"></trkpt><trkpt lat="56.8251427" lon="9.8403834"></trkpt><trkpt lat="56.8251435" lon="9.8400358"></trkpt><trkpt lat="56.8251629" lon="9.8398257"></trkpt><trkpt lat="56.8250534" lon="9.8394267"></trkpt><trkpt lat="56.8248164" lon="9.8394537"></trkpt><trkpt lat="56.8245997" lon="9.8396851"></trkpt><trkpt lat="56.8244552" lon="9.8398763"></trkpt><trkpt lat="56.824514196957395" lon="9.839975237801303"></trkpt><trkpt lat="56.824514196957395" lon="9.839975237801301"></trkpt><trkpt lat="56.824514196957395" lon="9.839975237801303"></trkpt><trkpt lat="56.8246391" lon="9.8401847"></trkpt><trkpt lat="56.8246993" lon="9.8405876"></trkpt><trkpt lat="56.8246935" lon="9.8409475"></trkpt><trkpt lat="56.8246094" lon="9.8413959"></trkpt><trkpt lat="56.824429" lon="9.8415461"></trkpt><trkpt lat="56.82442073809467" lon="9.841551607936886"></trkpt><trkpt lat="56.824252" lon="9.8416641"></trkpt><trkpt lat="56.8241458" lon="9.8418505"></trkpt><trkpt lat="56.8240126" lon="9.8420408"></trkpt><trkpt lat="56.8238022" lon="9.8422114"></trkpt><trkpt lat="56.8236086" lon="9.842387"></trkpt><trkpt lat="56.8234663" lon="9.8426709"></trkpt><trkpt lat="56.8234232" lon="9.8428144"></trkpt><trkpt lat="56.823487" lon="9.8430134"></trkpt><trkpt lat="56.8236045" lon="9.8433529"></trkpt><trkpt lat="56.823655775124045" lon="9.84359061105565"></trkpt><trkpt lat="56.823655775124045" lon="9.843590611055651"></trkpt><trkpt lat="56.823655775124045" lon="9.84359061105565"></trkpt><trkpt lat="56.8237023" lon="9.8438063"></trkpt><trkpt lat="56.8237852" lon="9.8440681"></trkpt><trkpt lat="56.8238389" lon="9.8441979"></trkpt><trkpt lat="56.8239344" lon="9.8442125"></trkpt><trkpt lat="56.8239722" lon="9.8443522"></trkpt><trkpt lat="56.8241993" lon="9.8448253"></trkpt><trkpt lat="56.8242175" lon="9.844943"></trkpt><trkpt lat="56.8242024" lon="9.8450738"></trkpt><trkpt lat="56.8241385" lon="9.8452636"></trkpt><trkpt lat="56.8241069" lon="9.8453886"></trkpt><trkpt lat="56.8240988" lon="9.8458245"></trkpt><trkpt lat="56.824104" lon="9.8459431"></trkpt><trkpt lat="56.8240976" lon="9.8459816"></trkpt><trkpt lat="56.8240727" lon="9.8460435"></trkpt><trkpt lat="56.8239494" lon="9.8462548"></trkpt><trkpt lat="56.8238785" lon="9.8463377"></trkpt><trkpt lat="56.82387345190372" lon="9.846339554323709"></trkpt><trkpt lat="56.82387345190372" lon="9.846339554323707"></trkpt><trkpt lat="56.82387345190372" lon="9.846339554323709"></trkpt><trkpt lat="56.8237481" lon="9.8463856"></trkpt><trkpt lat="56.8236402" lon="9.846493"></trkpt><trkpt lat="56.8235169" lon="9.8465642"></trkpt><trkpt lat="56.8234344" lon="9.8465993"></trkpt><trkpt lat="56.823361" lon="9.846563"></trkpt><trkpt lat="56.8232957" lon="9.8465524"></trkpt><trkpt lat="56.8232458" lon="9.846606"></trkpt><trkpt lat="56.8232096" lon="9.8466891"></trkpt><trkpt lat="56.8229552" lon="9.8470432"></trkpt><trkpt lat="56.8228862" lon="9.8470848"></trkpt><trkpt lat="56.8228363" lon="9.8471599"></trkpt><trkpt lat="56.8227278" lon="9.8475601"></trkpt><trkpt lat="56.8226991" lon="9.8477188"></trkpt><trkpt lat="56.8226763" lon="9.8479337"></trkpt><trkpt lat="56.8226684" lon="9.8481088"></trkpt><trkpt lat="56.822648425599084" lon="9.848231312891055"></trkpt><trkpt lat="56.8226272" lon="9.8483615"></trkpt><trkpt lat="56.8225368" lon="9.8487626"></trkpt><trkpt lat="56.8225151" lon="9.8490288"></trkpt><trkpt lat="56.8225024" lon="9.84926"></trkpt><trkpt lat="56.8224598" lon="9.84937"></trkpt><trkpt lat="56.8224121" lon="9.8494129"></trkpt><trkpt lat="56.8222757" lon="9.8494401"></trkpt><trkpt lat="56.8218619" lon="9.8494666"></trkpt><trkpt lat="56.821320858415405" lon="9.849468541278776"></trkpt><trkpt lat="56.8211094" lon="9.8494693"></trkpt><trkpt lat="56.8209612" lon="9.8494398"></trkpt><trkpt lat="56.8208254" lon="9.8493794"></trkpt><trkpt lat="56.8207439" lon="9.8492802"></trkpt><trkpt lat="56.8207116" lon="9.8491474"></trkpt><trkpt lat="56.8207023" lon="9.848858"></trkpt><trkpt lat="56.8206817" lon="9.8488299"></trkpt><trkpt lat="56.8207122" lon="9.8483935"></trkpt><trkpt lat="56.8207475" lon="9.8476855"></trkpt><trkpt lat="56.8207421" lon="9.8474636"></trkpt><trkpt lat="56.8207274" lon="9.8472215"></trkpt><trkpt lat="56.82072936092367" lon="9.847145619015897"></trkpt><trkpt lat="56.8207419" lon="9.8466604"></trkpt><trkpt lat="56.8207445" lon="9.8463039"></trkpt><trkpt lat="56.8207572" lon="9.8459943"></trkpt><trkpt lat="56.8207931" lon="9.8456919"></trkpt><trkpt lat="56.8208565" lon="9.8453012"></trkpt><trkpt lat="56.8209017" lon="9.8449426"></trkpt><trkpt lat="56.8209552" lon="9.8442475"></trkpt><trkpt lat="56.8209605" lon="9.8441284"></trkpt><trkpt lat="56.8209307" lon="9.8440309"></trkpt><trkpt lat="56.8209076" lon="9.8439555"></trkpt><trkpt lat="56.8209152" lon="9.843837"></trkpt><trkpt lat="56.820783828378076" lon="9.843895200917839"></trkpt><trkpt lat="56.820783828378076" lon="9.84389520091784"></trkpt><trkpt lat="56.820783828378076" lon="9.843895200917839"></trkpt><trkpt lat="56.8209152" lon="9.843837"></trkpt><trkpt lat="56.8215354" lon="9.8422409"></trkpt><trkpt lat="56.82183777471391" lon="9.841422821043437"></trkpt><trkpt lat="56.82183777471391" lon="9.841422821043436"></trkpt><trkpt lat="56.82183777471391" lon="9.841422821043437"></trkpt><trkpt lat="56.8218546" lon="9.8413773"></trkpt><trkpt lat="56.8222067" lon="9.8404247"></trkpt><trkpt lat="56.8223602" lon="9.8400093"></trkpt><trkpt lat="56.8227788" lon="9.8388771"></trkpt><trkpt lat="56.82283166407741" lon="9.838734074462497"></trkpt><trkpt lat="56.82283166407741" lon="9.838734074462499"></trkpt><trkpt lat="56.82283166407741" lon="9.838734074462497"></trkpt><trkpt lat="56.82288" lon="9.8386033"></trkpt><trkpt lat="56.8229721" lon="9.838354"></trkpt><trkpt lat="56.823632" lon="9.836546"></trkpt><trkpt lat="56.82382951272939" lon="9.836037431984868"></trkpt><trkpt lat="56.82382951272939" lon="9.83603743198487"></trkpt><trkpt lat="56.82382951272939" lon="9.836037431984868"></trkpt><trkpt lat="56.8239399" lon="9.8357532"></trkpt><trkpt lat="56.8243169" lon="9.8347714"></trkpt><trkpt lat="56.8246848" lon="9.8338172"></trkpt><trkpt lat="56.82484074374083" lon="9.833346525327107"></trkpt><trkpt lat="56.8249645" lon="9.832973"></trkpt><trkpt lat="56.824277" lon="9.8323389"></trkpt><trkpt lat="56.8241978" lon="9.832258"></trkpt><trkpt lat="56.8236709" lon="9.8317376"></trkpt><trkpt lat="56.82357075123506" lon="9.83163938351711"></trkpt><trkpt lat="56.8228209" lon="9.830904"></trkpt><trkpt lat="56.822415" lon="9.8305948"></trkpt><trkpt lat="56.8219829096434" lon="9.830254154269207"></trkpt><trkpt lat="56.8219829096434" lon="9.830254154269209"></trkpt><trkpt lat="56.8219829096434" lon="9.830254154269207"></trkpt><trkpt lat="56.821968" lon="9.8302424"></trkpt><trkpt lat="56.8216803" lon="9.8301136"></trkpt><trkpt lat="56.8215878" lon="9.8299956"></trkpt><trkpt lat="56.8213295" lon="9.8295209"></trkpt><trkpt lat="56.8210154" lon="9.8292339"></trkpt><trkpt lat="56.8207629" lon="9.8288208"></trkpt><trkpt lat="56.8206117" lon="9.8287538"></trkpt><trkpt lat="56.820453937525556" lon="9.828767809795027"></trkpt><trkpt lat="56.8202491" lon="9.828786"></trkpt><trkpt lat="56.8201258" lon="9.8287323"></trkpt><trkpt lat="56.8199702" lon="9.8285794"></trkpt><trkpt lat="56.8196899" lon="9.8285365"></trkpt><trkpt lat="56.8195519" lon="9.8285338"></trkpt><trkpt lat="56.8193625" lon="9.8286423"></trkpt><trkpt lat="56.8194042" lon="9.8284841"></trkpt><trkpt lat="56.8194643" lon="9.8283567"></trkpt><trkpt lat="56.8195623" lon="9.8282128"></trkpt><trkpt lat="56.81982388105235" lon="9.828026728765158"></trkpt><trkpt lat="56.81982388105235" lon="9.828026728765156"></trkpt><trkpt lat="56.81982388105235" lon="9.828026728765158"></trkpt><trkpt lat="56.8205638" lon="9.8275004"></trkpt><trkpt lat="56.8206425" lon="9.8274323"></trkpt><trkpt lat="56.820712" lon="9.8273209"></trkpt><trkpt lat="56.8207469" lon="9.8272322"></trkpt><trkpt lat="56.8207737" lon="9.8271221"></trkpt><trkpt lat="56.82078" lon="9.8270286"></trkpt><trkpt lat="56.8207887" lon="9.8268988"></trkpt><trkpt lat="56.8207821" lon="9.8267394"></trkpt><trkpt lat="56.8207624" lon="9.8265894"></trkpt><trkpt lat="56.820983" lon="9.8261478"></trkpt><trkpt lat="56.82102" lon="9.8262406"></trkpt><trkpt lat="56.821043656382436" lon="9.826291741735998"></trkpt><trkpt lat="56.821043656382436" lon="9.826291741736"></trkpt><trkpt lat="56.821043656382436" lon="9.826291741735998"></trkpt><trkpt lat="56.8211621" lon="9.8265478"></trkpt><trkpt lat="56.8213917" lon="9.8266763"></trkpt><trkpt lat="56.8216424" lon="9.8267964"></trkpt><trkpt lat="56.8217858" lon="9.8268417"></trkpt><trkpt lat="56.8219167" lon="9.8268554"></trkpt><trkpt lat="56.8222152" lon="9.8265391"></trkpt><trkpt lat="56.8223201" lon="9.8263741"></trkpt><trkpt lat="56.8223941" lon="9.826062"></trkpt><trkpt lat="56.82242639582459" lon="9.825966070290882"></trkpt><trkpt lat="56.82242639582459" lon="9.82596607029088"></trkpt><trkpt lat="56.82242639582459" lon="9.825966070290882"></trkpt><trkpt lat="56.8224784" lon="9.8258116"></trkpt><trkpt lat="56.8226182" lon="9.8257232"></trkpt><trkpt lat="56.822693" lon="9.8257384"></trkpt><trkpt lat="56.8228183" lon="9.8258075"></trkpt><trkpt lat="56.8228912" lon="9.8258045"></trkpt><trkpt lat="56.8230013" lon="9.8256822"></trkpt><trkpt lat="56.823114" lon="9.8257088"></trkpt><trkpt lat="56.8231853" lon="9.8258098"></trkpt><trkpt lat="56.8232873" lon="9.8259376"></trkpt><trkpt lat="56.8233543" lon="9.8260653"></trkpt><trkpt lat="56.8235483" lon="9.8261794"></trkpt><trkpt lat="56.8235895" lon="9.8262288"></trkpt><trkpt lat="56.8237159" lon="9.8264492"></trkpt><trkpt lat="56.824001404222216" lon="9.826763588365615"></trkpt><trkpt lat="56.824001404222216" lon="9.826763588365614"></trkpt><trkpt lat="56.824001404222216" lon="9.826763588365615"></trkpt><trkpt lat="56.8242121" lon="9.8269956"></trkpt><trkpt lat="56.8242812" lon="9.8267031"></trkpt><trkpt lat="56.824361" lon="9.8264303"></trkpt><trkpt lat="56.8244485" lon="9.8261386"></trkpt><trkpt lat="56.8247394" lon="9.8257951"></trkpt><trkpt lat="56.8248733" lon="9.8256681"></trkpt><trkpt lat="56.8249801" lon="9.8255952"></trkpt><trkpt lat="56.8250458" lon="9.8253764"></trkpt><trkpt lat="56.8250509" lon="9.82516"></trkpt><trkpt lat="56.8250917" lon="9.8251203"></trkpt><trkpt lat="56.825213170711166" lon="9.824930715920079"></trkpt><trkpt lat="56.825213170711166" lon="9.824930715920077"></trkpt><trkpt lat="56.825213170711166" lon="9.824930715920079"></trkpt><trkpt lat="56.8253082" lon="9.8247824"></trkpt><trkpt lat="56.8255068" lon="9.8244884"></trkpt><trkpt lat="56.8257365" lon="9.8241577"></trkpt><trkpt lat="56.8258489" lon="9.8240234"></trkpt><trkpt lat="56.8260225" lon="9.8239196"></trkpt><trkpt lat="56.826456" lon="9.8236552"></trkpt><trkpt lat="56.8266434" lon="9.8235951"></trkpt><trkpt lat="56.826767670852824" lon="9.82341296758607"></trkpt><trkpt lat="56.826767670852824" lon="9.823412967586068"></trkpt><trkpt lat="56.826767670852824" lon="9.82341296758607"></trkpt><trkpt lat="56.8267757" lon="9.8234012"></trkpt><trkpt lat="56.8268368" lon="9.8230731"></trkpt><trkpt lat="56.8269546" lon="9.8223886"></trkpt><trkpt lat="56.8271007" lon="9.822531"></trkpt><trkpt lat="56.8271825" lon="9.8226072"></trkpt><trkpt lat="56.8272356" lon="9.822642"></trkpt><trkpt lat="56.8272115" lon="9.8228262"></trkpt><trkpt lat="56.8271426" lon="9.8231668"></trkpt><trkpt lat="56.826648" lon="9.8250685"></trkpt><trkpt lat="56.8265607" lon="9.8253126"></trkpt><trkpt lat="56.8266514" lon="9.8258284"></trkpt><trkpt lat="56.826689" lon="9.8261062"></trkpt><trkpt lat="56.82669" lon="9.826266"></trkpt><trkpt lat="56.8265934" lon="9.8267387"></trkpt><trkpt lat="56.82654585116249" lon="9.827260656557247"></trkpt><trkpt lat="56.826545" lon="9.82727"></trkpt><trkpt lat="56.8265003" lon="9.8276089"></trkpt><trkpt lat="56.8264203" lon="9.8279477"></trkpt><trkpt lat="56.826331" lon="9.8282045"></trkpt><trkpt lat="56.826304" lon="9.8283288"></trkpt><trkpt lat="56.8262946" lon="9.8284478"></trkpt><trkpt lat="56.8263137" lon="9.8287441"></trkpt><trkpt lat="56.8263137" lon="9.8290163"></trkpt><trkpt lat="56.8262936" lon="9.8291289"></trkpt><trkpt lat="56.8261689" lon="9.8295249"></trkpt><trkpt lat="56.8259505" lon="9.8301308"></trkpt><trkpt lat="56.82593540531668" lon="9.830150900390555"></trkpt><trkpt lat="56.8256975" lon="9.8304677"></trkpt><trkpt lat="56.8255749" lon="9.8308911"></trkpt><trkpt lat="56.825522" lon="9.8311052"></trkpt><trkpt lat="56.8255827" lon="9.8310298"></trkpt><trkpt lat="56.8257682" lon="9.8307291"></trkpt><trkpt lat="56.8260033" lon="9.8304052"></trkpt><trkpt lat="56.8265069" lon="9.8295394"></trkpt><trkpt lat="56.82653450794234" lon="9.829496948339278"></trkpt><trkpt lat="56.82653450794234" lon="9.829496948339276"></trkpt><trkpt lat="56.82653450794234" lon="9.829496948339278"></trkpt><trkpt lat="56.826949" lon="9.8288596"></trkpt><trkpt lat="56.8272474" lon="9.8283579"></trkpt><trkpt lat="56.8273877" lon="9.828122"></trkpt><trkpt lat="56.8274631" lon="9.8280707"></trkpt><trkpt lat="56.8275789" lon="9.8280515"></trkpt><trkpt lat="56.8278228" lon="9.8280483"></trkpt><trkpt lat="56.8279807" lon="9.8280675"></trkpt><trkpt lat="56.828079543210805" lon="9.828072374620616"></trkpt><trkpt lat="56.828149" lon="9.8280758"></trkpt><trkpt lat="56.8282695" lon="9.8280806"></trkpt><trkpt lat="56.8284009" lon="9.8280343"></trkpt><trkpt lat="56.8284478" lon="9.8280416"></trkpt><trkpt lat="56.828479" lon="9.8280611"></trkpt><trkpt lat="56.8285369" lon="9.8280932"></trkpt><trkpt lat="56.8286229" lon="9.8281862"></trkpt><trkpt lat="56.8286826" lon="9.8282279"></trkpt><trkpt lat="56.8291763" lon="9.8282582"></trkpt><trkpt lat="56.8293458" lon="9.8282407"></trkpt><trkpt lat="56.8296528" lon="9.8281092"></trkpt><trkpt lat="56.8297721" lon="9.8280114"></trkpt><trkpt lat="56.8299809" lon="9.8278206"></trkpt><trkpt lat="56.8301265" lon="9.8276506"></trkpt><trkpt lat="56.8303301" lon="9.8273877"></trkpt><trkpt lat="56.8305173" lon="9.8271646"></trkpt><trkpt lat="56.8307206" lon="9.8269172"></trkpt><trkpt lat="56.8308405" lon="9.8267712"></trkpt><trkpt lat="56.8308911" lon="9.8267162"></trkpt><trkpt lat="56.8308758" lon="9.8267115"></trkpt><trkpt lat="56.8308587" lon="9.8267146"></trkpt><trkpt lat="56.8308447" lon="9.8267233"></trkpt><trkpt lat="56.8308185" lon="9.8267442"></trkpt><trkpt lat="56.830798" lon="9.8267662"></trkpt><trkpt lat="56.8307502" lon="9.8267868"></trkpt><trkpt lat="56.8306698" lon="9.8268139"></trkpt><trkpt lat="56.8306482" lon="9.8268236"></trkpt><trkpt lat="56.8306321" lon="9.826811"></trkpt><trkpt lat="56.8306234" lon="9.8267805"></trkpt><trkpt lat="56.8306268" lon="9.8267202"></trkpt><trkpt lat="56.8306505" lon="9.8265963"></trkpt><trkpt lat="56.8306651" lon="9.8264743"></trkpt><trkpt lat="56.8306653" lon="9.8264209"></trkpt><trkpt lat="56.830653" lon="9.8263876"></trkpt><trkpt lat="56.8306186" lon="9.8263958"></trkpt><trkpt lat="56.8305854" lon="9.8264476"></trkpt><trkpt lat="56.830514" lon="9.8266514"></trkpt><trkpt lat="56.8304246" lon="9.826994"></trkpt><trkpt lat="56.8303231" lon="9.8271354"></trkpt><trkpt lat="56.83025" lon="9.8272076"></trkpt><trkpt lat="56.8301059" lon="9.8273717"></trkpt><trkpt lat="56.829977" lon="9.8274805"></trkpt><trkpt lat="56.8298855" lon="9.8275551"></trkpt><trkpt lat="56.82980838142427" lon="9.827566833488293"></trkpt><trkpt lat="56.8298855" lon="9.8275551"></trkpt><trkpt lat="56.829977" lon="9.8274805"></trkpt><trkpt lat="56.8301059" lon="9.8273717"></trkpt><trkpt lat="56.83025" lon="9.8272076"></trkpt><trkpt lat="56.8303231" lon="9.8271354"></trkpt><trkpt lat="56.8304246" lon="9.826994"></trkpt><trkpt lat="56.830514" lon="9.8266514"></trkpt><trkpt lat="56.8305854" lon="9.8264476"></trkpt><trkpt lat="56.8306186" lon="9.8263958"></trkpt><trkpt lat="56.830653" lon="9.8263876"></trkpt><trkpt lat="56.8306653" lon="9.8264209"></trkpt><trkpt lat="56.8306651" lon="9.8264743"></trkpt><trkpt lat="56.8306505" lon="9.8265963"></trkpt><trkpt lat="56.8306268" lon="9.8267202"></trkpt><trkpt lat="56.8306234" lon="9.8267805"></trkpt><trkpt lat="56.8306321" lon="9.826811"></trkpt><trkpt lat="56.8306482" lon="9.8268236"></trkpt><trkpt lat="56.8306698" lon="9.8268139"></trkpt><trkpt lat="56.8307502" lon="9.8267868"></trkpt><trkpt lat="56.830798" lon="9.8267662"></trkpt><trkpt lat="56.8308185" lon="9.8267442"></trkpt><trkpt lat="56.8308447" lon="9.8267233"></trkpt><trkpt lat="56.8308587" lon="9.8267146"></trkpt><trkpt lat="56.8308758" lon="9.8267115"></trkpt><trkpt lat="56.8308911" lon="9.8267162"></trkpt><trkpt lat="56.8309247" lon="9.826698"></trkpt><trkpt lat="56.8310482" lon="9.8266064"></trkpt><trkpt lat="56.8311606" lon="9.8265596"></trkpt><trkpt lat="56.8312543" lon="9.8264924"></trkpt><trkpt lat="56.8313245" lon="9.8264222"></trkpt><trkpt lat="56.8313613" lon="9.8263277"></trkpt><trkpt lat="56.831376775295254" lon="9.826240980404737"></trkpt><trkpt lat="56.8314254" lon="9.8259685"></trkpt><trkpt lat="56.8315184" lon="9.8256135"></trkpt><trkpt lat="56.8316199" lon="9.8251703"></trkpt><trkpt lat="56.8316984" lon="9.8249511"></trkpt><trkpt lat="56.8317486" lon="9.8248659"></trkpt><trkpt lat="56.831656" lon="9.8244864"></trkpt><trkpt lat="56.8315882" lon="9.8243684"></trkpt><trkpt lat="56.8315204" lon="9.8242975"></trkpt><trkpt lat="56.8314833" lon="9.8242149"></trkpt><trkpt lat="56.8314364" lon="9.8240496"></trkpt><trkpt lat="56.8312562" lon="9.8236828"></trkpt><trkpt lat="56.83119681834329" lon="9.823560268235283"></trkpt><trkpt lat="56.83119681834329" lon="9.823560268235282"></trkpt><trkpt lat="56.83119681834329" lon="9.823560268235283"></trkpt><trkpt lat="56.8311522" lon="9.8234682"></trkpt><trkpt lat="56.8311219" lon="9.8234125"></trkpt><trkpt lat="56.831002" lon="9.8233077"></trkpt><trkpt lat="56.8308085" lon="9.8229469"></trkpt><trkpt lat="56.8307038" lon="9.8227938"></trkpt><trkpt lat="56.8306303" lon="9.8226137"></trkpt><trkpt lat="56.8305013" lon="9.8223714"></trkpt><trkpt lat="56.8303347" lon="9.8220735"></trkpt><trkpt lat="56.8304082" lon="9.8219253"></trkpt><trkpt lat="56.830527" lon="9.8216922"></trkpt><trkpt lat="56.8306655" lon="9.8217009"></trkpt><trkpt lat="56.8306894" lon="9.8216609"></trkpt><trkpt lat="56.8307249" lon="9.8216013"></trkpt><trkpt lat="56.8308269" lon="9.8215267"></trkpt><trkpt lat="56.830876471801126" lon="9.821503849058217"></trkpt><trkpt lat="56.8309076" lon="9.8214895"></trkpt><trkpt lat="56.8311212" lon="9.8215238"></trkpt><trkpt lat="56.8312296" lon="9.8215327"></trkpt><trkpt lat="56.8313348" lon="9.8214761"></trkpt><trkpt lat="56.8313707" lon="9.8214791"></trkpt><trkpt lat="56.8316364" lon="9.821333"></trkpt><trkpt lat="56.8317905" lon="9.8212406"></trkpt><trkpt lat="56.8318411" lon="9.8211884"></trkpt><trkpt lat="56.8318677" lon="9.821161"></trkpt><trkpt lat="56.8319122" lon="9.8210827"></trkpt><trkpt lat="56.8320045" lon="9.8210074"></trkpt><trkpt lat="56.8322304" lon="9.820935"></trkpt><trkpt lat="56.83258671265102" lon="9.821109510368522"></trkpt><trkpt lat="56.83258671265102" lon="9.82110951036852"></trkpt><trkpt lat="56.83258671265102" lon="9.821109510368522"></trkpt><trkpt lat="56.833237" lon="9.821428"></trkpt><trkpt lat="56.8339251" lon="9.8217897"></trkpt><trkpt lat="56.8339581" lon="9.8218249"></trkpt><trkpt lat="56.8340961" lon="9.8220459"></trkpt><trkpt lat="56.834176" lon="9.8221845"></trkpt><trkpt lat="56.834198639373454" lon="9.822227963195694"></trkpt><trkpt lat="56.834198639373454" lon="9.82222796319569"></trkpt><trkpt lat="56.834198639373454" lon="9.822227963195694"></trkpt><trkpt lat="56.8342583" lon="9.8223425"></trkpt><trkpt lat="56.8343178" lon="9.8224692"></trkpt><trkpt lat="56.8344285" lon="9.8227237"></trkpt><trkpt lat="56.8343893" lon="9.8230181"></trkpt><trkpt lat="56.8343507" lon="9.8233549"></trkpt><trkpt lat="56.834132" lon="9.8232311"></trkpt><trkpt lat="56.8340154" lon="9.8232432"></trkpt><trkpt lat="56.8339266" lon="9.8233075"></trkpt><trkpt lat="56.8337989" lon="9.8234725"></trkpt><trkpt lat="56.833756" lon="9.823618"></trkpt><trkpt lat="56.8337263" lon="9.823795"></trkpt><trkpt lat="56.8337214" lon="9.8239029"></trkpt><trkpt lat="56.8337377" lon="9.823964"></trkpt><trkpt lat="56.833731" lon="9.8240734"></trkpt><trkpt lat="56.8337222" lon="9.8241448"></trkpt><trkpt lat="56.8337286" lon="9.8242091"></trkpt><trkpt lat="56.8337418" lon="9.8242601"></trkpt><trkpt lat="56.83370831242096" lon="9.824276807070683"></trkpt><trkpt lat="56.83370831242096" lon="9.824276807070682"></trkpt><trkpt lat="56.83370831242096" lon="9.824276807070683"></trkpt><trkpt lat="56.8336506" lon="9.8243056"></trkpt><trkpt lat="56.833556" lon="9.8243313"></trkpt><trkpt lat="56.8334559" lon="9.8243532"></trkpt><trkpt lat="56.833264" lon="9.8244027"></trkpt><trkpt lat="56.8330218" lon="9.8244815"></trkpt><trkpt lat="56.8329369" lon="9.8245441"></trkpt><trkpt lat="56.8328575" lon="9.8246317"></trkpt><trkpt lat="56.8327775" lon="9.8247604"></trkpt><trkpt lat="56.832729" lon="9.8248761"></trkpt><trkpt lat="56.8326823" lon="9.8250404"></trkpt><trkpt lat="56.8326554" lon="9.8252316"></trkpt><trkpt lat="56.8326397" lon="9.8254048"></trkpt><trkpt lat="56.8326261" lon="9.8256665"></trkpt><trkpt lat="56.8326056" lon="9.8257974"></trkpt><trkpt lat="56.8325754" lon="9.825883"></trkpt><trkpt lat="56.8325261" lon="9.8259678"></trkpt><trkpt lat="56.8324867" lon="9.8260234"></trkpt><trkpt lat="56.832496945864406" lon="9.826059337241562"></trkpt><trkpt lat="56.832496945864406" lon="9.826059337241565"></trkpt><trkpt lat="56.832496945864406" lon="9.826059337241562"></trkpt><trkpt lat="56.8325468" lon="9.8262342"></trkpt><trkpt lat="56.8325645" lon="9.8264214"></trkpt><trkpt lat="56.8326538" lon="9.8265899"></trkpt><trkpt lat="56.8326625" lon="9.8266337"></trkpt><trkpt lat="56.8326782" lon="9.826713"></trkpt><trkpt lat="56.8327118" lon="9.8268574"></trkpt><trkpt lat="56.832787" lon="9.8268303"></trkpt><trkpt lat="56.8329398" lon="9.8267438"></trkpt><trkpt lat="56.8330008" lon="9.8266978"></trkpt><trkpt lat="56.8330543" lon="9.8266575"></trkpt><trkpt lat="56.8333986" lon="9.8264491"></trkpt><trkpt lat="56.8335013" lon="9.8264694"></trkpt><trkpt lat="56.8336595" lon="9.8265506"></trkpt><trkpt lat="56.8337706" lon="9.8267029"></trkpt><trkpt lat="56.8338087" lon="9.8268738"></trkpt><trkpt lat="56.8338419" lon="9.8268611"></trkpt><trkpt lat="56.8338621" lon="9.8268979"></trkpt><trkpt lat="56.8339667" lon="9.8268795"></trkpt><trkpt lat="56.83397037735842" lon="9.826879174400556"></trkpt><trkpt lat="56.83397037735842" lon="9.826879174400558"></trkpt><trkpt lat="56.83397037735842" lon="9.826879174400556"></trkpt><trkpt lat="56.8342163" lon="9.8268574"></trkpt><trkpt lat="56.8345021" lon="9.8268795"></trkpt><trkpt lat="56.8346291" lon="9.8269406"></trkpt><trkpt lat="56.8348382" lon="9.827065"></trkpt><trkpt lat="56.8351006" lon="9.8270916"></trkpt><trkpt lat="56.8351759" lon="9.8272189"></trkpt><trkpt lat="56.8352433" lon="9.8270208"></trkpt><trkpt lat="56.8352838" lon="9.8267937"></trkpt><trkpt lat="56.8353405" lon="9.8266308"></trkpt><trkpt lat="56.8353972" lon="9.8263889"></trkpt><trkpt lat="56.83541332692271" lon="9.826352291885451"></trkpt><trkpt lat="56.83541332692271" lon="9.826352291885453"></trkpt><trkpt lat="56.83541332692271" lon="9.826352291885451"></trkpt><trkpt lat="56.8354972" lon="9.8261619"></trkpt><trkpt lat="56.8356376" lon="9.8260434"></trkpt><trkpt lat="56.8357267" lon="9.8259397"></trkpt><trkpt lat="56.8357699" lon="9.8257571"></trkpt><trkpt lat="56.8358401" lon="9.8255399"></trkpt><trkpt lat="56.8359319" lon="9.825377"></trkpt><trkpt lat="56.8360075" lon="9.8252141"></trkpt><trkpt lat="56.8360435" lon="9.8251491"></trkpt><trkpt lat="56.8360568" lon="9.8250832"></trkpt><trkpt lat="56.8360738" lon="9.8250465"></trkpt><trkpt lat="56.8360967" lon="9.8250287"></trkpt><trkpt lat="56.836124" lon="9.825026"></trkpt><trkpt lat="56.8362319" lon="9.8251158"></trkpt><trkpt lat="56.8362932" lon="9.825077"></trkpt><trkpt lat="56.8364834" lon="9.8252424"></trkpt><trkpt lat="56.836795269803986" lon="9.825543589751653"></trkpt><trkpt lat="56.8369915" lon="9.8257331"></trkpt><trkpt lat="56.837069" lon="9.8257971"></trkpt><trkpt lat="56.8371842" lon="9.8258632"></trkpt><trkpt lat="56.8372439" lon="9.8259196"></trkpt><trkpt lat="56.8373046" lon="9.8259996"></trkpt><trkpt lat="56.8374672" lon="9.8262431"></trkpt><trkpt lat="56.8376014" lon="9.8264312"></trkpt><trkpt lat="56.8377949" lon="9.8266449"></trkpt><trkpt lat="56.8378918" lon="9.8267612"></trkpt><trkpt lat="56.8379719" lon="9.8268686"></trkpt><trkpt lat="56.8381127" lon="9.8270671"></trkpt><trkpt lat="56.8381965" lon="9.8272313"></trkpt><trkpt lat="56.8382383" lon="9.8272836"></trkpt><trkpt lat="56.83827203401385" lon="9.827303495496945"></trkpt><trkpt lat="56.83827203401385" lon="9.827303495496947"></trkpt><trkpt lat="56.83827203401385" lon="9.827303495496945"></trkpt><trkpt lat="56.8383185" lon="9.8273309"></trkpt><trkpt lat="56.8383397" lon="9.8273403"></trkpt><trkpt lat="56.8384459" lon="9.827422"></trkpt><trkpt lat="56.838551" lon="9.8275194"></trkpt><trkpt lat="56.8385668" lon="9.8275991"></trkpt><trkpt lat="56.8385573" lon="9.8276896"></trkpt><trkpt lat="56.8385265" lon="9.8278016"></trkpt><trkpt lat="56.8384857" lon="9.8278807"></trkpt><trkpt lat="56.8384175" lon="9.8279424"></trkpt><trkpt lat="56.8383172" lon="9.8280269"></trkpt><trkpt lat="56.8383169" lon="9.8281008"></trkpt><trkpt lat="56.8382746" lon="9.828406"></trkpt><trkpt lat="56.8382264" lon="9.8286948"></trkpt><trkpt lat="56.8381905" lon="9.8290622"></trkpt><trkpt lat="56.8381127" lon="9.8294136"></trkpt><trkpt lat="56.8379975" lon="9.8296563"></trkpt><trkpt lat="56.83791547874777" lon="9.829787171478701"></trkpt><trkpt lat="56.837907" lon="9.8298007"></trkpt><trkpt lat="56.8378868" lon="9.8298803"></trkpt><trkpt lat="56.837805" lon="9.8298649"></trkpt><trkpt lat="56.837761" lon="9.8298629"></trkpt><trkpt lat="56.8377519" lon="9.8298462"></trkpt><trkpt lat="56.8377195" lon="9.8297868"></trkpt><trkpt lat="56.8375816" lon="9.8298405"></trkpt><trkpt lat="56.8375343" lon="9.8298957"></trkpt><trkpt lat="56.8375002" lon="9.830005"></trkpt><trkpt lat="56.8374558" lon="9.8301588"></trkpt><trkpt lat="56.8374371" lon="9.830471"></trkpt><trkpt lat="56.8374231" lon="9.8305573"></trkpt><trkpt lat="56.8374051" lon="9.8306148"></trkpt><trkpt lat="56.8373771" lon="9.8306627"></trkpt><trkpt lat="56.8373177" lon="9.8308268"></trkpt><trkpt lat="56.8373101" lon="9.8309483"></trkpt><trkpt lat="56.837313" lon="9.8310154"></trkpt><trkpt lat="56.837327" lon="9.8311081"></trkpt><trkpt lat="56.8373188" lon="9.8311336"></trkpt><trkpt lat="56.8371539" lon="9.831416"></trkpt><trkpt lat="56.8371213" lon="9.8314394"></trkpt><trkpt lat="56.8370426" lon="9.8314437"></trkpt><trkpt lat="56.8370099" lon="9.8314138"></trkpt><trkpt lat="56.836936" lon="9.8313854"></trkpt><trkpt lat="56.8368806" lon="9.8313851"></trkpt><trkpt lat="56.83687053397849" lon="9.831371183422068"></trkpt><trkpt lat="56.83687053397849" lon="9.831371183422064"></trkpt><trkpt lat="56.83687053397849" lon="9.831371183422068"></trkpt><trkpt lat="56.8368474" lon="9.8313392"></trkpt><trkpt lat="56.8368299" lon="9.8313339"></trkpt><trkpt lat="56.8368095" lon="9.8313456"></trkpt><trkpt lat="56.8367296" lon="9.8315054"></trkpt><trkpt lat="56.8367337" lon="9.8316099"></trkpt><trkpt lat="56.8367203" lon="9.8316397"></trkpt><trkpt lat="56.8366952" lon="9.8316642"></trkpt><trkpt lat="56.8366813" lon="9.8317328"></trkpt><trkpt lat="56.8366673" lon="9.8317562"></trkpt><trkpt lat="56.836625" lon="9.8317931"></trkpt><trkpt lat="56.8365612" lon="9.8319033"></trkpt><trkpt lat="56.836546" lon="9.8319587"></trkpt><trkpt lat="56.8364948" lon="9.8323188"></trkpt><trkpt lat="56.8364254" lon="9.8325692"></trkpt><trkpt lat="56.8363476" lon="9.832714"></trkpt><trkpt lat="56.836242" lon="9.8328307"></trkpt><trkpt lat="56.8361011" lon="9.8329179"></trkpt><trkpt lat="56.8359006" lon="9.8329767"></trkpt><trkpt lat="56.8358377" lon="9.8330537"></trkpt><trkpt lat="56.835828" lon="9.8331157"></trkpt><trkpt lat="56.8358385" lon="9.8332052"></trkpt><trkpt lat="56.8358455" lon="9.8333543"></trkpt><trkpt lat="56.8358304" lon="9.8334694"></trkpt><trkpt lat="56.835791689555435" lon="9.833668538122046"></trkpt><trkpt lat="56.835791689555435" lon="9.833668538122044"></trkpt><trkpt lat="56.835791689555435" lon="9.833668538122046"></trkpt><trkpt lat="56.8355927" lon="9.8346922"></trkpt><trkpt lat="56.8355106" lon="9.835014"></trkpt><trkpt lat="56.8353272" lon="9.8353815"></trkpt><trkpt lat="56.8351863" lon="9.8356765"></trkpt><trkpt lat="56.8350073" lon="9.8360547"></trkpt><trkpt lat="56.83487317878022" lon="9.836331721283035"></trkpt><trkpt lat="56.83487317878022" lon="9.836331721283033"></trkpt><trkpt lat="56.83487317878022" lon="9.836331721283035"></trkpt><trkpt lat="56.8347873" lon="9.8365091"></trkpt><trkpt lat="56.8347219" lon="9.8367382"></trkpt><trkpt lat="56.8346727" lon="9.8370512"></trkpt><trkpt lat="56.8346817" lon="9.8373627"></trkpt><trkpt lat="56.834668" lon="9.8377883"></trkpt><trkpt lat="56.8346844" lon="9.8380787"></trkpt><trkpt lat="56.8346909" lon="9.8383108"></trkpt><trkpt lat="56.8347345" lon="9.8386236"></trkpt><trkpt lat="56.8347143" lon="9.8388733"></trkpt><trkpt lat="56.8347056" lon="9.8390625"></trkpt><trkpt lat="56.8346237" lon="9.8393311"></trkpt><trkpt lat="56.8345336" lon="9.8394067"></trkpt><trkpt lat="56.83448713110917" lon="9.839437301464693"></trkpt><trkpt lat="56.83448713110917" lon="9.839437301464695"></trkpt><trkpt lat="56.83448713110917" lon="9.839437301464693"></trkpt><trkpt lat="56.834468" lon="9.8394499"></trkpt><trkpt lat="56.8343771" lon="9.8396198"></trkpt><trkpt lat="56.8342758" lon="9.8397505"></trkpt><trkpt lat="56.8341452" lon="9.8398666"></trkpt><trkpt lat="56.8341411" lon="9.8398829"></trkpt><trkpt lat="56.83411" lon="9.840006"></trkpt><trkpt lat="56.8340396" lon="9.8401509"></trkpt><trkpt lat="56.8339721" lon="9.8402206"></trkpt><trkpt lat="56.8339251" lon="9.8403118"></trkpt><trkpt lat="56.8339193" lon="9.8404835"></trkpt><trkpt lat="56.8338547" lon="9.8407249"></trkpt><trkpt lat="56.8337755" lon="9.8409073"></trkpt><trkpt lat="56.8336728" lon="9.8410682"></trkpt><trkpt lat="56.8336141" lon="9.8411755"></trkpt><trkpt lat="56.8335608" lon="9.8412739"></trkpt><trkpt lat="56.8334275" lon="9.8413231"></trkpt><trkpt lat="56.8333107" lon="9.8413872"></trkpt><trkpt lat="56.8331962" lon="9.8414814"></trkpt><trkpt lat="56.8331605" lon="9.841523"></trkpt><trkpt lat="56.833155315404355" lon="9.841529203458965"></trkpt><trkpt lat="56.833155315404355" lon="9.841529203458963"></trkpt><trkpt lat="56.833155315404355" lon="9.841529203458965"></trkpt><trkpt lat="56.8331203" lon="9.8415711"></trkpt><trkpt lat="56.8329949" lon="9.8417857"></trkpt><trkpt lat="56.8328591" lon="9.8420486"></trkpt><trkpt lat="56.8327564" lon="9.8423101"></trkpt><trkpt lat="56.8326753" lon="9.8425391"></trkpt><trkpt lat="56.8326199" lon="9.8427386"></trkpt><trkpt lat="56.8325925" lon="9.8428752"></trkpt><trkpt lat="56.8325228" lon="9.8429423"></trkpt><trkpt lat="56.8324471" lon="9.8429593"></trkpt><trkpt lat="56.8323071" lon="9.8429808"></trkpt><trkpt lat="56.8322083" lon="9.8430083"></trkpt><trkpt lat="56.8321909" lon="9.8429817"></trkpt><trkpt lat="56.8321722" lon="9.8429827"></trkpt><trkpt lat="56.8321685" lon="9.8430114"></trkpt><trkpt lat="56.832126" lon="9.8430624"></trkpt><trkpt lat="56.8320784" lon="9.8431145"></trkpt><trkpt lat="56.83205884243924" lon="9.843129429951393"></trkpt><trkpt lat="56.83205884243924" lon="9.843129429951395"></trkpt><trkpt lat="56.83205884243924" lon="9.843129429951393"></trkpt><trkpt lat="56.8320205" lon="9.8431587"></trkpt><trkpt lat="56.8319437" lon="9.8431842"></trkpt><trkpt lat="56.8318142" lon="9.8421514"></trkpt><trkpt lat="56.8317173" lon="9.8421852"></trkpt><trkpt lat="56.8317029" lon="9.8420482"></trkpt><trkpt lat="56.831693" lon="9.8419917"></trkpt><trkpt lat="56.8316772" lon="9.8419545"></trkpt><trkpt lat="56.831654" lon="9.8419406"></trkpt><trkpt lat="56.8316309" lon="9.8419476"></trkpt><trkpt lat="56.8315845" lon="9.8415812"></trkpt><trkpt lat="56.83157218681946" lon="9.841388064574538"></trkpt></trkseg></trk></gpx>
