<?xml version="1.0" encoding="UTF-8"?>
<gpx version="1.1" creator="Good Shit" xmlns="http://www.topografix.com/GPX/1/1"><trk><name>Drbákov–Albertovy skály cliff loop — Drbákov–Albertovy skály OSM-aligned loop</name><trkseg><trkpt lat="49.717746" lon="14.3701025"></trkpt><trkpt lat="49.7179093" lon="14.3698931"></trkpt><trkpt lat="49.7182983" lon="14.3697688"></trkpt><trkpt lat="49.7188857" lon="14.3697331"></trkpt><trkpt lat="49.71926" lon="14.36952"></trkpt><trkpt lat="49.7195601" lon="14.3695524"></trkpt><trkpt lat="49.71985" lon="14.36969"></trkpt><trkpt lat="49.7203764" lon="14.3700203"></trkpt><trkpt lat="49.720538" lon="14.3700488"></trkpt><trkpt lat="49.7206733" lon="14.3700044"></trkpt><trkpt lat="49.7208089" lon="14.3693008"></trkpt><trkpt lat="49.7208264" lon="14.3690267"></trkpt><trkpt lat="49.72073" lon="14.36862"></trkpt><trkpt lat="49.7208542" lon="14.3682622"></trkpt><trkpt lat="49.720932" lon="14.3680392"></trkpt><trkpt lat="49.7208542" lon="14.3682622"></trkpt><trkpt lat="49.72073" lon="14.36862"></trkpt><trkpt lat="49.7203124" lon="14.3681449"></trkpt><trkpt lat="49.7202041" lon="14.3678722"></trkpt><trkpt lat="49.720103" lon="14.3676177"></trkpt><trkpt lat="49.719976" lon="14.3674122"></trkpt><trkpt lat="49.7197897" lon="14.3672446"></trkpt><trkpt lat="49.7193997" lon="14.3668447"></trkpt><trkpt lat="49.71915" lon="14.3666"></trkpt><trkpt lat="49.7188874" lon="14.3663241"></trkpt><trkpt lat="49.7187497" lon="14.365788"></trkpt><trkpt lat="49.718689" lon="14.3654035"></trkpt><trkpt lat="49.7186727" lon="14.3648475"></trkpt><trkpt lat="49.7186073" lon="14.3646591"></trkpt><trkpt lat="49.7184707" lon="14.3645403"></trkpt><trkpt lat="49.7181996" lon="14.3642166"></trkpt><trkpt lat="49.7179488" lon="14.3635791"></trkpt><trkpt lat="49.7177419" lon="14.363062"></trkpt><trkpt lat="49.7176453" lon="14.362922"></trkpt><trkpt lat="49.717577" lon="14.3628404"></trkpt><trkpt lat="49.717487" lon="14.3627011"></trkpt><trkpt lat="49.7174187" lon="14.3625187"></trkpt><trkpt lat="49.7174218" lon="14.3623218"></trkpt><trkpt lat="49.7174382" lon="14.3621301"></trkpt><trkpt lat="49.7175181" lon="14.3620289"></trkpt><trkpt lat="49.7176329" lon="14.3619521"></trkpt><trkpt lat="49.7177136" lon="14.3619089"></trkpt><trkpt lat="49.7177531" lon="14.3617284"></trkpt><trkpt lat="49.7177585" lon="14.3616197"></trkpt><trkpt lat="49.7177693" lon="14.3615194"></trkpt><trkpt lat="49.717845" lon="14.3614943"></trkpt><trkpt lat="49.7179098" lon="14.3615194"></trkpt><trkpt lat="49.7179801" lon="14.3615194"></trkpt><trkpt lat="49.7180558" lon="14.3615278"></trkpt><trkpt lat="49.718153" lon="14.3615445"></trkpt><trkpt lat="49.7182503" lon="14.3615361"></trkpt><trkpt lat="49.7183206" lon="14.361486"></trkpt><trkpt lat="49.7183717" lon="14.3614283"></trkpt><trkpt lat="49.7183925" lon="14.3613152"></trkpt><trkpt lat="49.7184048" lon="14.3611517"></trkpt><trkpt lat="49.7183854" lon="14.3608674"></trkpt><trkpt lat="49.7183692" lon="14.3607503"></trkpt><trkpt lat="49.7183584" lon="14.36065"></trkpt><trkpt lat="49.7183584" lon="14.3605413"></trkpt><trkpt lat="49.7183638" lon="14.360441"></trkpt><trkpt lat="49.71838" lon="14.360324"></trkpt><trkpt lat="49.7184071" lon="14.3601652"></trkpt><trkpt lat="49.7184287" lon="14.3600481"></trkpt><trkpt lat="49.7184773" lon="14.3599394"></trkpt><trkpt lat="49.7185098" lon="14.3598391"></trkpt><trkpt lat="49.7185206" lon="14.3597388"></trkpt><trkpt lat="49.7185206" lon="14.3596134"></trkpt><trkpt lat="49.7185044" lon="14.3595048"></trkpt><trkpt lat="49.7184827" lon="14.3593961"></trkpt><trkpt lat="49.7184665" lon="14.3592958"></trkpt><trkpt lat="49.7184557" lon="14.3591704"></trkpt><trkpt lat="49.7184557" lon="14.359045"></trkpt><trkpt lat="49.7184611" lon="14.3588945"></trkpt><trkpt lat="49.7184719" lon="14.3587942"></trkpt><trkpt lat="49.7184935" lon="14.3586939"></trkpt><trkpt lat="49.7185044" lon="14.3585936"></trkpt><trkpt lat="49.7184989" lon="14.3584932"></trkpt><trkpt lat="49.7184665" lon="14.3583929"></trkpt><trkpt lat="49.7184287" lon="14.3583093"></trkpt><trkpt lat="49.71838" lon="14.3582341"></trkpt><trkpt lat="49.718326" lon="14.3581589"></trkpt><trkpt lat="49.7182611" lon="14.3580836"></trkpt><trkpt lat="49.7181909" lon="14.3580084"></trkpt><trkpt lat="49.7181206" lon="14.3579415"></trkpt><trkpt lat="49.7180558" lon="14.3578746"></trkpt><trkpt lat="49.7180017" lon="14.3578161"></trkpt><trkpt lat="49.7179422" lon="14.3577493"></trkpt><trkpt lat="49.7178774" lon="14.3576657"></trkpt><trkpt lat="49.7178287" lon="14.3575653"></trkpt><trkpt lat="49.7177855" lon="14.3574817"></trkpt><trkpt lat="49.7177531" lon="14.3573898"></trkpt><trkpt lat="49.7177206" lon="14.3572978"></trkpt><trkpt lat="49.717672" lon="14.3571975"></trkpt><trkpt lat="49.7176288" lon="14.3571056"></trkpt><trkpt lat="49.7175909" lon="14.357022"></trkpt><trkpt lat="49.7175369" lon="14.3569133"></trkpt><trkpt lat="49.7174018" lon="14.356696"></trkpt><trkpt lat="49.7173786" lon="14.3565026"></trkpt><trkpt lat="49.7172896" lon="14.3561401"></trkpt><trkpt lat="49.71729" lon="14.3554"></trkpt><trkpt lat="49.7173465" lon="14.3551208"></trkpt><trkpt lat="49.7173227" lon="14.3548632"></trkpt><trkpt lat="49.717229" lon="14.3544534"></trkpt><trkpt lat="49.7173703" lon="14.3541483"></trkpt><trkpt lat="49.7174008" lon="14.3540384"></trkpt><trkpt lat="49.7175201" lon="14.3540226"></trkpt><trkpt lat="49.7176482" lon="14.3541214"></trkpt><trkpt lat="49.7177221" lon="14.3542748"></trkpt><trkpt lat="49.7178146" lon="14.3547226"></trkpt><trkpt lat="49.7179022" lon="14.3552139"></trkpt><trkpt lat="49.7180532" lon="14.3555981"></trkpt><trkpt lat="49.7182525" lon="14.3557514"></trkpt><trkpt lat="49.7184791" lon="14.3559451"></trkpt><trkpt lat="49.7187293" lon="14.3560382"></trkpt><trkpt lat="49.7188673" lon="14.3561123"></trkpt><trkpt lat="49.7191344" lon="14.3562349"></trkpt><trkpt lat="49.7192218" lon="14.3562831"></trkpt><trkpt lat="49.7192646" lon="14.3563107"></trkpt><trkpt lat="49.7193145" lon="14.3563658"></trkpt><trkpt lat="49.7193466" lon="14.356421"></trkpt><trkpt lat="49.7193822" lon="14.3565037"></trkpt><trkpt lat="49.7193894" lon="14.356603"></trkpt><trkpt lat="49.7193894" lon="14.3567022"></trkpt><trkpt lat="49.7193751" lon="14.356796"></trkpt><trkpt lat="49.7193715" lon="14.3568898"></trkpt><trkpt lat="49.7193608" lon="14.3570166"></trkpt><trkpt lat="49.719343" lon="14.3571214"></trkpt><trkpt lat="49.7193394" lon="14.3572041"></trkpt><trkpt lat="49.7193287" lon="14.3572813"></trkpt><trkpt lat="49.7193181" lon="14.357353"></trkpt><trkpt lat="49.7192967" lon="14.3574302"></trkpt><trkpt lat="49.719286" lon="14.3575185"></trkpt><trkpt lat="49.7192717" lon="14.3575957"></trkpt><trkpt lat="49.7192681" lon="14.3576619"></trkpt><trkpt lat="49.7192646" lon="14.3577281"></trkpt><trkpt lat="49.7192646" lon="14.3577998"></trkpt><trkpt lat="49.7192646" lon="14.357877"></trkpt><trkpt lat="49.7192717" lon="14.3579432"></trkpt><trkpt lat="49.7192788" lon="14.3580093"></trkpt><trkpt lat="49.7193002" lon="14.3583292"></trkpt><trkpt lat="49.7193287" lon="14.3585002"></trkpt><trkpt lat="49.7193252" lon="14.3585664"></trkpt><trkpt lat="49.7193466" lon="14.3586436"></trkpt><trkpt lat="49.7193858" lon="14.3587043"></trkpt><trkpt lat="49.7193537" lon="14.3588035"></trkpt><trkpt lat="49.7193216" lon="14.3589028"></trkpt><trkpt lat="49.7193002" lon="14.3590131"></trkpt><trkpt lat="49.7192717" lon="14.3591069"></trkpt><trkpt lat="49.7192503" lon="14.3591841"></trkpt><trkpt lat="49.7192218" lon="14.3592779"></trkpt><trkpt lat="49.7191897" lon="14.3593771"></trkpt><trkpt lat="49.7191826" lon="14.3594654"></trkpt><trkpt lat="49.7191861" lon="14.3595977"></trkpt><trkpt lat="49.7191754" lon="14.3597025"></trkpt><trkpt lat="49.7191576" lon="14.3598128"></trkpt><trkpt lat="49.7191398" lon="14.3599231"></trkpt><trkpt lat="49.7191184" lon="14.3600445"></trkpt><trkpt lat="49.7191077" lon="14.3601493"></trkpt><trkpt lat="49.7191077" lon="14.360232"></trkpt><trkpt lat="49.7191112" lon="14.3603313"></trkpt><trkpt lat="49.7191291" lon="14.360403"></trkpt><trkpt lat="49.7191897" lon="14.3604802"></trkpt><trkpt lat="49.719236" lon="14.3605629"></trkpt><trkpt lat="49.7192111" lon="14.3606181"></trkpt><trkpt lat="49.7191719" lon="14.3606842"></trkpt><trkpt lat="49.7191505" lon="14.360778"></trkpt><trkpt lat="49.7191184" lon="14.3609159"></trkpt><trkpt lat="49.7191005" lon="14.3610151"></trkpt><trkpt lat="49.7190898" lon="14.3610924"></trkpt><trkpt lat="49.7190827" lon="14.3611972"></trkpt><trkpt lat="49.7190756" lon="14.3613075"></trkpt><trkpt lat="49.7190827" lon="14.3614343"></trkpt><trkpt lat="49.7190934" lon="14.3615336"></trkpt><trkpt lat="49.7191077" lon="14.3616329"></trkpt><trkpt lat="49.7191219" lon="14.3617266"></trkpt><trkpt lat="49.7191433" lon="14.3618369"></trkpt><trkpt lat="49.719154" lon="14.3619472"></trkpt><trkpt lat="49.7191612" lon="14.362063"></trkpt><trkpt lat="49.7191612" lon="14.3621403"></trkpt><trkpt lat="49.7191754" lon="14.3622395"></trkpt><trkpt lat="49.7192039" lon="14.3623002"></trkpt><trkpt lat="49.7192432" lon="14.3623609"></trkpt><trkpt lat="49.7192931" lon="14.3624326"></trkpt><trkpt lat="49.7193323" lon="14.3624877"></trkpt><trkpt lat="49.7193751" lon="14.3625374"></trkpt><trkpt lat="49.7194108" lon="14.362587"></trkpt><trkpt lat="49.7194429" lon="14.3626366"></trkpt><trkpt lat="49.7194749" lon="14.3627083"></trkpt><trkpt lat="49.7194928" lon="14.3627911"></trkpt><trkpt lat="49.7194963" lon="14.3628683"></trkpt><trkpt lat="49.7194999" lon="14.3629731"></trkpt><trkpt lat="49.7194999" lon="14.3630778"></trkpt><trkpt lat="49.7194999" lon="14.3631716"></trkpt><trkpt lat="49.7195106" lon="14.3632709"></trkpt><trkpt lat="49.7195142" lon="14.3634529"></trkpt><trkpt lat="49.7195249" lon="14.3635301"></trkpt><trkpt lat="49.7195463" lon="14.3636018"></trkpt><trkpt lat="49.7195748" lon="14.363668"></trkpt><trkpt lat="49.7195997" lon="14.3637342"></trkpt><trkpt lat="49.7196425" lon="14.3637893"></trkpt><trkpt lat="49.7197103" lon="14.3638555"></trkpt><trkpt lat="49.7197495" lon="14.3639051"></trkpt><trkpt lat="49.719778" lon="14.3639603"></trkpt><trkpt lat="49.7198387" lon="14.364214"></trkpt><trkpt lat="49.7199421" lon="14.364407"></trkpt><trkpt lat="49.7199741" lon="14.3644511"></trkpt><trkpt lat="49.7200169" lon="14.3645063"></trkpt><trkpt lat="49.7200526" lon="14.3645614"></trkpt><trkpt lat="49.7200776" lon="14.3646442"></trkpt><trkpt lat="49.7201061" lon="14.3647269"></trkpt><trkpt lat="49.7201203" lon="14.3648041"></trkpt><trkpt lat="49.720131" lon="14.3648979"></trkpt><trkpt lat="49.7201453" lon="14.3650413"></trkpt><trkpt lat="49.7201489" lon="14.365113"></trkpt><trkpt lat="49.7201631" lon="14.3652233"></trkpt><trkpt lat="49.7201881" lon="14.3653115"></trkpt><trkpt lat="49.7202131" lon="14.3653777"></trkpt><trkpt lat="49.7202451" lon="14.3654604"></trkpt><trkpt lat="49.7202951" lon="14.3655542"></trkpt><trkpt lat="49.7203343" lon="14.3656038"></trkpt><trkpt lat="49.7203664" lon="14.3656755"></trkpt><trkpt lat="49.7203878" lon="14.3657362"></trkpt><trkpt lat="49.7204127" lon="14.3658079"></trkpt><trkpt lat="49.7204662" lon="14.3658961"></trkpt><trkpt lat="49.7204983" lon="14.3659458"></trkpt><trkpt lat="49.7205304" lon="14.3659899"></trkpt><trkpt lat="49.7205625" lon="14.3660395"></trkpt><trkpt lat="49.7206088" lon="14.3660726"></trkpt><trkpt lat="49.7206516" lon="14.3661002"></trkpt><trkpt lat="49.7207301" lon="14.3661664"></trkpt><trkpt lat="49.7207836" lon="14.3661829"></trkpt><trkpt lat="49.7208264" lon="14.3661884"></trkpt><trkpt lat="49.7208691" lon="14.366227"></trkpt><trkpt lat="49.7209155" lon="14.3662767"></trkpt><trkpt lat="49.7209511" lon="14.3663153"></trkpt><trkpt lat="49.7209832" lon="14.3663815"></trkpt><trkpt lat="49.7210082" lon="14.3664477"></trkpt><trkpt lat="49.7210439" lon="14.3664863"></trkpt><trkpt lat="49.7210938" lon="14.3665194"></trkpt><trkpt lat="49.7211401" lon="14.3665083"></trkpt><trkpt lat="49.7211829" lon="14.3664477"></trkpt><trkpt lat="49.7212257" lon="14.3664587"></trkpt><trkpt lat="49.7213849" lon="14.3664618"></trkpt><trkpt lat="49.7215395" lon="14.3664891"></trkpt><trkpt lat="49.7216647" lon="14.3665387"></trkpt><trkpt lat="49.7217543" lon="14.3666875"></trkpt><trkpt lat="49.7218033" lon="14.3667786"></trkpt><trkpt lat="49.7218426" lon="14.3668282"></trkpt><trkpt lat="49.7218639" lon="14.3669164"></trkpt><trkpt lat="49.7218639" lon="14.3669881"></trkpt><trkpt lat="49.7218568" lon="14.3670598"></trkpt><trkpt lat="49.721839" lon="14.3671481"></trkpt><trkpt lat="49.7218568" lon="14.3672529"></trkpt><trkpt lat="49.7218746" lon="14.3673301"></trkpt><trkpt lat="49.7219067" lon="14.3674514"></trkpt><trkpt lat="49.7219281" lon="14.3675397"></trkpt><trkpt lat="49.7219531" lon="14.3676224"></trkpt><trkpt lat="49.7219887" lon="14.3676775"></trkpt><trkpt lat="49.7220208" lon="14.3677217"></trkpt><trkpt lat="49.7220708" lon="14.3677603"></trkpt><trkpt lat="49.7221171" lon="14.3677934"></trkpt><trkpt lat="49.7221777" lon="14.3678265"></trkpt><trkpt lat="49.7222348" lon="14.3678761"></trkpt><trkpt lat="49.7222633" lon="14.3679368"></trkpt><trkpt lat="49.7222883" lon="14.3680416"></trkpt><trkpt lat="49.7222989" lon="14.3681077"></trkpt><trkpt lat="49.7223061" lon="14.368207"></trkpt><trkpt lat="49.7223168" lon="14.3682842"></trkpt><trkpt lat="49.7223417" lon="14.3683394"></trkpt><trkpt lat="49.7223845" lon="14.368378"></trkpt><trkpt lat="49.7224273" lon="14.3684111"></trkpt><trkpt lat="49.7224772" lon="14.3684387"></trkpt><trkpt lat="49.72252" lon="14.3684607"></trkpt><trkpt lat="49.7225735" lon="14.3684883"></trkpt><trkpt lat="49.7227054" lon="14.368582"></trkpt><trkpt lat="49.7227589" lon="14.3686703"></trkpt><trkpt lat="49.7228266" lon="14.3688192"></trkpt><trkpt lat="49.7228659" lon="14.3688799"></trkpt><trkpt lat="49.722898" lon="14.3689295"></trkpt><trkpt lat="49.7229206" lon="14.3689706"></trkpt><trkpt lat="49.7229657" lon="14.368913"></trkpt><trkpt lat="49.7229907" lon="14.3688578"></trkpt><trkpt lat="49.7230228" lon="14.3688082"></trkpt><trkpt lat="49.7230584" lon="14.3687696"></trkpt><trkpt lat="49.7230941" lon="14.368731"></trkpt><trkpt lat="49.7231297" lon="14.3686868"></trkpt><trkpt lat="49.7231654" lon="14.3686427"></trkpt><trkpt lat="49.7232046" lon="14.3686096"></trkpt><trkpt lat="49.7232296" lon="14.3685545"></trkpt><trkpt lat="49.7232438" lon="14.3684773"></trkpt><trkpt lat="49.7232723" lon="14.3684166"></trkpt><trkpt lat="49.7232973" lon="14.3683614"></trkpt><trkpt lat="49.7233436" lon="14.3683504"></trkpt><trkpt lat="49.7233686" lon="14.3684056"></trkpt><trkpt lat="49.7234151" lon="14.3684764"></trkpt><trkpt lat="49.7234934" lon="14.3685159"></trkpt><trkpt lat="49.7235362" lon="14.3685434"></trkpt><trkpt lat="49.7235825" lon="14.3685655"></trkpt><trkpt lat="49.7236396" lon="14.368582"></trkpt><trkpt lat="49.7236895" lon="14.3685986"></trkpt><trkpt lat="49.723743" lon="14.3685986"></trkpt><trkpt lat="49.7238" lon="14.3685986"></trkpt><trkpt lat="49.7238535" lon="14.3685986"></trkpt><trkpt lat="49.7238999" lon="14.368582"></trkpt><trkpt lat="49.7239426" lon="14.36856"></trkpt><trkpt lat="49.7239854" lon="14.3685214"></trkpt><trkpt lat="49.7240318" lon="14.3684883"></trkpt><trkpt lat="49.7240746" lon="14.3684497"></trkpt><trkpt lat="49.7241316" lon="14.3684111"></trkpt><trkpt lat="49.7241708" lon="14.368378"></trkpt><trkpt lat="49.7242207" lon="14.3683449"></trkpt><trkpt lat="49.7242707" lon="14.3683063"></trkpt><trkpt lat="49.7243206" lon="14.3682622"></trkpt><trkpt lat="49.7243562" lon="14.3682236"></trkpt><trkpt lat="49.7243883" lon="14.3681794"></trkpt><trkpt lat="49.7244347" lon="14.3681629"></trkpt><trkpt lat="49.7244775" lon="14.3681794"></trkpt><trkpt lat="49.7245202" lon="14.3682015"></trkpt><trkpt lat="49.7245666" lon="14.3682291"></trkpt><trkpt lat="49.7246129" lon="14.3682291"></trkpt><trkpt lat="49.724809" lon="14.368218"></trkpt><trkpt lat="49.7250372" lon="14.3681794"></trkpt><trkpt lat="49.7252012" lon="14.3680581"></trkpt><trkpt lat="49.7253189" lon="14.3679147"></trkpt><trkpt lat="49.7253938" lon="14.3677327"></trkpt><trkpt lat="49.7254544" lon="14.3676665"></trkpt><trkpt lat="49.7255649" lon="14.3677437"></trkpt><trkpt lat="49.7256505" lon="14.3678926"></trkpt><trkpt lat="49.725679" lon="14.3679533"></trkpt><trkpt lat="49.7257182" lon="14.3679864"></trkpt><trkpt lat="49.7257717" lon="14.3679864"></trkpt><trkpt lat="49.725818" lon="14.3679864"></trkpt><trkpt lat="49.7258644" lon="14.3679754"></trkpt><trkpt lat="49.7259072" lon="14.3679699"></trkpt><trkpt lat="49.7259535" lon="14.3679478"></trkpt><trkpt lat="49.7260141" lon="14.3679037"></trkpt><trkpt lat="49.7260569" lon="14.3678651"></trkpt><trkpt lat="49.7260926" lon="14.3678209"></trkpt><trkpt lat="49.7261318" lon="14.3677823"></trkpt><trkpt lat="49.726171" lon="14.3677437"></trkpt><trkpt lat="49.7262066" lon="14.3676996"></trkpt><trkpt lat="49.7262494" lon="14.3676665"></trkpt><trkpt lat="49.7263065" lon="14.3676224"></trkpt><trkpt lat="49.7263493" lon="14.3675893"></trkpt><trkpt lat="49.726499" lon="14.3673742"></trkpt><trkpt lat="49.7265584" lon="14.3672644"></trkpt><trkpt lat="49.7266665" lon="14.3672414"></trkpt><trkpt lat="49.7267759" lon="14.3672957"></trkpt><trkpt lat="49.7268718" lon="14.3673166"></trkpt><trkpt lat="49.7269168" lon="14.3674293"></trkpt><trkpt lat="49.72693" lon="14.3675143"></trkpt><trkpt lat="49.7269959" lon="14.367507"></trkpt><trkpt lat="49.7270476" lon="14.3673688"></trkpt><trkpt lat="49.7271041" lon="14.367376"></trkpt><trkpt lat="49.7271747" lon="14.3674052"></trkpt><trkpt lat="49.7272452" lon="14.3673688"></trkpt><trkpt lat="49.7272829" lon="14.367296"></trkpt><trkpt lat="49.7273346" lon="14.3671868"></trkpt><trkpt lat="49.7273769" lon="14.3671213"></trkpt><trkpt lat="49.7274146" lon="14.3670558"></trkpt><trkpt lat="49.7274569" lon="14.3669976"></trkpt><trkpt lat="49.727504" lon="14.3669321"></trkpt><trkpt lat="49.7275604" lon="14.3669103"></trkpt><trkpt lat="49.7276216" lon="14.3669394"></trkpt><trkpt lat="49.7276686" lon="14.3670122"></trkpt><trkpt lat="49.7277251" lon="14.3670195"></trkpt><trkpt lat="49.7277815" lon="14.3669758"></trkpt><trkpt lat="49.7278333" lon="14.366903"></trkpt><trkpt lat="49.7278615" lon="14.366823"></trkpt><trkpt lat="49.7279226" lon="14.3668084"></trkpt><trkpt lat="49.7279885" lon="14.3667647"></trkpt><trkpt lat="49.7280591" lon="14.3666847"></trkpt><trkpt lat="49.7281108" lon="14.3666119"></trkpt><trkpt lat="49.7281625" lon="14.3665537"></trkpt><trkpt lat="49.7282096" lon="14.3664955"></trkpt><trkpt lat="49.7282849" lon="14.3664518"></trkpt><trkpt lat="49.728346" lon="14.3664518"></trkpt><trkpt lat="49.7284025" lon="14.3664664"></trkpt><trkpt lat="49.7284636" lon="14.3664736"></trkpt><trkpt lat="49.7285201" lon="14.3664882"></trkpt><trkpt lat="49.7285812" lon="14.3665173"></trkpt><trkpt lat="49.7286424" lon="14.3665391"></trkpt><trkpt lat="49.7287035" lon="14.3665683"></trkpt><trkpt lat="49.7287788" lon="14.366561"></trkpt><trkpt lat="49.7288352" lon="14.3665319"></trkpt><trkpt lat="49.7288964" lon="14.3664664"></trkpt><trkpt lat="49.7289623" lon="14.3664591"></trkpt><trkpt lat="49.7290328" lon="14.3664591"></trkpt><trkpt lat="49.7291034" lon="14.3664591"></trkpt><trkpt lat="49.7292398" lon="14.3663645"></trkpt><trkpt lat="49.7293423" lon="14.3662074"></trkpt><trkpt lat="49.7294636" lon="14.3660923"></trkpt><trkpt lat="49.7295706" lon="14.3660052"></trkpt><trkpt lat="49.7297456" lon="14.3659539"></trkpt><trkpt lat="49.7299026" lon="14.3659298"></trkpt><trkpt lat="49.7299849" lon="14.3659353"></trkpt><trkpt lat="49.7300635" lon="14.3659523"></trkpt><trkpt lat="49.7301856" lon="14.3660073"></trkpt><trkpt lat="49.7303022" lon="14.3660807"></trkpt><trkpt lat="49.7303916" lon="14.3663061"></trkpt><trkpt lat="49.7304272" lon="14.3664802"></trkpt><trkpt lat="49.7304466" lon="14.3666408"></trkpt><trkpt lat="49.7305041" lon="14.3667646"></trkpt><trkpt lat="49.7306067" lon="14.3668352"></trkpt><trkpt lat="49.7309616" lon="14.3668846"></trkpt><trkpt lat="49.7312192" lon="14.3669078"></trkpt><trkpt lat="49.7314769" lon="14.3669813"></trkpt><trkpt lat="49.7317082" lon="14.3671554"></trkpt><trkpt lat="49.7318945" lon="14.3672909"></trkpt><trkpt lat="49.7321297" lon="14.3673605"></trkpt><trkpt lat="49.732301" lon="14.3674573"></trkpt><trkpt lat="49.7324812" lon="14.3675851"></trkpt><trkpt lat="49.7325811" lon="14.3677146"></trkpt><trkpt lat="49.7326809" lon="14.3677806"></trkpt><trkpt lat="49.7326123" lon="14.3680336"></trkpt><trkpt lat="49.7325686" lon="14.3681303"></trkpt><trkpt lat="49.7324598" lon="14.3682116"></trkpt><trkpt lat="49.7320652" lon="14.3683432"></trkpt><trkpt lat="49.7314821" lon="14.368429"></trkpt><trkpt lat="49.7312855" lon="14.3684263"></trkpt><trkpt lat="49.7311316" lon="14.3684418"></trkpt><trkpt lat="49.7308765" lon="14.3684012"></trkpt><trkpt lat="49.7307239" lon="14.3684167"></trkpt><trkpt lat="49.7305364" lon="14.3684147"></trkpt><trkpt lat="49.730275" lon="14.3685452"></trkpt><trkpt lat="49.7300398" lon="14.368669"></trkpt><trkpt lat="49.7297972" lon="14.3687541"></trkpt><trkpt lat="49.7296471" lon="14.3685925"></trkpt><trkpt lat="49.7295799" lon="14.3684173"></trkpt><trkpt lat="49.7294172" lon="14.3683517"></trkpt><trkpt lat="49.7292774" lon="14.368483"></trkpt><trkpt lat="49.729044" lon="14.3685487"></trkpt><trkpt lat="49.728814" lon="14.3685678"></trkpt><trkpt lat="49.7286867" lon="14.368587"></trkpt><trkpt lat="49.7285717" lon="14.3686063"></trkpt><trkpt lat="49.7283003" lon="14.3684979"></trkpt><trkpt lat="49.7282584" lon="14.368532"></trkpt><trkpt lat="49.7281779" lon="14.3686045"></trkpt><trkpt lat="49.7280452" lon="14.3686223"></trkpt><trkpt lat="49.7279258" lon="14.3687112"></trkpt><trkpt lat="49.727825" lon="14.3688193"></trkpt><trkpt lat="49.7277401" lon="14.368926"></trkpt><trkpt lat="49.7276393" lon="14.3688768"></trkpt><trkpt lat="49.72757" lon="14.368841"></trkpt><trkpt lat="49.7274392" lon="14.3686741"></trkpt><trkpt lat="49.7273401" lon="14.3685099"></trkpt><trkpt lat="49.7271951" lon="14.3684141"></trkpt><trkpt lat="49.7270659" lon="14.3683977"></trkpt><trkpt lat="49.7268997" lon="14.3683868"></trkpt><trkpt lat="49.7267263" lon="14.3683156"></trkpt><trkpt lat="49.7266043" lon="14.3682992"></trkpt><trkpt lat="49.7264628" lon="14.3684169"></trkpt><trkpt lat="49.7262753" lon="14.3686385"></trkpt><trkpt lat="49.7261161" lon="14.3688027"></trkpt><trkpt lat="49.7260112" lon="14.3689268"></trkpt><trkpt lat="49.7259699" lon="14.368948"></trkpt><trkpt lat="49.7256674" lon="14.3695347"></trkpt><trkpt lat="49.7255603" lon="14.3692836"></trkpt><trkpt lat="49.7256674" lon="14.3695347"></trkpt><trkpt lat="49.7256356" lon="14.3696279"></trkpt><trkpt lat="49.7254097" lon="14.3700053"></trkpt><trkpt lat="49.7250594" lon="14.3703814"></trkpt><trkpt lat="49.7247521" lon="14.3708833"></trkpt><trkpt lat="49.7245613" lon="14.3711836"></trkpt><trkpt lat="49.7243683" lon="14.3715026"></trkpt><trkpt lat="49.724275" lon="14.3716737"></trkpt><trkpt lat="49.7242553" lon="14.3718453"></trkpt><trkpt lat="49.7240253" lon="14.3720724"></trkpt><trkpt lat="49.7238964" lon="14.372088"></trkpt><trkpt lat="49.7236824" lon="14.3721139"></trkpt><trkpt lat="49.723411" lon="14.37213"></trkpt><trkpt lat="49.7231996" lon="14.3721507"></trkpt><trkpt lat="49.7228516" lon="14.3721547"></trkpt><trkpt lat="49.7224874" lon="14.3721422"></trkpt><trkpt lat="49.7223491" lon="14.3720636"></trkpt><trkpt lat="49.72215" lon="14.3719135"></trkpt><trkpt lat="49.7219994" lon="14.3717737"></trkpt><trkpt lat="49.7216747" lon="14.3712198"></trkpt><trkpt lat="49.7215207" lon="14.3709376"></trkpt><trkpt lat="49.721494" lon="14.3706854"></trkpt><trkpt lat="49.7213409" lon="14.3705463"></trkpt><trkpt lat="49.7211061" lon="14.3703341"></trkpt><trkpt lat="49.7208166" lon="14.3701235"></trkpt><trkpt lat="49.7206733" lon="14.3700044"></trkpt><trkpt lat="49.720538" lon="14.3700488"></trkpt><trkpt lat="49.7203764" lon="14.3700203"></trkpt><trkpt lat="49.71985" lon="14.36969"></trkpt><trkpt lat="49.7195601" lon="14.3695524"></trkpt><trkpt lat="49.71926" lon="14.36952"></trkpt><trkpt lat="49.7188857" lon="14.3697331"></trkpt><trkpt lat="49.7182983" lon="14.3697688"></trkpt><trkpt lat="49.7179093" lon="14.3698931"></trkpt><trkpt lat="49.717746" lon="14.3701025"></trkpt></trkseg></trk></gpx>
