<?xml version="1.0" encoding="UTF-8"?>
<gpx version="1.1" creator="Good Shit" xmlns="http://www.topografix.com/GPX/1/1"><trk><name>Vieux Emosson geological loop — Vieux Emosson geological loop</name><trkseg><trkpt lat="46.067962909498696" lon="6.93660843367981"></trkpt><trkpt lat="46.0679618" lon="6.9365486"></trkpt><trkpt lat="46.0679411" lon="6.9365539"></trkpt><trkpt lat="46.0679308" lon="6.936562"></trkpt><trkpt lat="46.0679204" lon="6.9365702"></trkpt><trkpt lat="46.0678057" lon="6.9367365"></trkpt><trkpt lat="46.067757" lon="6.9368028"></trkpt><trkpt lat="46.067735" lon="6.9368395"></trkpt><trkpt lat="46.0677186" lon="6.9368725"></trkpt><trkpt lat="46.0677039" lon="6.9369081"></trkpt><trkpt lat="46.0675876" lon="6.9372252"></trkpt><trkpt lat="46.0675709" lon="6.9372619"></trkpt><trkpt lat="46.0675551" lon="6.9372923"></trkpt><trkpt lat="46.0675376" lon="6.9373213"></trkpt><trkpt lat="46.0675157" lon="6.9373441"></trkpt><trkpt lat="46.0674928" lon="6.9373656"></trkpt><trkpt lat="46.0674709" lon="6.937382"></trkpt><trkpt lat="46.0673838" lon="6.9374587"></trkpt><trkpt lat="46.0673541" lon="6.9374851"></trkpt><trkpt lat="46.0673226" lon="6.9375199"></trkpt><trkpt lat="46.0672056" lon="6.9376516"></trkpt><trkpt lat="46.0671857" lon="6.9376666"></trkpt><trkpt lat="46.0671686" lon="6.9376736"></trkpt><trkpt lat="46.0671506" lon="6.9376717"></trkpt><trkpt lat="46.0671322" lon="6.9376641"></trkpt><trkpt lat="46.0671173" lon="6.9376502"></trkpt><trkpt lat="46.0671076" lon="6.9376299"></trkpt><trkpt lat="46.0671047" lon="6.9376176"></trkpt><trkpt lat="46.0671031" lon="6.9376013"></trkpt><trkpt lat="46.0671024" lon="6.9375781"></trkpt><trkpt lat="46.0671056" lon="6.9375533"></trkpt><trkpt lat="46.0671132" lon="6.9375296"></trkpt><trkpt lat="46.0671265" lon="6.9375076"></trkpt><trkpt lat="46.067222" lon="6.9373832"></trkpt><trkpt lat="46.0672344" lon="6.9373593"></trkpt><trkpt lat="46.0672445" lon="6.937339"></trkpt><trkpt lat="46.0672551" lon="6.9373087"></trkpt><trkpt lat="46.0672656" lon="6.9372783"></trkpt><trkpt lat="46.0672743" lon="6.9372476"></trkpt><trkpt lat="46.0672845" lon="6.9372048"></trkpt><trkpt lat="46.067359983496694" lon="6.936885184262631"></trkpt><trkpt lat="46.0674305" lon="6.9365866"></trkpt><trkpt lat="46.067437" lon="6.9365523"></trkpt><trkpt lat="46.0674431" lon="6.9365153"></trkpt><trkpt lat="46.0674476" lon="6.936476"></trkpt><trkpt lat="46.0674503" lon="6.9364368"></trkpt><trkpt lat="46.0674501" lon="6.9363953"></trkpt><trkpt lat="46.0674481" lon="6.9363501"></trkpt><trkpt lat="46.0674437" lon="6.9363108"></trkpt><trkpt lat="46.0674358" lon="6.9362716"></trkpt><trkpt lat="46.067427" lon="6.9362375"></trkpt><trkpt lat="46.0673559" lon="6.9360037"></trkpt><trkpt lat="46.0673497" lon="6.9359643"></trkpt><trkpt lat="46.0673434" lon="6.9359242"></trkpt><trkpt lat="46.0673403" lon="6.935883"></trkpt><trkpt lat="46.0673411" lon="6.935843"></trkpt><trkpt lat="46.067344" lon="6.9357998"></trkpt><trkpt lat="46.0673508" lon="6.9357525"></trkpt><trkpt lat="46.0673575" lon="6.9357093"></trkpt><trkpt lat="46.0673697" lon="6.9356676"></trkpt><trkpt lat="46.0673826" lon="6.9356327"></trkpt><trkpt lat="46.06745" lon="6.9354893"></trkpt><trkpt lat="46.0674604" lon="6.9354691"></trkpt><trkpt lat="46.0674686" lon="6.9354489"></trkpt><trkpt lat="46.0674749" lon="6.9354259"></trkpt><trkpt lat="46.0674788" lon="6.9354016"></trkpt><trkpt lat="46.0674807" lon="6.9353751"></trkpt><trkpt lat="46.0674821" lon="6.9353132"></trkpt><trkpt lat="46.0674807" lon="6.9352797"></trkpt><trkpt lat="46.0674787" lon="6.9352475"></trkpt><trkpt lat="46.0674759" lon="6.9352158"></trkpt><trkpt lat="46.0674584" lon="6.9350465"></trkpt><trkpt lat="46.0674575" lon="6.9350201"></trkpt><trkpt lat="46.0674597" lon="6.9349918"></trkpt><trkpt lat="46.0674628" lon="6.9349651"></trkpt><trkpt lat="46.0674686" lon="6.9349385"></trkpt><trkpt lat="46.0674773" lon="6.934917"></trkpt><trkpt lat="46.0674879" lon="6.9348968"></trkpt><trkpt lat="46.0674998" lon="6.9348784"></trkpt><trkpt lat="46.0675109" lon="6.9348656"></trkpt><trkpt lat="46.0675251" lon="6.9348523"></trkpt><trkpt lat="46.0675362" lon="6.9348432"></trkpt><trkpt lat="46.0675608" lon="6.9348289"></trkpt><trkpt lat="46.0675773" lon="6.9348221"></trkpt><trkpt lat="46.0675914" lon="6.9348183"></trkpt><trkpt lat="46.0676064" lon="6.9348155"></trkpt><trkpt lat="46.0676238" lon="6.9348128"></trkpt><trkpt lat="46.0676403" lon="6.9348119"></trkpt><trkpt lat="46.0676567" lon="6.9348119"></trkpt><trkpt lat="46.0676714" lon="6.9348128"></trkpt><trkpt lat="46.0676983" lon="6.9348206"></trkpt><trkpt lat="46.0677067" lon="6.9347773"></trkpt><trkpt lat="46.0677232" lon="6.9346917"></trkpt><trkpt lat="46.06773146328132" lon="6.934645197433587"></trkpt><trkpt lat="46.0677471" lon="6.9345572"></trkpt><trkpt lat="46.0677634" lon="6.9344576"></trkpt><trkpt lat="46.06778" lon="6.934341"></trkpt><trkpt lat="46.0677898" lon="6.9342474"></trkpt><trkpt lat="46.0677975" lon="6.934169"></trkpt><trkpt lat="46.0678029" lon="6.9340942"></trkpt><trkpt lat="46.0678085" lon="6.9340226"></trkpt><trkpt lat="46.067813" lon="6.9339239"></trkpt><trkpt lat="46.0678174" lon="6.9338453"></trkpt><trkpt lat="46.0678193" lon="6.9337639"></trkpt><trkpt lat="46.0678196" lon="6.9336929"></trkpt><trkpt lat="46.0678193" lon="6.9335994"></trkpt><trkpt lat="46.0678193" lon="6.9334979"></trkpt><trkpt lat="46.0678155" lon="6.9333956"></trkpt><trkpt lat="46.0678104" lon="6.9333023"></trkpt><trkpt lat="46.0678016" lon="6.933199"></trkpt><trkpt lat="46.0677927" lon="6.9330979"></trkpt><trkpt lat="46.0677768" lon="6.9329934"></trkpt><trkpt lat="46.0677546" lon="6.9328599"></trkpt><trkpt lat="46.0677331" lon="6.9327465"></trkpt><trkpt lat="46.067708" lon="6.9326386"></trkpt><trkpt lat="46.0676855" lon="6.9325372"></trkpt><trkpt lat="46.0676576" lon="6.9324293"></trkpt><trkpt lat="46.0676335" lon="6.9323453"></trkpt><trkpt lat="46.0676088" lon="6.9322657"></trkpt><trkpt lat="46.0675839" lon="6.9321913"></trkpt><trkpt lat="46.06755638584391" lon="6.932121843532777"></trkpt><trkpt lat="46.06755638584391" lon="6.932121843532776"></trkpt><trkpt lat="46.06755638584391" lon="6.932121843532777"></trkpt><trkpt lat="46.0675511" lon="6.9321085"></trkpt><trkpt lat="46.0675206" lon="6.9320363"></trkpt><trkpt lat="46.0674711" lon="6.9319248"></trkpt><trkpt lat="46.0674233" lon="6.9318361"></trkpt><trkpt lat="46.0673773" lon="6.9317511"></trkpt><trkpt lat="46.0673018" lon="6.9316258"></trkpt><trkpt lat="46.0672555" lon="6.9315555"></trkpt><trkpt lat="46.0672162" lon="6.9314997"></trkpt><trkpt lat="46.0671792" lon="6.9314462"></trkpt><trkpt lat="46.0671432" lon="6.9313982"></trkpt><trkpt lat="46.0671103" lon="6.9313516"></trkpt><trkpt lat="46.0670773" lon="6.9313096"></trkpt><trkpt lat="46.0670449" lon="6.9312703"></trkpt><trkpt lat="46.067005" lon="6.9312273"></trkpt><trkpt lat="46.0669703" lon="6.9311932"></trkpt><trkpt lat="46.0667388" lon="6.930976"></trkpt><trkpt lat="46.0666999" lon="6.9309476"></trkpt><trkpt lat="46.0666638" lon="6.9309183"></trkpt><trkpt lat="46.0666264" lon="6.9308882"></trkpt><trkpt lat="46.0665902" lon="6.9308644"></trkpt><trkpt lat="46.0665496" lon="6.9308379"></trkpt><trkpt lat="46.0664844" lon="6.9308003"></trkpt><trkpt lat="46.066431" lon="6.9307684"></trkpt><trkpt lat="46.0663688" lon="6.9307322"></trkpt><trkpt lat="46.066313" lon="6.9307053"></trkpt><trkpt lat="46.0662566" lon="6.9306797"></trkpt><trkpt lat="46.0662103" lon="6.9306605"></trkpt><trkpt lat="46.0661566" lon="6.9306372"></trkpt><trkpt lat="46.06614382317208" lon="6.9306282658270915"></trkpt><trkpt lat="46.06614382317208" lon="6.930628265827093"></trkpt><trkpt lat="46.06614382317208" lon="6.9306282658270915"></trkpt><trkpt lat="46.0661433" lon="6.9306279"></trkpt><trkpt lat="46.0661325" lon="6.9306192"></trkpt><trkpt lat="46.0661234" lon="6.930602"></trkpt><trkpt lat="46.0661139" lon="6.9305764"></trkpt><trkpt lat="46.0661085" lon="6.930546"></trkpt><trkpt lat="46.0661058" lon="6.9305128"></trkpt><trkpt lat="46.0661029" lon="6.9304018"></trkpt><trkpt lat="46.0660979" lon="6.9303344"></trkpt><trkpt lat="46.0660874" lon="6.9302641"></trkpt><trkpt lat="46.0660755" lon="6.9302034"></trkpt><trkpt lat="46.0660624" lon="6.9301521"></trkpt><trkpt lat="46.0660426" lon="6.9300925"></trkpt><trkpt lat="46.0660229" lon="6.9300439"></trkpt><trkpt lat="46.0659992" lon="6.9299908"></trkpt><trkpt lat="46.0659689" lon="6.929932"></trkpt><trkpt lat="46.0659343" lon="6.9298681"></trkpt><trkpt lat="46.0658984" lon="6.9298143"></trkpt><trkpt lat="46.0658727" lon="6.9297725"></trkpt><trkpt lat="46.0658484" lon="6.9297364"></trkpt><trkpt lat="46.0658221" lon="6.9297013"></trkpt><trkpt lat="46.0657944" lon="6.9296653"></trkpt><trkpt lat="46.0657647" lon="6.9296282"></trkpt><trkpt lat="46.0657351" lon="6.9295931"></trkpt><trkpt lat="46.0654925" lon="6.9293238"></trkpt><trkpt lat="46.0654778" lon="6.9293069"></trkpt><trkpt lat="46.0654652" lon="6.9292865"></trkpt><trkpt lat="46.0654547" lon="6.9292617"></trkpt><trkpt lat="46.0654459" lon="6.9292262"></trkpt><trkpt lat="46.0654422" lon="6.9291964"></trkpt><trkpt lat="46.0654416" lon="6.9291721"></trkpt><trkpt lat="46.0654421" lon="6.9291421"></trkpt><trkpt lat="46.0654433" lon="6.9290705"></trkpt><trkpt lat="46.0654466" lon="6.9290233"></trkpt><trkpt lat="46.0654583" lon="6.9288557"></trkpt><trkpt lat="46.0654597" lon="6.9288147"></trkpt><trkpt lat="46.0654583" lon="6.928768"></trkpt><trkpt lat="46.0654549" lon="6.9287157"></trkpt><trkpt lat="46.0654496" lon="6.9286638"></trkpt><trkpt lat="46.0654473" lon="6.928648"></trkpt><trkpt lat="46.06529323197292" lon="6.928727344542341"></trkpt><trkpt lat="46.06529323197292" lon="6.928727344542339"></trkpt><trkpt lat="46.06529323197292" lon="6.928727344542341"></trkpt><trkpt lat="46.0652906" lon="6.9287287"></trkpt><trkpt lat="46.0652025" lon="6.9287808"></trkpt><trkpt lat="46.0651381" lon="6.9287645"></trkpt><trkpt lat="46.0650917" lon="6.9287253"></trkpt><trkpt lat="46.0650469" lon="6.9285992"></trkpt><trkpt lat="46.0650082" lon="6.9284945"></trkpt><trkpt lat="46.0649816" lon="6.9283589"></trkpt><trkpt lat="46.0649302" lon="6.9281577"></trkpt><trkpt lat="46.0649245" lon="6.9281219"></trkpt><trkpt lat="46.0648569" lon="6.9281118"></trkpt><trkpt lat="46.0648441" lon="6.928028"></trkpt><trkpt lat="46.0648371" lon="6.9279186"></trkpt><trkpt lat="46.0648967" lon="6.9278083"></trkpt><trkpt lat="46.0648934" lon="6.9277067"></trkpt><trkpt lat="46.064905" lon="6.9276591"></trkpt><trkpt lat="46.0648999" lon="6.927539"></trkpt><trkpt lat="46.0649115" lon="6.9275042"></trkpt><trkpt lat="46.0649115" lon="6.9274834"></trkpt><trkpt lat="46.0648994" lon="6.9274646"></trkpt><trkpt lat="46.0648915" lon="6.9274069"></trkpt><trkpt lat="46.0648841" lon="6.9273151"></trkpt><trkpt lat="46.0648762" lon="6.9272654"></trkpt><trkpt lat="46.0648603" lon="6.92724"></trkpt><trkpt lat="46.0648701" lon="6.9271615"></trkpt><trkpt lat="46.0648692" lon="6.9271146"></trkpt><trkpt lat="46.0648748" lon="6.927075"></trkpt><trkpt lat="46.0648938" lon="6.9270522"></trkpt><trkpt lat="46.0649134" lon="6.92701"></trkpt><trkpt lat="46.0649245" lon="6.9269617"></trkpt><trkpt lat="46.0649287" lon="6.9269355"></trkpt><trkpt lat="46.0649473" lon="6.9268987"></trkpt><trkpt lat="46.0649692" lon="6.9268396"></trkpt><trkpt lat="46.0649841" lon="6.9267954"></trkpt><trkpt lat="46.0649911" lon="6.9267344"></trkpt><trkpt lat="46.0649804" lon="6.9267163"></trkpt><trkpt lat="46.064968413453684" lon="6.926699336341024"></trkpt><trkpt lat="46.064968413453684" lon="6.926699336341023"></trkpt><trkpt lat="46.064968413453684" lon="6.926699336341024"></trkpt><trkpt lat="46.0649515" lon="6.9266754"></trkpt><trkpt lat="46.0649483" lon="6.9266418"></trkpt><trkpt lat="46.064925" lon="6.9266217"></trkpt><trkpt lat="46.0649222" lon="6.9265996"></trkpt><trkpt lat="46.0649324" lon="6.9265553"></trkpt><trkpt lat="46.0649515" lon="6.9264628"></trkpt><trkpt lat="46.0649664" lon="6.9263642"></trkpt><trkpt lat="46.064978" lon="6.9262826"></trkpt><trkpt lat="46.0650085" lon="6.9262486"></trkpt><trkpt lat="46.0650548" lon="6.9261952"></trkpt><trkpt lat="46.0651364" lon="6.9261609"></trkpt><trkpt lat="46.0651585" lon="6.9260908"></trkpt><trkpt lat="46.0652059" lon="6.926038"></trkpt><trkpt lat="46.0652309" lon="6.9260398"></trkpt><trkpt lat="46.0652418" lon="6.9259471"></trkpt><trkpt lat="46.0652632" lon="6.925801"></trkpt><trkpt lat="46.0652856" lon="6.9257185"></trkpt><trkpt lat="46.0653261" lon="6.9256159"></trkpt><trkpt lat="46.0653926" lon="6.9254845"></trkpt><trkpt lat="46.0655103" lon="6.925233"></trkpt><trkpt lat="46.0655391" lon="6.9251807"></trkpt><trkpt lat="46.0655568" lon="6.9251304"></trkpt><trkpt lat="46.0655638" lon="6.9250694"></trkpt><trkpt lat="46.0655582" lon="6.9249722"></trkpt><trkpt lat="46.0655405" lon="6.9248816"></trkpt><trkpt lat="46.0654918" lon="6.9247228"></trkpt><trkpt lat="46.06538669741462" lon="6.924411692249708"></trkpt><trkpt lat="46.06538669741462" lon="6.924411692249709"></trkpt><trkpt lat="46.06538669741462" lon="6.924411692249708"></trkpt><trkpt lat="46.0652866" lon="6.9241154"></trkpt><trkpt lat="46.0652341" lon="6.923975"></trkpt><trkpt lat="46.0652086" lon="6.9237943"></trkpt><trkpt lat="46.0652023" lon="6.9236158"></trkpt><trkpt lat="46.0652028" lon="6.923451"></trkpt><trkpt lat="46.0652085" lon="6.9233784"></trkpt><trkpt lat="46.0651672" lon="6.9233592"></trkpt><trkpt lat="46.0651563" lon="6.9232009"></trkpt><trkpt lat="46.0651635" lon="6.9230568"></trkpt><trkpt lat="46.0651941" lon="6.922932"></trkpt><trkpt lat="46.065238" lon="6.9227604"></trkpt><trkpt lat="46.0652827" lon="6.9226851"></trkpt><trkpt lat="46.0653332" lon="6.9225074"></trkpt><trkpt lat="46.0653146" lon="6.9223856"></trkpt><trkpt lat="46.0652997" lon="6.9222732"></trkpt><trkpt lat="46.065290753483914" lon="6.922205850415788"></trkpt><trkpt lat="46.0652658" lon="6.922018"></trkpt><trkpt lat="46.0652403" lon="6.92182"></trkpt><trkpt lat="46.0651829" lon="6.9215805"></trkpt><trkpt lat="46.0651141" lon="6.9213736"></trkpt><trkpt lat="46.0650727" lon="6.9211823"></trkpt><trkpt lat="46.065044" lon="6.9210781"></trkpt><trkpt lat="46.0650091" lon="6.9210372"></trkpt><trkpt lat="46.064982" lon="6.9209512"></trkpt><trkpt lat="46.0649539" lon="6.9207385"></trkpt><trkpt lat="46.0649102" lon="6.9205118"></trkpt><trkpt lat="46.0649277" lon="6.9204362"></trkpt><trkpt lat="46.0649002" lon="6.9203413"></trkpt><trkpt lat="46.0648702" lon="6.920142"></trkpt><trkpt lat="46.0647842" lon="6.9198898"></trkpt><trkpt lat="46.064759864506605" lon="6.919828859359094"></trkpt><trkpt lat="46.064759864506605" lon="6.919828859359096"></trkpt><trkpt lat="46.064759864506605" lon="6.919828859359094"></trkpt><trkpt lat="46.0646648" lon="6.9195908"></trkpt><trkpt lat="46.0646701" lon="6.9194209"></trkpt><trkpt lat="46.0645882" lon="6.9192063"></trkpt><trkpt lat="46.0644616" lon="6.9190132"></trkpt><trkpt lat="46.064484" lon="6.9189274"></trkpt><trkpt lat="46.0644095" lon="6.9185841"></trkpt><trkpt lat="46.0643797" lon="6.9182944"></trkpt><trkpt lat="46.0643276" lon="6.9181656"></trkpt><trkpt lat="46.0643425" lon="6.9180691"></trkpt><trkpt lat="46.0643946" lon="6.9180047"></trkpt><trkpt lat="46.0643351" lon="6.9179403"></trkpt><trkpt lat="46.0641936" lon="6.9175863"></trkpt><trkpt lat="46.06421729001099" lon="6.917546498661633"></trkpt><trkpt lat="46.06421729001099" lon="6.9175464986616335"></trkpt><trkpt lat="46.06421729001099" lon="6.917546498661633"></trkpt><trkpt lat="46.0642383" lon="6.9175112"></trkpt><trkpt lat="46.0642457" lon="6.9173503"></trkpt><trkpt lat="46.0640671" lon="6.9169426"></trkpt><trkpt lat="46.0640969" lon="6.9168889"></trkpt><trkpt lat="46.0640894" lon="6.9168138"></trkpt><trkpt lat="46.0639256" lon="6.9164812"></trkpt><trkpt lat="46.0639554" lon="6.9164061"></trkpt><trkpt lat="46.0639108" lon="6.9163096"></trkpt><trkpt lat="46.063948" lon="6.9162774"></trkpt><trkpt lat="46.0638065" lon="6.916095"></trkpt><trkpt lat="46.0637023" lon="6.915977"></trkpt><trkpt lat="46.0636725" lon="6.9159233"></trkpt><trkpt lat="46.0636651" lon="6.915816"></trkpt><trkpt lat="46.0635609" lon="6.9156336"></trkpt><trkpt lat="46.063546" lon="6.9154727"></trkpt><trkpt lat="46.0634939" lon="6.9154405"></trkpt><trkpt lat="46.0635088" lon="6.9153869"></trkpt><trkpt lat="46.0634418" lon="6.915344"></trkpt><trkpt lat="46.0633971" lon="6.915301"></trkpt><trkpt lat="46.06333813244138" lon="6.915234903527576"></trkpt><trkpt lat="46.06333813244138" lon="6.915234903527578"></trkpt><trkpt lat="46.06333813244138" lon="6.915234903527576"></trkpt><trkpt lat="46.0633301" lon="6.9152259"></trkpt><trkpt lat="46.0632929" lon="6.9151723"></trkpt><trkpt lat="46.0632929" lon="6.9151187"></trkpt><trkpt lat="46.063211" lon="6.9149577"></trkpt><trkpt lat="46.0630695" lon="6.9148397"></trkpt><trkpt lat="46.0630025" lon="6.9147539"></trkpt><trkpt lat="46.0629504" lon="6.914668"></trkpt><trkpt lat="46.062876" lon="6.9146037"></trkpt><trkpt lat="46.0628016" lon="6.9145286"></trkpt><trkpt lat="46.0627494" lon="6.914432"></trkpt><trkpt lat="46.0626899" lon="6.9143676"></trkpt><trkpt lat="46.0626303" lon="6.9141638"></trkpt><trkpt lat="46.0625708" lon="6.9140672"></trkpt><trkpt lat="46.0625187" lon="6.9140136"></trkpt><trkpt lat="46.0623996" lon="6.9141209"></trkpt><trkpt lat="46.0623251" lon="6.9140994"></trkpt><trkpt lat="46.0623028" lon="6.9140243"></trkpt><trkpt lat="46.0621911" lon="6.9139814"></trkpt><trkpt lat="46.0621315" lon="6.9138741"></trkpt><trkpt lat="46.06208461711228" lon="6.91377269113195"></trkpt><trkpt lat="46.06208461711228" lon="6.9137726911319515"></trkpt><trkpt lat="46.06208461711228" lon="6.91377269113195"></trkpt><trkpt lat="46.062072" lon="6.9137454"></trkpt><trkpt lat="46.0619901" lon="6.9136488"></trkpt><trkpt lat="46.0618933" lon="6.9135522"></trkpt><trkpt lat="46.0618561" lon="6.9134771"></trkpt><trkpt lat="46.0617109" lon="6.9133752"></trkpt><trkpt lat="46.0616477" lon="6.9132197"></trkpt><trkpt lat="46.0614988" lon="6.9130695"></trkpt><trkpt lat="46.0614988" lon="6.9129944"></trkpt><trkpt lat="46.0614169" lon="6.9129085"></trkpt><trkpt lat="46.0613796" lon="6.9128012"></trkpt><trkpt lat="46.0613424" lon="6.9126403"></trkpt><trkpt lat="46.0612159" lon="6.9124579"></trkpt><trkpt lat="46.0611712" lon="6.9124043"></trkpt><trkpt lat="46.0611861" lon="6.9122219"></trkpt><trkpt lat="46.0611489" lon="6.9120931"></trkpt><trkpt lat="46.0610298" lon="6.9119858"></trkpt><trkpt lat="46.060967335498646" lon="6.911840415163687"></trkpt><trkpt lat="46.060967335498646" lon="6.911840415163686"></trkpt><trkpt lat="46.060967335498646" lon="6.911840415163687"></trkpt><trkpt lat="46.060933" lon="6.9117605"></trkpt><trkpt lat="46.0609082" lon="6.9117011"></trkpt><trkpt lat="46.0608883" lon="6.9116532"></trkpt><trkpt lat="46.0609255" lon="6.9115889"></trkpt><trkpt lat="46.0608883" lon="6.9114709"></trkpt><trkpt lat="46.0605533" lon="6.9111275"></trkpt><trkpt lat="46.0605235" lon="6.9109237"></trkpt><trkpt lat="46.0604342" lon="6.9107306"></trkpt><trkpt lat="46.0603448" lon="6.9106018"></trkpt><trkpt lat="46.0602778" lon="6.9104945"></trkpt><trkpt lat="46.0602108" lon="6.9103443"></trkpt><trkpt lat="46.0601289" lon="6.910237"></trkpt><trkpt lat="46.0600917" lon="6.9100761"></trkpt><trkpt lat="46.0600173" lon="6.9099581"></trkpt><trkpt lat="46.0599279" lon="6.9098723"></trkpt><trkpt lat="46.0598758" lon="6.9097972"></trkpt><trkpt lat="46.0598982" lon="6.9096577"></trkpt><trkpt lat="46.0598535" lon="6.9095611"></trkpt><trkpt lat="46.0598535" lon="6.9093948"></trkpt><trkpt lat="46.0598312" lon="6.9093197"></trkpt><trkpt lat="46.059753" lon="6.9092124"></trkpt><trkpt lat="46.059686" lon="6.9090891"></trkpt><trkpt lat="46.0597046" lon="6.9090461"></trkpt><trkpt lat="46.0596748" lon="6.9089657"></trkpt><trkpt lat="46.0595855" lon="6.9087565"></trkpt><trkpt lat="46.0595557" lon="6.9086545"></trkpt><trkpt lat="46.0596264" lon="6.9086384"></trkpt><trkpt lat="46.0595929" lon="6.9084829"></trkpt><trkpt lat="46.0595669" lon="6.9084829"></trkpt><trkpt lat="46.0594887" lon="6.9083649"></trkpt><trkpt lat="46.0594031" lon="6.9081288"></trkpt><trkpt lat="46.0592877" lon="6.9080484"></trkpt><trkpt lat="46.05926775161871" lon="6.907990860717419"></trkpt><trkpt lat="46.05926775161871" lon="6.907990860717418"></trkpt><trkpt lat="46.05926775161871" lon="6.907990860717419"></trkpt><trkpt lat="46.0592505" lon="6.9079411"></trkpt><trkpt lat="46.0591462" lon="6.9078016"></trkpt><trkpt lat="46.0591388" lon="6.9076675"></trkpt><trkpt lat="46.0590122" lon="6.9072652"></trkpt><trkpt lat="46.0589761" lon="6.9071704"></trkpt><trkpt lat="46.0590384" lon="6.9072179"></trkpt><trkpt lat="46.0591333" lon="6.9072796"></trkpt><trkpt lat="46.0592264" lon="6.9073199"></trkpt><trkpt lat="46.0594925" lon="6.9073333"></trkpt><trkpt lat="46.0592506" lon="6.9070382"></trkpt><trkpt lat="46.0593306" lon="6.9069202"></trkpt><trkpt lat="46.0594683" lon="6.9069068"></trkpt><trkpt lat="46.05944005576917" lon="6.9068757313460925"></trkpt><trkpt lat="46.0594293" lon="6.9068639"></trkpt><trkpt lat="46.0595558" lon="6.9067781"></trkpt><trkpt lat="46.0594181" lon="6.9065554"></trkpt><trkpt lat="46.0595912" lon="6.9064267"></trkpt><trkpt lat="46.0597959" lon="6.906424"></trkpt><trkpt lat="46.0599597" lon="6.9064535"></trkpt><trkpt lat="46.0601365" lon="6.906432"></trkpt><trkpt lat="46.0602612" lon="6.9063891"></trkpt><trkpt lat="46.0604213" lon="6.9064213"></trkpt><trkpt lat="46.0604287" lon="6.9062523"></trkpt><trkpt lat="46.06041352374509" lon="6.906237952004172"></trkpt><trkpt lat="46.0603096" lon="6.9061397"></trkpt><trkpt lat="46.060269" lon="6.9060902"></trkpt><trkpt lat="46.060304" lon="6.9058285"></trkpt><trkpt lat="46.0603156" lon="6.9057147"></trkpt><trkpt lat="46.0602631" lon="6.9056167"></trkpt><trkpt lat="46.0602352" lon="6.9054879"></trkpt><trkpt lat="46.0601719" lon="6.9054423"></trkpt><trkpt lat="46.060116" lon="6.9052787"></trkpt><trkpt lat="46.0600825" lon="6.9050963"></trkpt><trkpt lat="46.0600844" lon="6.9048871"></trkpt><trkpt lat="46.0600643" lon="6.9047518"></trkpt><trkpt lat="46.0600974" lon="6.9046672"></trkpt><trkpt lat="46.0600956" lon="6.9045465"></trkpt><trkpt lat="46.0600639" lon="6.9044794"></trkpt><trkpt lat="46.0600658" lon="6.9042943"></trkpt><trkpt lat="46.0600137" lon="6.9041575"></trkpt><trkpt lat="46.0600565" lon="6.9039912"></trkpt><trkpt lat="46.06006857904767" lon="6.903895540427788"></trkpt><trkpt lat="46.06006857904767" lon="6.903895540427787"></trkpt><trkpt lat="46.06006857904767" lon="6.903895540427788"></trkpt><trkpt lat="46.0600714" lon="6.9038732"></trkpt><trkpt lat="46.0600624" lon="6.9036601"></trkpt><trkpt lat="46.0600289" lon="6.9035448"></trkpt><trkpt lat="46.0599858" lon="6.9033582"></trkpt><trkpt lat="46.0599969" lon="6.9032053"></trkpt><trkpt lat="46.060055" lon="6.9032041"></trkpt><trkpt lat="46.0600621" lon="6.9031517"></trkpt><trkpt lat="46.0600286" lon="6.9030203"></trkpt><trkpt lat="46.0600249" lon="6.9028164"></trkpt><trkpt lat="46.0600155" lon="6.9023336"></trkpt><trkpt lat="46.0600159" lon="6.9022627"></trkpt><trkpt lat="46.0600993" lon="6.9022558"></trkpt><trkpt lat="46.0600677" lon="6.9020895"></trkpt><trkpt lat="46.0601179" lon="6.9019688"></trkpt><trkpt lat="46.060118414687715" lon="6.901945557786425"></trkpt><trkpt lat="46.0601198" lon="6.901883"></trkpt><trkpt lat="46.0599915" lon="6.9015459"></trkpt><trkpt lat="46.0601495" lon="6.9013689"></trkpt><trkpt lat="46.0601551" lon="6.9013305"></trkpt><trkpt lat="46.0602783" lon="6.9013333"></trkpt><trkpt lat="46.0603331" lon="6.9011638"></trkpt><trkpt lat="46.0604193" lon="6.9010861"></trkpt><trkpt lat="46.0605023" lon="6.9011099"></trkpt><trkpt lat="46.0605384" lon="6.9009089"></trkpt><trkpt lat="46.0606436" lon="6.9005096"></trkpt><trkpt lat="46.0607778" lon="6.9002792"></trkpt><trkpt lat="46.0608456" lon="6.9001476"></trkpt><trkpt lat="46.0610615" lon="6.9001101"></trkpt><trkpt lat="46.06109422449517" lon="6.900098722666554"></trkpt><trkpt lat="46.06109422449517" lon="6.900098722666555"></trkpt><trkpt lat="46.06109422449517" lon="6.900098722666554"></trkpt><trkpt lat="46.0612289" lon="6.9000519"></trkpt><trkpt lat="46.0613398" lon="6.8999674"></trkpt><trkpt lat="46.0614276" lon="6.899893"></trkpt><trkpt lat="46.0615133" lon="6.8997851"></trkpt><trkpt lat="46.0615632" lon="6.8997025"></trkpt><trkpt lat="46.0616179" lon="6.8996922"></trkpt><trkpt lat="46.0616707" lon="6.8996946"></trkpt><trkpt lat="46.061711" lon="6.8996812"></trkpt><trkpt lat="46.0617628" lon="6.8997172"></trkpt><trkpt lat="46.0618052" lon="6.8997372"></trkpt><trkpt lat="46.0618413" lon="6.8997638"></trkpt><trkpt lat="46.0618902" lon="6.8998064"></trkpt><trkpt lat="46.0619069" lon="6.8998437"></trkpt><trkpt lat="46.061929" lon="6.8999209"></trkpt><trkpt lat="46.0619568" lon="6.900042"></trkpt><trkpt lat="46.0620039" lon="6.9001858"></trkpt><trkpt lat="46.0620334" lon="6.9002471"></trkpt><trkpt lat="46.0620747" lon="6.9002744"></trkpt><trkpt lat="46.062145" lon="6.900281"></trkpt><trkpt lat="46.0621056" lon="6.9003975"></trkpt><trkpt lat="46.062069" lon="6.9005143"></trkpt><trkpt lat="46.0620591" lon="6.9006707"></trkpt><trkpt lat="46.0620409" lon="6.9007365"></trkpt><trkpt lat="46.0620535" lon="6.9008772"></trkpt><trkpt lat="46.0621002" lon="6.9008932"></trkpt><trkpt lat="46.0621078" lon="6.9008414"></trkpt><trkpt lat="46.0621209" lon="6.9007222"></trkpt><trkpt lat="46.06213861002266" lon="6.900675001118856"></trkpt><trkpt lat="46.06213861002266" lon="6.900675001118855"></trkpt><trkpt lat="46.06213861002266" lon="6.900675001118856"></trkpt><trkpt lat="46.0621633" lon="6.9006092"></trkpt><trkpt lat="46.0621851" lon="6.9005559"></trkpt><trkpt lat="46.0621829" lon="6.9006218"></trkpt><trkpt lat="46.062196" lon="6.9006626"></trkpt><trkpt lat="46.0622428" lon="6.9005486"></trkpt><trkpt lat="46.0623145" lon="6.9002814"></trkpt><trkpt lat="46.0623701" lon="6.9002423"></trkpt><trkpt lat="46.062406" lon="6.9001193"></trkpt><trkpt lat="46.0624616" lon="6.9000623"></trkpt><trkpt lat="46.0625532" lon="6.9000777"></trkpt><trkpt lat="46.0625743" lon="6.9001509"></trkpt><trkpt lat="46.06257573887627" lon="6.900157145445014"></trkpt><trkpt lat="46.06257573887627" lon="6.9001571454450135"></trkpt><trkpt lat="46.06257573887627" lon="6.900157145445014"></trkpt><trkpt lat="46.0625743" lon="6.9001509"></trkpt><trkpt lat="46.0625532" lon="6.9000777"></trkpt><trkpt lat="46.0626044" lon="6.9000249"></trkpt><trkpt lat="46.0626544" lon="6.8998459"></trkpt><trkpt lat="46.0627328" lon="6.8996188"></trkpt><trkpt lat="46.0627551" lon="6.8995499"></trkpt><trkpt lat="46.0627977" lon="6.8995209"></trkpt><trkpt lat="46.0628416" lon="6.8995488"></trkpt><trkpt lat="46.0628079" lon="6.8996314"></trkpt><trkpt lat="46.0627736" lon="6.8996839"></trkpt><trkpt lat="46.0627542" lon="6.8997419"></trkpt><trkpt lat="46.0627629" lon="6.8998349"></trkpt><trkpt lat="46.0628184" lon="6.9000075"></trkpt><trkpt lat="46.0628866" lon="6.9001747"></trkpt><trkpt lat="46.0629401" lon="6.9002827"></trkpt><trkpt lat="46.0629789" lon="6.9003264"></trkpt><trkpt lat="46.0629946" lon="6.9003138"></trkpt><trkpt lat="46.0630134" lon="6.9003457"></trkpt><trkpt lat="46.0630496" lon="6.9004309"></trkpt><trkpt lat="46.063076" lon="6.9004977"></trkpt><trkpt lat="46.0630884" lon="6.9005346"></trkpt><trkpt lat="46.0631069" lon="6.9005518"></trkpt><trkpt lat="46.0631295" lon="6.9005715"></trkpt><trkpt lat="46.0631489" lon="6.9006091"></trkpt><trkpt lat="46.0631595" lon="6.9006059"></trkpt><trkpt lat="46.0631639" lon="6.9005792"></trkpt><trkpt lat="46.0631705" lon="6.9005219"></trkpt><trkpt lat="46.0631979" lon="6.9004316"></trkpt><trkpt lat="46.0632279" lon="6.9002948"></trkpt><trkpt lat="46.0632553" lon="6.900158"></trkpt><trkpt lat="46.063257833514484" lon="6.900136925765871"></trkpt><trkpt lat="46.063257833514484" lon="6.90013692576587"></trkpt><trkpt lat="46.063257833514484" lon="6.900136925765871"></trkpt><trkpt lat="46.0632641" lon="6.9000848"></trkpt><trkpt lat="46.0632619" lon="6.9000377"></trkpt><trkpt lat="46.0632659" lon="6.899913"></trkpt><trkpt lat="46.0632694" lon="6.8998424"></trkpt><trkpt lat="46.0632743" lon="6.8997145"></trkpt><trkpt lat="46.0633038" lon="6.8995453"></trkpt><trkpt lat="46.0632963" lon="6.8994689"></trkpt><trkpt lat="46.0632773" lon="6.899392"></trkpt><trkpt lat="46.0632487" lon="6.8993684"></trkpt><trkpt lat="46.0632367" lon="6.8993455"></trkpt><trkpt lat="46.0632398" lon="6.8993226"></trkpt><trkpt lat="46.0632615" lon="6.899315"></trkpt><trkpt lat="46.0633334" lon="6.8993213"></trkpt><trkpt lat="46.0633639" lon="6.8993341"></trkpt><trkpt lat="46.0633815" lon="6.8993315"></trkpt><trkpt lat="46.0633868" lon="6.8993143"></trkpt><trkpt lat="46.0633811" lon="6.8992768"></trkpt><trkpt lat="46.0633639" lon="6.8992036"></trkpt><trkpt lat="46.0633577" lon="6.8991635"></trkpt><trkpt lat="46.063284" lon="6.8990115"></trkpt><trkpt lat="46.0631807" lon="6.8988321"></trkpt><trkpt lat="46.063073" lon="6.898673"></trkpt><trkpt lat="46.0629829" lon="6.8985623"></trkpt><trkpt lat="46.0628593" lon="6.8984395"></trkpt><trkpt lat="46.0627705" lon="6.8983574"></trkpt><trkpt lat="46.06264356577481" lon="6.898281145786493"></trkpt><trkpt lat="46.06264356577481" lon="6.898281145786492"></trkpt><trkpt lat="46.06264356577481" lon="6.898281145786493"></trkpt><trkpt lat="46.062635" lon="6.898276"></trkpt><trkpt lat="46.0625264" lon="6.8982334"></trkpt><trkpt lat="46.0624227" lon="6.8982098"></trkpt><trkpt lat="46.0623044" lon="6.8982137"></trkpt><trkpt lat="46.0621724" lon="6.8982455"></trkpt><trkpt lat="46.0620691" lon="6.8982855"></trkpt><trkpt lat="46.0619817" lon="6.8983333"></trkpt><trkpt lat="46.0619181" lon="6.8983759"></trkpt><trkpt lat="46.0617636" lon="6.898505"></trkpt><trkpt lat="46.0617521" lon="6.8985038"></trkpt><trkpt lat="46.06156" lon="6.8980842"></trkpt><trkpt lat="46.0615486" lon="6.8980673"></trkpt><trkpt lat="46.0615393" lon="6.8980695"></trkpt><trkpt lat="46.0614991" lon="6.8981233"></trkpt><trkpt lat="46.0614726" lon="6.8981564"></trkpt><trkpt lat="46.06144" lon="6.8981628"></trkpt><trkpt lat="46.0613985" lon="6.8981526"></trkpt><trkpt lat="46.0613693" lon="6.8981119"></trkpt><trkpt lat="46.0613499" lon="6.8980482"></trkpt><trkpt lat="46.0612987" lon="6.8979668"></trkpt><trkpt lat="46.0612837" lon="6.8979057"></trkpt><trkpt lat="46.061296" lon="6.8978357"></trkpt><trkpt lat="46.061319968348506" lon="6.897744035333849"></trkpt><trkpt lat="46.061319968348506" lon="6.897744035333851"></trkpt><trkpt lat="46.061319968348506" lon="6.897744035333849"></trkpt><trkpt lat="46.0613296" lon="6.8977072"></trkpt><trkpt lat="46.0613225" lon="6.8976054"></trkpt><trkpt lat="46.0613384" lon="6.897482"></trkpt><trkpt lat="46.0613632" lon="6.8974425"></trkpt><trkpt lat="46.0614241" lon="6.897426"></trkpt><trkpt lat="46.0614691" lon="6.8974005"></trkpt><trkpt lat="46.0614885" lon="6.89737"></trkpt><trkpt lat="46.0614885" lon="6.8973344"></trkpt><trkpt lat="46.0614629" lon="6.8972911"></trkpt><trkpt lat="46.061402" lon="6.897202"></trkpt><trkpt lat="46.0613754" lon="6.8971407"></trkpt><trkpt lat="46.0613339" lon="6.8969368"></trkpt><trkpt lat="46.061342" lon="6.8967964"></trkpt><trkpt lat="46.0614081" lon="6.8966914"></trkpt><trkpt lat="46.0614345" lon="6.896569"></trkpt><trkpt lat="46.061419" lon="6.8964049"></trkpt><trkpt lat="46.0614107" lon="6.8963045"></trkpt><trkpt lat="46.0613827" lon="6.896141"></trkpt><trkpt lat="46.0613605" lon="6.8960111"></trkpt><trkpt lat="46.0613389" lon="6.8958995"></trkpt><trkpt lat="46.0613285" lon="6.8957553"></trkpt><trkpt lat="46.061315" lon="6.895664"></trkpt><trkpt lat="46.06127516497876" lon="6.895518860919594"></trkpt><trkpt lat="46.06127516497876" lon="6.895518860919595"></trkpt><trkpt lat="46.06127516497876" lon="6.895518860919594"></trkpt><trkpt lat="46.0612488" lon="6.8954228"></trkpt><trkpt lat="46.0611797" lon="6.895271"></trkpt><trkpt lat="46.0611179" lon="6.8950463"></trkpt><trkpt lat="46.0610582" lon="6.8949322"></trkpt><trkpt lat="46.0609294" lon="6.8946545"></trkpt><trkpt lat="46.0607414" lon="6.894397"></trkpt><trkpt lat="46.060734" lon="6.8942334"></trkpt><trkpt lat="46.0607972" lon="6.8941073"></trkpt><trkpt lat="46.060814" lon="6.8939732"></trkpt><trkpt lat="46.0607529" lon="6.8938379"></trkpt><trkpt lat="46.0607693" lon="6.8937345"></trkpt><trkpt lat="46.060546487715406" lon="6.893365814744345"></trkpt><trkpt lat="46.060546487715406" lon="6.893365814744344"></trkpt><trkpt lat="46.060546487715406" lon="6.893365814744345"></trkpt><trkpt lat="46.0604548" lon="6.8932141"></trkpt><trkpt lat="46.0602631" lon="6.8931337"></trkpt><trkpt lat="46.0601328" lon="6.8928762"></trkpt><trkpt lat="46.0600159" lon="6.8927838"></trkpt><trkpt lat="46.06001" lon="6.8927072"></trkpt><trkpt lat="46.059982" lon="6.8926455"></trkpt><trkpt lat="46.0600457" lon="6.8923519"></trkpt><trkpt lat="46.0599839" lon="6.8922646"></trkpt><trkpt lat="46.0599746" lon="6.8921251"></trkpt><trkpt lat="46.0599024" lon="6.8919523"></trkpt><trkpt lat="46.0595633" lon="6.8916423"></trkpt><trkpt lat="46.05948348131994" lon="6.891566698513481"></trkpt><trkpt lat="46.0592264" lon="6.8913232"></trkpt><trkpt lat="46.059178" lon="6.8912105"></trkpt><trkpt lat="46.0590756" lon="6.8911166"></trkpt><trkpt lat="46.0590295" lon="6.8910564"></trkpt><trkpt lat="46.0588374" lon="6.8908645"></trkpt><trkpt lat="46.0586178" lon="6.8905024"></trkpt><trkpt lat="46.0584004" lon="6.8900989"></trkpt><trkpt lat="46.0582232" lon="6.8897916"></trkpt><trkpt lat="46.058207066680374" lon="6.889774865725774"></trkpt><trkpt lat="46.0580836" lon="6.8896468"></trkpt><trkpt lat="46.0578978" lon="6.8894095"></trkpt><trkpt lat="46.057689" lon="6.8891801"></trkpt><trkpt lat="46.0574005" lon="6.8890004"></trkpt><trkpt lat="46.0571809" lon="6.8888341"></trkpt><trkpt lat="46.0569858" lon="6.8887041"></trkpt><trkpt lat="46.0568496" lon="6.8883915"></trkpt><trkpt lat="46.05678112703647" lon="6.88829360527929"></trkpt><trkpt lat="46.05678112703647" lon="6.888293605279292"></trkpt><trkpt lat="46.05678112703647" lon="6.88829360527929"></trkpt><trkpt lat="46.0566057" lon="6.8880428"></trkpt><trkpt lat="46.0563396" lon="6.8876593"></trkpt><trkpt lat="46.0561143" lon="6.8874045"></trkpt><trkpt lat="46.0557942" lon="6.8871282"></trkpt><trkpt lat="46.0557309" lon="6.8870263"></trkpt><trkpt lat="46.0553847" lon="6.8867205"></trkpt><trkpt lat="46.05537828869935" lon="6.88669668659759"></trkpt><trkpt lat="46.05537828869935" lon="6.886696686597589"></trkpt><trkpt lat="46.05537828869935" lon="6.88669668659759"></trkpt><trkpt lat="46.0553497" lon="6.8865905"></trkpt><trkpt lat="46.0550403" lon="6.8863074"></trkpt><trkpt lat="46.054964" lon="6.8861787"></trkpt><trkpt lat="46.0546364" lon="6.8859507"></trkpt><trkpt lat="46.0545396" lon="6.8858836"></trkpt><trkpt lat="46.0543274" lon="6.8856127"></trkpt><trkpt lat="46.0542232" lon="6.8855403"></trkpt><trkpt lat="46.0540017" lon="6.8854733"></trkpt><trkpt lat="46.0538824988837" lon="6.885317389684206"></trkpt><trkpt lat="46.0538824988837" lon="6.885317389684204"></trkpt><trkpt lat="46.0538824988837" lon="6.885317389684206"></trkpt><trkpt lat="46.0538007" lon="6.8852104"></trkpt><trkpt lat="46.0534637" lon="6.8851916"></trkpt><trkpt lat="46.0533617" lon="6.8849973"></trkpt><trkpt lat="46.0529481" lon="6.8850307"></trkpt><trkpt lat="46.0529634" lon="6.8852092"></trkpt><trkpt lat="46.0531938" lon="6.8855242"></trkpt><trkpt lat="46.0531849" lon="6.8855767"></trkpt><trkpt lat="46.05303179391174" lon="6.885568319129482"></trkpt><trkpt lat="46.0529876" lon="6.8855659"></trkpt><trkpt lat="46.0530378" lon="6.8857242"></trkpt><trkpt lat="46.0528219" lon="6.885641"></trkpt><trkpt lat="46.0527415" lon="6.8856503"></trkpt><trkpt lat="46.0525725" lon="6.8856679"></trkpt><trkpt lat="46.0523767" lon="6.8857442"></trkpt><trkpt lat="46.0522914" lon="6.8856705"></trkpt><trkpt lat="46.0522147" lon="6.8856503"></trkpt><trkpt lat="46.0521105" lon="6.8855725"></trkpt><trkpt lat="46.052049" lon="6.8854733"></trkpt><trkpt lat="46.0519187" lon="6.8853767"></trkpt><trkpt lat="46.0518406" lon="6.8853794"></trkpt><trkpt lat="46.0517497" lon="6.8853406"></trkpt><trkpt lat="46.0518555" lon="6.8856744"></trkpt><trkpt lat="46.05182422910973" lon="6.885645760440736"></trkpt><trkpt lat="46.05182422910973" lon="6.885645760440738"></trkpt><trkpt lat="46.05182422910973" lon="6.885645760440736"></trkpt><trkpt lat="46.0517735" lon="6.8855993"></trkpt><trkpt lat="46.0515986" lon="6.885543"></trkpt><trkpt lat="46.0514403" lon="6.8854223"></trkpt><trkpt lat="46.0513715" lon="6.8854143"></trkpt><trkpt lat="46.0513234" lon="6.8853379"></trkpt><trkpt lat="46.0512896" lon="6.8854438"></trkpt><trkpt lat="46.0511667" lon="6.8852909"></trkpt><trkpt lat="46.0511537" lon="6.8854169"></trkpt><trkpt lat="46.0508409" lon="6.8851273"></trkpt><trkpt lat="46.0505282" lon="6.8853848"></trkpt><trkpt lat="46.05048496678117" lon="6.885434738421551"></trkpt><trkpt lat="46.05048496678117" lon="6.8854347384215515"></trkpt><trkpt lat="46.05048496678117" lon="6.885434738421551"></trkpt><trkpt lat="46.0503309" lon="6.8856127"></trkpt><trkpt lat="46.0502512" lon="6.8857108"></trkpt><trkpt lat="46.050208" lon="6.88583"></trkpt><trkpt lat="46.050202" lon="6.8858956"></trkpt><trkpt lat="46.0502378" lon="6.8859078"></trkpt><trkpt lat="46.0503272" lon="6.8859239"></trkpt><trkpt lat="46.050396" lon="6.8859024"></trkpt><trkpt lat="46.0504817" lon="6.8859775"></trkpt><trkpt lat="46.0506976" lon="6.8860151"></trkpt><trkpt lat="46.0507739" lon="6.8860633"></trkpt><trkpt lat="46.0506957" lon="6.8861626"></trkpt><trkpt lat="46.0506343" lon="6.8862833"></trkpt><trkpt lat="46.0505747" lon="6.8862887"></trkpt><trkpt lat="46.0505319" lon="6.8863933"></trkpt><trkpt lat="46.0504649" lon="6.8864791"></trkpt><trkpt lat="46.0504128" lon="6.886691"></trkpt><trkpt lat="46.05047005115937" lon="6.886696845070747"></trkpt><trkpt lat="46.0506753" lon="6.8867178"></trkpt><trkpt lat="46.0506399" lon="6.8868707"></trkpt><trkpt lat="46.0506287" lon="6.8870531"></trkpt><trkpt lat="46.0505735" lon="6.8872696"></trkpt><trkpt lat="46.0505869" lon="6.8873337"></trkpt><trkpt lat="46.0506271" lon="6.8874387"></trkpt><trkpt lat="46.0506567" lon="6.8875674"></trkpt><trkpt lat="46.0507191" lon="6.8876684"></trkpt><trkpt lat="46.0507409" lon="6.8877767"></trkpt><trkpt lat="46.0507705" lon="6.8878089"></trkpt><trkpt lat="46.0508065" lon="6.8879543"></trkpt><trkpt lat="46.0508873" lon="6.8881868"></trkpt><trkpt lat="46.0509273" lon="6.8883067"></trkpt><trkpt lat="46.0509571" lon="6.8884278"></trkpt><trkpt lat="46.0510107" lon="6.8886434"></trkpt><trkpt lat="46.05103183764786" lon="6.888746624829249"></trkpt><trkpt lat="46.05103183764786" lon="6.888746624829251"></trkpt><trkpt lat="46.05103183764786" lon="6.888746624829249"></trkpt><trkpt lat="46.0510373" lon="6.8887733"></trkpt><trkpt lat="46.0510985" lon="6.8888676"></trkpt><trkpt lat="46.0513055" lon="6.8889261"></trkpt><trkpt lat="46.051434" lon="6.8891047"></trkpt><trkpt lat="46.0515438" lon="6.8893261"></trkpt><trkpt lat="46.0516118" lon="6.8894351"></trkpt><trkpt lat="46.0517224" lon="6.8894547"></trkpt><trkpt lat="46.0517672" lon="6.8896157"></trkpt><trkpt lat="46.051964" lon="6.8898466"></trkpt><trkpt lat="46.0520778" lon="6.8898285"></trkpt><trkpt lat="46.0521356" lon="6.8899057"></trkpt><trkpt lat="46.0522351" lon="6.8900159"></trkpt><trkpt lat="46.0523412" lon="6.8900373"></trkpt><trkpt lat="46.0523747" lon="6.8901178"></trkpt><trkpt lat="46.05244653232374" lon="6.890251570609609"></trkpt><trkpt lat="46.05244653232374" lon="6.890251570609608"></trkpt><trkpt lat="46.05244653232374" lon="6.890251570609609"></trkpt><trkpt lat="46.052464" lon="6.8902841"></trkpt><trkpt lat="46.0524677" lon="6.8903297"></trkpt><trkpt lat="46.0525329" lon="6.8904048"></trkpt><trkpt lat="46.0525757" lon="6.8904289"></trkpt><trkpt lat="46.0526837" lon="6.8905952"></trkpt><trkpt lat="46.052814" lon="6.8906864"></trkpt><trkpt lat="46.0529553" lon="6.8907949"></trkpt><trkpt lat="46.0530224" lon="6.8908084"></trkpt><trkpt lat="46.0530916" lon="6.8908605"></trkpt><trkpt lat="46.053123" lon="6.8908876"></trkpt><trkpt lat="46.0532607" lon="6.8909707"></trkpt><trkpt lat="46.0533687" lon="6.8910351"></trkpt><trkpt lat="46.0534189" lon="6.8910324"></trkpt><trkpt lat="46.0535399" lon="6.8911424"></trkpt><trkpt lat="46.0533726" lon="6.8911964"></trkpt><trkpt lat="46.0533048" lon="6.8912232"></trkpt><trkpt lat="46.0532264" lon="6.8912414"></trkpt><trkpt lat="46.0532008" lon="6.8912866"></trkpt><trkpt lat="46.0532165" lon="6.891345"></trkpt><trkpt lat="46.0532667" lon="6.8914065"></trkpt><trkpt lat="46.0534431" lon="6.8915099"></trkpt><trkpt lat="46.0534804" lon="6.8915689"></trkpt><trkpt lat="46.0535288" lon="6.8915662"></trkpt><trkpt lat="46.05353080920365" lon="6.891582620043605"></trkpt><trkpt lat="46.0535607" lon="6.8918269"></trkpt><trkpt lat="46.0536546" lon="6.8920221"></trkpt><trkpt lat="46.0537664" lon="6.8920473"></trkpt><trkpt lat="46.0538136" lon="6.892049"></trkpt><trkpt lat="46.0538917" lon="6.8922421"></trkpt><trkpt lat="46.0539029" lon="6.8923387"></trkpt><trkpt lat="46.0539197" lon="6.8923762"></trkpt><trkpt lat="46.0539401" lon="6.8924299"></trkpt><trkpt lat="46.0539541" lon="6.8924941"></trkpt><trkpt lat="46.0539494" lon="6.8925881"></trkpt><trkpt lat="46.0539513" lon="6.8926364"></trkpt><trkpt lat="46.0540164" lon="6.8927142"></trkpt><trkpt lat="46.0540251" lon="6.8928386"></trkpt><trkpt lat="46.0540016" lon="6.8929556"></trkpt><trkpt lat="46.0540337" lon="6.8930789"></trkpt><trkpt lat="46.0540369" lon="6.8931822"></trkpt><trkpt lat="46.0540996" lon="6.8932836"></trkpt><trkpt lat="46.0541461" lon="6.8933699"></trkpt><trkpt lat="46.0541792" lon="6.8934091"></trkpt><trkpt lat="46.0541819" lon="6.8934458"></trkpt><trkpt lat="46.0542231" lon="6.8935108"></trkpt><trkpt lat="46.0542654" lon="6.8935753"></trkpt><trkpt lat="46.0543366" lon="6.89361"></trkpt><trkpt lat="46.0543571" lon="6.8936851"></trkpt><trkpt lat="46.0544379" lon="6.8938295"></trkpt><trkpt lat="46.05443136445537" lon="6.893936778574091"></trkpt><trkpt lat="46.0544297" lon="6.8939641"></trkpt><trkpt lat="46.0544353" lon="6.8940392"></trkpt><trkpt lat="46.0544446" lon="6.8940714"></trkpt><trkpt lat="46.0544219" lon="6.8942612"></trkpt><trkpt lat="46.0544366" lon="6.8943729"></trkpt><trkpt lat="46.0544862" lon="6.894473"></trkpt><trkpt lat="46.0544906" lon="6.8945869"></trkpt><trkpt lat="46.0545012" lon="6.894747"></trkpt><trkpt lat="46.0545181" lon="6.8948367"></trkpt><trkpt lat="46.0545256" lon="6.8949023"></trkpt><trkpt lat="46.0545382" lon="6.8949726"></trkpt><trkpt lat="46.0545382" lon="6.8950026"></trkpt><trkpt lat="46.0545455" lon="6.8950281"></trkpt><trkpt lat="46.0545743" lon="6.8951497"></trkpt><trkpt lat="46.0547141" lon="6.8951462"></trkpt><trkpt lat="46.0547291" lon="6.8952964"></trkpt><trkpt lat="46.0547427" lon="6.8953427"></trkpt><trkpt lat="46.0547578" lon="6.8954212"></trkpt><trkpt lat="46.0547625" lon="6.8954857"></trkpt><trkpt lat="46.0547886" lon="6.8955445"></trkpt><trkpt lat="46.0548618" lon="6.8955858"></trkpt><trkpt lat="46.0549272" lon="6.8956377"></trkpt><trkpt lat="46.0548851" lon="6.8957141"></trkpt><trkpt lat="46.0548271" lon="6.8958614"></trkpt><trkpt lat="46.0548783" lon="6.8959221"></trkpt><trkpt lat="46.0549176" lon="6.8959945"></trkpt><trkpt lat="46.0549645" lon="6.8960442"></trkpt><trkpt lat="46.05499301556039" lon="6.896074274103169"></trkpt><trkpt lat="46.05499301556039" lon="6.896074274103171"></trkpt><trkpt lat="46.05499301556039" lon="6.896074274103169"></trkpt><trkpt lat="46.0550139" lon="6.8960963"></trkpt><trkpt lat="46.0550644" lon="6.8961726"></trkpt><trkpt lat="46.0550911" lon="6.8962801"></trkpt><trkpt lat="46.0551134" lon="6.8963733"></trkpt><trkpt lat="46.0551505" lon="6.8964939"></trkpt><trkpt lat="46.0551713" lon="6.8965264"></trkpt><trkpt lat="46.0551862" lon="6.8966105"></trkpt><trkpt lat="46.0552004" lon="6.8966502"></trkpt><trkpt lat="46.0551338" lon="6.8966908"></trkpt><trkpt lat="46.0551121" lon="6.8967273"></trkpt><trkpt lat="46.0551383" lon="6.8968329"></trkpt><trkpt lat="46.0552026" lon="6.8968901"></trkpt><trkpt lat="46.0552394" lon="6.8969192"></trkpt><trkpt lat="46.0552669" lon="6.8969879"></trkpt><trkpt lat="46.0552766" lon="6.8970486"></trkpt><trkpt lat="46.0552594" lon="6.8971565"></trkpt><trkpt lat="46.0553054" lon="6.8971911"></trkpt><trkpt lat="46.0553233" lon="6.8972045"></trkpt><trkpt lat="46.0554261" lon="6.8972806"></trkpt><trkpt lat="46.0554536" lon="6.8973604"></trkpt><trkpt lat="46.0554834" lon="6.8974308"></trkpt><trkpt lat="46.0555071" lon="6.8975978"></trkpt><trkpt lat="46.0554672" lon="6.8976793"></trkpt><trkpt lat="46.0554315" lon="6.8977219"></trkpt><trkpt lat="46.0554362" lon="6.8978062"></trkpt><trkpt lat="46.0554449" lon="6.8979388"></trkpt><trkpt lat="46.0554748" lon="6.8980323"></trkpt><trkpt lat="46.0554982" lon="6.8981336"></trkpt><trkpt lat="46.0555252" lon="6.8982483"></trkpt><trkpt lat="46.0555326" lon="6.898355"></trkpt><trkpt lat="46.0555297" lon="6.8984434"></trkpt><trkpt lat="46.055566197738344" lon="6.898493974400848"></trkpt><trkpt lat="46.055566197738344" lon="6.898493974400851"></trkpt><trkpt lat="46.055566197738344" lon="6.898493974400848"></trkpt><trkpt lat="46.0556303" lon="6.8985828"></trkpt><trkpt lat="46.055615" lon="6.8986532"></trkpt><trkpt lat="46.0556116" lon="6.8986687"></trkpt><trkpt lat="46.055634" lon="6.8988484"></trkpt><trkpt lat="46.0556265" lon="6.8988725"></trkpt><trkpt lat="46.055688" lon="6.899079"></trkpt><trkpt lat="46.0557736" lon="6.8991783"></trkpt><trkpt lat="46.0557866" lon="6.8992266"></trkpt><trkpt lat="46.0557547" lon="6.8993218"></trkpt><trkpt lat="46.0557664" lon="6.8994443"></trkpt><trkpt lat="46.0557755" lon="6.8995808"></trkpt><trkpt lat="46.0557625" lon="6.8996165"></trkpt><trkpt lat="46.0557951" lon="6.8996504"></trkpt><trkpt lat="46.0558158" lon="6.8997321"></trkpt><trkpt lat="46.0558451" lon="6.8997217"></trkpt><trkpt lat="46.0558524" lon="6.8997402"></trkpt><trkpt lat="46.055877" lon="6.8998025"></trkpt><trkpt lat="46.0559262" lon="6.8998569"></trkpt><trkpt lat="46.0559839" lon="6.8999695"></trkpt><trkpt lat="46.0561142" lon="6.9001814"></trkpt><trkpt lat="46.056159" lon="6.9003338"></trkpt><trkpt lat="46.0562034" lon="6.9003423"></trkpt><trkpt lat="46.0562178" lon="6.9003649"></trkpt><trkpt lat="46.0562145" lon="6.9004101"></trkpt><trkpt lat="46.056192" lon="6.9005036"></trkpt><trkpt lat="46.056206" lon="6.9005729"></trkpt><trkpt lat="46.0562054" lon="6.900635"></trkpt><trkpt lat="46.05623770432909" lon="6.900682476159949"></trkpt><trkpt lat="46.0562746" lon="6.9007367"></trkpt><trkpt lat="46.0562654" lon="6.9007969"></trkpt><trkpt lat="46.0562793" lon="6.9008501"></trkpt><trkpt lat="46.0563599" lon="6.9009673"></trkpt><trkpt lat="46.0563766" lon="6.9011122"></trkpt><trkpt lat="46.056358" lon="6.9011363"></trkpt><trkpt lat="46.0563804" lon="6.9011658"></trkpt><trkpt lat="46.0563804" lon="6.9012141"></trkpt><trkpt lat="46.0563724" lon="6.9012397"></trkpt><trkpt lat="46.056334" lon="6.901245"></trkpt><trkpt lat="46.0563154" lon="6.9012709"></trkpt><trkpt lat="46.0563647" lon="6.9013354"></trkpt><trkpt lat="46.0564234" lon="6.9014196"></trkpt><trkpt lat="46.0564899" lon="6.9015199"></trkpt><trkpt lat="46.0565685" lon="6.901617"></trkpt><trkpt lat="46.0566239" lon="6.9017364"></trkpt><trkpt lat="46.056653" lon="6.901853"></trkpt><trkpt lat="46.0566649" lon="6.9019459"></trkpt><trkpt lat="46.0566633" lon="6.9019973"></trkpt><trkpt lat="46.0566826" lon="6.902071"></trkpt><trkpt lat="46.0567138" lon="6.9021523"></trkpt><trkpt lat="46.0567723" lon="6.9022892"></trkpt><trkpt lat="46.056807" lon="6.902465"></trkpt><trkpt lat="46.0568608" lon="6.9026159"></trkpt><trkpt lat="46.0569476" lon="6.9028111"></trkpt><trkpt lat="46.05697861783593" lon="6.902973247130348"></trkpt><trkpt lat="46.05697861783593" lon="6.9029732471303475"></trkpt><trkpt lat="46.05697861783593" lon="6.902973247130348"></trkpt><trkpt lat="46.0569977" lon="6.903073"></trkpt><trkpt lat="46.0570603" lon="6.9031845"></trkpt><trkpt lat="46.057091" lon="6.9032038"></trkpt><trkpt lat="46.0571159" lon="6.9032632"></trkpt><trkpt lat="46.0571898" lon="6.9033159"></trkpt><trkpt lat="46.0572172" lon="6.9033432"></trkpt><trkpt lat="46.0572512" lon="6.9033536"></trkpt><trkpt lat="46.0573669" lon="6.9034081"></trkpt><trkpt lat="46.0573892" lon="6.9035047"></trkpt><trkpt lat="46.0574525" lon="6.9037407"></trkpt><trkpt lat="46.0575753" lon="6.9039499"></trkpt><trkpt lat="46.057728" lon="6.9041055"></trkpt><trkpt lat="46.0577875" lon="6.9042503"></trkpt><trkpt lat="46.0578173" lon="6.9043362"></trkpt><trkpt lat="46.0578731" lon="6.9043952"></trkpt><trkpt lat="46.0578955" lon="6.9044596"></trkpt><trkpt lat="46.0580512" lon="6.9046457"></trkpt><trkpt lat="46.0581034" lon="6.9047137"></trkpt><trkpt lat="46.0581036" lon="6.9047784"></trkpt><trkpt lat="46.058135990985534" lon="6.904858504652846"></trkpt><trkpt lat="46.058135990985534" lon="6.904858504652847"></trkpt><trkpt lat="46.058135990985534" lon="6.904858504652846"></trkpt><trkpt lat="46.0582038" lon="6.9050262"></trkpt><trkpt lat="46.0582528" lon="6.9051311"></trkpt><trkpt lat="46.0582967" lon="6.9052434"></trkpt><trkpt lat="46.0583639" lon="6.9053701"></trkpt><trkpt lat="46.0584235" lon="6.9055023"></trkpt><trkpt lat="46.0584477" lon="6.9055662"></trkpt><trkpt lat="46.0584587" lon="6.9056213"></trkpt><trkpt lat="46.0584887" lon="6.9056677"></trkpt><trkpt lat="46.0585288" lon="6.9057884"></trkpt><trkpt lat="46.058566" lon="6.9059375"></trkpt><trkpt lat="46.0586243" lon="6.9061255"></trkpt><trkpt lat="46.0586804" lon="6.9062362"></trkpt><trkpt lat="46.0587439" lon="6.9064025"></trkpt><trkpt lat="46.0588421" lon="6.9065922"></trkpt><trkpt lat="46.0588851" lon="6.9067458"></trkpt><trkpt lat="46.0588988" lon="6.9068238"></trkpt><trkpt lat="46.0589009" lon="6.9068724"></trkpt><trkpt lat="46.0589144" lon="6.9069867"></trkpt><trkpt lat="46.0589524" lon="6.9071081"></trkpt><trkpt lat="46.05896349901562" lon="6.9071372758933665"></trkpt><trkpt lat="46.05896349901562" lon="6.907137275893366"></trkpt><trkpt lat="46.05896349901562" lon="6.9071372758933665"></trkpt><trkpt lat="46.0589761" lon="6.9071704"></trkpt><trkpt lat="46.0590122" lon="6.9072652"></trkpt><trkpt lat="46.0591388" lon="6.9076675"></trkpt><trkpt lat="46.0591462" lon="6.9078016"></trkpt><trkpt lat="46.0592505" lon="6.9079411"></trkpt><trkpt lat="46.0592877" lon="6.9080484"></trkpt><trkpt lat="46.0594031" lon="6.9081288"></trkpt><trkpt lat="46.0594887" lon="6.9083649"></trkpt><trkpt lat="46.0595669" lon="6.9084829"></trkpt><trkpt lat="46.0595929" lon="6.9084829"></trkpt><trkpt lat="46.0596264" lon="6.9086384"></trkpt><trkpt lat="46.0595557" lon="6.9086545"></trkpt><trkpt lat="46.0595855" lon="6.9087565"></trkpt><trkpt lat="46.0596748" lon="6.9089657"></trkpt><trkpt lat="46.0597046" lon="6.9090461"></trkpt><trkpt lat="46.059686" lon="6.9090891"></trkpt><trkpt lat="46.05969844368573" lon="6.909112000096282"></trkpt><trkpt lat="46.059753" lon="6.9092124"></trkpt><trkpt lat="46.0598312" lon="6.9093197"></trkpt><trkpt lat="46.0598535" lon="6.9093948"></trkpt><trkpt lat="46.0598535" lon="6.9095611"></trkpt><trkpt lat="46.0598982" lon="6.9096577"></trkpt><trkpt lat="46.0598758" lon="6.9097972"></trkpt><trkpt lat="46.0599279" lon="6.9098723"></trkpt><trkpt lat="46.0600173" lon="6.9099581"></trkpt><trkpt lat="46.0600917" lon="6.9100761"></trkpt><trkpt lat="46.0601289" lon="6.910237"></trkpt><trkpt lat="46.0602108" lon="6.9103443"></trkpt><trkpt lat="46.0602778" lon="6.9104945"></trkpt><trkpt lat="46.0603448" lon="6.9106018"></trkpt><trkpt lat="46.0604342" lon="6.9107306"></trkpt><trkpt lat="46.0605235" lon="6.9109237"></trkpt><trkpt lat="46.0605533" lon="6.9111275"></trkpt><trkpt lat="46.06057340297426" lon="6.91114810704884"></trkpt><trkpt lat="46.06057340297426" lon="6.911148107048839"></trkpt><trkpt lat="46.06057340297426" lon="6.91114810704884"></trkpt><trkpt lat="46.0608883" lon="6.9114709"></trkpt><trkpt lat="46.0609255" lon="6.9115889"></trkpt><trkpt lat="46.0608883" lon="6.9116532"></trkpt><trkpt lat="46.0609082" lon="6.9117011"></trkpt><trkpt lat="46.060933" lon="6.9117605"></trkpt><trkpt lat="46.0610298" lon="6.9119858"></trkpt><trkpt lat="46.0611489" lon="6.9120931"></trkpt><trkpt lat="46.0611861" lon="6.9122219"></trkpt><trkpt lat="46.0611712" lon="6.9124043"></trkpt><trkpt lat="46.0612159" lon="6.9124579"></trkpt><trkpt lat="46.0613424" lon="6.9126403"></trkpt><trkpt lat="46.0613796" lon="6.9128012"></trkpt><trkpt lat="46.0614169" lon="6.9129085"></trkpt><trkpt lat="46.0614988" lon="6.9129944"></trkpt><trkpt lat="46.0614988" lon="6.9130695"></trkpt><trkpt lat="46.0615515190819" lon="6.913122679355952"></trkpt><trkpt lat="46.0615515190819" lon="6.9131226793559515"></trkpt><trkpt lat="46.0615515190819" lon="6.913122679355952"></trkpt><trkpt lat="46.0616477" lon="6.9132197"></trkpt><trkpt lat="46.0617109" lon="6.9133752"></trkpt><trkpt lat="46.0618561" lon="6.9134771"></trkpt><trkpt lat="46.0618933" lon="6.9135522"></trkpt><trkpt lat="46.0619901" lon="6.9136488"></trkpt><trkpt lat="46.062072" lon="6.9137454"></trkpt><trkpt lat="46.0621315" lon="6.9138741"></trkpt><trkpt lat="46.0621911" lon="6.9139814"></trkpt><trkpt lat="46.0623028" lon="6.9140243"></trkpt><trkpt lat="46.0623251" lon="6.9140994"></trkpt><trkpt lat="46.0623996" lon="6.9141209"></trkpt><trkpt lat="46.0625187" lon="6.9140136"></trkpt><trkpt lat="46.0625708" lon="6.9140672"></trkpt><trkpt lat="46.0626303" lon="6.9141638"></trkpt><trkpt lat="46.0626899" lon="6.9143676"></trkpt><trkpt lat="46.0627494" lon="6.914432"></trkpt><trkpt lat="46.0628016" lon="6.9145286"></trkpt><trkpt lat="46.062876" lon="6.9146037"></trkpt><trkpt lat="46.06291815032053" lon="6.914640128301208"></trkpt><trkpt lat="46.06291815032053" lon="6.91464012830121"></trkpt><trkpt lat="46.06291815032053" lon="6.914640128301208"></trkpt><trkpt lat="46.0629504" lon="6.914668"></trkpt><trkpt lat="46.0630025" lon="6.9147539"></trkpt><trkpt lat="46.0630695" lon="6.9148397"></trkpt><trkpt lat="46.063211" lon="6.9149577"></trkpt><trkpt lat="46.0632929" lon="6.9151187"></trkpt><trkpt lat="46.0632929" lon="6.9151723"></trkpt><trkpt lat="46.0633301" lon="6.9152259"></trkpt><trkpt lat="46.0633971" lon="6.915301"></trkpt><trkpt lat="46.0634418" lon="6.915344"></trkpt><trkpt lat="46.0635088" lon="6.9153869"></trkpt><trkpt lat="46.0634939" lon="6.9154405"></trkpt><trkpt lat="46.063546" lon="6.9154727"></trkpt><trkpt lat="46.0635609" lon="6.9156336"></trkpt><trkpt lat="46.0636651" lon="6.915816"></trkpt><trkpt lat="46.0636725" lon="6.9159233"></trkpt><trkpt lat="46.0637023" lon="6.915977"></trkpt><trkpt lat="46.0638065" lon="6.916095"></trkpt><trkpt lat="46.063948" lon="6.9162774"></trkpt><trkpt lat="46.0639108" lon="6.9163096"></trkpt><trkpt lat="46.0639554" lon="6.9164061"></trkpt><trkpt lat="46.0639256" lon="6.9164812"></trkpt><trkpt lat="46.06397221478325" lon="6.916575852484183"></trkpt><trkpt lat="46.0640894" lon="6.9168138"></trkpt><trkpt lat="46.0640969" lon="6.9168889"></trkpt><trkpt lat="46.0640671" lon="6.9169426"></trkpt><trkpt lat="46.0642457" lon="6.9173503"></trkpt><trkpt lat="46.0642383" lon="6.9175112"></trkpt><trkpt lat="46.0641936" lon="6.9175863"></trkpt><trkpt lat="46.0643351" lon="6.9179403"></trkpt><trkpt lat="46.0643946" lon="6.9180047"></trkpt><trkpt lat="46.0643425" lon="6.9180691"></trkpt><trkpt lat="46.0643276" lon="6.9181656"></trkpt><trkpt lat="46.0643797" lon="6.9182944"></trkpt><trkpt lat="46.0644095" lon="6.9185841"></trkpt><trkpt lat="46.064484" lon="6.9189274"></trkpt><trkpt lat="46.0644616" lon="6.9190132"></trkpt><trkpt lat="46.0645882" lon="6.9192063"></trkpt><trkpt lat="46.0646701" lon="6.9194209"></trkpt><trkpt lat="46.0646648" lon="6.9195908"></trkpt><trkpt lat="46.0647842" lon="6.9198898"></trkpt><trkpt lat="46.0648702" lon="6.920142"></trkpt><trkpt lat="46.0649002" lon="6.9203413"></trkpt><trkpt lat="46.0649277" lon="6.9204362"></trkpt><trkpt lat="46.0649102" lon="6.9205118"></trkpt><trkpt lat="46.0649539" lon="6.9207385"></trkpt><trkpt lat="46.064982" lon="6.9209512"></trkpt><trkpt lat="46.0650091" lon="6.9210372"></trkpt><trkpt lat="46.065044" lon="6.9210781"></trkpt><trkpt lat="46.0650727" lon="6.9211823"></trkpt><trkpt lat="46.06510486633317" lon="6.921330933322097"></trkpt><trkpt lat="46.06510486633317" lon="6.921330933322095"></trkpt><trkpt lat="46.06510486633317" lon="6.921330933322097"></trkpt><trkpt lat="46.0651141" lon="6.9213736"></trkpt><trkpt lat="46.0651829" lon="6.9215805"></trkpt><trkpt lat="46.0652403" lon="6.92182"></trkpt><trkpt lat="46.0652658" lon="6.922018"></trkpt><trkpt lat="46.0652997" lon="6.9222732"></trkpt><trkpt lat="46.0653146" lon="6.9223856"></trkpt><trkpt lat="46.0653332" lon="6.9225074"></trkpt><trkpt lat="46.0652827" lon="6.9226851"></trkpt><trkpt lat="46.065238" lon="6.9227604"></trkpt><trkpt lat="46.0651941" lon="6.922932"></trkpt><trkpt lat="46.0651635" lon="6.9230568"></trkpt><trkpt lat="46.0651563" lon="6.9232009"></trkpt><trkpt lat="46.0651672" lon="6.9233592"></trkpt><trkpt lat="46.0652085" lon="6.9233784"></trkpt><trkpt lat="46.0652028" lon="6.923451"></trkpt><trkpt lat="46.06520232624558" lon="6.923607149456917"></trkpt><trkpt lat="46.0652023" lon="6.9236158"></trkpt><trkpt lat="46.0652086" lon="6.9237943"></trkpt><trkpt lat="46.0652341" lon="6.923975"></trkpt><trkpt lat="46.0652866" lon="6.9241154"></trkpt><trkpt lat="46.0654918" lon="6.9247228"></trkpt><trkpt lat="46.0655405" lon="6.9248816"></trkpt><trkpt lat="46.0655582" lon="6.9249722"></trkpt><trkpt lat="46.0655638" lon="6.9250694"></trkpt><trkpt lat="46.0655568" lon="6.9251304"></trkpt><trkpt lat="46.0655391" lon="6.9251807"></trkpt><trkpt lat="46.0655103" lon="6.925233"></trkpt><trkpt lat="46.0653926" lon="6.9254845"></trkpt><trkpt lat="46.0653261" lon="6.9256159"></trkpt><trkpt lat="46.0652856" lon="6.9257185"></trkpt><trkpt lat="46.0652632" lon="6.925801"></trkpt><trkpt lat="46.0652418" lon="6.9259471"></trkpt><trkpt lat="46.0652309" lon="6.9260398"></trkpt><trkpt lat="46.0652059" lon="6.926038"></trkpt><trkpt lat="46.0651585" lon="6.9260908"></trkpt><trkpt lat="46.0651721" lon="6.926044"></trkpt><trkpt lat="46.065173" lon="6.9260108"></trkpt><trkpt lat="46.0651697" lon="6.9259854"></trkpt><trkpt lat="46.0651674117109" lon="6.925979335103692"></trkpt><trkpt lat="46.0651674117109" lon="6.9259793351036905"></trkpt><trkpt lat="46.0651674117109" lon="6.925979335103692"></trkpt><trkpt lat="46.0651697" lon="6.9259854"></trkpt><trkpt lat="46.065173" lon="6.9260108"></trkpt><trkpt lat="46.0651721" lon="6.926044"></trkpt><trkpt lat="46.0651585" lon="6.9260908"></trkpt><trkpt lat="46.0651364" lon="6.9261609"></trkpt><trkpt lat="46.0650548" lon="6.9261952"></trkpt><trkpt lat="46.0650085" lon="6.9262486"></trkpt><trkpt lat="46.064978" lon="6.9262826"></trkpt><trkpt lat="46.0649664" lon="6.9263642"></trkpt><trkpt lat="46.0649515" lon="6.9264628"></trkpt><trkpt lat="46.0649324" lon="6.9265553"></trkpt><trkpt lat="46.0649222" lon="6.9265996"></trkpt><trkpt lat="46.064925" lon="6.9266217"></trkpt><trkpt lat="46.0649483" lon="6.9266418"></trkpt><trkpt lat="46.0649515" lon="6.9266754"></trkpt><trkpt lat="46.0649804" lon="6.9267163"></trkpt><trkpt lat="46.0649911" lon="6.9267344"></trkpt><trkpt lat="46.0649841" lon="6.9267954"></trkpt><trkpt lat="46.0649692" lon="6.9268396"></trkpt><trkpt lat="46.0649473" lon="6.9268987"></trkpt><trkpt lat="46.0649287" lon="6.9269355"></trkpt><trkpt lat="46.0649245" lon="6.9269617"></trkpt><trkpt lat="46.0649134" lon="6.92701"></trkpt><trkpt lat="46.0648938" lon="6.9270522"></trkpt><trkpt lat="46.0648748" lon="6.927075"></trkpt><trkpt lat="46.0648692" lon="6.9271146"></trkpt><trkpt lat="46.0648701" lon="6.9271615"></trkpt><trkpt lat="46.0648603" lon="6.92724"></trkpt><trkpt lat="46.0648762" lon="6.9272654"></trkpt><trkpt lat="46.0648841" lon="6.9273151"></trkpt><trkpt lat="46.0648915" lon="6.9274069"></trkpt><trkpt lat="46.0648994" lon="6.9274646"></trkpt><trkpt lat="46.0649115" lon="6.9274834"></trkpt><trkpt lat="46.0649115" lon="6.9275042"></trkpt><trkpt lat="46.0648999" lon="6.927539"></trkpt><trkpt lat="46.064905" lon="6.9276591"></trkpt><trkpt lat="46.0648934" lon="6.9277067"></trkpt><trkpt lat="46.0648967" lon="6.9278083"></trkpt><trkpt lat="46.0648371" lon="6.9279186"></trkpt><trkpt lat="46.0648441" lon="6.928028"></trkpt><trkpt lat="46.0648569" lon="6.9281118"></trkpt><trkpt lat="46.0649245" lon="6.9281219"></trkpt><trkpt lat="46.0649302" lon="6.9281577"></trkpt><trkpt lat="46.06493206257389" lon="6.928164990853422"></trkpt><trkpt lat="46.06493206257389" lon="6.928164990853421"></trkpt><trkpt lat="46.06493206257389" lon="6.928164990853422"></trkpt><trkpt lat="46.0649816" lon="6.9283589"></trkpt><trkpt lat="46.0650082" lon="6.9284945"></trkpt><trkpt lat="46.0650469" lon="6.9285992"></trkpt><trkpt lat="46.0650917" lon="6.9287253"></trkpt><trkpt lat="46.0651381" lon="6.9287645"></trkpt><trkpt lat="46.0652025" lon="6.9287808"></trkpt><trkpt lat="46.0652906" lon="6.9287287"></trkpt><trkpt lat="46.0654473" lon="6.928648"></trkpt><trkpt lat="46.0654496" lon="6.9286638"></trkpt><trkpt lat="46.0654549" lon="6.9287157"></trkpt><trkpt lat="46.0654583" lon="6.928768"></trkpt><trkpt lat="46.0654597" lon="6.9288147"></trkpt><trkpt lat="46.0654583" lon="6.9288557"></trkpt><trkpt lat="46.0654466" lon="6.9290233"></trkpt><trkpt lat="46.0654433" lon="6.9290705"></trkpt><trkpt lat="46.0654421" lon="6.9291421"></trkpt><trkpt lat="46.0654416" lon="6.9291721"></trkpt><trkpt lat="46.0654422" lon="6.9291964"></trkpt><trkpt lat="46.0654459" lon="6.9292262"></trkpt><trkpt lat="46.0654547" lon="6.9292617"></trkpt><trkpt lat="46.0654652" lon="6.9292865"></trkpt><trkpt lat="46.0654778" lon="6.9293069"></trkpt><trkpt lat="46.0654925" lon="6.9293238"></trkpt><trkpt lat="46.0657351" lon="6.9295931"></trkpt><trkpt lat="46.0657647" lon="6.9296282"></trkpt><trkpt lat="46.0657944" lon="6.9296653"></trkpt><trkpt lat="46.0658221" lon="6.9297013"></trkpt><trkpt lat="46.0658484" lon="6.9297364"></trkpt><trkpt lat="46.0658727" lon="6.9297725"></trkpt><trkpt lat="46.0658984" lon="6.9298143"></trkpt><trkpt lat="46.0659343" lon="6.9298681"></trkpt><trkpt lat="46.0659689" lon="6.929932"></trkpt><trkpt lat="46.0659992" lon="6.9299908"></trkpt><trkpt lat="46.0660229" lon="6.9300439"></trkpt><trkpt lat="46.0660426" lon="6.9300925"></trkpt><trkpt lat="46.0660624" lon="6.9301521"></trkpt><trkpt lat="46.0660755" lon="6.9302034"></trkpt><trkpt lat="46.0660874" lon="6.9302641"></trkpt><trkpt lat="46.0660979" lon="6.9303344"></trkpt><trkpt lat="46.0661029" lon="6.9304018"></trkpt><trkpt lat="46.0661058" lon="6.9305128"></trkpt><trkpt lat="46.0661085" lon="6.930546"></trkpt><trkpt lat="46.0661139" lon="6.9305764"></trkpt><trkpt lat="46.0661234" lon="6.930602"></trkpt><trkpt lat="46.0661325" lon="6.9306192"></trkpt><trkpt lat="46.0661433" lon="6.9306279"></trkpt><trkpt lat="46.0661566" lon="6.9306372"></trkpt><trkpt lat="46.0662103" lon="6.9306605"></trkpt><trkpt lat="46.0662566" lon="6.9306797"></trkpt><trkpt lat="46.066313" lon="6.9307053"></trkpt><trkpt lat="46.0663688" lon="6.9307322"></trkpt><trkpt lat="46.066431" lon="6.9307684"></trkpt><trkpt lat="46.0664844" lon="6.9308003"></trkpt><trkpt lat="46.0665496" lon="6.9308379"></trkpt><trkpt lat="46.0665902" lon="6.9308644"></trkpt><trkpt lat="46.0666264" lon="6.9308882"></trkpt><trkpt lat="46.0666638" lon="6.9309183"></trkpt><trkpt lat="46.0666999" lon="6.9309476"></trkpt><trkpt lat="46.0667388" lon="6.930976"></trkpt><trkpt lat="46.0669703" lon="6.9311932"></trkpt><trkpt lat="46.067005" lon="6.9312273"></trkpt><trkpt lat="46.0670449" lon="6.9312703"></trkpt><trkpt lat="46.0670773" lon="6.9313096"></trkpt><trkpt lat="46.0671103" lon="6.9313516"></trkpt><trkpt lat="46.0671432" lon="6.9313982"></trkpt><trkpt lat="46.067156218551744" lon="6.931415558068997"></trkpt><trkpt lat="46.0671792" lon="6.9314462"></trkpt><trkpt lat="46.0672162" lon="6.9314997"></trkpt><trkpt lat="46.0672555" lon="6.9315555"></trkpt><trkpt lat="46.0673018" lon="6.9316258"></trkpt><trkpt lat="46.0673773" lon="6.9317511"></trkpt><trkpt lat="46.0674233" lon="6.9318361"></trkpt><trkpt lat="46.0674711" lon="6.9319248"></trkpt><trkpt lat="46.0675206" lon="6.9320363"></trkpt><trkpt lat="46.0675511" lon="6.9321085"></trkpt><trkpt lat="46.0675839" lon="6.9321913"></trkpt><trkpt lat="46.0676088" lon="6.9322657"></trkpt><trkpt lat="46.0676335" lon="6.9323453"></trkpt><trkpt lat="46.0676576" lon="6.9324293"></trkpt><trkpt lat="46.0676855" lon="6.9325372"></trkpt><trkpt lat="46.067708" lon="6.9326386"></trkpt><trkpt lat="46.0677331" lon="6.9327465"></trkpt><trkpt lat="46.0677546" lon="6.9328599"></trkpt><trkpt lat="46.0677768" lon="6.9329934"></trkpt><trkpt lat="46.0677927" lon="6.9330979"></trkpt><trkpt lat="46.0678016" lon="6.933199"></trkpt><trkpt lat="46.0678104" lon="6.9333023"></trkpt><trkpt lat="46.0678155" lon="6.9333956"></trkpt><trkpt lat="46.0678193" lon="6.9334979"></trkpt><trkpt lat="46.0678193" lon="6.9335994"></trkpt><trkpt lat="46.0678196" lon="6.9336929"></trkpt><trkpt lat="46.06781941080736" lon="6.933737675590334"></trkpt><trkpt lat="46.0678193" lon="6.9337639"></trkpt><trkpt lat="46.0678174" lon="6.9338453"></trkpt><trkpt lat="46.067813" lon="6.9339239"></trkpt><trkpt lat="46.0678085" lon="6.9340226"></trkpt><trkpt lat="46.0678029" lon="6.9340942"></trkpt><trkpt lat="46.0677975" lon="6.934169"></trkpt><trkpt lat="46.0677898" lon="6.9342474"></trkpt><trkpt lat="46.06778" lon="6.934341"></trkpt><trkpt lat="46.0677634" lon="6.9344576"></trkpt><trkpt lat="46.0677471" lon="6.9345572"></trkpt><trkpt lat="46.0677232" lon="6.9346917"></trkpt><trkpt lat="46.0677067" lon="6.9347773"></trkpt><trkpt lat="46.0676983" lon="6.9348206"></trkpt><trkpt lat="46.0676714" lon="6.9348128"></trkpt><trkpt lat="46.0676567" lon="6.9348119"></trkpt><trkpt lat="46.0676403" lon="6.9348119"></trkpt><trkpt lat="46.0676238" lon="6.9348128"></trkpt><trkpt lat="46.0676064" lon="6.9348155"></trkpt><trkpt lat="46.0675914" lon="6.9348183"></trkpt><trkpt lat="46.0675773" lon="6.9348221"></trkpt><trkpt lat="46.0675608" lon="6.9348289"></trkpt><trkpt lat="46.0675362" lon="6.9348432"></trkpt><trkpt lat="46.0675251" lon="6.9348523"></trkpt><trkpt lat="46.0675109" lon="6.9348656"></trkpt><trkpt lat="46.0674998" lon="6.9348784"></trkpt><trkpt lat="46.0674879" lon="6.9348968"></trkpt><trkpt lat="46.0674773" lon="6.934917"></trkpt><trkpt lat="46.0674686" lon="6.9349385"></trkpt><trkpt lat="46.0674628" lon="6.9349651"></trkpt><trkpt lat="46.0674597" lon="6.9349918"></trkpt><trkpt lat="46.0674575" lon="6.9350201"></trkpt><trkpt lat="46.0674584" lon="6.9350465"></trkpt><trkpt lat="46.0674759" lon="6.9352158"></trkpt><trkpt lat="46.0674787" lon="6.9352475"></trkpt><trkpt lat="46.0674807" lon="6.9352797"></trkpt><trkpt lat="46.0674821" lon="6.9353132"></trkpt><trkpt lat="46.0674807" lon="6.9353751"></trkpt><trkpt lat="46.0674788" lon="6.9354016"></trkpt><trkpt lat="46.0674749" lon="6.9354259"></trkpt><trkpt lat="46.0674686" lon="6.9354489"></trkpt><trkpt lat="46.0674604" lon="6.9354691"></trkpt><trkpt lat="46.06745" lon="6.9354893"></trkpt><trkpt lat="46.0673826" lon="6.9356327"></trkpt><trkpt lat="46.0673697" lon="6.9356676"></trkpt><trkpt lat="46.0673575" lon="6.9357093"></trkpt><trkpt lat="46.0673508" lon="6.9357525"></trkpt><trkpt lat="46.067344" lon="6.9357998"></trkpt><trkpt lat="46.0673411" lon="6.935843"></trkpt><trkpt lat="46.0673403" lon="6.935883"></trkpt><trkpt lat="46.0673434" lon="6.9359242"></trkpt><trkpt lat="46.0673497" lon="6.9359643"></trkpt><trkpt lat="46.0673559" lon="6.9360037"></trkpt><trkpt lat="46.067357208635954" lon="6.93600082444469"></trkpt><trkpt lat="46.067357208635954" lon="6.936000824444692"></trkpt><trkpt lat="46.067357208635954" lon="6.93600082444469"></trkpt><trkpt lat="46.0673559" lon="6.9360037"></trkpt><trkpt lat="46.067427" lon="6.9362375"></trkpt><trkpt lat="46.0674358" lon="6.9362716"></trkpt><trkpt lat="46.0674437" lon="6.9363108"></trkpt><trkpt lat="46.0674481" lon="6.9363501"></trkpt><trkpt lat="46.0674501" lon="6.9363953"></trkpt><trkpt lat="46.0674503" lon="6.9364368"></trkpt><trkpt lat="46.0674476" lon="6.936476"></trkpt><trkpt lat="46.0674431" lon="6.9365153"></trkpt><trkpt lat="46.067437" lon="6.9365523"></trkpt><trkpt lat="46.0674305" lon="6.9365866"></trkpt><trkpt lat="46.0672845" lon="6.9372048"></trkpt><trkpt lat="46.0672743" lon="6.9372476"></trkpt><trkpt lat="46.0672656" lon="6.9372783"></trkpt><trkpt lat="46.0672551" lon="6.9373087"></trkpt><trkpt lat="46.0672445" lon="6.937339"></trkpt><trkpt lat="46.0672344" lon="6.9373593"></trkpt><trkpt lat="46.067222" lon="6.9373832"></trkpt><trkpt lat="46.0671265" lon="6.9375076"></trkpt><trkpt lat="46.0671132" lon="6.9375296"></trkpt><trkpt lat="46.0671056" lon="6.9375533"></trkpt><trkpt lat="46.0671024" lon="6.9375781"></trkpt><trkpt lat="46.0671031" lon="6.9376013"></trkpt><trkpt lat="46.0671047" lon="6.9376176"></trkpt><trkpt lat="46.0671076" lon="6.9376299"></trkpt><trkpt lat="46.0671173" lon="6.9376502"></trkpt><trkpt lat="46.0671322" lon="6.9376641"></trkpt><trkpt lat="46.0671506" lon="6.9376717"></trkpt><trkpt lat="46.0671686" lon="6.9376736"></trkpt><trkpt lat="46.0671857" lon="6.9376666"></trkpt><trkpt lat="46.0672056" lon="6.9376516"></trkpt><trkpt lat="46.0673226" lon="6.9375199"></trkpt><trkpt lat="46.0673541" lon="6.9374851"></trkpt><trkpt lat="46.0673838" lon="6.9374587"></trkpt><trkpt lat="46.0674709" lon="6.937382"></trkpt><trkpt lat="46.0674928" lon="6.9373656"></trkpt><trkpt lat="46.0675157" lon="6.9373441"></trkpt><trkpt lat="46.0675376" lon="6.9373213"></trkpt><trkpt lat="46.0675551" lon="6.9372923"></trkpt><trkpt lat="46.06755553009564" lon="6.937291472474209"></trkpt><trkpt lat="46.06755553009564" lon="6.937291472474207"></trkpt><trkpt lat="46.06755553009564" lon="6.937291472474209"></trkpt><trkpt lat="46.0675709" lon="6.9372619"></trkpt><trkpt lat="46.0675876" lon="6.9372252"></trkpt><trkpt lat="46.0677039" lon="6.9369081"></trkpt><trkpt lat="46.0677186" lon="6.9368725"></trkpt><trkpt lat="46.067735" lon="6.9368395"></trkpt><trkpt lat="46.067757" lon="6.9368028"></trkpt><trkpt lat="46.0678057" lon="6.9367365"></trkpt><trkpt lat="46.0679204" lon="6.9365702"></trkpt><trkpt lat="46.0679308" lon="6.936562"></trkpt><trkpt lat="46.0679411" lon="6.9365539"></trkpt><trkpt lat="46.0679618" lon="6.9365486"></trkpt><trkpt lat="46.067962909498696" lon="6.93660843367981"></trkpt></trkseg></trk></gpx>
