<?xml version="1.0" encoding="UTF-8"?>
<gpx version="1.1" creator="Good Shit" xmlns="http://www.topografix.com/GPX/1/1"><trk><name>Klintekongens Rige — Klintekongens Rige</name><trkseg><trkpt lat="54.9825117" lon="12.5260938"></trkpt><trkpt lat="54.9827002" lon="12.5267051"></trkpt><trkpt lat="54.9828174" lon="12.5273657"></trkpt><trkpt lat="54.98299779049401" lon="12.52813030878462"></trkpt><trkpt lat="54.9830395" lon="12.5283071"></trkpt><trkpt lat="54.9831846" lon="12.5286348"></trkpt><trkpt lat="54.9833024" lon="12.529021"></trkpt><trkpt lat="54.9833657" lon="12.5292814"></trkpt><trkpt lat="54.9834528" lon="12.5298176"></trkpt><trkpt lat="54.9834806" lon="12.529966"></trkpt><trkpt lat="54.9835707" lon="12.5301812"></trkpt><trkpt lat="54.9835710588615" lon="12.530181714616324"></trkpt><trkpt lat="54.9836912" lon="12.530354"></trkpt><trkpt lat="54.9839989" lon="12.5306983"></trkpt><trkpt lat="54.9843172" lon="12.5309406"></trkpt><trkpt lat="54.9845069" lon="12.530969"></trkpt><trkpt lat="54.98474152631079" lon="12.53100415701698"></trkpt><trkpt lat="54.9849834" lon="12.5310404"></trkpt><trkpt lat="54.9852151" lon="12.5311273"></trkpt><trkpt lat="54.9854421" lon="12.5313199"></trkpt><trkpt lat="54.9856771" lon="12.5313902"></trkpt><trkpt lat="54.9858671" lon="12.531357"></trkpt><trkpt lat="54.98601889399614" lon="12.531391896453023"></trkpt><trkpt lat="54.9861394" lon="12.5314196"></trkpt><trkpt lat="54.9862021" lon="12.5314764"></trkpt><trkpt lat="54.9863021" lon="12.5317262"></trkpt><trkpt lat="54.9863672" lon="12.5321574"></trkpt><trkpt lat="54.9863763" lon="12.5324759"></trkpt><trkpt lat="54.986424" lon="12.5328951"></trkpt><trkpt lat="54.9864911" lon="12.5332904"></trkpt><trkpt lat="54.986611732517886" lon="12.533181481932843"></trkpt><trkpt lat="54.986611732517886" lon="12.533181481932845"></trkpt><trkpt lat="54.986611732517886" lon="12.533181481932843"></trkpt><trkpt lat="54.9866744" lon="12.5331249"></trkpt><trkpt lat="54.9867523" lon="12.5330098"></trkpt><trkpt lat="54.9869278" lon="12.532747"></trkpt><trkpt lat="54.9871124" lon="12.5322588"></trkpt><trkpt lat="54.987214" lon="12.5320764"></trkpt><trkpt lat="54.9873786" lon="12.5318319"></trkpt><trkpt lat="54.9874308" lon="12.5317527"></trkpt><trkpt lat="54.987590160588695" lon="12.531897749247326"></trkpt><trkpt lat="54.987590160588695" lon="12.531897749247328"></trkpt><trkpt lat="54.987590160588695" lon="12.531897749247326"></trkpt><trkpt lat="54.9876613" lon="12.5319625"></trkpt><trkpt lat="54.9878218" lon="12.5323494"></trkpt><trkpt lat="54.9879119" lon="12.5324889"></trkpt><trkpt lat="54.9879765" lon="12.5325259"></trkpt><trkpt lat="54.988035" lon="12.532513"></trkpt><trkpt lat="54.9881119" lon="12.5324406"></trkpt><trkpt lat="54.9883114" lon="12.5321771"></trkpt><trkpt lat="54.9883644" lon="12.5321253"></trkpt><trkpt lat="54.988425" lon="12.5320891"></trkpt><trkpt lat="54.98847521516995" lon="12.532079234544215"></trkpt><trkpt lat="54.9885777" lon="12.5320591"></trkpt><trkpt lat="54.9887124" lon="12.5320409"></trkpt><trkpt lat="54.9887667" lon="12.5320263"></trkpt><trkpt lat="54.9887991" lon="12.5321294"></trkpt><trkpt lat="54.9888421" lon="12.5324245"></trkpt><trkpt lat="54.9889083" lon="12.5327852"></trkpt><trkpt lat="54.9889991" lon="12.5330427"></trkpt><trkpt lat="54.9890684" lon="12.5333069"></trkpt><trkpt lat="54.989223" lon="12.5336033"></trkpt><trkpt lat="54.9892383855971" lon="12.533686145522823"></trkpt><trkpt lat="54.9892646" lon="12.5338273"></trkpt><trkpt lat="54.9892515" lon="12.5340003"></trkpt><trkpt lat="54.989173" lon="12.5340861"></trkpt><trkpt lat="54.9890907" lon="12.5345582"></trkpt><trkpt lat="54.9891361" lon="12.5346816"></trkpt><trkpt lat="54.9892666" lon="12.5350033"></trkpt><trkpt lat="54.989279" lon="12.5351007"></trkpt><trkpt lat="54.9892795" lon="12.535368"></trkpt><trkpt lat="54.98944743068436" lon="12.535482368921725"></trkpt><trkpt lat="54.9895275" lon="12.5355369"></trkpt><trkpt lat="54.9898045" lon="12.5358656"></trkpt><trkpt lat="54.9900149" lon="12.5358538"></trkpt><trkpt lat="54.9901833" lon="12.5357071"></trkpt><trkpt lat="54.9904467" lon="12.5357236"></trkpt><trkpt lat="54.99052705188053" lon="12.535447020369132"></trkpt><trkpt lat="54.9905512" lon="12.5353639"></trkpt><trkpt lat="54.9906789" lon="12.5349532"></trkpt><trkpt lat="54.9909239" lon="12.5342838"></trkpt><trkpt lat="54.9911122" lon="12.5340768"></trkpt><trkpt lat="54.99143798088059" lon="12.533960526715505"></trkpt><trkpt lat="54.9914445" lon="12.5339582"></trkpt><trkpt lat="54.9919585" lon="12.5336733"></trkpt><trkpt lat="54.9922806" lon="12.5337259"></trkpt><trkpt lat="54.9925125" lon="12.5336259"></trkpt><trkpt lat="54.9926304" lon="12.5334994"></trkpt><trkpt lat="54.99264095173489" lon="12.533491228552357"></trkpt><trkpt lat="54.9928321" lon="12.5333432"></trkpt><trkpt lat="54.9928532" lon="12.5332029"></trkpt><trkpt lat="54.9928426" lon="12.5329502"></trkpt><trkpt lat="54.9928823" lon="12.5327853"></trkpt><trkpt lat="54.9929791" lon="12.5326025"></trkpt><trkpt lat="54.9931276" lon="12.5324173"></trkpt><trkpt lat="54.9932915" lon="12.5322687"></trkpt><trkpt lat="54.9933646" lon="12.53196"></trkpt><trkpt lat="54.993463615173575" lon="12.531818049043194"></trkpt><trkpt lat="54.993463615173575" lon="12.531818049043192"></trkpt><trkpt lat="54.993463615173575" lon="12.531818049043194"></trkpt><trkpt lat="54.9934663" lon="12.5318142"></trkpt><trkpt lat="54.99354" lon="12.5317786"></trkpt><trkpt lat="54.9936722" lon="12.5316686"></trkpt><trkpt lat="54.9938921" lon="12.5315984"></trkpt><trkpt lat="54.9939676" lon="12.5316012"></trkpt><trkpt lat="54.994087" lon="12.5316539"></trkpt><trkpt lat="54.9942971" lon="12.5317379"></trkpt><trkpt lat="54.994524" lon="12.531528"></trkpt><trkpt lat="54.994584" lon="12.5314945"></trkpt><trkpt lat="54.99472591394113" lon="12.53143558568004"></trkpt><trkpt lat="54.99472591394113" lon="12.531435585680041"></trkpt><trkpt lat="54.99472591394113" lon="12.53143558568004"></trkpt><trkpt lat="54.9949063" lon="12.5313607"></trkpt><trkpt lat="54.9950487" lon="12.5311931"></trkpt><trkpt lat="54.9951696" lon="12.5310932"></trkpt><trkpt lat="54.9952495" lon="12.5309531"></trkpt><trkpt lat="54.9954374" lon="12.53049"></trkpt><trkpt lat="54.9955542" lon="12.5304657"></trkpt><trkpt lat="54.99546562671303" lon="12.529949215911378"></trkpt><trkpt lat="54.99546562671303" lon="12.52994921591138"></trkpt><trkpt lat="54.99546562671303" lon="12.529949215911378"></trkpt><trkpt lat="54.99508381384006" lon="12.527722807922396"></trkpt><trkpt lat="54.99508381384006" lon="12.527722807922395"></trkpt><trkpt lat="54.99508381384006" lon="12.527722807922396"></trkpt><trkpt lat="54.995081" lon="12.5277064"></trkpt><trkpt lat="54.994884" lon="12.5264564"></trkpt><trkpt lat="54.9948025" lon="12.5258997"></trkpt><trkpt lat="54.994755" lon="12.5255461"></trkpt><trkpt lat="54.994811633102955" lon="12.525520612803382"></trkpt><trkpt lat="54.994811633102955" lon="12.525520612803383"></trkpt><trkpt lat="54.994811633102955" lon="12.525520612803382"></trkpt><trkpt lat="54.9948781" lon="12.5254907"></trkpt><trkpt lat="54.9951334" lon="12.5255039"></trkpt><trkpt lat="54.9951686" lon="12.5255442"></trkpt><trkpt lat="54.9952454" lon="12.5257185"></trkpt><trkpt lat="54.9953717" lon="12.525917"></trkpt><trkpt lat="54.9953838" lon="12.5259412"></trkpt><trkpt lat="54.9953935" lon="12.5260019"></trkpt><trkpt lat="54.995394" lon="12.5262076"></trkpt><trkpt lat="54.9954286" lon="12.5263736"></trkpt><trkpt lat="54.9954905" lon="12.5265271"></trkpt><trkpt lat="54.9956443" lon="12.5266406"></trkpt><trkpt lat="54.9957304" lon="12.5266549"></trkpt><trkpt lat="54.9957714" lon="12.5266436"></trkpt><trkpt lat="54.9958315" lon="12.5266056"></trkpt><trkpt lat="54.99585723662348" lon="12.526574974630146"></trkpt><trkpt lat="54.9958952" lon="12.5265298"></trkpt><trkpt lat="54.9959719" lon="12.5263279"></trkpt><trkpt lat="54.9960243" lon="12.5261815"></trkpt><trkpt lat="54.9960669" lon="12.5261242"></trkpt><trkpt lat="54.9961589" lon="12.5260958"></trkpt><trkpt lat="54.9962931" lon="12.5261513"></trkpt><trkpt lat="54.9963912" lon="12.5261525"></trkpt><trkpt lat="54.9967351" lon="12.5260544"></trkpt><trkpt lat="54.9969878" lon="12.5260991"></trkpt><trkpt lat="54.99700521965123" lon="12.526091444339787"></trkpt><trkpt lat="54.9970886" lon="12.5260548"></trkpt><trkpt lat="54.997153" lon="12.5259759"></trkpt><trkpt lat="54.9972085" lon="12.5258124"></trkpt><trkpt lat="54.9972592" lon="12.5254771"></trkpt><trkpt lat="54.9972808" lon="12.525343"></trkpt><trkpt lat="54.99733" lon="12.5252813"></trkpt><trkpt lat="54.9974962" lon="12.5251177"></trkpt><trkpt lat="54.9976085" lon="12.5249755"></trkpt><trkpt lat="54.9976916" lon="12.5247502"></trkpt><trkpt lat="54.9977401" lon="12.5246537"></trkpt><trkpt lat="54.9978299" lon="12.5244659"></trkpt><trkpt lat="54.997876795712415" lon="12.524412431969617"></trkpt><trkpt lat="54.997876795712415" lon="12.524412431969619"></trkpt><trkpt lat="54.997876795712415" lon="12.524412431969617"></trkpt><trkpt lat="54.9979248" lon="12.5243577"></trkpt><trkpt lat="54.9979959" lon="12.5242767"></trkpt><trkpt lat="54.998134" lon="12.5240896"></trkpt><trkpt lat="54.9982011" lon="12.5240315"></trkpt><trkpt lat="54.9983294" lon="12.5239206"></trkpt><trkpt lat="54.9984532" lon="12.5238857"></trkpt><trkpt lat="54.9985748" lon="12.5239179"></trkpt><trkpt lat="54.998714" lon="12.5239809"></trkpt><trkpt lat="54.9987835" lon="12.5240489"></trkpt><trkpt lat="54.9988332" lon="12.5240976"></trkpt><trkpt lat="54.9988632" lon="12.5241755"></trkpt><trkpt lat="54.9989292" lon="12.5245148"></trkpt><trkpt lat="54.99896021902804" lon="12.524545407271031"></trkpt><trkpt lat="54.99896021902804" lon="12.52454540727103"></trkpt><trkpt lat="54.99896021902804" lon="12.524545407271031"></trkpt><trkpt lat="54.998997" lon="12.5245817"></trkpt><trkpt lat="54.9990673" lon="12.52463"></trkpt><trkpt lat="54.9991277" lon="12.524632"></trkpt><trkpt lat="54.9991531" lon="12.5246178"></trkpt><trkpt lat="54.99916" lon="12.5246139"></trkpt><trkpt lat="54.9992509" lon="12.5245224"></trkpt><trkpt lat="54.9992216" lon="12.5244241"></trkpt><trkpt lat="54.9992302" lon="12.5242942"></trkpt><trkpt lat="54.9992456" lon="12.5241601"></trkpt><trkpt lat="54.9993686" lon="12.5240395"></trkpt><trkpt lat="54.9994263" lon="12.5239343"></trkpt><trkpt lat="54.9994676" lon="12.5238458"></trkpt><trkpt lat="54.9994979" lon="12.5237447"></trkpt><trkpt lat="54.9995328" lon="12.5236267"></trkpt><trkpt lat="54.9995402" lon="12.5234568"></trkpt><trkpt lat="54.9995723" lon="12.5229218"></trkpt><trkpt lat="54.99956337673788" lon="12.522798084264208"></trkpt><trkpt lat="54.9995428" lon="12.5225128"></trkpt><trkpt lat="54.9994895" lon="12.5213885"></trkpt><trkpt lat="54.999643" lon="12.5214086"></trkpt><trkpt lat="54.9998382" lon="12.5214617"></trkpt><trkpt lat="54.99999387096495" lon="12.521477685942141"></trkpt><trkpt lat="55.0000612" lon="12.5214846"></trkpt><trkpt lat="55.0001492" lon="12.5214178"></trkpt><trkpt lat="55.0002295" lon="12.5214332"></trkpt><trkpt lat="55.0002741" lon="12.5214863"></trkpt><trkpt lat="55.0004013" lon="12.5216051"></trkpt><trkpt lat="55.0006007" lon="12.5218887"></trkpt><trkpt lat="55.0008659" lon="12.5220635"></trkpt><trkpt lat="55.0010174" lon="12.5222079"></trkpt><trkpt lat="55.0010953" lon="12.5223366"></trkpt><trkpt lat="55.0011899" lon="12.5225512"></trkpt><trkpt lat="55.0013083" lon="12.5227564"></trkpt><trkpt lat="55.0014081" lon="12.5228731"></trkpt><trkpt lat="55.0014391" lon="12.5229093"></trkpt><trkpt lat="55.0014999" lon="12.5229643"></trkpt><trkpt lat="55.0015943" lon="12.5230045"></trkpt><trkpt lat="55.0018168" lon="12.5231089"></trkpt><trkpt lat="55.0019143" lon="12.5231493"></trkpt><trkpt lat="55.0020189" lon="12.523152"></trkpt><trkpt lat="55.0022035" lon="12.5232164"></trkpt><trkpt lat="55.00226959696564" lon="12.523249691685065"></trkpt><trkpt lat="55.00226959696564" lon="12.523249691685063"></trkpt><trkpt lat="55.00226959696564" lon="12.523249691685065"></trkpt><trkpt lat="55.0023258" lon="12.523278"></trkpt><trkpt lat="55.0024035" lon="12.5232941"></trkpt><trkpt lat="55.0024642" lon="12.5233035"></trkpt><trkpt lat="55.0025273" lon="12.5233639"></trkpt><trkpt lat="55.0025919" lon="12.5234645"></trkpt><trkpt lat="55.002655" lon="12.5236603"></trkpt><trkpt lat="55.0026811" lon="12.5238668"></trkpt><trkpt lat="55.0026736" lon="12.5239674"></trkpt><trkpt lat="55.0026581" lon="12.524068"></trkpt><trkpt lat="55.0026027" lon="12.524253"></trkpt><trkpt lat="55.0024912" lon="12.5244958"></trkpt><trkpt lat="55.0023212" lon="12.5246689"></trkpt><trkpt lat="55.002235323245955" lon="12.524636448134792"></trkpt><trkpt lat="55.0021611" lon="12.5246084"></trkpt><trkpt lat="55.0019651" lon="12.5247037"></trkpt><trkpt lat="55.0016505" lon="12.5246085"></trkpt><trkpt lat="55.0015623" lon="12.5245523"></trkpt><trkpt lat="55.001469" lon="12.5244999"></trkpt><trkpt lat="55.0013413" lon="12.524516"></trkpt><trkpt lat="55.0011451" lon="12.5244167"></trkpt><trkpt lat="55.000959043584814" lon="12.524405891401157"></trkpt><trkpt lat="55.0009196" lon="12.5244036"></trkpt><trkpt lat="55.0008726" lon="12.5244057"></trkpt><trkpt lat="55.0006907" lon="12.5248861"></trkpt><trkpt lat="55.000687" lon="12.5249585"></trkpt><trkpt lat="55.0006873" lon="12.5250071"></trkpt><trkpt lat="55.000697" lon="12.5250533"></trkpt><trkpt lat="55.0007588" lon="12.5252257"></trkpt><trkpt lat="55.0007872" lon="12.5252243"></trkpt><trkpt lat="55.0008385" lon="12.5252924"></trkpt><trkpt lat="55.0008473" lon="12.5253285"></trkpt><trkpt lat="55.0008579" lon="12.5253785"></trkpt><trkpt lat="55.0008772" lon="12.5254607"></trkpt><trkpt lat="55.0009975" lon="12.5256466"></trkpt><trkpt lat="55.0010612" lon="12.525813"></trkpt><trkpt lat="55.0010743" lon="12.5259192"></trkpt><trkpt lat="55.0009626" lon="12.5259422"></trkpt><trkpt lat="55.0009713" lon="12.526119"></trkpt><trkpt lat="55.000971" lon="12.526228"></trkpt><trkpt lat="55.0009686" lon="12.5262366"></trkpt><trkpt lat="55.0008898" lon="12.52655"></trkpt><trkpt lat="55.0009202" lon="12.526729"></trkpt><trkpt lat="55.0010035" lon="12.5269822"></trkpt><trkpt lat="55.0009991" lon="12.5270511"></trkpt><trkpt lat="55.0008814" lon="12.5271954"></trkpt><trkpt lat="55.0006099" lon="12.5272813"></trkpt><trkpt lat="55.0004768" lon="12.5273912"></trkpt><trkpt lat="55.0004784" lon="12.527666"></trkpt><trkpt lat="55.00039138676627" lon="12.527774885785046"></trkpt><trkpt lat="55.00039138676627" lon="12.527774885785048"></trkpt><trkpt lat="55.00039138676627" lon="12.527774885785046"></trkpt><trkpt lat="55.0003507" lon="12.5278258"></trkpt><trkpt lat="55.0003605" lon="12.5282202"></trkpt><trkpt lat="55.0006613" lon="12.5282023"></trkpt><trkpt lat="55.0008514" lon="12.5281561"></trkpt><trkpt lat="55.000883" lon="12.5282685"></trkpt><trkpt lat="55.0008106" lon="12.5284993"></trkpt><trkpt lat="54.99999767001293" lon="12.529266257696174"></trkpt><trkpt lat="54.99999767001293" lon="12.529266257696175"></trkpt><trkpt lat="54.99999767001293" lon="12.529266257696174"></trkpt><trkpt lat="54.9996948" lon="12.529552"></trkpt><trkpt lat="54.9989588" lon="12.5300806"></trkpt><trkpt lat="54.998906940192704" lon="12.530117344232362"></trkpt><trkpt lat="54.998906940192704" lon="12.53011734423236"></trkpt><trkpt lat="54.998906940192704" lon="12.530117344232362"></trkpt><trkpt lat="54.9986411" lon="12.5303057"></trkpt><trkpt lat="54.9977301" lon="12.5308863"></trkpt><trkpt lat="54.99768288183762" lon="12.530917009172677"></trkpt><trkpt lat="54.9972679" lon="12.5311869"></trkpt><trkpt lat="54.9967576" lon="12.5315557"></trkpt><trkpt lat="54.99649105569082" lon="12.53174670169833"></trkpt><trkpt lat="54.9962668" lon="12.5319074"></trkpt><trkpt lat="54.9953131" lon="12.5325817"></trkpt><trkpt lat="54.995310288383926" lon="12.532583724196035"></trkpt><trkpt lat="54.9948432" lon="12.53292"></trkpt><trkpt lat="54.9944418" lon="12.5333655"></trkpt><trkpt lat="54.994279648411414" lon="12.533592189831317"></trkpt><trkpt lat="54.9941702" lon="12.5337452"></trkpt><trkpt lat="54.99393" lon="12.5342831"></trkpt><trkpt lat="54.9936235" lon="12.5346032"></trkpt><trkpt lat="54.99342097557381" lon="12.534779821769392"></trkpt><trkpt lat="54.99342097557381" lon="12.534779821769394"></trkpt><trkpt lat="54.99342097557381" lon="12.534779821769392"></trkpt><trkpt lat="54.992242677024144" lon="12.535807417198914"></trkpt><trkpt lat="54.9913123" lon="12.5366188"></trkpt><trkpt lat="54.991059611193236" lon="12.53675796195155"></trkpt><trkpt lat="54.991059611193236" lon="12.536757961951547"></trkpt><trkpt lat="54.991059611193236" lon="12.53675796195155"></trkpt><trkpt lat="54.9904498" lon="12.5370938"></trkpt><trkpt lat="54.9903298" lon="12.5372065"></trkpt><trkpt lat="54.9901975" lon="12.5373728"></trkpt><trkpt lat="54.9900405" lon="12.5376678"></trkpt><trkpt lat="54.9899328" lon="12.5378341"></trkpt><trkpt lat="54.98989363719482" lon="12.537918828487804"></trkpt><trkpt lat="54.9898435" lon="12.5380273"></trkpt><trkpt lat="54.9897598" lon="12.5381875"></trkpt><trkpt lat="54.9897266" lon="12.5381603"></trkpt><trkpt lat="54.9896301" lon="12.5381158"></trkpt><trkpt lat="54.9895914" lon="12.5378998"></trkpt><trkpt lat="54.9895369" lon="12.5377169"></trkpt><trkpt lat="54.989549" lon="12.5373441"></trkpt><trkpt lat="54.9894694" lon="12.537143"></trkpt><trkpt lat="54.9893776" lon="12.5370588"></trkpt><trkpt lat="54.9892756" lon="12.5367583"></trkpt><trkpt lat="54.9892436966699" lon="12.536715260094304"></trkpt><trkpt lat="54.9890977" lon="12.5365183"></trkpt><trkpt lat="54.9890322" lon="12.5362042"></trkpt><trkpt lat="54.9889867" lon="12.5361702"></trkpt><trkpt lat="54.9888925" lon="12.5362476"></trkpt><trkpt lat="54.9889231" lon="12.5366264"></trkpt><trkpt lat="54.9889377" lon="12.5368524"></trkpt><trkpt lat="54.9889285" lon="12.537008"></trkpt><trkpt lat="54.9889096" lon="12.5371825"></trkpt><trkpt lat="54.9888615" lon="12.5372902"></trkpt><trkpt lat="54.9887445" lon="12.5374559"></trkpt><trkpt lat="54.988718163935694" lon="12.537502921070283"></trkpt><trkpt lat="54.9886457" lon="12.5376323"></trkpt><trkpt lat="54.9886133" lon="12.5377612"></trkpt><trkpt lat="54.9886196" lon="12.5378823"></trkpt><trkpt lat="54.9886294" lon="12.5379639"></trkpt><trkpt lat="54.9886512" lon="12.5380611"></trkpt><trkpt lat="54.9886976" lon="12.5381973"></trkpt><trkpt lat="54.9887605" lon="12.5382841"></trkpt><trkpt lat="54.9888311" lon="12.5383348"></trkpt><trkpt lat="54.9889205" lon="12.5386607"></trkpt><trkpt lat="54.9889575" lon="12.5388346"></trkpt><trkpt lat="54.9889572" lon="12.5389463"></trkpt><trkpt lat="54.9889291" lon="12.5390639"></trkpt><trkpt lat="54.98881243359226" lon="12.539279045276633"></trkpt><trkpt lat="54.98881243359226" lon="12.539279045276635"></trkpt><trkpt lat="54.98881243359226" lon="12.539279045276633"></trkpt><trkpt lat="54.9887976" lon="12.5393064"></trkpt><trkpt lat="54.9886086" lon="12.5392311"></trkpt><trkpt lat="54.9884456" lon="12.5393081"></trkpt><trkpt lat="54.9883897" lon="12.5395171"></trkpt><trkpt lat="54.9883838" lon="12.5398807"></trkpt><trkpt lat="54.9881043" lon="12.53989"></trkpt><trkpt lat="54.98799120536239" lon="12.539968866211824"></trkpt><trkpt lat="54.9879196" lon="12.5400188"></trkpt><trkpt lat="54.9877473" lon="12.5399222"></trkpt><trkpt lat="54.9874395" lon="12.5399222"></trkpt><trkpt lat="54.9871507" lon="12.5399877"></trkpt><trkpt lat="54.9867985" lon="12.5400884"></trkpt><trkpt lat="54.98678430993875" lon="12.540108757348145"></trkpt><trkpt lat="54.98678430993875" lon="12.540108757348143"></trkpt><trkpt lat="54.98678430993875" lon="12.540108757348145"></trkpt><trkpt lat="54.9867985" lon="12.5400884"></trkpt><trkpt lat="54.9867287" lon="12.5401083"></trkpt><trkpt lat="54.9865038" lon="12.5402216"></trkpt><trkpt lat="54.9863163" lon="12.5401731"></trkpt><trkpt lat="54.9861705" lon="12.5400096"></trkpt><trkpt lat="54.9860071" lon="12.5399776"></trkpt><trkpt lat="54.9857386" lon="12.53977"></trkpt><trkpt lat="54.9858004" lon="12.5400371"></trkpt><trkpt lat="54.98579328152816" lon="12.54010293750955"></trkpt><trkpt lat="54.98579328152816" lon="12.540102937509552"></trkpt><trkpt lat="54.98579328152816" lon="12.54010293750955"></trkpt><trkpt lat="54.9858004" lon="12.5400371"></trkpt><trkpt lat="54.9857386" lon="12.53977"></trkpt><trkpt lat="54.9855659" lon="12.5394696"></trkpt><trkpt lat="54.9852855" lon="12.5390559"></trkpt><trkpt lat="54.984882481525965" lon="12.538497973823919"></trkpt><trkpt lat="54.984882481525965" lon="12.538497973823917"></trkpt><trkpt lat="54.984882481525965" lon="12.538497973823919"></trkpt><trkpt lat="54.9847865" lon="12.5383651"></trkpt><trkpt lat="54.9846646" lon="12.5379295"></trkpt><trkpt lat="54.9845223" lon="12.5377264"></trkpt><trkpt lat="54.9842898" lon="12.5374785"></trkpt><trkpt lat="54.9842378" lon="12.5374165"></trkpt><trkpt lat="54.9841912" lon="12.5373357"></trkpt><trkpt lat="54.9841221" lon="12.5371415"></trkpt><trkpt lat="54.9841235" lon="12.5369212"></trkpt><trkpt lat="54.98411002070958" lon="12.536807299995933"></trkpt><trkpt lat="54.9841055" lon="12.5367691"></trkpt><trkpt lat="54.9840633" lon="12.5366403"></trkpt><trkpt lat="54.9840078" lon="12.5365124"></trkpt><trkpt lat="54.9839433" lon="12.5364576"></trkpt><trkpt lat="54.9838079" lon="12.5364058"></trkpt><trkpt lat="54.983455" lon="12.5362766"></trkpt><trkpt lat="54.9830125" lon="12.5361741"></trkpt><trkpt lat="54.982807603277934" lon="12.536158051410263"></trkpt><trkpt lat="54.9826614" lon="12.5361466"></trkpt><trkpt lat="54.9823215" lon="12.5361868"></trkpt><trkpt lat="54.9819278" lon="12.5360496"></trkpt><trkpt lat="54.98149999154673" lon="12.53586291820793"></trkpt><trkpt lat="54.9805865" lon="12.5354643"></trkpt><trkpt lat="54.9803638" lon="12.5353507"></trkpt><trkpt lat="54.9802728" lon="12.5352359"></trkpt><trkpt lat="54.980212" lon="12.5350901"></trkpt><trkpt lat="54.9800823" lon="12.5353846"></trkpt><trkpt lat="54.9799296" lon="12.5355804"></trkpt><trkpt lat="54.9794631" lon="12.5356247"></trkpt><trkpt lat="54.9793066" lon="12.535663"></trkpt><trkpt lat="54.9791779" lon="12.5357927"></trkpt><trkpt lat="54.9790634" lon="12.535999"></trkpt><trkpt lat="54.979004678687616" lon="12.53617266970665"></trkpt><trkpt lat="54.979004678687616" lon="12.536172669706652"></trkpt><trkpt lat="54.979004678687616" lon="12.53617266970665"></trkpt><trkpt lat="54.978981" lon="12.5362427"></trkpt><trkpt lat="54.9789928" lon="12.5363892"></trkpt><trkpt lat="54.9790104" lon="12.5366562"></trkpt><trkpt lat="54.979005" lon="12.5367938"></trkpt><trkpt lat="54.9788737" lon="12.5371884"></trkpt><trkpt lat="54.9788261" lon="12.5374589"></trkpt><trkpt lat="54.9788236" lon="12.5376204"></trkpt><trkpt lat="54.9788281" lon="12.5377602"></trkpt><trkpt lat="54.9787764" lon="12.5377783"></trkpt><trkpt lat="54.9785957" lon="12.5377071"></trkpt><trkpt lat="54.9784984959662" lon="12.537593871662025"></trkpt><trkpt lat="54.9785957" lon="12.5377071"></trkpt><trkpt lat="54.9787764" lon="12.5377783"></trkpt><trkpt lat="54.9788281" lon="12.5377602"></trkpt><trkpt lat="54.9788772" lon="12.5378366"></trkpt><trkpt lat="54.9790789" lon="12.5379601"></trkpt><trkpt lat="54.9793442" lon="12.5382174"></trkpt><trkpt lat="54.9794097" lon="12.5383084"></trkpt><trkpt lat="54.9794722" lon="12.5384717"></trkpt><trkpt lat="54.9794892" lon="12.5386143"></trkpt><trkpt lat="54.9794787" lon="12.5387817"></trkpt><trkpt lat="54.97946890214987" lon="12.538848085702327"></trkpt><trkpt lat="54.97946890214987" lon="12.538848085702329"></trkpt><trkpt lat="54.97946890214987" lon="12.538848085702327"></trkpt><trkpt lat="54.9794043" lon="12.5392858"></trkpt><trkpt lat="54.9793961" lon="12.5396131"></trkpt><trkpt lat="54.9794034" lon="12.5398005"></trkpt><trkpt lat="54.9794614" lon="12.54008"></trkpt><trkpt lat="54.9795732" lon="12.5405064"></trkpt><trkpt lat="54.979616" lon="12.5407543"></trkpt><trkpt lat="54.979616" lon="12.54093"></trkpt><trkpt lat="54.979600064830194" lon="12.54110653319397"></trkpt><trkpt lat="54.9795981" lon="12.5411283"></trkpt><trkpt lat="54.9796006" lon="12.5412275"></trkpt><trkpt lat="54.9796381" lon="12.5414572"></trkpt><trkpt lat="54.9796592" lon="12.541678"></trkpt><trkpt lat="54.979664" lon="12.5420161"></trkpt><trkpt lat="54.9796955" lon="12.5422333"></trkpt><trkpt lat="54.9797793" lon="12.5424026"></trkpt><trkpt lat="54.979968" lon="12.5426489"></trkpt><trkpt lat="54.9801077" lon="12.5427674"></trkpt><trkpt lat="54.98013789238549" lon="12.543053859462391"></trkpt><trkpt lat="54.98013789238549" lon="12.543053859462393"></trkpt><trkpt lat="54.98013789238549" lon="12.543053859462391"></trkpt><trkpt lat="54.9801651" lon="12.543312"></trkpt><trkpt lat="54.9801511" lon="12.5433705"></trkpt><trkpt lat="54.9800142" lon="12.5444492"></trkpt><trkpt lat="54.9800601" lon="12.5445658"></trkpt><trkpt lat="54.9799544" lon="12.5447198"></trkpt><trkpt lat="54.97975967999027" lon="12.54510754328908"></trkpt><trkpt lat="54.97975967999027" lon="12.545107543289081"></trkpt><trkpt lat="54.97975967999027" lon="12.54510754328908"></trkpt><trkpt lat="54.9797134" lon="12.5451997"></trkpt><trkpt lat="54.979539" lon="12.5450255"></trkpt><trkpt lat="54.9785922" lon="12.5456502"></trkpt><trkpt lat="54.978532050789184" lon="12.545618284092221"></trkpt><trkpt lat="54.978532050789184" lon="12.54561828409222"></trkpt><trkpt lat="54.978532050789184" lon="12.545618284092221"></trkpt><trkpt lat="54.9784893" lon="12.5455956"></trkpt><trkpt lat="54.9782982" lon="12.5457143"></trkpt><trkpt lat="54.9779395" lon="12.5458728"></trkpt><trkpt lat="54.9777401" lon="12.5458287"></trkpt><trkpt lat="54.9775582" lon="12.5458965"></trkpt><trkpt lat="54.9774028" lon="12.5459057"></trkpt><trkpt lat="54.977347911574604" lon="12.54578516308344"></trkpt><trkpt lat="54.977347911574604" lon="12.545785163083444"></trkpt><trkpt lat="54.977347911574604" lon="12.54578516308344"></trkpt><trkpt lat="54.9772666" lon="12.5456066"></trkpt><trkpt lat="54.9771116" lon="12.5456418"></trkpt><trkpt lat="54.9769716" lon="12.5455577"></trkpt><trkpt lat="54.9769484" lon="12.5459257"></trkpt><trkpt lat="54.9764866" lon="12.5466875"></trkpt><trkpt lat="54.9764618644156" lon="12.54668498954672"></trkpt><trkpt lat="54.9755614" lon="12.5465936"></trkpt><trkpt lat="54.97538555132823" lon="12.546816650582743"></trkpt><trkpt lat="54.97538555132823" lon="12.546816650582747"></trkpt><trkpt lat="54.97538555132823" lon="12.546816650582743"></trkpt><trkpt lat="54.9749087" lon="12.5474215"></trkpt><trkpt lat="54.97464013310147" lon="12.547034670911453"></trkpt><trkpt lat="54.97464013310147" lon="12.547034670911449"></trkpt><trkpt lat="54.97464013310147" lon="12.547034670911453"></trkpt><trkpt lat="54.9743991" lon="12.5466875"></trkpt><trkpt lat="54.9741951" lon="12.54639"></trkpt><trkpt lat="54.9741023" lon="12.5464962"></trkpt><trkpt lat="54.9739917" lon="12.5464129"></trkpt><trkpt lat="54.973547" lon="12.546621"></trkpt><trkpt lat="54.9734544" lon="12.5468363"></trkpt><trkpt lat="54.97344611646154" lon="12.54686412699909"></trkpt><trkpt lat="54.973303" lon="12.5473449"></trkpt><trkpt lat="54.9729499" lon="12.54788"></trkpt><trkpt lat="54.9726179" lon="12.5484509"></trkpt><trkpt lat="54.972584304927786" lon="12.548527933945216"></trkpt><trkpt lat="54.972584304927786" lon="12.548527933945214"></trkpt><trkpt lat="54.972584304927786" lon="12.548527933945216"></trkpt><trkpt lat="54.972293" lon="12.5491959"></trkpt><trkpt lat="54.9722384" lon="12.549181"></trkpt><trkpt lat="54.972162" lon="12.5492838"></trkpt><trkpt lat="54.9721496" lon="12.5490686"></trkpt><trkpt lat="54.9721014" lon="12.5489297"></trkpt><trkpt lat="54.9718891" lon="12.5488651"></trkpt><trkpt lat="54.9717701" lon="12.5490488"></trkpt><trkpt lat="54.9716666" lon="12.5489943"></trkpt><trkpt lat="54.9715868" lon="12.5489724"></trkpt><trkpt lat="54.97154043629523" lon="12.548891131156976"></trkpt><trkpt lat="54.97154043629523" lon="12.54889113115698"></trkpt><trkpt lat="54.97154043629523" lon="12.548891131156976"></trkpt><trkpt lat="54.9714642" lon="12.5487575"></trkpt><trkpt lat="54.9713697" lon="12.5485097"></trkpt><trkpt lat="54.9713359" lon="12.548326"></trkpt><trkpt lat="54.9712566" lon="12.5481857"></trkpt><trkpt lat="54.971073" lon="12.5481305"></trkpt><trkpt lat="54.9709748" lon="12.5480332"></trkpt><trkpt lat="54.9709325" lon="12.5480107"></trkpt><trkpt lat="54.9707887" lon="12.5482006"></trkpt><trkpt lat="54.970638" lon="12.548312"></trkpt><trkpt lat="54.97051584274136" lon="12.54851697908934"></trkpt><trkpt lat="54.97051584274136" lon="12.548516979089339"></trkpt><trkpt lat="54.97051584274136" lon="12.54851697908934"></trkpt><trkpt lat="54.97002" lon="12.549349"></trkpt><trkpt lat="54.969496987781696" lon="12.549821250413956"></trkpt><trkpt lat="54.969496987781696" lon="12.549821250413958"></trkpt><trkpt lat="54.969496987781696" lon="12.549821250413956"></trkpt><trkpt lat="54.9694832" lon="12.5498337"></trkpt><trkpt lat="54.9693788" lon="12.5495859"></trkpt><trkpt lat="54.9693065" lon="12.5494405"></trkpt><trkpt lat="54.9691823" lon="12.5494599"></trkpt><trkpt lat="54.9690732" lon="12.5495744"></trkpt><trkpt lat="54.9687049" lon="12.5502794"></trkpt><trkpt lat="54.968641" lon="12.5500962"></trkpt><trkpt lat="54.968517833136055" lon="12.550006326619513"></trkpt><trkpt lat="54.9683173" lon="12.54986"></trkpt><trkpt lat="54.968105" lon="12.5498334"></trkpt><trkpt lat="54.9677494" lon="12.5497983"></trkpt><trkpt lat="54.9673086" lon="12.5499811"></trkpt><trkpt lat="54.96720520678602" lon="12.549932581230541"></trkpt><trkpt lat="54.96720520678602" lon="12.549932581230543"></trkpt><trkpt lat="54.96720520678602" lon="12.549932581230541"></trkpt><trkpt lat="54.9671264" lon="12.5498956"></trkpt><trkpt lat="54.9671014" lon="12.5494688"></trkpt><trkpt lat="54.9670947" lon="12.548709"></trkpt><trkpt lat="54.9670577" lon="12.5486443"></trkpt><trkpt lat="54.9669778" lon="12.5487266"></trkpt><trkpt lat="54.9669411" lon="12.5486969"></trkpt><trkpt lat="54.9669437" lon="12.5486101"></trkpt><trkpt lat="54.9669161" lon="12.5485758"></trkpt><trkpt lat="54.9668611" lon="12.5486032"></trkpt><trkpt lat="54.9667664" lon="12.5485745"></trkpt><trkpt lat="54.9664963" lon="12.5484375"></trkpt><trkpt lat="54.966435" lon="12.5484361"></trkpt><trkpt lat="54.96642897807166" lon="12.54846757826177"></trkpt><trkpt lat="54.966435" lon="12.5484361"></trkpt><trkpt lat="54.9662017" lon="12.5486466"></trkpt><trkpt lat="54.9660687" lon="12.5488273"></trkpt><trkpt lat="54.9659894" lon="12.5489825"></trkpt><trkpt lat="54.9658967" lon="12.5490374"></trkpt><trkpt lat="54.9658593" lon="12.5491078"></trkpt><trkpt lat="54.9658115" lon="12.5491579"></trkpt><trkpt lat="54.9657405" lon="12.5492324"></trkpt><trkpt lat="54.9657074" lon="12.5493105"></trkpt><trkpt lat="54.9656631" lon="12.549375"></trkpt><trkpt lat="54.965333684714544" lon="12.54967676932178"></trkpt><trkpt lat="54.9653247" lon="12.549685"></trkpt><trkpt lat="54.9650038" lon="12.5499234"></trkpt><trkpt lat="54.9648612" lon="12.5502147"></trkpt><trkpt lat="54.9647869" lon="12.5506714"></trkpt><trkpt lat="54.9646856" lon="12.5508378"></trkpt><trkpt lat="54.9643623075902" lon="12.55059946293483"></trkpt><trkpt lat="54.9643623075902" lon="12.550599462934828"></trkpt><trkpt lat="54.9643623075902" lon="12.55059946293483"></trkpt><trkpt lat="54.9643218" lon="12.5505696"></trkpt><trkpt lat="54.9641902" lon="12.5506219"></trkpt><trkpt lat="54.9640285" lon="12.5506139"></trkpt><trkpt lat="54.9638175" lon="12.5507346"></trkpt><trkpt lat="54.9636697" lon="12.5505307"></trkpt><trkpt lat="54.9634841" lon="12.5505562"></trkpt><trkpt lat="54.9634588" lon="12.5504556"></trkpt><trkpt lat="54.9634865" lon="12.5503108"></trkpt><trkpt lat="54.9634626" lon="12.550178"></trkpt><trkpt lat="54.9633848" lon="12.5500882"></trkpt><trkpt lat="54.9633433" lon="12.5500292"></trkpt><trkpt lat="54.9633109" lon="12.549946"></trkpt><trkpt lat="54.963296609108546" lon="12.54992979885067"></trkpt><trkpt lat="54.963296609108546" lon="12.549929798850673"></trkpt><trkpt lat="54.963296609108546" lon="12.54992979885067"></trkpt><trkpt lat="54.9632316" lon="12.5498561"></trkpt><trkpt lat="54.9631529" lon="12.5497989"></trkpt><trkpt lat="54.9630952" lon="12.5497829"></trkpt><trkpt lat="54.962859" lon="12.5498507"></trkpt><trkpt lat="54.962672" lon="12.5500324"></trkpt><trkpt lat="54.9625271" lon="12.5500547"></trkpt><trkpt lat="54.9623737" lon="12.5500402"></trkpt><trkpt lat="54.9622033" lon="12.5499969"></trkpt><trkpt lat="54.9621878" lon="12.5498887"></trkpt><trkpt lat="54.9622084" lon="12.5497393"></trkpt><trkpt lat="54.962272468767715" lon="12.54947683539479"></trkpt><trkpt lat="54.962272468767715" lon="12.549476835394788"></trkpt><trkpt lat="54.962272468767715" lon="12.54947683539479"></trkpt><trkpt lat="54.962344" lon="12.5491838"></trkpt><trkpt lat="54.9623888" lon="12.5489106"></trkpt><trkpt lat="54.9623893" lon="12.548747"></trkpt><trkpt lat="54.9623961" lon="12.5485286"></trkpt><trkpt lat="54.9624251" lon="12.5482405"></trkpt><trkpt lat="54.9623821" lon="12.5480504"></trkpt><trkpt lat="54.9623296" lon="12.5478859"></trkpt><trkpt lat="54.9622714" lon="12.5476658"></trkpt><trkpt lat="54.9622411" lon="12.5474237"></trkpt><trkpt lat="54.96225209443423" lon="12.547208467781699"></trkpt><trkpt lat="54.9622581" lon="12.5470909"></trkpt><trkpt lat="54.9623562" lon="12.5466241"></trkpt><trkpt lat="54.9623808" lon="12.5462325"></trkpt><trkpt lat="54.9624642" lon="12.545893"></trkpt><trkpt lat="54.9625608" lon="12.5451931"></trkpt><trkpt lat="54.96261489560228" lon="12.544957828338967"></trkpt><trkpt lat="54.96261489560228" lon="12.544957828338966"></trkpt><trkpt lat="54.96261489560228" lon="12.544957828338967"></trkpt><trkpt lat="54.9626954" lon="12.5446077"></trkpt><trkpt lat="54.9627459" lon="12.5443557"></trkpt><trkpt lat="54.9628351" lon="12.5436115"></trkpt><trkpt lat="54.9629025" lon="12.5434814"></trkpt><trkpt lat="54.9629758" lon="12.5434176"></trkpt><trkpt lat="54.9632676" lon="12.5432459"></trkpt><trkpt lat="54.9633312" lon="12.5431286"></trkpt><trkpt lat="54.96322292653203" lon="12.542988589638465"></trkpt><trkpt lat="54.96322292653203" lon="12.542988589638467"></trkpt><trkpt lat="54.96322292653203" lon="12.542988589638465"></trkpt><trkpt lat="54.9633312" lon="12.5431286"></trkpt><trkpt lat="54.9635276" lon="12.5421199"></trkpt><trkpt lat="54.963654" lon="12.5411653"></trkpt><trkpt lat="54.96375506810922" lon="12.540908794125071"></trkpt><trkpt lat="54.9643918" lon="12.5392928"></trkpt><trkpt lat="54.96452864644704" lon="12.539085691576986"></trkpt><trkpt lat="54.96452864644704" lon="12.539085691576984"></trkpt><trkpt lat="54.96452864644704" lon="12.539085691576986"></trkpt><trkpt lat="54.9647081" lon="12.5388141"></trkpt><trkpt lat="54.964901" lon="12.538878"></trkpt><trkpt lat="54.9652135" lon="12.5388874"></trkpt><trkpt lat="54.9655246" lon="12.5390294"></trkpt><trkpt lat="54.9657273" lon="12.5391253"></trkpt><trkpt lat="54.965751590384144" lon="12.538879231287645"></trkpt><trkpt lat="54.965758" lon="12.5388143"></trkpt><trkpt lat="54.9657447" lon="12.5384415"></trkpt><trkpt lat="54.9657314" lon="12.538386"></trkpt><trkpt lat="54.9656975" lon="12.538201"></trkpt><trkpt lat="54.9656871" lon="12.5380239"></trkpt><trkpt lat="54.9657098" lon="12.537885"></trkpt><trkpt lat="54.9657353" lon="12.5377786"></trkpt><trkpt lat="54.9657884" lon="12.5376632"></trkpt><trkpt lat="54.96585" lon="12.5375626"></trkpt><trkpt lat="54.9659231" lon="12.5374553"></trkpt><trkpt lat="54.9660109" lon="12.5373453"></trkpt><trkpt lat="54.9660725" lon="12.5372783"></trkpt><trkpt lat="54.9661749" lon="12.5372126"></trkpt><trkpt lat="54.9662688" lon="12.5371656"></trkpt><trkpt lat="54.9663535" lon="12.5371495"></trkpt><trkpt lat="54.96636159130966" lon="12.537147608656365"></trkpt><trkpt lat="54.9664335" lon="12.5371308"></trkpt><trkpt lat="54.9664967" lon="12.5371361"></trkpt><trkpt lat="54.966566" lon="12.5371629"></trkpt><trkpt lat="54.9666199" lon="12.5372595"></trkpt><trkpt lat="54.9666891" lon="12.5373561"></trkpt><trkpt lat="54.9667246" lon="12.537399"></trkpt><trkpt lat="54.9667786" lon="12.53743"></trkpt><trkpt lat="54.9668031" lon="12.5374218"></trkpt><trkpt lat="54.9668616" lon="12.5374513"></trkpt><trkpt lat="54.9669124" lon="12.5374835"></trkpt><trkpt lat="54.9669617" lon="12.5375666"></trkpt><trkpt lat="54.9670156" lon="12.5376873"></trkpt><trkpt lat="54.9671049" lon="12.5379019"></trkpt><trkpt lat="54.9672296" lon="12.5380896"></trkpt><trkpt lat="54.9673666" lon="12.5382425"></trkpt><trkpt lat="54.9674559" lon="12.5383096"></trkpt><trkpt lat="54.96745323814367" lon="12.538320533933007"></trkpt><trkpt lat="54.9674559" lon="12.5383096"></trkpt><trkpt lat="54.9675652" lon="12.5383659"></trkpt><trkpt lat="54.9677069" lon="12.5384598"></trkpt><trkpt lat="54.9677854" lon="12.5385456"></trkpt><trkpt lat="54.9678639" lon="12.5386261"></trkpt><trkpt lat="54.9679378" lon="12.5386931"></trkpt><trkpt lat="54.968001" lon="12.5387441"></trkpt><trkpt lat="54.9681365" lon="12.5388058"></trkpt><trkpt lat="54.9681881" lon="12.5388015"></trkpt><trkpt lat="54.9682011" lon="12.5388004"></trkpt><trkpt lat="54.9682473" lon="12.5387629"></trkpt><trkpt lat="54.9682797" lon="12.5386824"></trkpt><trkpt lat="54.9683151" lon="12.5385215"></trkpt><trkpt lat="54.968352" lon="12.5384625"></trkpt><trkpt lat="54.9683813" lon="12.538433"></trkpt><trkpt lat="54.9684336" lon="12.5384276"></trkpt><trkpt lat="54.9684764" lon="12.538435"></trkpt><trkpt lat="54.9684659" lon="12.5385915"></trkpt><trkpt lat="54.96847161208315" lon="12.538834606258975"></trkpt><trkpt lat="54.9684809" lon="12.5392299"></trkpt><trkpt lat="54.9683983" lon="12.5397187"></trkpt><trkpt lat="54.9683213" lon="12.5399481"></trkpt><trkpt lat="54.9681366" lon="12.5407876"></trkpt><trkpt lat="54.9681067" lon="12.5408889"></trkpt><trkpt lat="54.9681566" lon="12.5410759"></trkpt><trkpt lat="54.96817032934145" lon="12.541113540442685"></trkpt><trkpt lat="54.96817032934145" lon="12.541113540442687"></trkpt><trkpt lat="54.96817032934145" lon="12.541113540442685"></trkpt><trkpt lat="54.9682936" lon="12.5414515"></trkpt><trkpt lat="54.9683875" lon="12.5418484"></trkpt><trkpt lat="54.9684249" lon="12.5420199"></trkpt><trkpt lat="54.9685299" lon="12.5416902"></trkpt><trkpt lat="54.9685669" lon="12.5416553"></trkpt><trkpt lat="54.9686077" lon="12.5416613"></trkpt><trkpt lat="54.9686558" lon="12.5417157"></trkpt><trkpt lat="54.9687517" lon="12.5419457"></trkpt><trkpt lat="54.968794" lon="12.5419664"></trkpt><trkpt lat="54.9688186" lon="12.5419222"></trkpt><trkpt lat="54.968886" lon="12.5417286"></trkpt><trkpt lat="54.9690207" lon="12.5414213"></trkpt><trkpt lat="54.9690742" lon="12.5413542"></trkpt><trkpt lat="54.9691145" lon="12.5413359"></trkpt><trkpt lat="54.9691802235583" lon="12.541565216652911"></trkpt><trkpt lat="54.9692155" lon="12.5416883"></trkpt><trkpt lat="54.9693907" lon="12.5417457"></trkpt><trkpt lat="54.9694854" lon="12.5416663"></trkpt><trkpt lat="54.9695908" lon="12.541615"></trkpt><trkpt lat="54.9696739" lon="12.5414843"></trkpt><trkpt lat="54.9699553" lon="12.5412913"></trkpt><trkpt lat="54.9700232" lon="12.5413037"></trkpt><trkpt lat="54.9700866" lon="12.5412897"></trkpt><trkpt lat="54.9701411" lon="12.5412306"></trkpt><trkpt lat="54.9701867" lon="12.5411248"></trkpt><trkpt lat="54.97038234778898" lon="12.541100012844069"></trkpt><trkpt lat="54.970519" lon="12.5410827"></trkpt><trkpt lat="54.9706056" lon="12.5410952"></trkpt><trkpt lat="54.9711665" lon="12.5413742"></trkpt><trkpt lat="54.97167070774922" lon="12.541641718831677"></trkpt><trkpt lat="54.9717847" lon="12.5417022"></trkpt><trkpt lat="54.9720825" lon="12.5410062"></trkpt><trkpt lat="54.9725291" lon="12.5398001"></trkpt><trkpt lat="54.97254489769052" lon="12.539682864507219"></trkpt><trkpt lat="54.9725595" lon="12.5395745"></trkpt><trkpt lat="54.9726536" lon="12.5385565"></trkpt><trkpt lat="54.9727358" lon="12.5381648"></trkpt><trkpt lat="54.9729126" lon="12.5375661"></trkpt><trkpt lat="54.97294849410207" lon="12.537479340127101"></trkpt><trkpt lat="54.97294849410207" lon="12.537479340127103"></trkpt><trkpt lat="54.97294849410207" lon="12.537479340127101"></trkpt><trkpt lat="54.9730073" lon="12.5373372"></trkpt><trkpt lat="54.9731726" lon="12.5371685"></trkpt><trkpt lat="54.9733358" lon="12.5369521"></trkpt><trkpt lat="54.9735451" lon="12.5365672"></trkpt><trkpt lat="54.9736344" lon="12.5362949"></trkpt><trkpt lat="54.97377149253916" lon="12.53570693584242"></trkpt><trkpt lat="54.97377149253916" lon="12.535706935842422"></trkpt><trkpt lat="54.97377149253916" lon="12.53570693584242"></trkpt><trkpt lat="54.9738373" lon="12.5354247"></trkpt><trkpt lat="54.9739684" lon="12.534923"></trkpt><trkpt lat="54.97436015708062" lon="12.533610295989687"></trkpt><trkpt lat="54.97436015708062" lon="12.53361029598969"></trkpt><trkpt lat="54.97436015708062" lon="12.533610295989687"></trkpt><trkpt lat="54.9743937" lon="12.5334979"></trkpt><trkpt lat="54.9744679" lon="12.533137"></trkpt><trkpt lat="54.9748055" lon="12.5334062"></trkpt><trkpt lat="54.9750946" lon="12.5336101"></trkpt><trkpt lat="54.975377" lon="12.5338563"></trkpt><trkpt lat="54.9754948" lon="12.5339118"></trkpt><trkpt lat="54.97557291018056" lon="12.533912881397601"></trkpt><trkpt lat="54.9755887" lon="12.5339131"></trkpt><trkpt lat="54.9756618" lon="12.533901"></trkpt><trkpt lat="54.9758448" lon="12.5338252"></trkpt><trkpt lat="54.97687882527913" lon="12.533399593609106"></trkpt><trkpt lat="54.9770705" lon="12.5333207"></trkpt><trkpt lat="54.9780217" lon="12.5331792"></trkpt><trkpt lat="54.978193214224625" lon="12.533153722106569"></trkpt><trkpt lat="54.9782075" lon="12.5331516"></trkpt><trkpt lat="54.9783631" lon="12.5331834"></trkpt><trkpt lat="54.9786272" lon="12.5333424"></trkpt><trkpt lat="54.978776" lon="12.5333491"></trkpt><trkpt lat="54.9789566" lon="12.5333223"></trkpt><trkpt lat="54.9790729" lon="12.5330349"></trkpt><trkpt lat="54.9794301" lon="12.5326272"></trkpt><trkpt lat="54.979438230042284" lon="12.53261581017325"></trkpt><trkpt lat="54.979438230042284" lon="12.532615810173247"></trkpt><trkpt lat="54.979438230042284" lon="12.53261581017325"></trkpt><trkpt lat="54.9800581" lon="12.5317474"></trkpt><trkpt lat="54.980329" lon="12.5312754"></trkpt><trkpt lat="54.9804471568362" lon="12.531100238446708"></trkpt><trkpt lat="54.9804471568362" lon="12.53110023844671"></trkpt><trkpt lat="54.9804471568362" lon="12.531100238446708"></trkpt><trkpt lat="54.9808646" lon="12.5304814"></trkpt><trkpt lat="54.9813957" lon="12.5296768"></trkpt><trkpt lat="54.9814925" lon="12.5297551"></trkpt><trkpt lat="54.98149731075703" lon="12.529744675092726"></trkpt><trkpt lat="54.9816428" lon="12.5294294"></trkpt><trkpt lat="54.9822098" lon="12.5289955"></trkpt><trkpt lat="54.982673230493695" lon="12.528664068015305"></trkpt><trkpt lat="54.982673230493695" lon="12.528664068015303"></trkpt><trkpt lat="54.982673230493695" lon="12.528664068015305"></trkpt><trkpt lat="54.9827424" lon="12.5286146"></trkpt><trkpt lat="54.9829562" lon="12.5283888"></trkpt><trkpt lat="54.9830395" lon="12.5283071"></trkpt><trkpt lat="54.9828174" lon="12.5273657"></trkpt><trkpt lat="54.9827002" lon="12.5267051"></trkpt><trkpt lat="54.98269437945048" lon="12.526686224127749"></trkpt><trkpt lat="54.98269437945048" lon="12.52668622412775"></trkpt><trkpt lat="54.98269437945048" lon="12.526686224127749"></trkpt><trkpt lat="54.9825117" lon="12.5260938"></trkpt></trkseg></trk></gpx>
