<?xml version="1.0" encoding="UTF-8"?>
<gpx version="1.1" creator="Good Shit" xmlns="http://www.topografix.com/GPX/1/1"><trk><name>Murgseen loop — Murgseen loop</name><trkseg><trkpt lat="47.068589248873664" lon="9.198045922414707"></trkpt><trkpt lat="47.0688462" lon="9.1981636"></trkpt><trkpt lat="47.0689993" lon="9.1983014"></trkpt><trkpt lat="47.0692852" lon="9.1984668"></trkpt><trkpt lat="47.0695516" lon="9.1984785"></trkpt><trkpt lat="47.069555" lon="9.1984139"></trkpt><trkpt lat="47.0695439" lon="9.1983375"></trkpt><trkpt lat="47.0695496" lon="9.1982842"></trkpt><trkpt lat="47.0696501" lon="9.1981338"></trkpt><trkpt lat="47.069703" lon="9.1981043"></trkpt><trkpt lat="47.0697889" lon="9.1981752"></trkpt><trkpt lat="47.0698579" lon="9.1981853"></trkpt><trkpt lat="47.0698726" lon="9.1981169"></trkpt><trkpt lat="47.0699425" lon="9.1980913"></trkpt><trkpt lat="47.069963" lon="9.1980153"></trkpt><trkpt lat="47.07009469537928" lon="9.197935533004326"></trkpt><trkpt lat="47.07009469537928" lon="9.197935533004328"></trkpt><trkpt lat="47.07009469537928" lon="9.197935533004326"></trkpt><trkpt lat="47.0701527" lon="9.1979004"></trkpt><trkpt lat="47.070184" lon="9.1978263"></trkpt><trkpt lat="47.0702903" lon="9.1977096"></trkpt><trkpt lat="47.0703783" lon="9.1976543"></trkpt><trkpt lat="47.0704566" lon="9.1975888"></trkpt><trkpt lat="47.0705886" lon="9.1975565"></trkpt><trkpt lat="47.0706275" lon="9.1974329"></trkpt><trkpt lat="47.0708179" lon="9.197255"></trkpt><trkpt lat="47.0708538" lon="9.1971961"></trkpt><trkpt lat="47.0709956" lon="9.1969035"></trkpt><trkpt lat="47.0711146" lon="9.1964284"></trkpt><trkpt lat="47.0711078" lon="9.1962512"></trkpt><trkpt lat="47.07118894224933" lon="9.196044113434828"></trkpt><trkpt lat="47.07118894224933" lon="9.19604411343483"></trkpt><trkpt lat="47.07118894224933" lon="9.196044113434828"></trkpt><trkpt lat="47.0712315" lon="9.1959355"></trkpt><trkpt lat="47.071266" lon="9.1958342"></trkpt><trkpt lat="47.0712384" lon="9.1957632"></trkpt><trkpt lat="47.0711487" lon="9.1958038"></trkpt><trkpt lat="47.0709692" lon="9.1959659"></trkpt><trkpt lat="47.0707245" lon="9.1959892"></trkpt><trkpt lat="47.0705337" lon="9.1959717"></trkpt><trkpt lat="47.0704581" lon="9.1960462"></trkpt><trkpt lat="47.0702318" lon="9.1959565"></trkpt><trkpt lat="47.0700977" lon="9.1959729"></trkpt><trkpt lat="47.0700086" lon="9.1959574"></trkpt><trkpt lat="47.0700125" lon="9.1959134"></trkpt><trkpt lat="47.0700968" lon="9.1957891"></trkpt><trkpt lat="47.07016242722025" lon="9.195558033414109"></trkpt><trkpt lat="47.07016242722025" lon="9.19555803341411"></trkpt><trkpt lat="47.07016242722025" lon="9.195558033414109"></trkpt><trkpt lat="47.0701638" lon="9.1955532"></trkpt><trkpt lat="47.070206" lon="9.1954925"></trkpt><trkpt lat="47.0701904" lon="9.1953828"></trkpt><trkpt lat="47.0702328" lon="9.1953079"></trkpt><trkpt lat="47.0702169" lon="9.1951639"></trkpt><trkpt lat="47.0702674" lon="9.1950042"></trkpt><trkpt lat="47.07039" lon="9.1949288"></trkpt><trkpt lat="47.0704534" lon="9.1948524"></trkpt><trkpt lat="47.0705162" lon="9.1947104"></trkpt><trkpt lat="47.0705427" lon="9.1945592"></trkpt><trkpt lat="47.0706778" lon="9.1945268"></trkpt><trkpt lat="47.0707784" lon="9.1944237"></trkpt><trkpt lat="47.0708687" lon="9.1943033"></trkpt><trkpt lat="47.0709006" lon="9.194168"></trkpt><trkpt lat="47.0709428" lon="9.1941295"></trkpt><trkpt lat="47.0709693" lon="9.1940177"></trkpt><trkpt lat="47.0710411" lon="9.1938954"></trkpt><trkpt lat="47.0711652" lon="9.1935766"></trkpt><trkpt lat="47.07120164455274" lon="9.193443255374985"></trkpt><trkpt lat="47.0712631" lon="9.1932184"></trkpt><trkpt lat="47.0712829" lon="9.1929572"></trkpt><trkpt lat="47.0712678" lon="9.1927654"></trkpt><trkpt lat="47.07128" lon="9.1925751"></trkpt><trkpt lat="47.071391" lon="9.1923875"></trkpt><trkpt lat="47.0713819" lon="9.1923579"></trkpt><trkpt lat="47.0712572" lon="9.1924059"></trkpt><trkpt lat="47.0711345" lon="9.1924327"></trkpt><trkpt lat="47.0709695" lon="9.1925868"></trkpt><trkpt lat="47.0708242" lon="9.1927546"></trkpt><trkpt lat="47.0707946" lon="9.1927178"></trkpt><trkpt lat="47.070817" lon="9.1925355"></trkpt><trkpt lat="47.070847" lon="9.192365"></trkpt><trkpt lat="47.0708996" lon="9.1922794"></trkpt><trkpt lat="47.07091753071157" lon="9.192266749497971"></trkpt><trkpt lat="47.07091753071157" lon="9.192266749497973"></trkpt><trkpt lat="47.07091753071157" lon="9.192266749497971"></trkpt><trkpt lat="47.07103" lon="9.1921874"></trkpt><trkpt lat="47.0710989" lon="9.1921494"></trkpt><trkpt lat="47.0711768" lon="9.1921038"></trkpt><trkpt lat="47.0711014" lon="9.1920328"></trkpt><trkpt lat="47.0711111" lon="9.1919923"></trkpt><trkpt lat="47.0711816" lon="9.1919545"></trkpt><trkpt lat="47.0713154" lon="9.1919856"></trkpt><trkpt lat="47.0713476" lon="9.1920302"></trkpt><trkpt lat="47.0713564" lon="9.1920074"></trkpt><trkpt lat="47.0713093" lon="9.1918479"></trkpt><trkpt lat="47.0714445" lon="9.1918718"></trkpt><trkpt lat="47.0715375" lon="9.1919143"></trkpt><trkpt lat="47.0716302" lon="9.1918922"></trkpt><trkpt lat="47.0716322" lon="9.1918665"></trkpt><trkpt lat="47.0715379" lon="9.1917797"></trkpt><trkpt lat="47.0715078" lon="9.1917244"></trkpt><trkpt lat="47.0715275" lon="9.1916666"></trkpt><trkpt lat="47.0716282" lon="9.1917403"></trkpt><trkpt lat="47.0716613" lon="9.1917474"></trkpt><trkpt lat="47.0717024" lon="9.1916852"></trkpt><trkpt lat="47.0717477" lon="9.1915582"></trkpt><trkpt lat="47.0718273" lon="9.1914926"></trkpt><trkpt lat="47.071763" lon="9.1914207"></trkpt><trkpt lat="47.0717943" lon="9.1913921"></trkpt><trkpt lat="47.0718463" lon="9.1913355"></trkpt><trkpt lat="47.0718728" lon="9.1912931"></trkpt><trkpt lat="47.0718521" lon="9.1912159"></trkpt><trkpt lat="47.07189146373607" lon="9.19110854435617"></trkpt><trkpt lat="47.07189146373607" lon="9.191108544356172"></trkpt><trkpt lat="47.07189146373607" lon="9.19110854435617"></trkpt><trkpt lat="47.0718939" lon="9.1911019"></trkpt><trkpt lat="47.0719032" lon="9.1910685"></trkpt><trkpt lat="47.0719166" lon="9.1910039"></trkpt><trkpt lat="47.0718773" lon="9.1908552"></trkpt><trkpt lat="47.071874" lon="9.1907529"></trkpt><trkpt lat="47.0718469" lon="9.1906784"></trkpt><trkpt lat="47.0718434" lon="9.1906334"></trkpt><trkpt lat="47.0718565" lon="9.1905942"></trkpt><trkpt lat="47.0718956" lon="9.190522"></trkpt><trkpt lat="47.0719244" lon="9.1905056"></trkpt><trkpt lat="47.0719056" lon="9.1903877"></trkpt><trkpt lat="47.0718959" lon="9.1903122"></trkpt><trkpt lat="47.0718614" lon="9.1899929"></trkpt><trkpt lat="47.0718294" lon="9.189603"></trkpt><trkpt lat="47.0717979" lon="9.1893332"></trkpt><trkpt lat="47.071773" lon="9.1891019"></trkpt><trkpt lat="47.07171921110835" lon="9.188547771306329"></trkpt><trkpt lat="47.0717104" lon="9.188457"></trkpt><trkpt lat="47.071636" lon="9.187654"></trkpt><trkpt lat="47.0715326" lon="9.1868622"></trkpt><trkpt lat="47.0714846" lon="9.1866737"></trkpt><trkpt lat="47.0714041" lon="9.1862921"></trkpt><trkpt lat="47.071381" lon="9.1861406"></trkpt><trkpt lat="47.0713543" lon="9.1860248"></trkpt><trkpt lat="47.07134605854092" lon="9.18597172207504"></trkpt><trkpt lat="47.07134605854092" lon="9.185971722075038"></trkpt><trkpt lat="47.07134605854092" lon="9.18597172207504"></trkpt><trkpt lat="47.0712755" lon="9.1855173"></trkpt><trkpt lat="47.071272" lon="9.185367"></trkpt><trkpt lat="47.0712353" lon="9.1851884"></trkpt><trkpt lat="47.071181" lon="9.1849148"></trkpt><trkpt lat="47.071181" lon="9.1848261"></trkpt><trkpt lat="47.0711766" lon="9.1844805"></trkpt><trkpt lat="47.0711635" lon="9.1843443"></trkpt><trkpt lat="47.0711486" lon="9.1842711"></trkpt><trkpt lat="47.0711302" lon="9.1841555"></trkpt><trkpt lat="47.0711469" lon="9.1840244"></trkpt><trkpt lat="47.0711135" lon="9.1839232"></trkpt><trkpt lat="47.07109" lon="9.1837795"></trkpt><trkpt lat="47.0710348" lon="9.1834147"></trkpt><trkpt lat="47.071031203309644" lon="9.183395399727175"></trkpt><trkpt lat="47.0710165" lon="9.1833165"></trkpt><trkpt lat="47.0710182" lon="9.1830788"></trkpt><trkpt lat="47.0709929" lon="9.1828385"></trkpt><trkpt lat="47.070971" lon="9.1826086"></trkpt><trkpt lat="47.0709713" lon="9.1823395"></trkpt><trkpt lat="47.0709867" lon="9.1821614"></trkpt><trkpt lat="47.0710147" lon="9.1820368"></trkpt><trkpt lat="47.0710497" lon="9.181952"></trkpt><trkpt lat="47.0711384" lon="9.1817458"></trkpt><trkpt lat="47.0711696" lon="9.1816719"></trkpt><trkpt lat="47.0712037" lon="9.1815923"></trkpt><trkpt lat="47.0712615" lon="9.1814908"></trkpt><trkpt lat="47.0712947" lon="9.1814145"></trkpt><trkpt lat="47.0713604" lon="9.1812004"></trkpt><trkpt lat="47.0713875" lon="9.1810051"></trkpt><trkpt lat="47.07138870378315" lon="9.180928659769863"></trkpt><trkpt lat="47.0713891" lon="9.1809035"></trkpt><trkpt lat="47.0713659" lon="9.1808365"></trkpt><trkpt lat="47.0713048" lon="9.1807542"></trkpt><trkpt lat="47.0712545" lon="9.1806146"></trkpt><trkpt lat="47.0712585" lon="9.18046"></trkpt><trkpt lat="47.0712396" lon="9.1803165"></trkpt><trkpt lat="47.0712075" lon="9.1801748"></trkpt><trkpt lat="47.0711924" lon="9.1800248"></trkpt><trkpt lat="47.0711652" lon="9.1798938"></trkpt><trkpt lat="47.0711311" lon="9.17984"></trkpt><trkpt lat="47.0710417" lon="9.1796752"></trkpt><trkpt lat="47.0710074" lon="9.179584"></trkpt><trkpt lat="47.0710134" lon="9.179524"></trkpt><trkpt lat="47.0710692" lon="9.1794589"></trkpt><trkpt lat="47.0711094" lon="9.1793953"></trkpt><trkpt lat="47.0711734" lon="9.1792007"></trkpt><trkpt lat="47.0712081" lon="9.1791208"></trkpt><trkpt lat="47.0712111" lon="9.1790437"></trkpt><trkpt lat="47.0711389" lon="9.1788835"></trkpt><trkpt lat="47.0711182" lon="9.1788066"></trkpt><trkpt lat="47.0711618" lon="9.1788177"></trkpt><trkpt lat="47.0712273" lon="9.1788497"></trkpt><trkpt lat="47.0712376453893" lon="9.178854092253003"></trkpt><trkpt lat="47.0712376453893" lon="9.178854092253005"></trkpt><trkpt lat="47.0712376453893" lon="9.178854092253003"></trkpt><trkpt lat="47.0712843" lon="9.1788739"></trkpt><trkpt lat="47.0712945" lon="9.1788323"></trkpt><trkpt lat="47.0712643" lon="9.1787849"></trkpt><trkpt lat="47.0712347" lon="9.1786885"></trkpt><trkpt lat="47.0711984" lon="9.1786317"></trkpt><trkpt lat="47.0711852" lon="9.1785715"></trkpt><trkpt lat="47.0711458" lon="9.1785244"></trkpt><trkpt lat="47.071077" lon="9.1784708"></trkpt><trkpt lat="47.0710424" lon="9.1784208"></trkpt><trkpt lat="47.0711055" lon="9.1784112"></trkpt><trkpt lat="47.0711176" lon="9.1783983"></trkpt><trkpt lat="47.0710606" lon="9.1783377"></trkpt><trkpt lat="47.0710066" lon="9.178232"></trkpt><trkpt lat="47.0709966" lon="9.1781409"></trkpt><trkpt lat="47.0710128" lon="9.1779879"></trkpt><trkpt lat="47.0710191" lon="9.1779227"></trkpt><trkpt lat="47.0710036" lon="9.177845"></trkpt><trkpt lat="47.0709644" lon="9.1777987"></trkpt><trkpt lat="47.0709518" lon="9.1777299"></trkpt><trkpt lat="47.0709395" lon="9.1776338"></trkpt><trkpt lat="47.0709194" lon="9.1775542"></trkpt><trkpt lat="47.0708962" lon="9.1774669"></trkpt><trkpt lat="47.0708606" lon="9.1773999"></trkpt><trkpt lat="47.0708318" lon="9.1773184"></trkpt><trkpt lat="47.0708199" lon="9.1772254"></trkpt><trkpt lat="47.0708101" lon="9.1770982"></trkpt><trkpt lat="47.070795" lon="9.1769953"></trkpt><trkpt lat="47.0707387" lon="9.1768666"></trkpt><trkpt lat="47.070715" lon="9.1767805"></trkpt><trkpt lat="47.0706696" lon="9.1766985"></trkpt><trkpt lat="47.070646509639744" lon="9.176661574773052"></trkpt><trkpt lat="47.070646509639744" lon="9.17666157477305"></trkpt><trkpt lat="47.070646509639744" lon="9.176661574773052"></trkpt><trkpt lat="47.070598" lon="9.176584"></trkpt><trkpt lat="47.0705296" lon="9.1764794"></trkpt><trkpt lat="47.0704594" lon="9.1763844"></trkpt><trkpt lat="47.0703267" lon="9.1761216"></trkpt><trkpt lat="47.0702897" lon="9.1760326"></trkpt><trkpt lat="47.0702378" lon="9.1759382"></trkpt><trkpt lat="47.0701959" lon="9.1758491"></trkpt><trkpt lat="47.0701486" lon="9.1757793"></trkpt><trkpt lat="47.0700913" lon="9.175714"></trkpt><trkpt lat="47.0700507" lon="9.1756419"></trkpt><trkpt lat="47.0699998" lon="9.1754793"></trkpt><trkpt lat="47.069981" lon="9.1753982"></trkpt><trkpt lat="47.0699807" lon="9.1753129"></trkpt><trkpt lat="47.0699985" lon="9.1752354"></trkpt><trkpt lat="47.0700504" lon="9.1751246"></trkpt><trkpt lat="47.0701493" lon="9.1748985"></trkpt><trkpt lat="47.0702855" lon="9.1746569"></trkpt><trkpt lat="47.07034402591166" lon="9.174536214467507"></trkpt><trkpt lat="47.07034402591166" lon="9.174536214467508"></trkpt><trkpt lat="47.07034402591166" lon="9.174536214467507"></trkpt><trkpt lat="47.0703612" lon="9.1745008"></trkpt><trkpt lat="47.0704147" lon="9.1743782"></trkpt><trkpt lat="47.0704563" lon="9.1742698"></trkpt><trkpt lat="47.0704792" lon="9.1741925"></trkpt><trkpt lat="47.0704922" lon="9.1741026"></trkpt><trkpt lat="47.0704903" lon="9.1739002"></trkpt><trkpt lat="47.0704424" lon="9.1735401"></trkpt><trkpt lat="47.0703773" lon="9.1731063"></trkpt><trkpt lat="47.0703537" lon="9.1729006"></trkpt><trkpt lat="47.0703386" lon="9.1728002"></trkpt><trkpt lat="47.0703164" lon="9.1727214"></trkpt><trkpt lat="47.0702562" lon="9.1725821"></trkpt><trkpt lat="47.0702009" lon="9.1724957"></trkpt><trkpt lat="47.0700795" lon="9.1723013"></trkpt><trkpt lat="47.070065" lon="9.1722643"></trkpt><trkpt lat="47.0700486" lon="9.1721886"></trkpt><trkpt lat="47.07003845731709" lon="9.172125069922494"></trkpt><trkpt lat="47.0700486" lon="9.1721886"></trkpt><trkpt lat="47.0700761" lon="9.1721085"></trkpt><trkpt lat="47.070125" lon="9.1720592"></trkpt><trkpt lat="47.0701444" lon="9.1719886"></trkpt><trkpt lat="47.0701757" lon="9.1718732"></trkpt><trkpt lat="47.0701847" lon="9.1718482"></trkpt><trkpt lat="47.0701883" lon="9.1717982"></trkpt><trkpt lat="47.0702154" lon="9.1717864"></trkpt><trkpt lat="47.0702215" lon="9.171769"></trkpt><trkpt lat="47.0702326" lon="9.1717293"></trkpt><trkpt lat="47.0702444" lon="9.1717074"></trkpt><trkpt lat="47.0703318" lon="9.1716555"></trkpt><trkpt lat="47.0703455" lon="9.1716172"></trkpt><trkpt lat="47.0703593" lon="9.1716005"></trkpt><trkpt lat="47.0703875" lon="9.1715797"></trkpt><trkpt lat="47.0705111" lon="9.1715276"></trkpt><trkpt lat="47.0705287" lon="9.1715057"></trkpt><trkpt lat="47.0705542" lon="9.1715046"></trkpt><trkpt lat="47.070568" lon="9.17149"></trkpt><trkpt lat="47.070576" lon="9.1714431"></trkpt><trkpt lat="47.0705996" lon="9.1714362"></trkpt><trkpt lat="47.0706054" lon="9.17142"></trkpt><trkpt lat="47.0706145" lon="9.1714167"></trkpt><trkpt lat="47.07065" lon="9.1714628"></trkpt><trkpt lat="47.0706702" lon="9.1714525"></trkpt><trkpt lat="47.0706767" lon="9.1714362"></trkpt><trkpt lat="47.0706667" lon="9.1714033"></trkpt><trkpt lat="47.0706721" lon="9.1713769"></trkpt><trkpt lat="47.0706847" lon="9.1713757"></trkpt><trkpt lat="47.0707031" lon="9.1713896"></trkpt><trkpt lat="47.0707148" lon="9.1713763"></trkpt><trkpt lat="47.0706961" lon="9.1713287"></trkpt><trkpt lat="47.0706997" lon="9.171311"></trkpt><trkpt lat="47.0707172" lon="9.1713153"></trkpt><trkpt lat="47.0707138" lon="9.1712581"></trkpt><trkpt lat="47.070705" lon="9.1712418"></trkpt><trkpt lat="47.0706802" lon="9.1711634"></trkpt><trkpt lat="47.0706626" lon="9.1711337"></trkpt><trkpt lat="47.0705985" lon="9.1710575"></trkpt><trkpt lat="47.07051797457295" lon="9.170972027414956"></trkpt><trkpt lat="47.07051797457295" lon="9.170972027414955"></trkpt><trkpt lat="47.07051797457295" lon="9.170972027414956"></trkpt><trkpt lat="47.0705985" lon="9.1710575"></trkpt><trkpt lat="47.0706626" lon="9.1711337"></trkpt><trkpt lat="47.0706802" lon="9.1711634"></trkpt><trkpt lat="47.070705" lon="9.1712418"></trkpt><trkpt lat="47.0707138" lon="9.1712581"></trkpt><trkpt lat="47.0707962" lon="9.1712833"></trkpt><trkpt lat="47.0708366" lon="9.1712743"></trkpt><trkpt lat="47.0708755" lon="9.1712379"></trkpt><trkpt lat="47.0709136" lon="9.1711692"></trkpt><trkpt lat="47.0709217" lon="9.1711197"></trkpt><trkpt lat="47.0709426" lon="9.1710813"></trkpt><trkpt lat="47.0709854" lon="9.1710581"></trkpt><trkpt lat="47.0710301" lon="9.1710502"></trkpt><trkpt lat="47.071056" lon="9.1710004"></trkpt><trkpt lat="47.0710724" lon="9.1709382"></trkpt><trkpt lat="47.071072" lon="9.1708833"></trkpt><trkpt lat="47.0710571" lon="9.1708368"></trkpt><trkpt lat="47.0710518" lon="9.1707864"></trkpt><trkpt lat="47.071053" lon="9.1707348"></trkpt><trkpt lat="47.0709991" lon="9.1703701"></trkpt><trkpt lat="47.0709942" lon="9.1702777"></trkpt><trkpt lat="47.0709724" lon="9.1700457"></trkpt><trkpt lat="47.0709537" lon="9.169988"></trkpt><trkpt lat="47.0709186" lon="9.169904"></trkpt><trkpt lat="47.0708679" lon="9.1698312"></trkpt><trkpt lat="47.0708175" lon="9.1697516"></trkpt><trkpt lat="47.0707771" lon="9.1696883"></trkpt><trkpt lat="47.0707172" lon="9.1696284"></trkpt><trkpt lat="47.070691312327995" lon="9.169591189588989"></trkpt><trkpt lat="47.0706653" lon="9.1695538"></trkpt><trkpt lat="47.0705543" lon="9.169278"></trkpt><trkpt lat="47.070483" lon="9.1690224"></trkpt><trkpt lat="47.0704337" lon="9.1688838"></trkpt><trkpt lat="47.0703463" lon="9.1686782"></trkpt><trkpt lat="47.070315" lon="9.1686126"></trkpt><trkpt lat="47.0702829" lon="9.1685421"></trkpt><trkpt lat="47.0702154" lon="9.1684502"></trkpt><trkpt lat="47.0701192" lon="9.1682272"></trkpt><trkpt lat="47.0700643" lon="9.1681432"></trkpt><trkpt lat="47.0699712" lon="9.1678967"></trkpt><trkpt lat="47.0698476" lon="9.1676128"></trkpt><trkpt lat="47.069817" lon="9.1675622"></trkpt><trkpt lat="47.0697869" lon="9.1675235"></trkpt><trkpt lat="47.06972061746986" lon="9.167393514026502"></trkpt><trkpt lat="47.06972061746986" lon="9.1673935140265"></trkpt><trkpt lat="47.06972061746986" lon="9.167393514026502"></trkpt><trkpt lat="47.0697098" lon="9.1673723"></trkpt><trkpt lat="47.0696953" lon="9.1673112"></trkpt><trkpt lat="47.0696888" lon="9.1672294"></trkpt><trkpt lat="47.0696842" lon="9.1670888"></trkpt><trkpt lat="47.0696751" lon="9.1670574"></trkpt><trkpt lat="47.069619" lon="9.1669"></trkpt><trkpt lat="47.0695446" lon="9.1664789"></trkpt><trkpt lat="47.0694988" lon="9.166268"></trkpt><trkpt lat="47.0694686" lon="9.1661805"></trkpt><trkpt lat="47.0694354" lon="9.1661269"></trkpt><trkpt lat="47.0693855" lon="9.1659919"></trkpt><trkpt lat="47.0693076" lon="9.1658736"></trkpt><trkpt lat="47.0692321" lon="9.1657229"></trkpt><trkpt lat="47.0691878" lon="9.1656126"></trkpt><trkpt lat="47.0690781" lon="9.1653903"></trkpt><trkpt lat="47.0690168" lon="9.1653106"></trkpt><trkpt lat="47.068879816813855" lon="9.165172880136659"></trkpt><trkpt lat="47.068879816813855" lon="9.16517288013666"></trkpt><trkpt lat="47.068879816813855" lon="9.165172880136659"></trkpt><trkpt lat="47.0686635" lon="9.1649554"></trkpt><trkpt lat="47.0685856" lon="9.1648523"></trkpt><trkpt lat="47.0681857" lon="9.1642428"></trkpt><trkpt lat="47.0681098" lon="9.1641218"></trkpt><trkpt lat="47.0679186" lon="9.1638321"></trkpt><trkpt lat="47.0678759" lon="9.163747"></trkpt><trkpt lat="47.0678499" lon="9.1637066"></trkpt><trkpt lat="47.0677682" lon="9.1634754"></trkpt><trkpt lat="47.0676423" lon="9.1633156"></trkpt><trkpt lat="47.06762641054202" lon="9.163292551555456"></trkpt><trkpt lat="47.06762641054202" lon="9.163292551555458"></trkpt><trkpt lat="47.06762641054202" lon="9.163292551555456"></trkpt><trkpt lat="47.0675786" lon="9.1632232"></trkpt><trkpt lat="47.0675008" lon="9.1631576"></trkpt><trkpt lat="47.0674695" lon="9.1631234"></trkpt><trkpt lat="47.0674452" lon="9.1630567"></trkpt><trkpt lat="47.0674288" lon="9.1629371"></trkpt><trkpt lat="47.0674173" lon="9.1628979"></trkpt><trkpt lat="47.0673521" lon="9.1627701"></trkpt><trkpt lat="47.0673483" lon="9.1626816"></trkpt><trkpt lat="47.0673013" lon="9.1621947"></trkpt><trkpt lat="47.0672758" lon="9.1620614"></trkpt><trkpt lat="47.067276" lon="9.1619221"></trkpt><trkpt lat="47.0672739" lon="9.161825"></trkpt><trkpt lat="47.067262" lon="9.1618031"></trkpt><trkpt lat="47.0672078" lon="9.1617353"></trkpt><trkpt lat="47.0671716" lon="9.1616457"></trkpt><trkpt lat="47.0671281" lon="9.1614221"></trkpt><trkpt lat="47.06708" lon="9.1612983"></trkpt><trkpt lat="47.067025" lon="9.1611349"></trkpt><trkpt lat="47.0670062" lon="9.1610498"></trkpt><trkpt lat="47.0669918" lon="9.1609565"></trkpt><trkpt lat="47.066983869709325" lon="9.160930357386619"></trkpt><trkpt lat="47.066983869709325" lon="9.16093035738662"></trkpt><trkpt lat="47.066983869709325" lon="9.160930357386619"></trkpt><trkpt lat="47.0669193" lon="9.1607175"></trkpt><trkpt lat="47.0669013" lon="9.1606473"></trkpt><trkpt lat="47.0668754" lon="9.1605792"></trkpt><trkpt lat="47.0668471" lon="9.1604553"></trkpt><trkpt lat="47.0667603" lon="9.1603226"></trkpt><trkpt lat="47.0666687" lon="9.1601966"></trkpt><trkpt lat="47.0665601" lon="9.1601375"></trkpt><trkpt lat="47.0664927" lon="9.1600866"></trkpt><trkpt lat="47.0664599" lon="9.1600554"></trkpt><trkpt lat="47.0664477" lon="9.1600225"></trkpt><trkpt lat="47.0664406" lon="9.1599712"></trkpt><trkpt lat="47.0664171" lon="9.1599519"></trkpt><trkpt lat="47.0663663" lon="9.1599549"></trkpt><trkpt lat="47.066327" lon="9.1599328"></trkpt><trkpt lat="47.0662897" lon="9.1598805"></trkpt><trkpt lat="47.0662489" lon="9.1598537"></trkpt><trkpt lat="47.0662016" lon="9.1598336"></trkpt><trkpt lat="47.0661341" lon="9.1597943"></trkpt><trkpt lat="47.0660867" lon="9.1597812"></trkpt><trkpt lat="47.0660581" lon="9.1597849"></trkpt><trkpt lat="47.0660424" lon="9.1597774"></trkpt><trkpt lat="47.0659992" lon="9.1596925"></trkpt><trkpt lat="47.0659687" lon="9.1596127"></trkpt><trkpt lat="47.0659355" lon="9.1595049"></trkpt><trkpt lat="47.0658741" lon="9.1592662"></trkpt><trkpt lat="47.065839277434286" lon="9.159154396584691"></trkpt><trkpt lat="47.0658347" lon="9.1591397"></trkpt><trkpt lat="47.0658093" lon="9.1590391"></trkpt><trkpt lat="47.0658089" lon="9.1589578"></trkpt><trkpt lat="47.0658164" lon="9.1588792"></trkpt><trkpt lat="47.0658093" lon="9.1588279"></trkpt><trkpt lat="47.0657171" lon="9.1586301"></trkpt><trkpt lat="47.0656722" lon="9.1585613"></trkpt><trkpt lat="47.0656492" lon="9.1585072"></trkpt><trkpt lat="47.0654832" lon="9.1583673"></trkpt><trkpt lat="47.0654328" lon="9.1583495"></trkpt><trkpt lat="47.0653711" lon="9.1583359"></trkpt><trkpt lat="47.0652682" lon="9.1583256"></trkpt><trkpt lat="47.0651975" lon="9.1582839"></trkpt><trkpt lat="47.0651333" lon="9.1582354"></trkpt><trkpt lat="47.0650692" lon="9.1581731"></trkpt><trkpt lat="47.06503" lon="9.1581463"></trkpt><trkpt lat="47.0649913" lon="9.1580801"></trkpt><trkpt lat="47.064959" lon="9.1580118"></trkpt><trkpt lat="47.0649178" lon="9.1579083"></trkpt><trkpt lat="47.064884" lon="9.1578353"></trkpt><trkpt lat="47.0648466" lon="9.1577877"></trkpt><trkpt lat="47.0648193" lon="9.1577103"></trkpt><trkpt lat="47.0647825" lon="9.1576233"></trkpt><trkpt lat="47.0647332" lon="9.1575312"></trkpt><trkpt lat="47.064681" lon="9.1574181"></trkpt><trkpt lat="47.064675377769134" lon="9.157405401030784"></trkpt><trkpt lat="47.064675377769134" lon="9.157405401030786"></trkpt><trkpt lat="47.064675377769134" lon="9.157405401030784"></trkpt><trkpt lat="47.0646408" lon="9.1573273"></trkpt><trkpt lat="47.0645893" lon="9.1571855"></trkpt><trkpt lat="47.0645503" lon="9.1571471"></trkpt><trkpt lat="47.0645082" lon="9.1570947"></trkpt><trkpt lat="47.0643249" lon="9.1568475"></trkpt><trkpt lat="47.0642909" lon="9.1567838"></trkpt><trkpt lat="47.0642666" lon="9.1567181"></trkpt><trkpt lat="47.0642449" lon="9.1566826"></trkpt><trkpt lat="47.0641905" lon="9.1566112"></trkpt><trkpt lat="47.0640388" lon="9.1563604"></trkpt><trkpt lat="47.0640015" lon="9.1563105"></trkpt><trkpt lat="47.0639178" lon="9.1561825"></trkpt><trkpt lat="47.0638779" lon="9.1560954"></trkpt><trkpt lat="47.0637938" lon="9.1558885"></trkpt><trkpt lat="47.0637651" lon="9.1557971"></trkpt><trkpt lat="47.0637264" lon="9.1557333"></trkpt><trkpt lat="47.0636912" lon="9.1556463"></trkpt><trkpt lat="47.0636548" lon="9.1555384"></trkpt><trkpt lat="47.06357527783143" lon="9.155351814893697"></trkpt><trkpt lat="47.0635445" lon="9.1552796"></trkpt><trkpt lat="47.0634822" lon="9.1552057"></trkpt><trkpt lat="47.0634243" lon="9.1550507"></trkpt><trkpt lat="47.0633827" lon="9.1549659"></trkpt><trkpt lat="47.063276" lon="9.1547861"></trkpt><trkpt lat="47.0632433" lon="9.1547503"></trkpt><trkpt lat="47.0632087" lon="9.1547283"></trkpt><trkpt lat="47.0631645" lon="9.1547152"></trkpt><trkpt lat="47.063127" lon="9.1546793"></trkpt><trkpt lat="47.0630118" lon="9.1545387"></trkpt><trkpt lat="47.0629773" lon="9.1545121"></trkpt><trkpt lat="47.0628775" lon="9.1544021"></trkpt><trkpt lat="47.0628022" lon="9.154351"></trkpt><trkpt lat="47.0627576" lon="9.1542591"></trkpt><trkpt lat="47.0627279" lon="9.154228"></trkpt><trkpt lat="47.0625289" lon="9.1540708"></trkpt><trkpt lat="47.0623841" lon="9.1540012"></trkpt><trkpt lat="47.0623529" lon="9.1539677"></trkpt><trkpt lat="47.0623156" lon="9.1539155"></trkpt><trkpt lat="47.0622764" lon="9.1538887"></trkpt><trkpt lat="47.0622197" lon="9.153859"></trkpt><trkpt lat="47.062170326701626" lon="9.153853041153644"></trkpt><trkpt lat="47.0621675" lon="9.1538527"></trkpt><trkpt lat="47.0621077" lon="9.1538253"></trkpt><trkpt lat="47.0620109" lon="9.1538268"></trkpt><trkpt lat="47.0619652" lon="9.1538115"></trkpt><trkpt lat="47.0619451" lon="9.1537807"></trkpt><trkpt lat="47.0619333" lon="9.1537176"></trkpt><trkpt lat="47.0618654" lon="9.1535902"></trkpt><trkpt lat="47.0618266" lon="9.1535356"></trkpt><trkpt lat="47.0618084" lon="9.153484"></trkpt><trkpt lat="47.0618065" lon="9.1533981"></trkpt><trkpt lat="47.0617979" lon="9.1533374"></trkpt><trkpt lat="47.0617749" lon="9.153281"></trkpt><trkpt lat="47.0617421" lon="9.1532522"></trkpt><trkpt lat="47.0617013" lon="9.1532253"></trkpt><trkpt lat="47.0616341" lon="9.1531559"></trkpt><trkpt lat="47.0615428" lon="9.1531112"></trkpt><trkpt lat="47.0615083" lon="9.1530869"></trkpt><trkpt lat="47.0614433" lon="9.1529827"></trkpt><trkpt lat="47.0613827" lon="9.1528996"></trkpt><trkpt lat="47.0613079" lon="9.152816"></trkpt><trkpt lat="47.0612583" lon="9.1527402"></trkpt><trkpt lat="47.0612223" lon="9.1527065"></trkpt><trkpt lat="47.0611858" lon="9.15271"></trkpt><trkpt lat="47.0611535" lon="9.1527461"></trkpt><trkpt lat="47.0610582" lon="9.1527639"></trkpt><trkpt lat="47.0610202" lon="9.1527534"></trkpt><trkpt lat="47.0609497" lon="9.1527025"></trkpt><trkpt lat="47.0608795" lon="9.1526237"></trkpt><trkpt lat="47.0608215" lon="9.1525777"></trkpt><trkpt lat="47.06078760496515" lon="9.15256174254373"></trkpt><trkpt lat="47.0607633" lon="9.1525503"></trkpt><trkpt lat="47.0607161" lon="9.152521"></trkpt><trkpt lat="47.0606931" lon="9.1524739"></trkpt><trkpt lat="47.0606667" lon="9.1524336"></trkpt><trkpt lat="47.0605948" lon="9.1523686"></trkpt><trkpt lat="47.060521" lon="9.1523199"></trkpt><trkpt lat="47.060449" lon="9.1522549"></trkpt><trkpt lat="47.0604128" lon="9.1522398"></trkpt><trkpt lat="47.0603469" lon="9.1521914"></trkpt><trkpt lat="47.060287" lon="9.1520641"></trkpt><trkpt lat="47.0602447" lon="9.152028"></trkpt><trkpt lat="47.060184" lon="9.1519541"></trkpt><trkpt lat="47.0601099" lon="9.1518218"></trkpt><trkpt lat="47.0600802" lon="9.1517907"></trkpt><trkpt lat="47.0600488" lon="9.1517712"></trkpt><trkpt lat="47.0599464" lon="9.1517238"></trkpt><trkpt lat="47.0599083" lon="9.1517296"></trkpt><trkpt lat="47.0598573" lon="9.1517488"></trkpt><trkpt lat="47.0598256" lon="9.1517455"></trkpt><trkpt lat="47.0597659" lon="9.1517111"></trkpt><trkpt lat="47.0597043" lon="9.1516975"></trkpt><trkpt lat="47.0596447" lon="9.1516539"></trkpt><trkpt lat="47.059584" lon="9.1515777"></trkpt><trkpt lat="47.0595214" lon="9.15152"></trkpt><trkpt lat="47.0594665" lon="9.1514811"></trkpt><trkpt lat="47.0594149" lon="9.1514354"></trkpt><trkpt lat="47.0593381" lon="9.1513773"></trkpt><trkpt lat="47.0592867" lon="9.151313"></trkpt><trkpt lat="47.059276392069464" lon="9.151304632385798"></trkpt><trkpt lat="47.0592272" lon="9.1512647"></trkpt><trkpt lat="47.0591509" lon="9.1511694"></trkpt><trkpt lat="47.0591102" lon="9.1511333"></trkpt><trkpt lat="47.0589965" lon="9.1511042"></trkpt><trkpt lat="47.0589526" lon="9.1510726"></trkpt><trkpt lat="47.0589063" lon="9.1509876"></trkpt><trkpt lat="47.0588787" lon="9.1509218"></trkpt><trkpt lat="47.0588384" lon="9.1508625"></trkpt><trkpt lat="47.0587969" lon="9.1507753"></trkpt><trkpt lat="47.0587425" lon="9.150595"></trkpt><trkpt lat="47.0587102" lon="9.1505313"></trkpt><trkpt lat="47.0586076" lon="9.1503935"></trkpt><trkpt lat="47.0584665" lon="9.1501825"></trkpt><trkpt lat="47.0584357" lon="9.1501189"></trkpt><trkpt lat="47.0584176" lon="9.1500556"></trkpt><trkpt lat="47.0583097" lon="9.1498527"></trkpt><trkpt lat="47.0582679" lon="9.1497864"></trkpt><trkpt lat="47.0581206" lon="9.1496703"></trkpt><trkpt lat="47.0580533" lon="9.1496102"></trkpt><trkpt lat="47.0579966" lon="9.1495828"></trkpt><trkpt lat="47.057994396778845" lon="9.149580965884978"></trkpt><trkpt lat="47.057994396778845" lon="9.149580965884976"></trkpt><trkpt lat="47.057994396778845" lon="9.149580965884978"></trkpt><trkpt lat="47.0579387" lon="9.1495346"></trkpt><trkpt lat="47.0578858" lon="9.149468"></trkpt><trkpt lat="47.0578467" lon="9.1494273"></trkpt><trkpt lat="47.0577663" lon="9.1494015"></trkpt><trkpt lat="47.0577176" lon="9.1493721"></trkpt><trkpt lat="47.0576754" lon="9.149329"></trkpt><trkpt lat="47.0575608" lon="9.1492511"></trkpt><trkpt lat="47.0574821" lon="9.1492115"></trkpt><trkpt lat="47.0574571" lon="9.1491921"></trkpt><trkpt lat="47.0574308" lon="9.1491449"></trkpt><trkpt lat="47.0573777" lon="9.1490922"></trkpt><trkpt lat="47.0572577" lon="9.1489538"></trkpt><trkpt lat="47.0572188" lon="9.1489015"></trkpt><trkpt lat="47.0571626" lon="9.1488417"></trkpt><trkpt lat="47.057116" lon="9.1487822"></trkpt><trkpt lat="47.0570929" lon="9.1487305"></trkpt><trkpt lat="47.0570461" lon="9.1486802"></trkpt><trkpt lat="47.056942" lon="9.1485377"></trkpt><trkpt lat="47.0568593" lon="9.1484516"></trkpt><trkpt lat="47.0568222" lon="9.1483901"></trkpt><trkpt lat="47.0567797" lon="9.1482611"></trkpt><trkpt lat="47.05661472433693" lon="9.147975818648387"></trkpt><trkpt lat="47.05661472433693" lon="9.147975818648389"></trkpt><trkpt lat="47.05661472433693" lon="9.147975818648387"></trkpt><trkpt lat="47.0564968" lon="9.1477719"></trkpt><trkpt lat="47.0564503" lon="9.1477055"></trkpt><trkpt lat="47.0564199" lon="9.1476163"></trkpt><trkpt lat="47.0563704" lon="9.1475359"></trkpt><trkpt lat="47.0563004" lon="9.1473467"></trkpt><trkpt lat="47.0561783" lon="9.1473009"></trkpt><trkpt lat="47.0560985" lon="9.1473039"></trkpt><trkpt lat="47.0560282" lon="9.1473255"></trkpt><trkpt lat="47.0559824" lon="9.1473294"></trkpt><trkpt lat="47.0558958" lon="9.1473204"></trkpt><trkpt lat="47.0557886" lon="9.1472768"></trkpt><trkpt lat="47.0557623" lon="9.147315"></trkpt><trkpt lat="47.0557512" lon="9.1473496"></trkpt><trkpt lat="47.0556982" lon="9.1473284"></trkpt><trkpt lat="47.0556887" lon="9.1473265"></trkpt><trkpt lat="47.0556562" lon="9.1474031"></trkpt><trkpt lat="47.0555915" lon="9.1475089"></trkpt><trkpt lat="47.0555562" lon="9.1475962"></trkpt><trkpt lat="47.0555187" lon="9.1476464"></trkpt><trkpt lat="47.0554877" lon="9.1476869"></trkpt><trkpt lat="47.055418" lon="9.1477088"></trkpt><trkpt lat="47.0553813" lon="9.1477193"></trkpt><trkpt lat="47.0553353" lon="9.1477248"></trkpt><trkpt lat="47.05531990812327" lon="9.147739487673219"></trkpt><trkpt lat="47.0553047" lon="9.147754"></trkpt><trkpt lat="47.0552534" lon="9.1477918"></trkpt><trkpt lat="47.0552116" lon="9.1478345"></trkpt><trkpt lat="47.0551998" lon="9.1478805"></trkpt><trkpt lat="47.0551959" lon="9.1479268"></trkpt><trkpt lat="47.0551759" lon="9.1479911"></trkpt><trkpt lat="47.0551468" lon="9.1480319"></trkpt><trkpt lat="47.0551163" lon="9.1480565"></trkpt><trkpt lat="47.0550748" lon="9.1480784"></trkpt><trkpt lat="47.0550091" lon="9.1481227"></trkpt><trkpt lat="47.054985" lon="9.1481474"></trkpt><trkpt lat="47.0549669" lon="9.1481886"></trkpt><trkpt lat="47.0549459" lon="9.1482158"></trkpt><trkpt lat="47.0549169" lon="9.1482473"></trkpt><trkpt lat="47.0548912" lon="9.1482674"></trkpt><trkpt lat="47.05487" lon="9.1483085"></trkpt><trkpt lat="47.0548059" lon="9.1483574"></trkpt><trkpt lat="47.0547845" lon="9.1484101"></trkpt><trkpt lat="47.0547659" lon="9.1484861"></trkpt><trkpt lat="47.0547346" lon="9.148564"></trkpt><trkpt lat="47.0546786" lon="9.1485993"></trkpt><trkpt lat="47.0546572" lon="9.1486496"></trkpt><trkpt lat="47.0546312" lon="9.1486952"></trkpt><trkpt lat="47.0545896" lon="9.1487194"></trkpt><trkpt lat="47.0545405" lon="9.1487178"></trkpt><trkpt lat="47.0545118" lon="9.1487285"></trkpt><trkpt lat="47.0544897" lon="9.1487208"></trkpt><trkpt lat="47.0544706" lon="9.1487226"></trkpt><trkpt lat="47.0544277" lon="9.1487305"></trkpt><trkpt lat="47.0543878" lon="9.1487524"></trkpt><trkpt lat="47.0543258" lon="9.1487597"></trkpt><trkpt lat="47.0542918" lon="9.1488077"></trkpt><trkpt lat="47.054254" lon="9.1487945"></trkpt><trkpt lat="47.0542018" lon="9.1487836"></trkpt><trkpt lat="47.0541598" lon="9.1488103"></trkpt><trkpt lat="47.0540818" lon="9.1488249"></trkpt><trkpt lat="47.0539754" lon="9.1487786"></trkpt><trkpt lat="47.0539475" lon="9.1487986"></trkpt><trkpt lat="47.0538885" lon="9.1487925"></trkpt><trkpt lat="47.05384611041202" lon="9.148774221920778"></trkpt><trkpt lat="47.0538122" lon="9.1487596"></trkpt><trkpt lat="47.0537157" lon="9.1487449"></trkpt><trkpt lat="47.0536875" lon="9.1487208"></trkpt><trkpt lat="47.0536311" lon="9.1486193"></trkpt><trkpt lat="47.0535929" lon="9.1486254"></trkpt><trkpt lat="47.0535681" lon="9.1485969"></trkpt><trkpt lat="47.053525" lon="9.1485448"></trkpt><trkpt lat="47.0534719" lon="9.1485207"></trkpt><trkpt lat="47.0533968" lon="9.1483656"></trkpt><trkpt lat="47.0533823" lon="9.148318"></trkpt><trkpt lat="47.0533437" lon="9.1482855"></trkpt><trkpt lat="47.0532933" lon="9.1482675"></trkpt><trkpt lat="47.0532395" lon="9.1482524"></trkpt><trkpt lat="47.0531869" lon="9.14829"></trkpt><trkpt lat="47.053138" lon="9.1482793"></trkpt><trkpt lat="47.0530965" lon="9.1482705"></trkpt><trkpt lat="47.0530618" lon="9.1482624"></trkpt><trkpt lat="47.0530351" lon="9.148243"></trkpt><trkpt lat="47.0530101" lon="9.1482143"></trkpt><trkpt lat="47.0529849" lon="9.1482043"></trkpt><trkpt lat="47.0529395" lon="9.148168"></trkpt><trkpt lat="47.0528969" lon="9.1480844"></trkpt><trkpt lat="47.0528717" lon="9.1480351"></trkpt><trkpt lat="47.0528221" lon="9.1480217"></trkpt><trkpt lat="47.052787" lon="9.1480105"></trkpt><trkpt lat="47.0526679" lon="9.1479377"></trkpt><trkpt lat="47.0526305" lon="9.1478816"></trkpt><trkpt lat="47.0524369" lon="9.1477757"></trkpt><trkpt lat="47.0524085" lon="9.1477949"></trkpt><trkpt lat="47.0523321" lon="9.1477327"></trkpt><trkpt lat="47.05232369898206" lon="9.147731542424541"></trkpt><trkpt lat="47.05232369898206" lon="9.14773154242454"></trkpt><trkpt lat="47.05232369898206" lon="9.147731542424541"></trkpt><trkpt lat="47.0522588" lon="9.1477226"></trkpt><trkpt lat="47.0521466" lon="9.1476464"></trkpt><trkpt lat="47.0520818" lon="9.1475746"></trkpt><trkpt lat="47.0520342" lon="9.1475416"></trkpt><trkpt lat="47.0520165" lon="9.1475"></trkpt><trkpt lat="47.0519704" lon="9.1474873"></trkpt><trkpt lat="47.0519285" lon="9.1474503"></trkpt><trkpt lat="47.0518352" lon="9.1474725"></trkpt><trkpt lat="47.0517108" lon="9.1474135"></trkpt><trkpt lat="47.0516193" lon="9.1474392"></trkpt><trkpt lat="47.0515559" lon="9.147428"></trkpt><trkpt lat="47.051467" lon="9.1474171"></trkpt><trkpt lat="47.0514475" lon="9.1474336"></trkpt><trkpt lat="47.0513857" lon="9.1474336"></trkpt><trkpt lat="47.0512957" lon="9.1474336"></trkpt><trkpt lat="47.0512292" lon="9.1474437"></trkpt><trkpt lat="47.0511891" lon="9.1474452"></trkpt><trkpt lat="47.0510186" lon="9.1474421"></trkpt><trkpt lat="47.0509438" lon="9.1474009"></trkpt><trkpt lat="47.0508774" lon="9.1474056"></trkpt><trkpt lat="47.0507728" lon="9.1474481"></trkpt><trkpt lat="47.0507209" lon="9.1474913"></trkpt><trkpt lat="47.050624" lon="9.1474834"></trkpt><trkpt lat="47.05059870468299" lon="9.14748739060981"></trkpt><trkpt lat="47.05059870468299" lon="9.147487390609808"></trkpt><trkpt lat="47.05059870468299" lon="9.14748739060981"></trkpt><trkpt lat="47.0505847" lon="9.1474896"></trkpt><trkpt lat="47.0505568" lon="9.1475131"></trkpt><trkpt lat="47.0505385" lon="9.1475422"></trkpt><trkpt lat="47.0504687" lon="9.1475865"></trkpt><trkpt lat="47.050416" lon="9.147622"></trkpt><trkpt lat="47.0503391" lon="9.1476235"></trkpt><trkpt lat="47.0502476" lon="9.1476835"></trkpt><trkpt lat="47.0502119" lon="9.1476856"></trkpt><trkpt lat="47.0501703" lon="9.1477056"></trkpt><trkpt lat="47.0501165" lon="9.1477495"></trkpt><trkpt lat="47.0500623" lon="9.1477666"></trkpt><trkpt lat="47.0498473" lon="9.1477372"></trkpt><trkpt lat="47.0497822" lon="9.1476991"></trkpt><trkpt lat="47.0497432" lon="9.1476677"></trkpt><trkpt lat="47.0496799" lon="9.1476072"></trkpt><trkpt lat="47.0496177" lon="9.1475809"></trkpt><trkpt lat="47.0495158" lon="9.1475008"></trkpt><trkpt lat="47.0494123" lon="9.1474097"></trkpt><trkpt lat="47.0493455" lon="9.1473777"></trkpt><trkpt lat="47.0492429" lon="9.1473696"></trkpt><trkpt lat="47.049158" lon="9.1473093"></trkpt><trkpt lat="47.0491021" lon="9.1472555"></trkpt><trkpt lat="47.0490811" lon="9.1472398"></trkpt><trkpt lat="47.0490227" lon="9.1471619"></trkpt><trkpt lat="47.0489858" lon="9.1471226"></trkpt><trkpt lat="47.04894507022629" lon="9.147099972347938"></trkpt><trkpt lat="47.04894507022629" lon="9.14709997234794"></trkpt><trkpt lat="47.04894507022629" lon="9.147099972347938"></trkpt><trkpt lat="47.0489246" lon="9.1470886"></trkpt><trkpt lat="47.0488453" lon="9.147013"></trkpt><trkpt lat="47.0487758" lon="9.1469541"></trkpt><trkpt lat="47.0486788" lon="9.1468893"></trkpt><trkpt lat="47.0485541" lon="9.1468713"></trkpt><trkpt lat="47.0485121" lon="9.1468556"></trkpt><trkpt lat="47.0484476" lon="9.1468567"></trkpt><trkpt lat="47.0483835" lon="9.1468309"></trkpt><trkpt lat="47.0483163" lon="9.1468276"></trkpt><trkpt lat="47.0481102" lon="9.1466652"></trkpt><trkpt lat="47.0480412" lon="9.1466618"></trkpt><trkpt lat="47.0477777" lon="9.1465562"></trkpt><trkpt lat="47.0477115" lon="9.146497"></trkpt><trkpt lat="47.0475786" lon="9.1464624"></trkpt><trkpt lat="47.0473672" lon="9.1465072"></trkpt><trkpt lat="47.0472878" lon="9.1465106"></trkpt><trkpt lat="47.04724454836393" lon="9.14652310075771"></trkpt><trkpt lat="47.0470245" lon="9.1465867"></trkpt><trkpt lat="47.0468871" lon="9.1466002"></trkpt><trkpt lat="47.0467915" lon="9.1466083"></trkpt><trkpt lat="47.0466053" lon="9.1465805"></trkpt><trkpt lat="47.0466142" lon="9.1466111"></trkpt><trkpt lat="47.046591" lon="9.1466405"></trkpt><trkpt lat="47.0465859" lon="9.1466745"></trkpt><trkpt lat="47.0465958" lon="9.1467103"></trkpt><trkpt lat="47.0465456" lon="9.1467663"></trkpt><trkpt lat="47.0465055" lon="9.1468171"></trkpt><trkpt lat="47.0464654" lon="9.1468855"></trkpt><trkpt lat="47.0464449" lon="9.1469354"></trkpt><trkpt lat="47.0464162" lon="9.1469586"></trkpt><trkpt lat="47.0463455" lon="9.1470606"></trkpt><trkpt lat="47.0463169" lon="9.1471413"></trkpt><trkpt lat="47.0462421" lon="9.1472039"></trkpt><trkpt lat="47.0461425" lon="9.1471916"></trkpt><trkpt lat="47.0460444" lon="9.1471821"></trkpt><trkpt lat="47.0460057" lon="9.1471932"></trkpt><trkpt lat="47.0459324" lon="9.1472013"></trkpt><trkpt lat="47.0458843" lon="9.1471946"></trkpt><trkpt lat="47.0458591" lon="9.1472068"></trkpt><trkpt lat="47.0458145" lon="9.1472054"></trkpt><trkpt lat="47.0457772" lon="9.1471911"></trkpt><trkpt lat="47.0457486" lon="9.1471902"></trkpt><trkpt lat="47.045707" lon="9.1472281"></trkpt><trkpt lat="47.04567964057402" lon="9.147238074069218"></trkpt><trkpt lat="47.0456675" lon="9.1472425"></trkpt><trkpt lat="47.0456511" lon="9.1472629"></trkpt><trkpt lat="47.0456562" lon="9.1472813"></trkpt><trkpt lat="47.0456002" lon="9.1473239"></trkpt><trkpt lat="47.04544" lon="9.1474155"></trkpt><trkpt lat="47.0453892" lon="9.1474661"></trkpt><trkpt lat="47.0453443" lon="9.1474855"></trkpt><trkpt lat="47.0453006" lon="9.1475416"></trkpt><trkpt lat="47.045223" lon="9.1475992"></trkpt><trkpt lat="47.0451487" lon="9.1476726"></trkpt><trkpt lat="47.0451063" lon="9.1476733"></trkpt><trkpt lat="47.0450313" lon="9.1477629"></trkpt><trkpt lat="47.0450221" lon="9.1477809"></trkpt><trkpt lat="47.0450488" lon="9.1477869"></trkpt><trkpt lat="47.045054" lon="9.1477975"></trkpt><trkpt lat="47.0450842" lon="9.1478011"></trkpt><trkpt lat="47.0450857" lon="9.1478221"></trkpt><trkpt lat="47.0450439" lon="9.147873"></trkpt><trkpt lat="47.0450164" lon="9.1479217"></trkpt><trkpt lat="47.0449709" lon="9.1479803"></trkpt><trkpt lat="47.0449335" lon="9.1479713"></trkpt><trkpt lat="47.0449063" lon="9.1480044"></trkpt><trkpt lat="47.0448859" lon="9.1480011"></trkpt><trkpt lat="47.044882" lon="9.1480219"></trkpt><trkpt lat="47.0448565" lon="9.1480577"></trkpt><trkpt lat="47.0447796" lon="9.1480683"></trkpt><trkpt lat="47.0447556" lon="9.148067"></trkpt><trkpt lat="47.0447449" lon="9.148085"></trkpt><trkpt lat="47.0447315" lon="9.1481399"></trkpt><trkpt lat="47.0447113" lon="9.148155"></trkpt><trkpt lat="47.0446739" lon="9.1481701"></trkpt><trkpt lat="47.0446792" lon="9.1482191"></trkpt><trkpt lat="47.0446645" lon="9.1482396"></trkpt><trkpt lat="47.0446378" lon="9.1482361"></trkpt><trkpt lat="47.0446356" lon="9.1482622"></trkpt><trkpt lat="47.0446388" lon="9.1482884"></trkpt><trkpt lat="47.0446312" lon="9.1483195"></trkpt><trkpt lat="47.0446094" lon="9.1483449"></trkpt><trkpt lat="47.0445805" lon="9.1484267"></trkpt><trkpt lat="47.0445396" lon="9.1484518"></trkpt><trkpt lat="47.0445121" lon="9.1484871"></trkpt><trkpt lat="47.0444785" lon="9.1484781"></trkpt><trkpt lat="47.0444712" lon="9.1485033"></trkpt><trkpt lat="47.0444665" lon="9.1485328"></trkpt><trkpt lat="47.04446020867066" lon="9.148522037960646"></trkpt><trkpt lat="47.04446020867066" lon="9.148522037960648"></trkpt><trkpt lat="47.04446020867066" lon="9.148522037960646"></trkpt><trkpt lat="47.0444665" lon="9.1485328"></trkpt><trkpt lat="47.0444563" lon="9.1485737"></trkpt><trkpt lat="47.0444461" lon="9.1486058"></trkpt><trkpt lat="47.0444257" lon="9.1486283"></trkpt><trkpt lat="47.0443691" lon="9.1486754"></trkpt><trkpt lat="47.0443121" lon="9.1487906"></trkpt><trkpt lat="47.0442804" lon="9.1489009"></trkpt><trkpt lat="47.0442464" lon="9.1489738"></trkpt><trkpt lat="47.0442118" lon="9.1490815"></trkpt><trkpt lat="47.0441807" lon="9.1491848"></trkpt><trkpt lat="47.0441501" lon="9.1493134"></trkpt><trkpt lat="47.0441344" lon="9.1493407"></trkpt><trkpt lat="47.0440906" lon="9.1494918"></trkpt><trkpt lat="47.0440632" lon="9.1495684"></trkpt><trkpt lat="47.044034" lon="9.149645"></trkpt><trkpt lat="47.0440085" lon="9.1497253"></trkpt><trkpt lat="47.0440085" lon="9.1497457"></trkpt><trkpt lat="47.0440118" lon="9.1497714"></trkpt><trkpt lat="47.0440118" lon="9.1498153"></trkpt><trkpt lat="47.0440012" lon="9.1498496"></trkpt><trkpt lat="47.0439899" lon="9.1499058"></trkpt><trkpt lat="47.0439797" lon="9.149949"></trkpt><trkpt lat="47.0439909" lon="9.1499827"></trkpt><trkpt lat="47.0440107" lon="9.150006"></trkpt><trkpt lat="47.0440318" lon="9.1500242"></trkpt><trkpt lat="47.0440545" lon="9.1500429"></trkpt><trkpt lat="47.0440745" lon="9.1500751"></trkpt><trkpt lat="47.0440798" lon="9.1501142"></trkpt><trkpt lat="47.0440797" lon="9.1501439"></trkpt><trkpt lat="47.0440745" lon="9.1501774"></trkpt><trkpt lat="47.0440702" lon="9.1502047"></trkpt><trkpt lat="47.0440621" lon="9.1502208"></trkpt><trkpt lat="47.0440413" lon="9.1503097"></trkpt><trkpt lat="47.0440296" lon="9.1503579"></trkpt><trkpt lat="47.0440264" lon="9.1503911"></trkpt><trkpt lat="47.0440158" lon="9.1504275"></trkpt><trkpt lat="47.0440223" lon="9.1504506"></trkpt><trkpt lat="47.0440125" lon="9.1504977"></trkpt><trkpt lat="47.0440001" lon="9.1505164"></trkpt><trkpt lat="47.0439855" lon="9.1505325"></trkpt><trkpt lat="47.04398" lon="9.1505598"></trkpt><trkpt lat="47.0439771" lon="9.1505861"></trkpt><trkpt lat="47.0439822" lon="9.1506187"></trkpt><trkpt lat="47.043987" lon="9.1506501"></trkpt><trkpt lat="47.0439844" lon="9.1506862"></trkpt><trkpt lat="47.0439851" lon="9.1507135"></trkpt><trkpt lat="47.0439899" lon="9.1507521"></trkpt><trkpt lat="47.0439877" lon="9.1507912"></trkpt><trkpt lat="47.0439789" lon="9.1507987"></trkpt><trkpt lat="47.0439716" lon="9.1508121"></trkpt><trkpt lat="47.04396833295911" lon="9.150844968411436"></trkpt><trkpt lat="47.0439683" lon="9.1508453"></trkpt><trkpt lat="47.0439431" lon="9.1509246"></trkpt><trkpt lat="47.0439293" lon="9.1509664"></trkpt><trkpt lat="47.0439223" lon="9.1510033"></trkpt><trkpt lat="47.0439114" lon="9.1510226"></trkpt><trkpt lat="47.0439103" lon="9.1510419"></trkpt><trkpt lat="47.0439179" lon="9.1510623"></trkpt><trkpt lat="47.0439169" lon="9.1510821"></trkpt><trkpt lat="47.0439161" lon="9.1510965"></trkpt><trkpt lat="47.0439059" lon="9.1511287"></trkpt><trkpt lat="47.0439066" lon="9.1511533"></trkpt><trkpt lat="47.0439128" lon="9.1511779"></trkpt><trkpt lat="47.0439161" lon="9.1512058"></trkpt><trkpt lat="47.0439136" lon="9.1512401"></trkpt><trkpt lat="47.0439008" lon="9.1512728"></trkpt><trkpt lat="47.04388" lon="9.1512926"></trkpt><trkpt lat="47.0438574" lon="9.151412"></trkpt><trkpt lat="47.0438446" lon="9.1514661"></trkpt><trkpt lat="47.0438439" lon="9.1514918"></trkpt><trkpt lat="47.0438497" lon="9.1515122"></trkpt><trkpt lat="47.0438512" lon="9.1515443"></trkpt><trkpt lat="47.0438406" lon="9.1516199"></trkpt><trkpt lat="47.0438406" lon="9.1516611"></trkpt><trkpt lat="47.0438344" lon="9.1516772"></trkpt><trkpt lat="47.0438212" lon="9.1516895"></trkpt><trkpt lat="47.0438165" lon="9.1517077"></trkpt><trkpt lat="47.0438059" lon="9.1517768"></trkpt><trkpt lat="47.0437968" lon="9.1518266"></trkpt><trkpt lat="47.0437975" lon="9.1518936"></trkpt><trkpt lat="47.0437979" lon="9.151938"></trkpt><trkpt lat="47.0438055" lon="9.1519819"></trkpt><trkpt lat="47.043815" lon="9.1520071"></trkpt><trkpt lat="47.043823" lon="9.152051"></trkpt><trkpt lat="47.0438278" lon="9.1520971"></trkpt><trkpt lat="47.0438256" lon="9.1521335"></trkpt><trkpt lat="47.0438157" lon="9.1521501"></trkpt><trkpt lat="47.0438011" lon="9.1521742"></trkpt><trkpt lat="47.043799" lon="9.1522064"></trkpt><trkpt lat="47.0437818" lon="9.152261"></trkpt><trkpt lat="47.0437482" lon="9.152329"></trkpt><trkpt lat="47.0437416" lon="9.1523569"></trkpt><trkpt lat="47.0437424" lon="9.1523917"></trkpt><trkpt lat="47.0437562" lon="9.152411"></trkpt><trkpt lat="47.043773" lon="9.1524442"></trkpt><trkpt lat="47.04378" lon="9.1524844"></trkpt><trkpt lat="47.0437865" lon="9.152532"></trkpt><trkpt lat="47.0437844" lon="9.1525642"></trkpt><trkpt lat="47.0437592" lon="9.1526022"></trkpt><trkpt lat="47.0437274" lon="9.1526258"></trkpt><trkpt lat="47.0437194" lon="9.1526483"></trkpt><trkpt lat="47.0437004" lon="9.1526713"></trkpt><trkpt lat="47.0436413" lon="9.1527367"></trkpt><trkpt lat="47.0436051" lon="9.1527972"></trkpt><trkpt lat="47.0435993" lon="9.1528406"></trkpt><trkpt lat="47.0435869" lon="9.1528818"></trkpt><trkpt lat="47.0435807" lon="9.1529322"></trkpt><trkpt lat="47.0435602" lon="9.1530013"></trkpt><trkpt lat="47.0435362" lon="9.1530939"></trkpt><trkpt lat="47.04352174151954" lon="9.153135260016825"></trkpt><trkpt lat="47.04352174151954" lon="9.153135260016827"></trkpt><trkpt lat="47.04352174151954" lon="9.153135260016825"></trkpt><trkpt lat="47.0435197" lon="9.1531411"></trkpt><trkpt lat="47.043519" lon="9.1531898"></trkpt><trkpt lat="47.0434975" lon="9.1532305"></trkpt><trkpt lat="47.0434847" lon="9.1532878"></trkpt><trkpt lat="47.0434737" lon="9.1533205"></trkpt><trkpt lat="47.0434745" lon="9.1533698"></trkpt><trkpt lat="47.0434427" lon="9.1535133"></trkpt><trkpt lat="47.043431" lon="9.1535899"></trkpt><trkpt lat="47.0434318" lon="9.1536247"></trkpt><trkpt lat="47.0434256" lon="9.1536553"></trkpt><trkpt lat="47.0434164" lon="9.1536906"></trkpt><trkpt lat="47.0434015" lon="9.1537228"></trkpt><trkpt lat="47.0433792" lon="9.1537726"></trkpt><trkpt lat="47.0433781" lon="9.1538669"></trkpt><trkpt lat="47.0433912" lon="9.1540442"></trkpt><trkpt lat="47.0433996" lon="9.1540908"></trkpt><trkpt lat="47.0434055" lon="9.1541518"></trkpt><trkpt lat="47.0433982" lon="9.1541866"></trkpt><trkpt lat="47.0433891" lon="9.1542081"></trkpt><trkpt lat="47.043392" lon="9.1542493"></trkpt><trkpt lat="47.0433757" lon="9.1542975"></trkpt><trkpt lat="47.0433831" lon="9.1543516"></trkpt><trkpt lat="47.0433704" lon="9.1544153"></trkpt><trkpt lat="47.0433657" lon="9.154433"></trkpt><trkpt lat="47.0433639" lon="9.1544619"></trkpt><trkpt lat="47.0433693" lon="9.1544839"></trkpt><trkpt lat="47.0433609" lon="9.1545037"></trkpt><trkpt lat="47.0433449" lon="9.1545332"></trkpt><trkpt lat="47.043335" lon="9.1545707"></trkpt><trkpt lat="47.0432591" lon="9.1546018"></trkpt><trkpt lat="47.0432073" lon="9.1546328"></trkpt><trkpt lat="47.0431868" lon="9.1546521"></trkpt><trkpt lat="47.0431642" lon="9.154756"></trkpt><trkpt lat="47.0431455" lon="9.1548378"></trkpt><trkpt lat="47.0431438" lon="9.1548674"></trkpt><trkpt lat="47.0431569" lon="9.1548942"></trkpt><trkpt lat="47.0431554" lon="9.1549242"></trkpt><trkpt lat="47.0431445" lon="9.1549349"></trkpt><trkpt lat="47.0431306" lon="9.1549446"></trkpt><trkpt lat="47.0431233" lon="9.1549617"></trkpt><trkpt lat="47.0431343" lon="9.1549853"></trkpt><trkpt lat="47.0431335" lon="9.1550099"></trkpt><trkpt lat="47.0431241" lon="9.1550399"></trkpt><trkpt lat="47.0431365" lon="9.1550828"></trkpt><trkpt lat="47.0431255" lon="9.1551202"></trkpt><trkpt lat="47.0430797" lon="9.1551957"></trkpt><trkpt lat="47.0430799" lon="9.1553243"></trkpt><trkpt lat="47.0430699" lon="9.1553758"></trkpt><trkpt lat="47.04307129234881" lon="9.155420476235912"></trkpt><trkpt lat="47.0430722" lon="9.1554496"></trkpt><trkpt lat="47.0430671" lon="9.1555263"></trkpt><trkpt lat="47.0430627" lon="9.1555798"></trkpt><trkpt lat="47.0430525" lon="9.1556184"></trkpt><trkpt lat="47.0430503" lon="9.1556773"></trkpt><trkpt lat="47.043043" lon="9.155718"></trkpt><trkpt lat="47.0430386" lon="9.1557544"></trkpt><trkpt lat="47.0430204" lon="9.1557898"></trkpt><trkpt lat="47.0430255" lon="9.155913"></trkpt><trkpt lat="47.0430335" lon="9.1559966"></trkpt><trkpt lat="47.0430554" lon="9.1560469"></trkpt><trkpt lat="47.0430722" lon="9.156139"></trkpt><trkpt lat="47.0431007" lon="9.1564015"></trkpt><trkpt lat="47.0431197" lon="9.1565236"></trkpt><trkpt lat="47.0431138" lon="9.156559"></trkpt><trkpt lat="47.0431255" lon="9.1566404"></trkpt><trkpt lat="47.0431138" lon="9.1566843"></trkpt><trkpt lat="47.0431189" lon="9.1567936"></trkpt><trkpt lat="47.0431036" lon="9.1568225"></trkpt><trkpt lat="47.0430803" lon="9.1568943"></trkpt><trkpt lat="47.0430857" lon="9.1570101"></trkpt><trkpt lat="47.0430489" lon="9.1571193"></trkpt><trkpt lat="47.0430021" lon="9.1571792"></trkpt><trkpt lat="47.0429963" lon="9.1572275"></trkpt><trkpt lat="47.0429832" lon="9.1572692"></trkpt><trkpt lat="47.0429759" lon="9.1573174"></trkpt><trkpt lat="47.0429526" lon="9.1573295"></trkpt><trkpt lat="47.0429368" lon="9.1572886"></trkpt><trkpt lat="47.0429036" lon="9.1572596"></trkpt><trkpt lat="47.0428802" lon="9.1572221"></trkpt><trkpt lat="47.0428468" lon="9.1571551"></trkpt><trkpt lat="47.0428047" lon="9.1570601"></trkpt><trkpt lat="47.0427919" lon="9.1570261"></trkpt><trkpt lat="47.0427795" lon="9.1570325"></trkpt><trkpt lat="47.0427612" lon="9.1570518"></trkpt><trkpt lat="47.0427437" lon="9.1570764"></trkpt><trkpt lat="47.0427233" lon="9.1570796"></trkpt><trkpt lat="47.0426992" lon="9.1570635"></trkpt><trkpt lat="47.0426744" lon="9.1570143"></trkpt><trkpt lat="47.0426495" lon="9.1570003"></trkpt><trkpt lat="47.04264745908223" lon="9.157000406201604"></trkpt><trkpt lat="47.0426053" lon="9.1570026"></trkpt><trkpt lat="47.0425267" lon="9.1568666"></trkpt><trkpt lat="47.0424696" lon="9.1567828"></trkpt><trkpt lat="47.0424021" lon="9.1568"></trkpt><trkpt lat="47.0422804" lon="9.156885"></trkpt><trkpt lat="47.0419239" lon="9.1572004"></trkpt><trkpt lat="47.0417488" lon="9.1573555"></trkpt><trkpt lat="47.0417046" lon="9.1574423"></trkpt><trkpt lat="47.0416732" lon="9.1574684"></trkpt><trkpt lat="47.0414747" lon="9.1573979"></trkpt><trkpt lat="47.0413992" lon="9.1574361"></trkpt><trkpt lat="47.0412353" lon="9.1576297"></trkpt><trkpt lat="47.04116702508251" lon="9.15778527209524"></trkpt><trkpt lat="47.04116702508251" lon="9.157785272095241"></trkpt><trkpt lat="47.04116702508251" lon="9.15778527209524"></trkpt><trkpt lat="47.0411488" lon="9.1578268"></trkpt><trkpt lat="47.0410904" lon="9.157902"></trkpt><trkpt lat="47.0409333" lon="9.1579522"></trkpt><trkpt lat="47.0407502" lon="9.1579711"></trkpt><trkpt lat="47.0405584" lon="9.1582049"></trkpt><trkpt lat="47.0405109" lon="9.1582337"></trkpt><trkpt lat="47.0403668" lon="9.1582417"></trkpt><trkpt lat="47.0402269" lon="9.1583009"></trkpt><trkpt lat="47.0401645" lon="9.1582475"></trkpt><trkpt lat="47.0401098" lon="9.1582344"></trkpt><trkpt lat="47.0400535" lon="9.158285"></trkpt><trkpt lat="47.0399525" lon="9.1584227"></trkpt><trkpt lat="47.0397019" lon="9.1580591"></trkpt><trkpt lat="47.0396799" lon="9.157962"></trkpt><trkpt lat="47.03967596058708" lon="9.15792051305772"></trkpt><trkpt lat="47.0396735" lon="9.1578946"></trkpt><trkpt lat="47.0396894" lon="9.1578246"></trkpt><trkpt lat="47.0396862" lon="9.1577617"></trkpt><trkpt lat="47.039667" lon="9.1576688"></trkpt><trkpt lat="47.0396544" lon="9.1576455"></trkpt><trkpt lat="47.0396316" lon="9.1576255"></trkpt><trkpt lat="47.0396083" lon="9.157585"></trkpt><trkpt lat="47.0395963" lon="9.1575469"></trkpt><trkpt lat="47.0395641" lon="9.1574941"></trkpt><trkpt lat="47.0395271" lon="9.157446"></trkpt><trkpt lat="47.0395223" lon="9.1574098"></trkpt><trkpt lat="47.0395004" lon="9.1573635"></trkpt><trkpt lat="47.039485" lon="9.1573326"></trkpt><trkpt lat="47.0394742" lon="9.157295"></trkpt><trkpt lat="47.0394511" lon="9.157221"></trkpt><trkpt lat="47.0394162" lon="9.1571645"></trkpt><trkpt lat="47.0393691" lon="9.1571336"></trkpt><trkpt lat="47.0393363" lon="9.1570907"></trkpt><trkpt lat="47.0392935" lon="9.1570526"></trkpt><trkpt lat="47.039241" lon="9.1569902"></trkpt><trkpt lat="47.0392231" lon="9.1569321"></trkpt><trkpt lat="47.0391951" lon="9.1569069"></trkpt><trkpt lat="47.0391685" lon="9.1568959"></trkpt><trkpt lat="47.0391361" lon="9.1568978"></trkpt><trkpt lat="47.0391023" lon="9.1569045"></trkpt><trkpt lat="47.0390772" lon="9.1569343"></trkpt><trkpt lat="47.0390283" lon="9.1569898"></trkpt><trkpt lat="47.0390066" lon="9.1570326"></trkpt><trkpt lat="47.0389825" lon="9.1570907"></trkpt><trkpt lat="47.0389881" lon="9.1571293"></trkpt><trkpt lat="47.03898798614893" lon="9.157131323045821"></trkpt><trkpt lat="47.0389881" lon="9.1571293"></trkpt><trkpt lat="47.0389825" lon="9.1570907"></trkpt><trkpt lat="47.0390066" lon="9.1570326"></trkpt><trkpt lat="47.0390283" lon="9.1569898"></trkpt><trkpt lat="47.0390772" lon="9.1569343"></trkpt><trkpt lat="47.0391023" lon="9.1569045"></trkpt><trkpt lat="47.0391361" lon="9.1568978"></trkpt><trkpt lat="47.0391685" lon="9.1568959"></trkpt><trkpt lat="47.0391951" lon="9.1569069"></trkpt><trkpt lat="47.0392231" lon="9.1569321"></trkpt><trkpt lat="47.039241" lon="9.1569902"></trkpt><trkpt lat="47.0392935" lon="9.1570526"></trkpt><trkpt lat="47.0393363" lon="9.1570907"></trkpt><trkpt lat="47.0393691" lon="9.1571336"></trkpt><trkpt lat="47.0394162" lon="9.1571645"></trkpt><trkpt lat="47.0394511" lon="9.157221"></trkpt><trkpt lat="47.0394742" lon="9.157295"></trkpt><trkpt lat="47.039485" lon="9.1573326"></trkpt><trkpt lat="47.0395004" lon="9.1573635"></trkpt><trkpt lat="47.0395223" lon="9.1574098"></trkpt><trkpt lat="47.0395271" lon="9.157446"></trkpt><trkpt lat="47.0395641" lon="9.1574941"></trkpt><trkpt lat="47.0395963" lon="9.1575469"></trkpt><trkpt lat="47.0396083" lon="9.157585"></trkpt><trkpt lat="47.0396316" lon="9.1576255"></trkpt><trkpt lat="47.0396544" lon="9.1576455"></trkpt><trkpt lat="47.039667" lon="9.1576688"></trkpt><trkpt lat="47.0396862" lon="9.1577617"></trkpt><trkpt lat="47.0396894" lon="9.1578246"></trkpt><trkpt lat="47.0396735" lon="9.1578946"></trkpt><trkpt lat="47.0396799" lon="9.157962"></trkpt><trkpt lat="47.0397019" lon="9.1580591"></trkpt><trkpt lat="47.0399525" lon="9.1584227"></trkpt><trkpt lat="47.0399273" lon="9.1584657"></trkpt><trkpt lat="47.0398456" lon="9.1586265"></trkpt><trkpt lat="47.0398306" lon="9.1586394"></trkpt><trkpt lat="47.0398169" lon="9.1586359"></trkpt><trkpt lat="47.0397829" lon="9.1586122"></trkpt><trkpt lat="47.0397676" lon="9.1586055"></trkpt><trkpt lat="47.0397511" lon="9.1586089"></trkpt><trkpt lat="47.0397372" lon="9.1586209"></trkpt><trkpt lat="47.0397316" lon="9.1586374"></trkpt><trkpt lat="47.0397263" lon="9.1586804"></trkpt><trkpt lat="47.03972643713254" lon="9.158682543745517"></trkpt><trkpt lat="47.0397361" lon="9.1588336"></trkpt><trkpt lat="47.0397476" lon="9.1588765"></trkpt><trkpt lat="47.0397764" lon="9.1589732"></trkpt><trkpt lat="47.0397874" lon="9.1590046"></trkpt><trkpt lat="47.0398001" lon="9.1590756"></trkpt><trkpt lat="47.0398094" lon="9.1591718"></trkpt><trkpt lat="47.0398236" lon="9.1593517"></trkpt><trkpt lat="47.0398241" lon="9.1595103"></trkpt><trkpt lat="47.0398629" lon="9.1597445"></trkpt><trkpt lat="47.0398663" lon="9.1599169"></trkpt><trkpt lat="47.0399016" lon="9.1601222"></trkpt><trkpt lat="47.0398699" lon="9.1602362"></trkpt><trkpt lat="47.0398467" lon="9.1603433"></trkpt><trkpt lat="47.0398511" lon="9.1604426"></trkpt><trkpt lat="47.0398319" lon="9.1605679"></trkpt><trkpt lat="47.039823" lon="9.1607836"></trkpt><trkpt lat="47.0398269" lon="9.1610017"></trkpt><trkpt lat="47.0398065" lon="9.1611447"></trkpt><trkpt lat="47.03976499754713" lon="9.161235496977444"></trkpt><trkpt lat="47.0397314" lon="9.161309"></trkpt><trkpt lat="47.0397211" lon="9.1613784"></trkpt><trkpt lat="47.0397632" lon="9.1614821"></trkpt><trkpt lat="47.0397745" lon="9.1615388"></trkpt><trkpt lat="47.0397726" lon="9.1616105"></trkpt><trkpt lat="47.0396512" lon="9.1618408"></trkpt><trkpt lat="47.0395714" lon="9.1619255"></trkpt><trkpt lat="47.039448" lon="9.1619696"></trkpt><trkpt lat="47.0394367" lon="9.1619672"></trkpt><trkpt lat="47.0393904" lon="9.1619572"></trkpt><trkpt lat="47.0393582" lon="9.1619503"></trkpt><trkpt lat="47.0393228" lon="9.1619513"></trkpt><trkpt lat="47.0392908" lon="9.1619699"></trkpt><trkpt lat="47.0392367" lon="9.1620752"></trkpt><trkpt lat="47.0392368" lon="9.1622532"></trkpt><trkpt lat="47.0392174" lon="9.1623395"></trkpt><trkpt lat="47.0391873" lon="9.1624013"></trkpt><trkpt lat="47.0391003" lon="9.1625048"></trkpt><trkpt lat="47.0390709" lon="9.1626722"></trkpt><trkpt lat="47.0390885" lon="9.162743"></trkpt><trkpt lat="47.0391468" lon="9.1628269"></trkpt><trkpt lat="47.0391579" lon="9.1628586"></trkpt><trkpt lat="47.0391445" lon="9.1630051"></trkpt><trkpt lat="47.0391161" lon="9.1631711"></trkpt><trkpt lat="47.03911283767999" lon="9.163193741058555"></trkpt><trkpt lat="47.0390927" lon="9.1633335"></trkpt><trkpt lat="47.0390211" lon="9.1635027"></trkpt><trkpt lat="47.0389631" lon="9.1636692"></trkpt><trkpt lat="47.0387944" lon="9.1640631"></trkpt><trkpt lat="47.038643" lon="9.1642289"></trkpt><trkpt lat="47.0385534" lon="9.164429"></trkpt><trkpt lat="47.0384986" lon="9.1645866"></trkpt><trkpt lat="47.0384771" lon="9.1647237"></trkpt><trkpt lat="47.038437" lon="9.164849"></trkpt><trkpt lat="47.0384327" lon="9.1649123"></trkpt><trkpt lat="47.0384436" lon="9.1649592"></trkpt><trkpt lat="47.0384936" lon="9.1652056"></trkpt><trkpt lat="47.0385073" lon="9.1653615"></trkpt><trkpt lat="47.0385053" lon="9.1654654"></trkpt><trkpt lat="47.038500863492395" lon="9.165498914921566"></trkpt><trkpt lat="47.0384869" lon="9.1656044"></trkpt><trkpt lat="47.0384886" lon="9.1657099"></trkpt><trkpt lat="47.0385014" lon="9.1658178"></trkpt><trkpt lat="47.0385208" lon="9.165891"></trkpt><trkpt lat="47.0385761" lon="9.1660013"></trkpt><trkpt lat="47.0386583" lon="9.1662303"></trkpt><trkpt lat="47.0387264" lon="9.1663997"></trkpt><trkpt lat="47.0387545" lon="9.1665175"></trkpt><trkpt lat="47.0387723" lon="9.1666476"></trkpt><trkpt lat="47.0388136" lon="9.1669846"></trkpt><trkpt lat="47.0388357" lon="9.1670662"></trkpt><trkpt lat="47.0388606" lon="9.1671181"></trkpt><trkpt lat="47.0389032" lon="9.167181"></trkpt><trkpt lat="47.0389481" lon="9.1672659"></trkpt><trkpt lat="47.0390271" lon="9.1674735"></trkpt><trkpt lat="47.0390389" lon="9.1675419"></trkpt><trkpt lat="47.0390684" lon="9.1677654"></trkpt><trkpt lat="47.039106888266204" lon="9.16790950722927"></trkpt><trkpt lat="47.039106888266204" lon="9.167909507229268"></trkpt><trkpt lat="47.039106888266204" lon="9.16790950722927"></trkpt><trkpt lat="47.0391544" lon="9.1680874"></trkpt><trkpt lat="47.0391621" lon="9.1681885"></trkpt><trkpt lat="47.0391622" lon="9.1683449"></trkpt><trkpt lat="47.0391716" lon="9.168427"></trkpt><trkpt lat="47.0392103" lon="9.1685659"></trkpt><trkpt lat="47.039251" lon="9.1686815"></trkpt><trkpt lat="47.0392489" lon="9.1687455"></trkpt><trkpt lat="47.0392633" lon="9.1687855"></trkpt><trkpt lat="47.0392824" lon="9.168825"></trkpt><trkpt lat="47.0392915" lon="9.1688755"></trkpt><trkpt lat="47.0393012" lon="9.1689085"></trkpt><trkpt lat="47.0393223" lon="9.1689396"></trkpt><trkpt lat="47.0393366" lon="9.168976"></trkpt><trkpt lat="47.0393428" lon="9.1690235"></trkpt><trkpt lat="47.0393389" lon="9.1691042"></trkpt><trkpt lat="47.0393941" lon="9.169225"></trkpt><trkpt lat="47.039507" lon="9.1694629"></trkpt><trkpt lat="47.0395961" lon="9.1697167"></trkpt><trkpt lat="47.0396375" lon="9.1698468"></trkpt><trkpt lat="47.0397406" lon="9.1700803"></trkpt><trkpt lat="47.0397758" lon="9.1701361"></trkpt><trkpt lat="47.0398438" lon="9.1701975"></trkpt><trkpt lat="47.03986161792689" lon="9.170234530851612"></trkpt><trkpt lat="47.03986161792689" lon="9.17023453085161"></trkpt><trkpt lat="47.03986161792689" lon="9.170234530851612"></trkpt><trkpt lat="47.0399281" lon="9.1703727"></trkpt><trkpt lat="47.0400464" lon="9.1707363"></trkpt><trkpt lat="47.0400984" lon="9.1708534"></trkpt><trkpt lat="47.0402151" lon="9.1710062"></trkpt><trkpt lat="47.0403868" lon="9.1711786"></trkpt><trkpt lat="47.040508" lon="9.171279"></trkpt><trkpt lat="47.0407649" lon="9.1714257"></trkpt><trkpt lat="47.0410344" lon="9.1716168"></trkpt><trkpt lat="47.04122464218046" lon="9.17179849122531"></trkpt><trkpt lat="47.04122464218046" lon="9.171798491225312"></trkpt><trkpt lat="47.04122464218046" lon="9.17179849122531"></trkpt><trkpt lat="47.0413214" lon="9.1718909"></trkpt><trkpt lat="47.0415528" lon="9.1721757"></trkpt><trkpt lat="47.0415729" lon="9.1722118"></trkpt><trkpt lat="47.0415904" lon="9.172283"></trkpt><trkpt lat="47.0416093" lon="9.1723213"></trkpt><trkpt lat="47.0416533" lon="9.1723468"></trkpt><trkpt lat="47.0417149" lon="9.1723907"></trkpt><trkpt lat="47.0417439" lon="9.1724531"></trkpt><trkpt lat="47.0417686" lon="9.1724588"></trkpt><trkpt lat="47.0418037" lon="9.172434"></trkpt><trkpt lat="47.0419016" lon="9.1723907"></trkpt><trkpt lat="47.0419282" lon="9.1724052"></trkpt><trkpt lat="47.0419427" lon="9.1724475"></trkpt><trkpt lat="47.0419298" lon="9.1725444"></trkpt><trkpt lat="47.0419221" lon="9.1726464"></trkpt><trkpt lat="47.0419396" lon="9.1727577"></trkpt><trkpt lat="47.0419263" lon="9.1728855"></trkpt><trkpt lat="47.0418891" lon="9.1730188"></trkpt><trkpt lat="47.0418734" lon="9.1731215"></trkpt><trkpt lat="47.0418702" lon="9.1732278"></trkpt><trkpt lat="47.0418691" lon="9.1733122"></trkpt><trkpt lat="47.0418538" lon="9.1733792"></trkpt><trkpt lat="47.0418211" lon="9.1734744"></trkpt><trkpt lat="47.0417837" lon="9.1736063"></trkpt><trkpt lat="47.04177841462952" lon="9.173636434500388"></trkpt><trkpt lat="47.04177841462952" lon="9.17363643450039"></trkpt><trkpt lat="47.04177841462952" lon="9.173636434500388"></trkpt><trkpt lat="47.0417703" lon="9.1736827"></trkpt><trkpt lat="47.0417715" lon="9.1737581"></trkpt><trkpt lat="47.041798" lon="9.1738401"></trkpt><trkpt lat="47.0419326" lon="9.174084"></trkpt><trkpt lat="47.042001" lon="9.1742398"></trkpt><trkpt lat="47.042114" lon="9.1745517"></trkpt><trkpt lat="47.042169" lon="9.1747546"></trkpt><trkpt lat="47.042208" lon="9.1749539"></trkpt><trkpt lat="47.0422167" lon="9.1750351"></trkpt><trkpt lat="47.0422041" lon="9.1751314"></trkpt><trkpt lat="47.0421991" lon="9.1755741"></trkpt><trkpt lat="47.0421623" lon="9.1760249"></trkpt><trkpt lat="47.04216189277653" lon="9.176094368622305"></trkpt><trkpt lat="47.0421601" lon="9.1764002"></trkpt><trkpt lat="47.0421672" lon="9.1765309"></trkpt><trkpt lat="47.0421569" lon="9.1766277"></trkpt><trkpt lat="47.0421222" lon="9.1767614"></trkpt><trkpt lat="47.0421216" lon="9.1770062"></trkpt><trkpt lat="47.04209" lon="9.1774394"></trkpt><trkpt lat="47.0420907" lon="9.1777211"></trkpt><trkpt lat="47.0421066" lon="9.1778259"></trkpt><trkpt lat="47.0421439" lon="9.1779325"></trkpt><trkpt lat="47.042167" lon="9.1780385"></trkpt><trkpt lat="47.0421709" lon="9.1780524"></trkpt><trkpt lat="47.0422572" lon="9.1782575"></trkpt><trkpt lat="47.0423847" lon="9.1784744"></trkpt><trkpt lat="47.042442533545746" lon="9.17855767431276"></trkpt><trkpt lat="47.0425777" lon="9.1787523"></trkpt><trkpt lat="47.0427279" lon="9.178998"></trkpt><trkpt lat="47.0428558" lon="9.1792705"></trkpt><trkpt lat="47.0429273" lon="9.1794567"></trkpt><trkpt lat="47.0430001" lon="9.179689"></trkpt><trkpt lat="47.0430577" lon="9.1799364"></trkpt><trkpt lat="47.0430722" lon="9.1800134"></trkpt><trkpt lat="47.0430899" lon="9.1802316"></trkpt><trkpt lat="47.043088" lon="9.1804693"></trkpt><trkpt lat="47.0430844" lon="9.1806269"></trkpt><trkpt lat="47.04310775351633" lon="9.180893822700002"></trkpt><trkpt lat="47.0431107" lon="9.1809275"></trkpt><trkpt lat="47.0430858" lon="9.1810701"></trkpt><trkpt lat="47.0430708" lon="9.1812489"></trkpt><trkpt lat="47.0430747" lon="9.1813739"></trkpt><trkpt lat="47.0430897" lon="9.1814809"></trkpt><trkpt lat="47.0431449" lon="9.1816208"></trkpt><trkpt lat="47.0432532" lon="9.1819185"></trkpt><trkpt lat="47.0433563" lon="9.1823787"></trkpt><trkpt lat="47.0433907" lon="9.1824639"></trkpt><trkpt lat="47.0434958" lon="9.1826356"></trkpt><trkpt lat="47.0435546" lon="9.1828278"></trkpt><trkpt lat="47.043664" lon="9.1830594"></trkpt><trkpt lat="47.043725934246346" lon="9.183272150643498"></trkpt><trkpt lat="47.043725934246346" lon="9.183272150643496"></trkpt><trkpt lat="47.043725934246346" lon="9.183272150643498"></trkpt><trkpt lat="47.0437449" lon="9.1833373"></trkpt><trkpt lat="47.043917" lon="9.1842237"></trkpt><trkpt lat="47.0439428" lon="9.1842847"></trkpt><trkpt lat="47.0440165" lon="9.1843645"></trkpt><trkpt lat="47.044071" lon="9.1844329"></trkpt><trkpt lat="47.0441144" lon="9.1845246"></trkpt><trkpt lat="47.0443034" lon="9.18505"></trkpt><trkpt lat="47.0443689" lon="9.1851724"></trkpt><trkpt lat="47.0444596" lon="9.1852805"></trkpt><trkpt lat="47.0446099" lon="9.1854072"></trkpt><trkpt lat="47.044640182307226" lon="9.185427718647949"></trkpt><trkpt lat="47.044640182307226" lon="9.18542771864795"></trkpt><trkpt lat="47.044640182307226" lon="9.185427718647949"></trkpt><trkpt lat="47.0447718" lon="9.1855169"></trkpt><trkpt lat="47.0448206" lon="9.1855259"></trkpt><trkpt lat="47.0448661" lon="9.1855085"></trkpt><trkpt lat="47.04491" lon="9.1854715"></trkpt><trkpt lat="47.0449638" lon="9.1854375"></trkpt><trkpt lat="47.0450059" lon="9.1854261"></trkpt><trkpt lat="47.0450442" lon="9.185447"></trkpt><trkpt lat="47.0450825" lon="9.1855132"></trkpt><trkpt lat="47.0451167" lon="9.1856116"></trkpt><trkpt lat="47.0451947" lon="9.1859582"></trkpt><trkpt lat="47.0453504" lon="9.1863569"></trkpt><trkpt lat="47.0454696" lon="9.1867668"></trkpt><trkpt lat="47.0455354" lon="9.1872036"></trkpt><trkpt lat="47.04555346473097" lon="9.187270345190743"></trkpt><trkpt lat="47.0456101" lon="9.1874796"></trkpt><trkpt lat="47.0456608" lon="9.1876154"></trkpt><trkpt lat="47.0458241" lon="9.1879008"></trkpt><trkpt lat="47.0460916" lon="9.1883446"></trkpt><trkpt lat="47.0463899" lon="9.1887713"></trkpt><trkpt lat="47.0464227" lon="9.1888302"></trkpt><trkpt lat="47.0465171" lon="9.1891266"></trkpt><trkpt lat="47.0465571" lon="9.1892121"></trkpt><trkpt lat="47.04663940051501" lon="9.18933651950939"></trkpt><trkpt lat="47.04663940051501" lon="9.189336519509387"></trkpt><trkpt lat="47.04663940051501" lon="9.18933651950939"></trkpt><trkpt lat="47.0466548" lon="9.1893598"></trkpt><trkpt lat="47.0468904" lon="9.1897923"></trkpt><trkpt lat="47.0469992" lon="9.1900452"></trkpt><trkpt lat="47.0470093" lon="9.1901152"></trkpt><trkpt lat="47.0470291" lon="9.1902134"></trkpt><trkpt lat="47.0470693" lon="9.1902936"></trkpt><trkpt lat="47.0471315" lon="9.1903923"></trkpt><trkpt lat="47.0471447" lon="9.1903985"></trkpt><trkpt lat="47.0471535" lon="9.1903878"></trkpt><trkpt lat="47.0471541" lon="9.1901804"></trkpt><trkpt lat="47.0471633" lon="9.1901602"></trkpt><trkpt lat="47.0471789" lon="9.1901682"></trkpt><trkpt lat="47.0473514" lon="9.1904754"></trkpt><trkpt lat="47.0473678" lon="9.1904868"></trkpt><trkpt lat="47.0473792" lon="9.1904711"></trkpt><trkpt lat="47.0473871" lon="9.190391"></trkpt><trkpt lat="47.0473974" lon="9.1902631"></trkpt><trkpt lat="47.047412" lon="9.1902493"></trkpt><trkpt lat="47.0474291" lon="9.190259"></trkpt><trkpt lat="47.0474469" lon="9.1902901"></trkpt><trkpt lat="47.0474957" lon="9.1904729"></trkpt><trkpt lat="47.0475111" lon="9.1905236"></trkpt><trkpt lat="47.0475251" lon="9.1905555"></trkpt><trkpt lat="47.04755192706473" lon="9.19059540985246"></trkpt><trkpt lat="47.0475616" lon="9.1906098"></trkpt><trkpt lat="47.0478324" lon="9.190981"></trkpt><trkpt lat="47.0478697" lon="9.191044"></trkpt><trkpt lat="47.0480152" lon="9.1914051"></trkpt><trkpt lat="47.0481822" lon="9.1917878"></trkpt><trkpt lat="47.0483618" lon="9.1922372"></trkpt><trkpt lat="47.0484864" lon="9.1924637"></trkpt><trkpt lat="47.04857470517734" lon="9.192729256973973"></trkpt><trkpt lat="47.04857470517734" lon="9.192729256973971"></trkpt><trkpt lat="47.04857470517734" lon="9.192729256973973"></trkpt><trkpt lat="47.0486929" lon="9.1930847"></trkpt><trkpt lat="47.0488685" lon="9.1933201"></trkpt><trkpt lat="47.0492317" lon="9.1939538"></trkpt><trkpt lat="47.0493998" lon="9.1940611"></trkpt><trkpt lat="47.04977380613163" lon="9.194691518098772"></trkpt><trkpt lat="47.04977380613163" lon="9.194691518098773"></trkpt><trkpt lat="47.04977380613163" lon="9.194691518098772"></trkpt><trkpt lat="47.0499408" lon="9.194973"></trkpt><trkpt lat="47.0499195" lon="9.1952289"></trkpt><trkpt lat="47.0501173" lon="9.1954882"></trkpt><trkpt lat="47.050274" lon="9.195785"></trkpt><trkpt lat="47.050356" lon="9.1958785"></trkpt><trkpt lat="47.0504263" lon="9.1960058"></trkpt><trkpt lat="47.0508063" lon="9.1963563"></trkpt><trkpt lat="47.0508926" lon="9.1964721"></trkpt><trkpt lat="47.05096436134152" lon="9.196538952585263"></trkpt><trkpt lat="47.0510154" lon="9.1965865"></trkpt><trkpt lat="47.051144" lon="9.1966887"></trkpt><trkpt lat="47.0511998" lon="9.1967417"></trkpt><trkpt lat="47.0512349" lon="9.1967618"></trkpt><trkpt lat="47.0512728" lon="9.196778"></trkpt><trkpt lat="47.0513197" lon="9.196782"></trkpt><trkpt lat="47.0513572" lon="9.1967772"></trkpt><trkpt lat="47.0513866" lon="9.1967675"></trkpt><trkpt lat="47.0514193" lon="9.1967436"></trkpt><trkpt lat="47.0514506" lon="9.1967255"></trkpt><trkpt lat="47.0514851" lon="9.196717"></trkpt><trkpt lat="47.0515239" lon="9.1967161"></trkpt><trkpt lat="47.0515572" lon="9.1967251"></trkpt><trkpt lat="47.0515811" lon="9.1967411"></trkpt><trkpt lat="47.0515981" lon="9.1967625"></trkpt><trkpt lat="47.0516367" lon="9.1968301"></trkpt><trkpt lat="47.0516561" lon="9.1968513"></trkpt><trkpt lat="47.0516717" lon="9.196863"></trkpt><trkpt lat="47.0517114" lon="9.1968748"></trkpt><trkpt lat="47.0517305" lon="9.1968864"></trkpt><trkpt lat="47.0517517" lon="9.196906"></trkpt><trkpt lat="47.0518908" lon="9.1970869"></trkpt><trkpt lat="47.0519084" lon="9.1971003"></trkpt><trkpt lat="47.0519216" lon="9.1971021"></trkpt><trkpt lat="47.0519353" lon="9.1970936"></trkpt><trkpt lat="47.0519511" lon="9.197075"></trkpt><trkpt lat="47.0519752" lon="9.1970378"></trkpt><trkpt lat="47.0519854" lon="9.197018"></trkpt><trkpt lat="47.0519973" lon="9.1970068"></trkpt><trkpt lat="47.0520166" lon="9.1969997"></trkpt><trkpt lat="47.0521618" lon="9.1969777"></trkpt><trkpt lat="47.0523868" lon="9.1969535"></trkpt><trkpt lat="47.0524086" lon="9.1969632"></trkpt><trkpt lat="47.0524242" lon="9.1969868"></trkpt><trkpt lat="47.0524314" lon="9.1970131"></trkpt><trkpt lat="47.0524334" lon="9.1970445"></trkpt><trkpt lat="47.0524255" lon="9.1971086"></trkpt><trkpt lat="47.0524222" lon="9.1971834"></trkpt><trkpt lat="47.05242469395599" lon="9.197213597088707"></trkpt><trkpt lat="47.0524259" lon="9.1972282"></trkpt><trkpt lat="47.0524354" lon="9.1972608"></trkpt><trkpt lat="47.0524498" lon="9.1972898"></trkpt><trkpt lat="47.052469" lon="9.1973155"></trkpt><trkpt lat="47.0525019" lon="9.1973344"></trkpt><trkpt lat="47.0525651" lon="9.1973532"></trkpt><trkpt lat="47.0528609" lon="9.1973945"></trkpt><trkpt lat="47.0529997" lon="9.1974457"></trkpt><trkpt lat="47.0531863" lon="9.1975367"></trkpt><trkpt lat="47.0532565" lon="9.1976071"></trkpt><trkpt lat="47.0534215" lon="9.1979463"></trkpt><trkpt lat="47.0536989" lon="9.1982369"></trkpt><trkpt lat="47.0537543" lon="9.1982528"></trkpt><trkpt lat="47.0538659" lon="9.1982398"></trkpt><trkpt lat="47.05396190409808" lon="9.198311162751843"></trkpt><trkpt lat="47.05396190409808" lon="9.198311162751844"></trkpt><trkpt lat="47.05396190409808" lon="9.198311162751843"></trkpt><trkpt lat="47.0539746" lon="9.1983206"></trkpt><trkpt lat="47.0540306" lon="9.1985255"></trkpt><trkpt lat="47.0540757" lon="9.1985786"></trkpt><trkpt lat="47.0542039" lon="9.1985872"></trkpt><trkpt lat="47.0543284" lon="9.1986388"></trkpt><trkpt lat="47.0544037" lon="9.198625"></trkpt><trkpt lat="47.0544798" lon="9.1986469"></trkpt><trkpt lat="47.054602" lon="9.1987074"></trkpt><trkpt lat="47.0546914" lon="9.1986969"></trkpt><trkpt lat="47.0548615" lon="9.1986399"></trkpt><trkpt lat="47.0549727" lon="9.1986482"></trkpt><trkpt lat="47.0550926" lon="9.1986382"></trkpt><trkpt lat="47.0553371" lon="9.1985578"></trkpt><trkpt lat="47.0555149" lon="9.1985427"></trkpt><trkpt lat="47.05563265825833" lon="9.1985215813702"></trkpt><trkpt lat="47.0558779" lon="9.1984776"></trkpt><trkpt lat="47.0559942" lon="9.1984257"></trkpt><trkpt lat="47.0561247" lon="9.1983968"></trkpt><trkpt lat="47.0565029" lon="9.1983511"></trkpt><trkpt lat="47.0567828" lon="9.1982026"></trkpt><trkpt lat="47.0569958" lon="9.1981725"></trkpt><trkpt lat="47.0571668" lon="9.1980739"></trkpt><trkpt lat="47.0573679" lon="9.1980636"></trkpt><trkpt lat="47.05739081101367" lon="9.198066314738977"></trkpt><trkpt lat="47.0575004" lon="9.1980793"></trkpt><trkpt lat="47.0575981" lon="9.1980561"></trkpt><trkpt lat="47.0577277" lon="9.1979696"></trkpt><trkpt lat="47.0578357" lon="9.1979778"></trkpt><trkpt lat="47.0580119" lon="9.198076"></trkpt><trkpt lat="47.0581486" lon="9.1980859"></trkpt><trkpt lat="47.0584675" lon="9.1979985"></trkpt><trkpt lat="47.0588397" lon="9.1979304"></trkpt><trkpt lat="47.0590332" lon="9.1979347"></trkpt><trkpt lat="47.05915240711735" lon="9.197911420935943"></trkpt><trkpt lat="47.05915240711735" lon="9.197911420935942"></trkpt><trkpt lat="47.05915240711735" lon="9.197911420935943"></trkpt><trkpt lat="47.0592155" lon="9.1978991"></trkpt><trkpt lat="47.0593529" lon="9.1979327"></trkpt><trkpt lat="47.0594013" lon="9.1979467"></trkpt><trkpt lat="47.0594973" lon="9.1979761"></trkpt><trkpt lat="47.0597078" lon="9.1979891"></trkpt><trkpt lat="47.0601286" lon="9.1979671"></trkpt><trkpt lat="47.0603682" lon="9.1979291"></trkpt><trkpt lat="47.0606248" lon="9.1979263"></trkpt><trkpt lat="47.0607419" lon="9.197925"></trkpt><trkpt lat="47.06093896592817" lon="9.197858668367719"></trkpt><trkpt lat="47.0610586" lon="9.1978184"></trkpt><trkpt lat="47.0613038" lon="9.1978285"></trkpt><trkpt lat="47.0614173" lon="9.1978783"></trkpt><trkpt lat="47.0614488" lon="9.1978883"></trkpt><trkpt lat="47.0620899" lon="9.1980923"></trkpt><trkpt lat="47.062321" lon="9.198146"></trkpt><trkpt lat="47.0625056" lon="9.1983848"></trkpt><trkpt lat="47.06263930405179" lon="9.19847036356534"></trkpt><trkpt lat="47.0627339" lon="9.1985309"></trkpt><trkpt lat="47.0630816" lon="9.1985728"></trkpt><trkpt lat="47.0633503" lon="9.1985407"></trkpt><trkpt lat="47.0634514" lon="9.1985037"></trkpt><trkpt lat="47.0635734" lon="9.1984877"></trkpt><trkpt lat="47.0639983" lon="9.1984505"></trkpt><trkpt lat="47.0642628" lon="9.1983099"></trkpt><trkpt lat="47.0643172" lon="9.1982346"></trkpt><trkpt lat="47.06437430703454" lon="9.198155495379098"></trkpt><trkpt lat="47.06437430703454" lon="9.1981554953791"></trkpt><trkpt lat="47.06437430703454" lon="9.198155495379098"></trkpt><trkpt lat="47.0644226" lon="9.1980886"></trkpt><trkpt lat="47.0645099" lon="9.1980562"></trkpt><trkpt lat="47.0645928" lon="9.1980735"></trkpt><trkpt lat="47.0646274" lon="9.1980872"></trkpt><trkpt lat="47.0647136" lon="9.1980643"></trkpt><trkpt lat="47.0650141" lon="9.1978336"></trkpt><trkpt lat="47.0653654" lon="9.1976421"></trkpt><trkpt lat="47.065686" lon="9.1973551"></trkpt><trkpt lat="47.0659011" lon="9.1972395"></trkpt><trkpt lat="47.06601656790711" lon="9.197235167715734"></trkpt><trkpt lat="47.06601656790711" lon="9.197235167715732"></trkpt><trkpt lat="47.06601656790711" lon="9.197235167715734"></trkpt><trkpt lat="47.0662236" lon="9.1972274"></trkpt><trkpt lat="47.0664698" lon="9.1973242"></trkpt><trkpt lat="47.0669141" lon="9.1974221"></trkpt><trkpt lat="47.0670511" lon="9.1974609"></trkpt><trkpt lat="47.0673906" lon="9.1975978"></trkpt><trkpt lat="47.0676173" lon="9.1976316"></trkpt><trkpt lat="47.067779991473955" lon="9.197686998705898"></trkpt><trkpt lat="47.067779991473955" lon="9.1976869987059"></trkpt><trkpt lat="47.067779991473955" lon="9.197686998705898"></trkpt><trkpt lat="47.0680026" lon="9.1977628"></trkpt><trkpt lat="47.0682624" lon="9.1979073"></trkpt><trkpt lat="47.0683471" lon="9.1979487"></trkpt><trkpt lat="47.0684159" lon="9.197984"></trkpt><trkpt lat="47.0685309" lon="9.1980192"></trkpt><trkpt lat="47.068589248873664" lon="9.198045922414707"></trkpt></trkseg></trk></gpx>
