<?xml version="1.0" encoding="UTF-8"?>
<gpx version="1.1" creator="Good Shit" xmlns="http://www.topografix.com/GPX/1/1"><trk><name>Voděradské bučiny autumn loop — Voděradské bučiny autumn loop</name><trkseg><trkpt lat="49.9719920647528" lon="14.769793810759273"></trkpt><trkpt lat="49.9719915" lon="14.7698386"></trkpt><trkpt lat="49.9720018" lon="14.769969"></trkpt><trkpt lat="49.9720428" lon="14.770178"></trkpt><trkpt lat="49.9721013" lon="14.7704321"></trkpt><trkpt lat="49.97217" lon="14.7706899"></trkpt><trkpt lat="49.97221" lon="14.770857"></trkpt><trkpt lat="49.9723039" lon="14.7711857"></trkpt><trkpt lat="49.9723377" lon="14.7712496"></trkpt><trkpt lat="49.9726942" lon="14.771682"></trkpt><trkpt lat="49.97273418093501" lon="14.771731624999038"></trkpt><trkpt lat="49.97273418093501" lon="14.77173162499904"></trkpt><trkpt lat="49.97273418093501" lon="14.771731624999038"></trkpt><trkpt lat="49.9728849" lon="14.7719187"></trkpt><trkpt lat="49.9730512" lon="14.7721644"></trkpt><trkpt lat="49.9731077" lon="14.772308"></trkpt><trkpt lat="49.9731262" lon="14.7724184"></trkpt><trkpt lat="49.9731275" lon="14.77254"></trkpt><trkpt lat="49.9731184" lon="14.7726504"></trkpt><trkpt lat="49.9730973" lon="14.7727255"></trkpt><trkpt lat="49.9730111" lon="14.7729575"></trkpt><trkpt lat="49.9729942" lon="14.7730634"></trkpt><trkpt lat="49.9729925" lon="14.7731465"></trkpt><trkpt lat="49.9730011" lon="14.7732599"></trkpt><trkpt lat="49.9730261" lon="14.7733498"></trkpt><trkpt lat="49.9730736" lon="14.7734731"></trkpt><trkpt lat="49.973145268461835" lon="14.773585431655102"></trkpt><trkpt lat="49.973145268461835" lon="14.773585431655103"></trkpt><trkpt lat="49.973145268461835" lon="14.773585431655102"></trkpt><trkpt lat="49.9732888" lon="14.7738104"></trkpt><trkpt lat="49.9733467" lon="14.7739169"></trkpt><trkpt lat="49.9735392" lon="14.774387"></trkpt><trkpt lat="49.973636" lon="14.774641"></trkpt><trkpt lat="49.973871511270225" lon="14.775317024619795"></trkpt><trkpt lat="49.973871511270225" lon="14.775317024619797"></trkpt><trkpt lat="49.973871511270225" lon="14.775317024619795"></trkpt><trkpt lat="49.9738753" lon="14.7753279"></trkpt><trkpt lat="49.9739002" lon="14.7754391"></trkpt><trkpt lat="49.9739101" lon="14.7755413"></trkpt><trkpt lat="49.9739128" lon="14.7756538"></trkpt><trkpt lat="49.9739003" lon="14.7757601"></trkpt><trkpt lat="49.973858" lon="14.7759318"></trkpt><trkpt lat="49.9738179" lon="14.7760105"></trkpt><trkpt lat="49.9737626" lon="14.776068"></trkpt><trkpt lat="49.9736862" lon="14.7761044"></trkpt><trkpt lat="49.9735859" lon="14.7761387"></trkpt><trkpt lat="49.973379" lon="14.7761737"></trkpt><trkpt lat="49.9731583" lon="14.7762175"></trkpt><trkpt lat="49.9729752" lon="14.7762526"></trkpt><trkpt lat="49.97292025200372" lon="14.77625874145915"></trkpt><trkpt lat="49.9728231" lon="14.7762696"></trkpt><trkpt lat="49.97277" lon="14.7762915"></trkpt><trkpt lat="49.9727191" lon="14.7763337"></trkpt><trkpt lat="49.9726553" lon="14.7764163"></trkpt><trkpt lat="49.9726345" lon="14.7764719"></trkpt><trkpt lat="49.9726216" lon="14.7765248"></trkpt><trkpt lat="49.9726098" lon="14.7766801"></trkpt><trkpt lat="49.9726166" lon="14.7768183"></trkpt><trkpt lat="49.9726251" lon="14.7769305"></trkpt><trkpt lat="49.9726437" lon="14.7770068"></trkpt><trkpt lat="49.972673" lon="14.7770627"></trkpt><trkpt lat="49.9727424" lon="14.7771384"></trkpt><trkpt lat="49.9728199" lon="14.7771996"></trkpt><trkpt lat="49.9729839" lon="14.7773865"></trkpt><trkpt lat="49.9730846" lon="14.7774794"></trkpt><trkpt lat="49.9731779" lon="14.7775434"></trkpt><trkpt lat="49.9735226" lon="14.7777423"></trkpt><trkpt lat="49.97362017015541" lon="14.777790134895332"></trkpt><trkpt lat="49.9737023" lon="14.7778304"></trkpt><trkpt lat="49.973767" lon="14.7778881"></trkpt><trkpt lat="49.9740699" lon="14.7782859"></trkpt><trkpt lat="49.9741319" lon="14.7783983"></trkpt><trkpt lat="49.974181" lon="14.7785219"></trkpt><trkpt lat="49.9741966" lon="14.7786176"></trkpt><trkpt lat="49.9742016" lon="14.7787304"></trkpt><trkpt lat="49.974151792661495" lon="14.779295004355436"></trkpt><trkpt lat="49.9741468" lon="14.7793516"></trkpt><trkpt lat="49.9741464" lon="14.7794806"></trkpt><trkpt lat="49.9741603" lon="14.7795953"></trkpt><trkpt lat="49.9742617" lon="14.7800147"></trkpt><trkpt lat="49.9742947" lon="14.7800992"></trkpt><trkpt lat="49.9743915" lon="14.7802846"></trkpt><trkpt lat="49.9745925" lon="14.7805502"></trkpt><trkpt lat="49.9746865" lon="14.7806994"></trkpt><trkpt lat="49.9747367" lon="14.7808218"></trkpt><trkpt lat="49.9747952" lon="14.7810451"></trkpt><trkpt lat="49.9748158" lon="14.7811657"></trkpt><trkpt lat="49.9748201" lon="14.7812616"></trkpt><trkpt lat="49.974816215865935" lon="14.781283684076556"></trkpt><trkpt lat="49.9747746" lon="14.7815203"></trkpt><trkpt lat="49.9747237" lon="14.7817747"></trkpt><trkpt lat="49.9746798" lon="14.7819037"></trkpt><trkpt lat="49.9746082" lon="14.7820067"></trkpt><trkpt lat="49.974545" lon="14.782075"></trkpt><trkpt lat="49.97442" lon="14.782163"></trkpt><trkpt lat="49.9743345" lon="14.7822267"></trkpt><trkpt lat="49.974027" lon="14.7824"></trkpt><trkpt lat="49.97386313012542" lon="14.782468807240155"></trkpt><trkpt lat="49.97386313012542" lon="14.782468807240154"></trkpt><trkpt lat="49.97386313012542" lon="14.782468807240155"></trkpt><trkpt lat="49.973846" lon="14.782476"></trkpt><trkpt lat="49.9736432" lon="14.7825094"></trkpt><trkpt lat="49.9734685" lon="14.7825033"></trkpt><trkpt lat="49.9733122" lon="14.7824829"></trkpt><trkpt lat="49.9731434" lon="14.7824572"></trkpt><trkpt lat="49.9728146" lon="14.7824148"></trkpt><trkpt lat="49.972638" lon="14.7824116"></trkpt><trkpt lat="49.9725819" lon="14.7824401"></trkpt><trkpt lat="49.972519" lon="14.7824961"></trkpt><trkpt lat="49.9724649945321" lon="14.782550258025717"></trkpt><trkpt lat="49.9724649945321" lon="14.782550258025719"></trkpt><trkpt lat="49.9724649945321" lon="14.782550258025717"></trkpt><trkpt lat="49.9724482" lon="14.7825671"></trkpt><trkpt lat="49.9722165" lon="14.782778"></trkpt><trkpt lat="49.9721251" lon="14.782855"></trkpt><trkpt lat="49.9720478" lon="14.7829289"></trkpt><trkpt lat="49.971974" lon="14.7830178"></trkpt><trkpt lat="49.9719192" lon="14.7831164"></trkpt><trkpt lat="49.9717953" lon="14.7834805"></trkpt><trkpt lat="49.971712" lon="14.78381"></trkpt><trkpt lat="49.97162671980751" lon="14.78424440881357"></trkpt><trkpt lat="49.9715874" lon="14.7844447"></trkpt><trkpt lat="49.9714976" lon="14.785"></trkpt><trkpt lat="49.9713987" lon="14.7853641"></trkpt><trkpt lat="49.971184" lon="14.785994"></trkpt><trkpt lat="49.971131101566016" lon="14.786113624796934"></trkpt><trkpt lat="49.9708837" lon="14.7866731"></trkpt><trkpt lat="49.970776" lon="14.7868318"></trkpt><trkpt lat="49.9706742" lon="14.7869322"></trkpt><trkpt lat="49.9705808" lon="14.7870062"></trkpt><trkpt lat="49.9705273" lon="14.7870357"></trkpt><trkpt lat="49.9704644" lon="14.7870532"></trkpt><trkpt lat="49.9702365" lon="14.787087"></trkpt><trkpt lat="49.9701918" lon="14.7871055"></trkpt><trkpt lat="49.9701372" lon="14.7871472"></trkpt><trkpt lat="49.97006045080765" lon="14.787215756185946"></trkpt><trkpt lat="49.97006045080765" lon="14.787215756185944"></trkpt><trkpt lat="49.97006045080765" lon="14.787215756185946"></trkpt><trkpt lat="49.9700098" lon="14.787261"></trkpt><trkpt lat="49.9697511" lon="14.7875613"></trkpt><trkpt lat="49.9696475" lon="14.7876379"></trkpt><trkpt lat="49.96954" lon="14.7876887"></trkpt><trkpt lat="49.9694405" lon="14.7877213"></trkpt><trkpt lat="49.9693443" lon="14.7877271"></trkpt><trkpt lat="49.9692356" lon="14.7877223"></trkpt><trkpt lat="49.9691045" lon="14.7876772"></trkpt><trkpt lat="49.9690126" lon="14.7876164"></trkpt><trkpt lat="49.9689146" lon="14.7875075"></trkpt><trkpt lat="49.96882786875614" lon="14.787378791688601"></trkpt><trkpt lat="49.96882786875614" lon="14.787378791688598"></trkpt><trkpt lat="49.96882786875614" lon="14.787378791688601"></trkpt><trkpt lat="49.968671" lon="14.787146"></trkpt><trkpt lat="49.9681659" lon="14.7862879"></trkpt><trkpt lat="49.9680059" lon="14.7860779"></trkpt><trkpt lat="49.96787688140332" lon="14.785917483424882"></trkpt><trkpt lat="49.9676821" lon="14.7856753"></trkpt><trkpt lat="49.9675723" lon="14.7855623"></trkpt><trkpt lat="49.9675074" lon="14.7855417"></trkpt><trkpt lat="49.9673499" lon="14.785522"></trkpt><trkpt lat="49.9672839" lon="14.7855431"></trkpt><trkpt lat="49.9672513" lon="14.7856062"></trkpt><trkpt lat="49.9672247" lon="14.7857869"></trkpt><trkpt lat="49.9672247" lon="14.7860496"></trkpt><trkpt lat="49.9672182" lon="14.7862017"></trkpt><trkpt lat="49.9671972" lon="14.7864897"></trkpt><trkpt lat="49.9671976" lon="14.7871458"></trkpt><trkpt lat="49.967234716236554" lon="14.787237087356468"></trkpt><trkpt lat="49.967234716236554" lon="14.787237087356466"></trkpt><trkpt lat="49.967234716236554" lon="14.787237087356468"></trkpt><trkpt lat="49.9672655" lon="14.7873128"></trkpt><trkpt lat="49.9674118" lon="14.7877312"></trkpt><trkpt lat="49.9674302" lon="14.7878359"></trkpt><trkpt lat="49.9674297" lon="14.7879745"></trkpt><trkpt lat="49.9673987" lon="14.7881616"></trkpt><trkpt lat="49.9673948" lon="14.7882421"></trkpt><trkpt lat="49.9674" lon="14.7883263"></trkpt><trkpt lat="49.967409" lon="14.788409"></trkpt><trkpt lat="49.9674836" lon="14.7887255"></trkpt><trkpt lat="49.967497" lon="14.788853"></trkpt><trkpt lat="49.96748896721075" lon="14.78916813760816"></trkpt><trkpt lat="49.9674849" lon="14.7893277"></trkpt><trkpt lat="49.9674817" lon="14.7894747"></trkpt><trkpt lat="49.9675011" lon="14.7896553"></trkpt><trkpt lat="49.9675363" lon="14.7898434"></trkpt><trkpt lat="49.9677178" lon="14.790629"></trkpt><trkpt lat="49.9677331" lon="14.7907537"></trkpt><trkpt lat="49.967729" lon="14.7908592"></trkpt><trkpt lat="49.9677141" lon="14.7909633"></trkpt><trkpt lat="49.967685" lon="14.7910573"></trkpt><trkpt lat="49.96764225497181" lon="14.791138679957525"></trkpt><trkpt lat="49.96764225497181" lon="14.791138679957527"></trkpt><trkpt lat="49.96764225497181" lon="14.791138679957525"></trkpt><trkpt lat="49.967633" lon="14.7911563"></trkpt><trkpt lat="49.9675859" lon="14.7912119"></trkpt><trkpt lat="49.967519" lon="14.791266"></trkpt><trkpt lat="49.9674797" lon="14.7912844"></trkpt><trkpt lat="49.9673982" lon="14.7913003"></trkpt><trkpt lat="49.9671646" lon="14.791277"></trkpt><trkpt lat="49.9670856" lon="14.7912859"></trkpt><trkpt lat="49.9670131" lon="14.7913152"></trkpt><trkpt lat="49.9669353" lon="14.7913674"></trkpt><trkpt lat="49.9666107" lon="14.7916847"></trkpt><trkpt lat="49.9665199" lon="14.7917377"></trkpt><trkpt lat="49.9664185" lon="14.7917564"></trkpt><trkpt lat="49.96640193058983" lon="14.791754185889806"></trkpt><trkpt lat="49.966191" lon="14.791726"></trkpt><trkpt lat="49.9659634" lon="14.791662"></trkpt><trkpt lat="49.965421" lon="14.791432"></trkpt><trkpt lat="49.9652461" lon="14.7913306"></trkpt><trkpt lat="49.9651825" lon="14.791275"></trkpt><trkpt lat="49.965106832111466" lon="14.7911884435102"></trkpt><trkpt lat="49.965106832111466" lon="14.791188443510201"></trkpt><trkpt lat="49.965106832111466" lon="14.7911884435102"></trkpt><trkpt lat="49.9650866" lon="14.7911653"></trkpt><trkpt lat="49.9648961" lon="14.7908592"></trkpt><trkpt lat="49.9648524" lon="14.7907691"></trkpt><trkpt lat="49.9645752" lon="14.7898776"></trkpt><trkpt lat="49.9645046" lon="14.7897033"></trkpt><trkpt lat="49.9644489" lon="14.7896379"></trkpt><trkpt lat="49.9643623" lon="14.7896166"></trkpt><trkpt lat="49.9642603" lon="14.7896361"></trkpt><trkpt lat="49.9641655" lon="14.7897397"></trkpt><trkpt lat="49.9639952" lon="14.790066"></trkpt><trkpt lat="49.9640433" lon="14.7901317"></trkpt><trkpt lat="49.9640843" lon="14.7902264"></trkpt><trkpt lat="49.96408861790863" lon="14.790240471861988"></trkpt><trkpt lat="49.96408861790863" lon="14.790240471861987"></trkpt><trkpt lat="49.96408861790863" lon="14.790240471861988"></trkpt><trkpt lat="49.9640843" lon="14.7902264"></trkpt><trkpt lat="49.9640433" lon="14.7901317"></trkpt><trkpt lat="49.9639952" lon="14.790066"></trkpt><trkpt lat="49.963873" lon="14.7904924"></trkpt><trkpt lat="49.9638514" lon="14.7906446"></trkpt><trkpt lat="49.9638592" lon="14.7907801"></trkpt><trkpt lat="49.9638911" lon="14.791114"></trkpt><trkpt lat="49.9638967" lon="14.7914279"></trkpt><trkpt lat="49.9638896" lon="14.7918267"></trkpt><trkpt lat="49.96388160448503" lon="14.79199522085401"></trkpt><trkpt lat="49.9638701" lon="14.7922377"></trkpt><trkpt lat="49.96384" lon="14.7924247"></trkpt><trkpt lat="49.9637113" lon="14.7927727"></trkpt><trkpt lat="49.9636646" lon="14.79294"></trkpt><trkpt lat="49.9636363" lon="14.793119"></trkpt><trkpt lat="49.9636349" lon="14.7932837"></trkpt><trkpt lat="49.9636557" lon="14.7934868"></trkpt><trkpt lat="49.9637033" lon="14.7937661"></trkpt><trkpt lat="49.9637725" lon="14.7939724"></trkpt><trkpt lat="49.9638494793797" lon="14.794154600059814"></trkpt><trkpt lat="49.9640369" lon="14.7945982"></trkpt><trkpt lat="49.9641448" lon="14.7948886"></trkpt><trkpt lat="49.9642275" lon="14.795144"></trkpt><trkpt lat="49.9642972" lon="14.7953954"></trkpt><trkpt lat="49.964394" lon="14.795814"></trkpt><trkpt lat="49.96443925348133" lon="14.795982830295731"></trkpt><trkpt lat="49.964576" lon="14.796493"></trkpt><trkpt lat="49.9646425" lon="14.796811"></trkpt><trkpt lat="49.9647597" lon="14.7975039"></trkpt><trkpt lat="49.9647805" lon="14.7976989"></trkpt><trkpt lat="49.96477877310273" lon="14.79793242360806"></trkpt><trkpt lat="49.9647783" lon="14.7979964"></trkpt><trkpt lat="49.9647588" lon="14.7982618"></trkpt><trkpt lat="49.9647389" lon="14.7985128"></trkpt><trkpt lat="49.964696" lon="14.7987592"></trkpt><trkpt lat="49.9646235" lon="14.7990158"></trkpt><trkpt lat="49.9645412" lon="14.7992251"></trkpt><trkpt lat="49.9644792" lon="14.7993308"></trkpt><trkpt lat="49.9644009" lon="14.7994235"></trkpt><trkpt lat="49.9642433799854" lon="14.799525607835553"></trkpt><trkpt lat="49.9642433799854" lon="14.799525607835552"></trkpt><trkpt lat="49.9642433799854" lon="14.799525607835553"></trkpt><trkpt lat="49.9641985" lon="14.7995547"></trkpt><trkpt lat="49.9641024" lon="14.7996542"></trkpt><trkpt lat="49.9640657" lon="14.7997306"></trkpt><trkpt lat="49.9640275" lon="14.7998884"></trkpt><trkpt lat="49.9640213" lon="14.8000096"></trkpt><trkpt lat="49.9640392" lon="14.800117"></trkpt><trkpt lat="49.964143" lon="14.8004462"></trkpt><trkpt lat="49.9641654" lon="14.8005594"></trkpt><trkpt lat="49.9641634" lon="14.8006549"></trkpt><trkpt lat="49.964142" lon="14.800868"></trkpt><trkpt lat="49.9640942" lon="14.8010929"></trkpt><trkpt lat="49.9640255" lon="14.8013217"></trkpt><trkpt lat="49.963917" lon="14.80165"></trkpt><trkpt lat="49.96390820580875" lon="14.80166992185924"></trkpt><trkpt lat="49.96390820580875" lon="14.801669921859238"></trkpt><trkpt lat="49.96390820580875" lon="14.80166992185924"></trkpt><trkpt lat="49.9638616" lon="14.8017755"></trkpt><trkpt lat="49.963771" lon="14.80193"></trkpt><trkpt lat="49.963538" lon="14.802186"></trkpt><trkpt lat="49.9634144" lon="14.8022932"></trkpt><trkpt lat="49.963327" lon="14.802369"></trkpt><trkpt lat="49.9632681" lon="14.8027318"></trkpt><trkpt lat="49.9631604" lon="14.8027515"></trkpt><trkpt lat="49.963093" lon="14.8028956"></trkpt><trkpt lat="49.9629918" lon="14.8029054"></trkpt><trkpt lat="49.9629834" lon="14.8029841"></trkpt><trkpt lat="49.96287361397903" lon="14.802955153203474"></trkpt><trkpt lat="49.962859" lon="14.8029513"></trkpt><trkpt lat="49.9627863" lon="14.8027106"></trkpt><trkpt lat="49.9626822" lon="14.8027985"></trkpt><trkpt lat="49.9624279" lon="14.8030432"></trkpt><trkpt lat="49.9617265" lon="14.8037727"></trkpt><trkpt lat="49.96164429628023" lon="14.803855039369473"></trkpt><trkpt lat="49.96164429628023" lon="14.803855039369472"></trkpt><trkpt lat="49.96164429628023" lon="14.803855039369473"></trkpt><trkpt lat="49.9614841" lon="14.8040155"></trkpt><trkpt lat="49.9612952" lon="14.8041871"></trkpt><trkpt lat="49.9611123" lon="14.8043285"></trkpt><trkpt lat="49.960966" lon="14.804436"></trkpt><trkpt lat="49.9607214" lon="14.8045363"></trkpt><trkpt lat="49.960429282379394" lon="14.804638660887548"></trkpt><trkpt lat="49.9601846" lon="14.8047244"></trkpt><trkpt lat="49.9592672" lon="14.8049908"></trkpt><trkpt lat="49.9591248" lon="14.8049914"></trkpt><trkpt lat="49.9591135934347" lon="14.804993703968309"></trkpt><trkpt lat="49.9591135934347" lon="14.804993703968307"></trkpt><trkpt lat="49.9591135934347" lon="14.804993703968309"></trkpt><trkpt lat="49.9588422" lon="14.8050495"></trkpt><trkpt lat="49.9585067" lon="14.8050482"></trkpt><trkpt lat="49.9583843" lon="14.8050105"></trkpt><trkpt lat="49.9583044" lon="14.8049721"></trkpt><trkpt lat="49.9582215" lon="14.8049066"></trkpt><trkpt lat="49.957876621337114" lon="14.804486997626821"></trkpt><trkpt lat="49.957876621337114" lon="14.80448699762682"></trkpt><trkpt lat="49.957876621337114" lon="14.804486997626821"></trkpt><trkpt lat="49.9576815" lon="14.8042496"></trkpt><trkpt lat="49.9576301" lon="14.8042018"></trkpt><trkpt lat="49.957524" lon="14.8041792"></trkpt><trkpt lat="49.9574368" lon="14.8041973"></trkpt><trkpt lat="49.9573442" lon="14.8042553"></trkpt><trkpt lat="49.9572203" lon="14.8043328"></trkpt><trkpt lat="49.9570226" lon="14.8045519"></trkpt><trkpt lat="49.9569627" lon="14.804709"></trkpt><trkpt lat="49.9568459" lon="14.8052633"></trkpt><trkpt lat="49.956868451085946" lon="14.805312964590675"></trkpt><trkpt lat="49.956868451085946" lon="14.805312964590676"></trkpt><trkpt lat="49.956868451085946" lon="14.805312964590675"></trkpt><trkpt lat="49.9568459" lon="14.8052633"></trkpt><trkpt lat="49.9567363" lon="14.805783"></trkpt><trkpt lat="49.9566554" lon="14.8063025"></trkpt><trkpt lat="49.9566331" lon="14.80724"></trkpt><trkpt lat="49.95663823173682" lon="14.807367768583674"></trkpt><trkpt lat="49.9566419" lon="14.8074591"></trkpt><trkpt lat="49.9566884" lon="14.807956"></trkpt><trkpt lat="49.9567315" lon="14.8081442"></trkpt><trkpt lat="49.9569761" lon="14.8090708"></trkpt><trkpt lat="49.9569975" lon="14.8092352"></trkpt><trkpt lat="49.95699860608695" lon="14.809393831303636"></trkpt><trkpt lat="49.9569987" lon="14.8094073"></trkpt><trkpt lat="49.9569571" lon="14.8098922"></trkpt><trkpt lat="49.9569292" lon="14.8100345"></trkpt><trkpt lat="49.9568855" lon="14.8101282"></trkpt><trkpt lat="49.9568085" lon="14.8102487"></trkpt><trkpt lat="49.9565732" lon="14.8106003"></trkpt><trkpt lat="49.9564676" lon="14.8107093"></trkpt><trkpt lat="49.95633431504625" lon="14.810830980423562"></trkpt><trkpt lat="49.95633431504625" lon="14.81083098042356"></trkpt><trkpt lat="49.95633431504625" lon="14.810830980423562"></trkpt><trkpt lat="49.9561885" lon="14.8109641"></trkpt><trkpt lat="49.9564146" lon="14.8115175"></trkpt><trkpt lat="49.9569553" lon="14.8116237"></trkpt><trkpt lat="49.957688800898815" lon="14.811438350977388"></trkpt><trkpt lat="49.9577357" lon="14.8114265"></trkpt><trkpt lat="49.9586762" lon="14.811612"></trkpt><trkpt lat="49.9590425" lon="14.8118314"></trkpt><trkpt lat="49.959008473480885" lon="14.81185367270532"></trkpt><trkpt lat="49.959008473480885" lon="14.811853672705318"></trkpt><trkpt lat="49.959008473480885" lon="14.81185367270532"></trkpt><trkpt lat="49.9590425" lon="14.8118314"></trkpt><trkpt lat="49.9592293" lon="14.8117447"></trkpt><trkpt lat="49.9592893" lon="14.8113835"></trkpt><trkpt lat="49.9593497" lon="14.8112118"></trkpt><trkpt lat="49.9594807" lon="14.8109119"></trkpt><trkpt lat="49.9595099" lon="14.810875"></trkpt><trkpt lat="49.9595436" lon="14.810843"></trkpt><trkpt lat="49.9596602" lon="14.8107324"></trkpt><trkpt lat="49.9599665" lon="14.8105788"></trkpt><trkpt lat="49.96001005899644" lon="14.810572268129889"></trkpt><trkpt lat="49.9602966" lon="14.8105293"></trkpt><trkpt lat="49.9603504" lon="14.8105045"></trkpt><trkpt lat="49.96068" lon="14.8102865"></trkpt><trkpt lat="49.960768" lon="14.8102596"></trkpt><trkpt lat="49.9609232" lon="14.8102853"></trkpt><trkpt lat="49.9610113" lon="14.8103401"></trkpt><trkpt lat="49.9612322" lon="14.8106647"></trkpt><trkpt lat="49.96124755086791" lon="14.810680244203779"></trkpt><trkpt lat="49.9612719" lon="14.8107049"></trkpt><trkpt lat="49.9613771" lon="14.810729"></trkpt><trkpt lat="49.9614807" lon="14.8107854"></trkpt><trkpt lat="49.9616021" lon="14.8108871"></trkpt><trkpt lat="49.9619276" lon="14.8113191"></trkpt><trkpt lat="49.962057" lon="14.8114505"></trkpt><trkpt lat="49.9621527" lon="14.811477"></trkpt><trkpt lat="49.96242887325969" lon="14.811421661286007"></trkpt><trkpt lat="49.96242887325969" lon="14.811421661286008"></trkpt><trkpt lat="49.96242887325969" lon="14.811421661286007"></trkpt><trkpt lat="49.9628958" lon="14.8113281"></trkpt><trkpt lat="49.9630112" lon="14.8112691"></trkpt><trkpt lat="49.9631117" lon="14.8111436"></trkpt><trkpt lat="49.9631777" lon="14.8110481"></trkpt><trkpt lat="49.9633853" lon="14.8106839"></trkpt><trkpt lat="49.9634379" lon="14.8104689"></trkpt><trkpt lat="49.963454790520785" lon="14.810363941332486"></trkpt><trkpt lat="49.963454790520785" lon="14.810363941332485"></trkpt><trkpt lat="49.963454790520785" lon="14.810363941332486"></trkpt><trkpt lat="49.9634692" lon="14.8102744"></trkpt><trkpt lat="49.9634765" lon="14.8096797"></trkpt><trkpt lat="49.9633929" lon="14.8092702"></trkpt><trkpt lat="49.9633879" lon="14.8087318"></trkpt><trkpt lat="49.9632725" lon="14.8084996"></trkpt><trkpt lat="49.96326173574712" lon="14.808479736589597"></trkpt><trkpt lat="49.96326173574712" lon="14.808479736589595"></trkpt><trkpt lat="49.96326173574712" lon="14.808479736589597"></trkpt><trkpt lat="49.9632085" lon="14.8083815"></trkpt><trkpt lat="49.9631763" lon="14.8082069"></trkpt><trkpt lat="49.963169" lon="14.8080712"></trkpt><trkpt lat="49.9632619" lon="14.8079143"></trkpt><trkpt lat="49.9634949" lon="14.8075434"></trkpt><trkpt lat="49.9636619" lon="14.8071108"></trkpt><trkpt lat="49.96348719566976" lon="14.806647196923807"></trkpt><trkpt lat="49.9633957" lon="14.8064044"></trkpt><trkpt lat="49.9634028" lon="14.8062363"></trkpt><trkpt lat="49.9634912" lon="14.8060184"></trkpt><trkpt lat="49.9634994" lon="14.8059225"></trkpt><trkpt lat="49.9634511" lon="14.8056945"></trkpt><trkpt lat="49.9634494" lon="14.8055148"></trkpt><trkpt lat="49.9634684" lon="14.8049489"></trkpt><trkpt lat="49.963448008555865" lon="14.804666124769573"></trkpt><trkpt lat="49.963439" lon="14.8045412"></trkpt><trkpt lat="49.9634488" lon="14.8043948"></trkpt><trkpt lat="49.9634967" lon="14.8042603"></trkpt><trkpt lat="49.9635872" lon="14.8041954"></trkpt><trkpt lat="49.9636815" lon="14.8041495"></trkpt><trkpt lat="49.9637772" lon="14.8041335"></trkpt><trkpt lat="49.9639109" lon="14.804226"></trkpt><trkpt lat="49.9640748" lon="14.8044862"></trkpt><trkpt lat="49.9642407" lon="14.8046383"></trkpt><trkpt lat="49.9646054" lon="14.8049073"></trkpt><trkpt lat="49.9646901" lon="14.8049525"></trkpt><trkpt lat="49.9648116" lon="14.8049717"></trkpt><trkpt lat="49.9649159" lon="14.8049435"></trkpt><trkpt lat="49.9650043" lon="14.8048788"></trkpt><trkpt lat="49.965069657722154" lon="14.804974705353162"></trkpt><trkpt lat="49.965069657722154" lon="14.80497470535316"></trkpt><trkpt lat="49.965069657722154" lon="14.804974705353162"></trkpt><trkpt lat="49.9651791" lon="14.8051353"></trkpt><trkpt lat="49.9652593" lon="14.8052117"></trkpt><trkpt lat="49.9655301" lon="14.8053384"></trkpt><trkpt lat="49.9655904" lon="14.8053852"></trkpt><trkpt lat="49.9656949" lon="14.805491"></trkpt><trkpt lat="49.9657407" lon="14.8056462"></trkpt><trkpt lat="49.9657683" lon="14.8058729"></trkpt><trkpt lat="49.9657826" lon="14.805952"></trkpt><trkpt lat="49.9658213" lon="14.8059614"></trkpt><trkpt lat="49.9659378" lon="14.8059463"></trkpt><trkpt lat="49.9660278" lon="14.8058925"></trkpt><trkpt lat="49.9661619" lon="14.8057945"></trkpt><trkpt lat="49.966171192451306" lon="14.805788358095981"></trkpt><trkpt lat="49.966553" lon="14.805536"></trkpt><trkpt lat="49.9667086" lon="14.8054343"></trkpt><trkpt lat="49.9669532" lon="14.8052537"></trkpt><trkpt lat="49.967162" lon="14.8050054"></trkpt><trkpt lat="49.9672705" lon="14.8048068"></trkpt><trkpt lat="49.9674076" lon="14.804352"></trkpt><trkpt lat="49.9674358" lon="14.8042164"></trkpt><trkpt lat="49.9674582" lon="14.8040114"></trkpt><trkpt lat="49.9674915" lon="14.803409"></trkpt><trkpt lat="49.9674712" lon="14.8031492"></trkpt><trkpt lat="49.9674403" lon="14.802918"></trkpt><trkpt lat="49.96742260822822" lon="14.802816855401192"></trkpt><trkpt lat="49.96742260822822" lon="14.80281685540119"></trkpt><trkpt lat="49.96742260822822" lon="14.802816855401192"></trkpt><trkpt lat="49.9674092" lon="14.8027402"></trkpt><trkpt lat="49.9673041" lon="14.8020655"></trkpt><trkpt lat="49.9672577" lon="14.8017441"></trkpt><trkpt lat="49.9671695" lon="14.8012243"></trkpt><trkpt lat="49.967117" lon="14.800951"></trkpt><trkpt lat="49.967095132182514" lon="14.800805692996557"></trkpt><trkpt lat="49.9670911" lon="14.8007789"></trkpt><trkpt lat="49.9670614" lon="14.8005586"></trkpt><trkpt lat="49.9670506" lon="14.8002918"></trkpt><trkpt lat="49.967057" lon="14.799443"></trkpt><trkpt lat="49.9670565" lon="14.7990995"></trkpt><trkpt lat="49.9670598" lon="14.7988412"></trkpt><trkpt lat="49.96706002721274" lon="14.798684139196599"></trkpt><trkpt lat="49.9670602" lon="14.7985647"></trkpt><trkpt lat="49.9670574" lon="14.798183"></trkpt><trkpt lat="49.9670572" lon="14.7977698"></trkpt><trkpt lat="49.9670583" lon="14.7970037"></trkpt><trkpt lat="49.9670735" lon="14.7967866"></trkpt><trkpt lat="49.96709076408614" lon="14.796618485303505"></trkpt><trkpt lat="49.9671002" lon="14.7965266"></trkpt><trkpt lat="49.9671352" lon="14.796396"></trkpt><trkpt lat="49.9672784" lon="14.7961821"></trkpt><trkpt lat="49.967557" lon="14.795903"></trkpt><trkpt lat="49.967715" lon="14.795794"></trkpt><trkpt lat="49.967881" lon="14.795768"></trkpt><trkpt lat="49.968137" lon="14.795812"></trkpt><trkpt lat="49.968343" lon="14.795891"></trkpt><trkpt lat="49.96844831639031" lon="14.79591233202802"></trkpt><trkpt lat="49.9685311" lon="14.7959291"></trkpt><trkpt lat="49.96871" lon="14.795928"></trkpt><trkpt lat="49.968845" lon="14.795859"></trkpt><trkpt lat="49.969082" lon="14.7956392"></trkpt><trkpt lat="49.969397" lon="14.795347"></trkpt><trkpt lat="49.96964925474468" lon="14.795039715860758"></trkpt><trkpt lat="49.96964925474468" lon="14.79503971586076"></trkpt><trkpt lat="49.96964925474468" lon="14.795039715860758"></trkpt><trkpt lat="49.96997" lon="14.794649"></trkpt><trkpt lat="49.970067" lon="14.794475"></trkpt><trkpt lat="49.970147" lon="14.794367"></trkpt><trkpt lat="49.9702599" lon="14.7942609"></trkpt><trkpt lat="49.970398" lon="14.794131"></trkpt><trkpt lat="49.970637" lon="14.793962"></trkpt><trkpt lat="49.97077173928479" lon="14.793890845546235"></trkpt><trkpt lat="49.97077173928479" lon="14.793890845546233"></trkpt><trkpt lat="49.97077173928479" lon="14.793890845546235"></trkpt><trkpt lat="49.971171" lon="14.79368"></trkpt><trkpt lat="49.971472" lon="14.793328"></trkpt><trkpt lat="49.971598" lon="14.79323"></trkpt><trkpt lat="49.971659" lon="14.79322"></trkpt><trkpt lat="49.971791" lon="14.7932378"></trkpt><trkpt lat="49.9718501" lon="14.7931968"></trkpt><trkpt lat="49.9719216" lon="14.7930821"></trkpt><trkpt lat="49.971959" lon="14.7927944"></trkpt><trkpt lat="49.971976" lon="14.792759"></trkpt><trkpt lat="49.9720099" lon="14.792681"></trkpt><trkpt lat="49.9720837" lon="14.7926136"></trkpt><trkpt lat="49.9722144" lon="14.7925463"></trkpt><trkpt lat="49.9723741" lon="14.7926203"></trkpt><trkpt lat="49.972605" lon="14.792601"></trkpt><trkpt lat="49.973006" lon="14.792497"></trkpt><trkpt lat="49.973236" lon="14.792365"></trkpt><trkpt lat="49.973272909694465" lon="14.792328521157998"></trkpt><trkpt lat="49.973493" lon="14.792111"></trkpt><trkpt lat="49.973654" lon="14.791893"></trkpt><trkpt lat="49.973914" lon="14.791666"></trkpt><trkpt lat="49.9740626" lon="14.7914841"></trkpt><trkpt lat="49.9741947" lon="14.7913224"></trkpt><trkpt lat="49.97436634137004" lon="14.791112272758117"></trkpt><trkpt lat="49.97436634137004" lon="14.791112272758118"></trkpt><trkpt lat="49.97436634137004" lon="14.791112272758117"></trkpt><trkpt lat="49.974378" lon="14.791098"></trkpt><trkpt lat="49.9746214" lon="14.7908738"></trkpt><trkpt lat="49.974669" lon="14.79083"></trkpt><trkpt lat="49.975156" lon="14.790461"></trkpt><trkpt lat="49.975485" lon="14.790165"></trkpt><trkpt lat="49.97554714491678" lon="14.790097521750807"></trkpt><trkpt lat="49.975753" lon="14.789874"></trkpt><trkpt lat="49.97594" lon="14.789725"></trkpt><trkpt lat="49.976013" lon="14.789651"></trkpt><trkpt lat="49.976115" lon="14.789486"></trkpt><trkpt lat="49.9762902" lon="14.7893258"></trkpt><trkpt lat="49.9763515" lon="14.7892613"></trkpt><trkpt lat="49.9764658" lon="14.7889259"></trkpt><trkpt lat="49.976482997983034" lon="14.788791158777546"></trkpt><trkpt lat="49.9765021" lon="14.7886415"></trkpt><trkpt lat="49.976653" lon="14.788278"></trkpt><trkpt lat="49.9766874" lon="14.7882114"></trkpt><trkpt lat="49.976811" lon="14.787972"></trkpt><trkpt lat="49.97687" lon="14.78779"></trkpt><trkpt lat="49.9768826" lon="14.7876868"></trkpt><trkpt lat="49.976903" lon="14.78752"></trkpt><trkpt lat="49.976867852430495" lon="14.786917470237015"></trkpt><trkpt lat="49.976861" lon="14.7868"></trkpt><trkpt lat="49.976864" lon="14.786639"></trkpt><trkpt lat="49.976904" lon="14.7863761"></trkpt><trkpt lat="49.9769176" lon="14.7862864"></trkpt><trkpt lat="49.97693" lon="14.786205"></trkpt><trkpt lat="49.9769309" lon="14.786089"></trkpt><trkpt lat="49.976932" lon="14.78594"></trkpt><trkpt lat="49.9769346" lon="14.7858979"></trkpt><trkpt lat="49.976945" lon="14.785733"></trkpt><trkpt lat="49.976986" lon="14.785541"></trkpt><trkpt lat="49.9770817" lon="14.7852958"></trkpt><trkpt lat="49.977246" lon="14.784878"></trkpt><trkpt lat="49.977264024429665" lon="14.784834229510004"></trkpt><trkpt lat="49.9774108" lon="14.7844778"></trkpt><trkpt lat="49.977682" lon="14.783831"></trkpt><trkpt lat="49.977987039714506" lon="14.7830654521752"></trkpt><trkpt lat="49.977987039714506" lon="14.783065452175201"></trkpt><trkpt lat="49.977987039714506" lon="14.7830654521752"></trkpt><trkpt lat="49.978251" lon="14.782403"></trkpt><trkpt lat="49.9783134" lon="14.7821554"></trkpt><trkpt lat="49.978407" lon="14.781793"></trkpt><trkpt lat="49.978438" lon="14.781564"></trkpt><trkpt lat="49.978466" lon="14.78129"></trkpt><trkpt lat="49.978466549489994" lon="14.781218932627162"></trkpt><trkpt lat="49.978469" lon="14.780902"></trkpt><trkpt lat="49.978399" lon="14.779998"></trkpt><trkpt lat="49.97834" lon="14.779435"></trkpt><trkpt lat="49.978317" lon="14.779305"></trkpt><trkpt lat="49.97827014829565" lon="14.779173538101297"></trkpt><trkpt lat="49.97827014829565" lon="14.779173538101299"></trkpt><trkpt lat="49.97827014829565" lon="14.779173538101297"></trkpt><trkpt lat="49.9782629" lon="14.7791532"></trkpt><trkpt lat="49.9781843" lon="14.7789725"></trkpt><trkpt lat="49.9779145" lon="14.7783521"></trkpt><trkpt lat="49.977856" lon="14.777971"></trkpt><trkpt lat="49.977865" lon="14.777741"></trkpt><trkpt lat="49.977897" lon="14.77758"></trkpt><trkpt lat="49.97796" lon="14.777411"></trkpt><trkpt lat="49.978043" lon="14.777253"></trkpt><trkpt lat="49.978100989928095" lon="14.777195684373392"></trkpt><trkpt lat="49.978100989928095" lon="14.77719568437339"></trkpt><trkpt lat="49.978100989928095" lon="14.777195684373392"></trkpt><trkpt lat="49.978215" lon="14.777083"></trkpt><trkpt lat="49.978377" lon="14.77697"></trkpt><trkpt lat="49.9787536" lon="14.7767908"></trkpt><trkpt lat="49.9787825" lon="14.7767782"></trkpt><trkpt lat="49.978899" lon="14.776701"></trkpt><trkpt lat="49.9789491" lon="14.7766714"></trkpt><trkpt lat="49.979379864771076" lon="14.776417021214003"></trkpt><trkpt lat="49.979534" lon="14.776326"></trkpt><trkpt lat="49.9796604" lon="14.7762835"></trkpt><trkpt lat="49.979751" lon="14.776253"></trkpt><trkpt lat="49.980536" lon="14.776331"></trkpt><trkpt lat="49.98072279087804" lon="14.77633031578433"></trkpt><trkpt lat="49.9807544" lon="14.7763302"></trkpt><trkpt lat="49.980811" lon="14.77633"></trkpt><trkpt lat="49.981176" lon="14.77627"></trkpt><trkpt lat="49.981848" lon="14.776114"></trkpt><trkpt lat="49.981991" lon="14.776009"></trkpt><trkpt lat="49.98201887996557" lon="14.775974150043037"></trkpt><trkpt lat="49.98201887996557" lon="14.775974150043039"></trkpt><trkpt lat="49.98201887996557" lon="14.775974150043037"></trkpt><trkpt lat="49.982039" lon="14.775949"></trkpt><trkpt lat="49.982112" lon="14.775828"></trkpt><trkpt lat="49.982345" lon="14.775334"></trkpt><trkpt lat="49.982422" lon="14.775199"></trkpt><trkpt lat="49.982501" lon="14.77511"></trkpt><trkpt lat="49.982632" lon="14.77504"></trkpt><trkpt lat="49.982764" lon="14.775023"></trkpt><trkpt lat="49.98317044085156" lon="14.775026451726976"></trkpt><trkpt lat="49.983235" lon="14.775027"></trkpt><trkpt lat="49.983344" lon="14.774977"></trkpt><trkpt lat="49.983438" lon="14.774899"></trkpt><trkpt lat="49.983541" lon="14.774757"></trkpt><trkpt lat="49.9836494" lon="14.7745492"></trkpt><trkpt lat="49.9839689" lon="14.7739366"></trkpt><trkpt lat="49.983982" lon="14.7739115"></trkpt><trkpt lat="49.98411952029603" lon="14.773647769823937"></trkpt><trkpt lat="49.98411952029603" lon="14.773647769823938"></trkpt><trkpt lat="49.98411952029603" lon="14.773647769823937"></trkpt><trkpt lat="49.984365" lon="14.773177"></trkpt><trkpt lat="49.984502" lon="14.772905"></trkpt><trkpt lat="49.9846706" lon="14.7725156"></trkpt><trkpt lat="49.984758" lon="14.7722"></trkpt><trkpt lat="49.9848054183307" lon="14.771908882842697"></trkpt><trkpt lat="49.9848054183307" lon="14.771908882842698"></trkpt><trkpt lat="49.9848054183307" lon="14.771908882842697"></trkpt><trkpt lat="49.9848879" lon="14.7714025"></trkpt><trkpt lat="49.9850086" lon="14.770453"></trkpt><trkpt lat="49.98505331721436" lon="14.769858433776461"></trkpt><trkpt lat="49.9850552" lon="14.7698334"></trkpt><trkpt lat="49.9850897" lon="14.7692433"></trkpt><trkpt lat="49.985119" lon="14.76879"></trkpt><trkpt lat="49.985115" lon="14.768547"></trkpt><trkpt lat="49.9851254" lon="14.7683485"></trkpt><trkpt lat="49.98512260567554" lon="14.767778191684023"></trkpt><trkpt lat="49.9851191" lon="14.7670627"></trkpt><trkpt lat="49.9851765" lon="14.7667837"></trkpt><trkpt lat="49.9852758" lon="14.7668349"></trkpt><trkpt lat="49.98598606626558" lon="14.76696868963712"></trkpt><trkpt lat="49.98598606626558" lon="14.766968689637121"></trkpt><trkpt lat="49.98598606626558" lon="14.76696868963712"></trkpt><trkpt lat="49.9867851" lon="14.7671192"></trkpt><trkpt lat="49.9869046" lon="14.767127"></trkpt><trkpt lat="49.9870467" lon="14.7671215"></trkpt><trkpt lat="49.987251" lon="14.76708"></trkpt><trkpt lat="49.987333544691985" lon="14.767079603150519"></trkpt><trkpt lat="49.987459" lon="14.767079"></trkpt><trkpt lat="49.987663" lon="14.767111"></trkpt><trkpt lat="49.987758" lon="14.767154"></trkpt><trkpt lat="49.9879015" lon="14.76727"></trkpt><trkpt lat="49.9881238" lon="14.7674596"></trkpt><trkpt lat="49.9881917" lon="14.7675088"></trkpt><trkpt lat="49.9882281" lon="14.7675335"></trkpt><trkpt lat="49.9883207" lon="14.7675962"></trkpt><trkpt lat="49.9883927" lon="14.7676515"></trkpt><trkpt lat="49.98840713508092" lon="14.767662576138568"></trkpt><trkpt lat="49.9883927" lon="14.7676515"></trkpt><trkpt lat="49.9883207" lon="14.7675962"></trkpt><trkpt lat="49.9882281" lon="14.7675335"></trkpt><trkpt lat="49.9881917" lon="14.7675088"></trkpt><trkpt lat="49.9881238" lon="14.7674596"></trkpt><trkpt lat="49.9879015" lon="14.76727"></trkpt><trkpt lat="49.987758" lon="14.767154"></trkpt><trkpt lat="49.987663" lon="14.767111"></trkpt><trkpt lat="49.987459" lon="14.767079"></trkpt><trkpt lat="49.987251" lon="14.76708"></trkpt><trkpt lat="49.98714443140807" lon="14.76710164756028"></trkpt><trkpt lat="49.9870467" lon="14.7671215"></trkpt><trkpt lat="49.9869046" lon="14.767127"></trkpt><trkpt lat="49.9867851" lon="14.7671192"></trkpt><trkpt lat="49.98579255274434" lon="14.766932238372236"></trkpt><trkpt lat="49.9852758" lon="14.7668349"></trkpt><trkpt lat="49.9851765" lon="14.7667837"></trkpt><trkpt lat="49.9851078" lon="14.7666912"></trkpt><trkpt lat="49.9850466" lon="14.7665477"></trkpt><trkpt lat="49.98487398856406" lon="14.765663917074411"></trkpt><trkpt lat="49.9848234" lon="14.7654049"></trkpt><trkpt lat="49.9847272" lon="14.7652171"></trkpt><trkpt lat="49.9842246" lon="14.7646206"></trkpt><trkpt lat="49.9841283" lon="14.7644796"></trkpt><trkpt lat="49.9840618" lon="14.7643234"></trkpt><trkpt lat="49.984008974757096" lon="14.764132079265748"></trkpt><trkpt lat="49.984008974757096" lon="14.76413207926575"></trkpt><trkpt lat="49.984008974757096" lon="14.764132079265748"></trkpt><trkpt lat="49.9838762" lon="14.7636512"></trkpt><trkpt lat="49.9837542" lon="14.7634776"></trkpt><trkpt lat="49.9836385" lon="14.7633691"></trkpt><trkpt lat="49.9834195" lon="14.7632301"></trkpt><trkpt lat="49.9831718" lon="14.7631342"></trkpt><trkpt lat="49.9830187" lon="14.7629845"></trkpt><trkpt lat="49.982949629470724" lon="14.762872669091282"></trkpt><trkpt lat="49.982949629470724" lon="14.762872669091283"></trkpt><trkpt lat="49.982949629470724" lon="14.762872669091282"></trkpt><trkpt lat="49.9827483" lon="14.7625467"></trkpt><trkpt lat="49.982482" lon="14.7620054"></trkpt><trkpt lat="49.9821672" lon="14.7620761"></trkpt><trkpt lat="49.9818942182885" lon="14.762180327808096"></trkpt><trkpt lat="49.9818942182885" lon="14.762180327808094"></trkpt><trkpt lat="49.9818942182885" lon="14.762180327808096"></trkpt><trkpt lat="49.9818516" lon="14.7621966"></trkpt><trkpt lat="49.9816457" lon="14.7623758"></trkpt><trkpt lat="49.981487" lon="14.7625491"></trkpt><trkpt lat="49.9812682" lon="14.7627267"></trkpt><trkpt lat="49.9807773" lon="14.763024"></trkpt><trkpt lat="49.98067860432779" lon="14.763030094415436"></trkpt><trkpt lat="49.9806024" lon="14.7630348"></trkpt><trkpt lat="49.9802769" lon="14.7630225"></trkpt><trkpt lat="49.9794342" lon="14.7629615"></trkpt><trkpt lat="49.979328579384465" lon="14.762969661593019"></trkpt><trkpt lat="49.9790822" lon="14.7629887"></trkpt><trkpt lat="49.9784799" lon="14.7632172"></trkpt><trkpt lat="49.9783742" lon="14.7632743"></trkpt><trkpt lat="49.978273" lon="14.7633699"></trkpt><trkpt lat="49.9781953" lon="14.7634814"></trkpt><trkpt lat="49.9781388" lon="14.7636185"></trkpt><trkpt lat="49.978068605988724" lon="14.763820415347682"></trkpt><trkpt lat="49.978068605988724" lon="14.763820415347684"></trkpt><trkpt lat="49.978068605988724" lon="14.763820415347682"></trkpt><trkpt lat="49.9779104" lon="14.7642755"></trkpt><trkpt lat="49.9778415" lon="14.7644252"></trkpt><trkpt lat="49.9777326" lon="14.7646059"></trkpt><trkpt lat="49.9774304" lon="14.7651422"></trkpt><trkpt lat="49.9773963" lon="14.76521"></trkpt><trkpt lat="49.9773349" lon="14.7654675"></trkpt><trkpt lat="49.9772391" lon="14.7659093"></trkpt><trkpt lat="49.9772264" lon="14.7659556"></trkpt><trkpt lat="49.97746269265313" lon="14.766148562283266"></trkpt><trkpt lat="49.9772264" lon="14.7659556"></trkpt><trkpt lat="49.9772004" lon="14.7660538"></trkpt><trkpt lat="49.9770998" lon="14.7666832"></trkpt><trkpt lat="49.9770669" lon="14.7669015"></trkpt><trkpt lat="49.9770399" lon="14.7671183"></trkpt><trkpt lat="49.9769626" lon="14.7675688"></trkpt><trkpt lat="49.9769579" lon="14.767596"></trkpt><trkpt lat="49.9769408" lon="14.7677394"></trkpt><trkpt lat="49.977060771046354" lon="14.767618977404192"></trkpt><trkpt lat="49.9769408" lon="14.7677394"></trkpt><trkpt lat="49.976945" lon="14.76785"></trkpt><trkpt lat="49.976941" lon="14.768068"></trkpt><trkpt lat="49.976971" lon="14.768296"></trkpt><trkpt lat="49.977141" lon="14.769036"></trkpt><trkpt lat="49.977217" lon="14.769681"></trkpt><trkpt lat="49.97722703137097" lon="14.769781699531679"></trkpt><trkpt lat="49.977243" lon="14.769942"></trkpt><trkpt lat="49.9772139" lon="14.7702839"></trkpt><trkpt lat="49.9771609" lon="14.7704866"></trkpt><trkpt lat="49.9771305" lon="14.7705961"></trkpt><trkpt lat="49.9770607" lon="14.7707836"></trkpt><trkpt lat="49.9769957" lon="14.7709351"></trkpt><trkpt lat="49.9768941" lon="14.7711845"></trkpt><trkpt lat="49.9767727" lon="14.7714055"></trkpt><trkpt lat="49.976673" lon="14.771516"></trkpt><trkpt lat="49.976633807703934" lon="14.771538786218642"></trkpt><trkpt lat="49.976458" lon="14.771641"></trkpt><trkpt lat="49.976239" lon="14.771679"></trkpt><trkpt lat="49.976029" lon="14.771633"></trkpt><trkpt lat="49.975695" lon="14.771401"></trkpt><trkpt lat="49.975501" lon="14.771239"></trkpt><trkpt lat="49.97532488929517" lon="14.771140680526752"></trkpt><trkpt lat="49.975175" lon="14.771057"></trkpt><trkpt lat="49.974753" lon="14.770718"></trkpt><trkpt lat="49.974696" lon="14.770654"></trkpt><trkpt lat="49.9745092" lon="14.7703389"></trkpt><trkpt lat="49.974396" lon="14.770148"></trkpt><trkpt lat="49.97423371435573" lon="14.769931939231"></trkpt><trkpt lat="49.97423371435573" lon="14.769931939231002"></trkpt><trkpt lat="49.97423371435573" lon="14.769931939231"></trkpt><trkpt lat="49.974227" lon="14.769923"></trkpt><trkpt lat="49.974111" lon="14.769828"></trkpt><trkpt lat="49.974007" lon="14.769771"></trkpt><trkpt lat="49.973955" lon="14.769767"></trkpt><trkpt lat="49.9737851" lon="14.7697958"></trkpt><trkpt lat="49.973673" lon="14.7697958"></trkpt><trkpt lat="49.9733228" lon="14.7697958"></trkpt><trkpt lat="49.9731434" lon="14.7696993"></trkpt><trkpt lat="49.972890743331085" lon="14.769434380841291"></trkpt><trkpt lat="49.972890743331085" lon="14.76943438084129"></trkpt><trkpt lat="49.972890743331085" lon="14.769434380841291"></trkpt><trkpt lat="49.9728364" lon="14.7693774"></trkpt><trkpt lat="49.9726897" lon="14.7692715"></trkpt><trkpt lat="49.9725388" lon="14.7692057"></trkpt><trkpt lat="49.9724741" lon="14.769195"></trkpt><trkpt lat="49.9724042" lon="14.7692084"></trkpt><trkpt lat="49.9723111" lon="14.7692795"></trkpt><trkpt lat="49.9722896" lon="14.769295"></trkpt><trkpt lat="49.9721385" lon="14.769444"></trkpt><trkpt lat="49.9720648" lon="14.7695429"></trkpt><trkpt lat="49.9720257" lon="14.7696008"></trkpt><trkpt lat="49.9719928" lon="14.7697355"></trkpt><trkpt lat="49.9719920647528" lon="14.769793810759273"></trkpt></trkseg></trk></gpx>
