<?xml version="1.0" encoding="UTF-8"?>
<gpx version="1.1" creator="Good Shit" xmlns="http://www.topografix.com/GPX/1/1"><trk><name>DonauWelle Eichfelsen-Panorama — DonauWelle Eichfelsen-Panorama loop</name><trkseg><trkpt lat="48.052403610841026" lon="8.967657524554586"></trkpt><trkpt lat="48.052403610841026" lon="8.967657524554584"></trkpt><trkpt lat="48.0524426" lon="8.9675871"></trkpt><trkpt lat="48.0525394" lon="8.9673764"></trkpt><trkpt lat="48.0526186" lon="8.9672042"></trkpt><trkpt lat="48.0527043" lon="8.9670177"></trkpt><trkpt lat="48.0528075" lon="8.966793"></trkpt><trkpt lat="48.0529015" lon="8.9666247"></trkpt><trkpt lat="48.0530069" lon="8.9664656"></trkpt><trkpt lat="48.0530207" lon="8.9664377"></trkpt><trkpt lat="48.0534246" lon="8.9656894"></trkpt><trkpt lat="48.0534482" lon="8.9656499"></trkpt><trkpt lat="48.0534909" lon="8.9655794"></trkpt><trkpt lat="48.053511557253756" lon="8.965546001163798"></trkpt><trkpt lat="48.053511557253756" lon="8.965546001163796"></trkpt><trkpt lat="48.053511557253756" lon="8.965546001163798"></trkpt><trkpt lat="48.0535611" lon="8.9654659"></trkpt><trkpt lat="48.053579" lon="8.9654351"></trkpt><trkpt lat="48.0535906" lon="8.9653103"></trkpt><trkpt lat="48.0536446" lon="8.965182"></trkpt><trkpt lat="48.0537142" lon="8.965098"></trkpt><trkpt lat="48.0538423" lon="8.9650235"></trkpt><trkpt lat="48.0540768" lon="8.9648933"></trkpt><trkpt lat="48.0543415" lon="8.9648282"></trkpt><trkpt lat="48.0545438" lon="8.9647279"></trkpt><trkpt lat="48.0547472" lon="8.9646196"></trkpt><trkpt lat="48.05486766268978" lon="8.964503147958633"></trkpt><trkpt lat="48.0549995" lon="8.9643757"></trkpt><trkpt lat="48.0552213" lon="8.9639942"></trkpt><trkpt lat="48.0553725" lon="8.9636711"></trkpt><trkpt lat="48.0555308" lon="8.9633071"></trkpt><trkpt lat="48.0556868" lon="8.9628378"></trkpt><trkpt lat="48.0557906" lon="8.9625151"></trkpt><trkpt lat="48.0558481" lon="8.9626285"></trkpt><trkpt lat="48.05585415849368" lon="8.962733579641595"></trkpt><trkpt lat="48.0558696" lon="8.9630014"></trkpt><trkpt lat="48.0558553" lon="8.9632481"></trkpt><trkpt lat="48.0558033" lon="8.9636317"></trkpt><trkpt lat="48.0557531" lon="8.9639831"></trkpt><trkpt lat="48.0557459" lon="8.9642835"></trkpt><trkpt lat="48.0558534" lon="8.9647269"></trkpt><trkpt lat="48.0559617" lon="8.9649325"></trkpt><trkpt lat="48.056115" lon="8.9650353"></trkpt><trkpt lat="48.05617156330318" lon="8.965043507924122"></trkpt><trkpt lat="48.0563052" lon="8.9650629"></trkpt><trkpt lat="48.0566735" lon="8.9651536"></trkpt><trkpt lat="48.0569447" lon="8.9651064"></trkpt><trkpt lat="48.0572168" lon="8.9651301"></trkpt><trkpt lat="48.0575637" lon="8.9650759"></trkpt><trkpt lat="48.0575382" lon="8.9649206"></trkpt><trkpt lat="48.0574395" lon="8.96486"></trkpt><trkpt lat="48.0572669" lon="8.9647922"></trkpt><trkpt lat="48.0570148" lon="8.9647213"></trkpt><trkpt lat="48.05689899755866" lon="8.964686672429593"></trkpt><trkpt lat="48.05689899755866" lon="8.964686672429595"></trkpt><trkpt lat="48.05689899755866" lon="8.964686672429593"></trkpt><trkpt lat="48.0568613" lon="8.9646754"></trkpt><trkpt lat="48.0566043" lon="8.9646245"></trkpt><trkpt lat="48.056465" lon="8.9646199"></trkpt><trkpt lat="48.0563443" lon="8.9645874"></trkpt><trkpt lat="48.05627" lon="8.9645643"></trkpt><trkpt lat="48.0561895" lon="8.9644161"></trkpt><trkpt lat="48.0561698" lon="8.9643081"></trkpt><trkpt lat="48.056148" lon="8.9641084"></trkpt><trkpt lat="48.0561864" lon="8.9638649"></trkpt><trkpt lat="48.0563241" lon="8.9635422"></trkpt><trkpt lat="48.0563969" lon="8.9633415"></trkpt><trkpt lat="48.0564619" lon="8.9630405"></trkpt><trkpt lat="48.05646333619644" lon="8.96302386791868"></trkpt><trkpt lat="48.0564867" lon="8.9627533"></trkpt><trkpt lat="48.0564892" lon="8.9625546"></trkpt><trkpt lat="48.0564913" lon="8.9624244"></trkpt><trkpt lat="48.0565362" lon="8.9623133"></trkpt><trkpt lat="48.056595" lon="8.9622577"></trkpt><trkpt lat="48.0566962" lon="8.962205"></trkpt><trkpt lat="48.0567166" lon="8.962396"></trkpt><trkpt lat="48.0567166" lon="8.9626449"></trkpt><trkpt lat="48.0566859" lon="8.9629953"></trkpt><trkpt lat="48.0566539" lon="8.9632595"></trkpt><trkpt lat="48.0566137" lon="8.9636078"></trkpt><trkpt lat="48.0566159" lon="8.9638534"></trkpt><trkpt lat="48.056622786227834" lon="8.963884309415345"></trkpt><trkpt lat="48.056622786227834" lon="8.963884309415343"></trkpt><trkpt lat="48.056622786227834" lon="8.963884309415345"></trkpt><trkpt lat="48.0566378" lon="8.9639517"></trkpt><trkpt lat="48.0566794" lon="8.963991"></trkpt><trkpt lat="48.0567472" lon="8.9639844"></trkpt><trkpt lat="48.0568633" lon="8.9639189"></trkpt><trkpt lat="48.0570997" lon="8.9638108"></trkpt><trkpt lat="48.0573383" lon="8.9637093"></trkpt><trkpt lat="48.0575616" lon="8.9636536"></trkpt><trkpt lat="48.0577148" lon="8.9636536"></trkpt><trkpt lat="48.0578133" lon="8.9636929"></trkpt><trkpt lat="48.0579635" lon="8.9638"></trkpt><trkpt lat="48.0581679" lon="8.963968"></trkpt><trkpt lat="48.05829208479508" lon="8.96397650816243"></trkpt><trkpt lat="48.0583124" lon="8.9639779"></trkpt><trkpt lat="48.0584197" lon="8.9639517"></trkpt><trkpt lat="48.0584875" lon="8.9639844"></trkpt><trkpt lat="48.0585357" lon="8.9641121"></trkpt><trkpt lat="48.0585729" lon="8.9642824"></trkpt><trkpt lat="48.0587086" lon="8.9644724"></trkpt><trkpt lat="48.0588465" lon="8.9645379"></trkpt><trkpt lat="48.0591902" lon="8.9645079"></trkpt><trkpt lat="48.0594113" lon="8.9644495"></trkpt><trkpt lat="48.059582" lon="8.9644528"></trkpt><trkpt lat="48.0598403" lon="8.964515"></trkpt><trkpt lat="48.05988616360339" lon="8.964532152089848"></trkpt><trkpt lat="48.05988616360339" lon="8.96453215208985"></trkpt><trkpt lat="48.05988616360339" lon="8.964532152089848"></trkpt><trkpt lat="48.0600855" lon="8.9646067"></trkpt><trkpt lat="48.0604689" lon="8.964717"></trkpt><trkpt lat="48.0609078" lon="8.9648207"></trkpt><trkpt lat="48.0610086" lon="8.9649264"></trkpt><trkpt lat="48.0614973" lon="8.9650357"></trkpt><trkpt lat="48.06156973865514" lon="8.965027797802767"></trkpt><trkpt lat="48.0621509" lon="8.9649644"></trkpt><trkpt lat="48.0624952" lon="8.9649834"></trkpt><trkpt lat="48.0618754" lon="8.9652911"></trkpt><trkpt lat="48.0611312" lon="8.9655717"></trkpt><trkpt lat="48.0604711" lon="8.9657854"></trkpt><trkpt lat="48.0602538" lon="8.9659326"></trkpt><trkpt lat="48.06004743036823" lon="8.966355417780449"></trkpt><trkpt lat="48.0599958" lon="8.9664612"></trkpt><trkpt lat="48.0598145" lon="8.966816"></trkpt><trkpt lat="48.0596644" lon="8.9669323"></trkpt><trkpt lat="48.0594882" lon="8.9669982"></trkpt><trkpt lat="48.058983" lon="8.9670595"></trkpt><trkpt lat="48.0586568" lon="8.9671211"></trkpt><trkpt lat="48.05840644718034" lon="8.967115632075702"></trkpt><trkpt lat="48.0582081" lon="8.9671113"></trkpt><trkpt lat="48.0581179" lon="8.9672371"></trkpt><trkpt lat="48.0580475" lon="8.9675548"></trkpt><trkpt lat="48.0580255" lon="8.9677505"></trkpt><trkpt lat="48.0579901" lon="8.9684196"></trkpt><trkpt lat="48.0580137" lon="8.9688136"></trkpt><trkpt lat="48.0580264" lon="8.9693613"></trkpt><trkpt lat="48.058024230995855" lon="8.969426979395303"></trkpt><trkpt lat="48.0580175" lon="8.9696308"></trkpt><trkpt lat="48.0579856" lon="8.9702253"></trkpt><trkpt lat="48.0579259" lon="8.9705758"></trkpt><trkpt lat="48.0578633" lon="8.9708406"></trkpt><trkpt lat="48.0577139" lon="8.9714953"></trkpt><trkpt lat="48.05754725302818" lon="8.972005836965684"></trkpt><trkpt lat="48.05754725302818" lon="8.972005836965685"></trkpt><trkpt lat="48.05754725302818" lon="8.972005836965684"></trkpt><trkpt lat="48.057489" lon="8.9721843"></trkpt><trkpt lat="48.0572963" lon="8.9729814"></trkpt><trkpt lat="48.0570499" lon="8.9731856"></trkpt><trkpt lat="48.0568703" lon="8.9733734"></trkpt><trkpt lat="48.0565738" lon="8.9736577"></trkpt><trkpt lat="48.056398427000474" lon="8.97385793091551"></trkpt><trkpt lat="48.056398427000474" lon="8.973857930915509"></trkpt><trkpt lat="48.056398427000474" lon="8.97385793091551"></trkpt><trkpt lat="48.0563558" lon="8.9739066"></trkpt><trkpt lat="48.0562305" lon="8.9741393"></trkpt><trkpt lat="48.0565331" lon="8.9741132"></trkpt><trkpt lat="48.0567217" lon="8.9741909"></trkpt><trkpt lat="48.0568979" lon="8.9743285"></trkpt><trkpt lat="48.0569137" lon="8.9744593"></trkpt><trkpt lat="48.0569887" lon="8.9744856"></trkpt><trkpt lat="48.0571532" lon="8.9744816"></trkpt><trkpt lat="48.0573563" lon="8.9744571"></trkpt><trkpt lat="48.0576038" lon="8.9745446"></trkpt><trkpt lat="48.05766688244557" lon="8.97459642477682"></trkpt><trkpt lat="48.05766688244557" lon="8.974596424776822"></trkpt><trkpt lat="48.05766688244557" lon="8.97459642477682"></trkpt><trkpt lat="48.0577635" lon="8.9746758"></trkpt><trkpt lat="48.0579262" lon="8.9747967"></trkpt><trkpt lat="48.0581028" lon="8.9748441"></trkpt><trkpt lat="48.0582149" lon="8.9749331"></trkpt><trkpt lat="48.058346" lon="8.9749709"></trkpt><trkpt lat="48.0585085" lon="8.9749859"></trkpt><trkpt lat="48.0586978" lon="8.9749237"></trkpt><trkpt lat="48.0587882" lon="8.9748593"></trkpt><trkpt lat="48.0589768" lon="8.974811"></trkpt><trkpt lat="48.0591485" lon="8.9748684"></trkpt><trkpt lat="48.0593456" lon="8.9749382"></trkpt><trkpt lat="48.059367997159356" lon="8.974948617283422"></trkpt><trkpt lat="48.0595434" lon="8.9750302"></trkpt><trkpt lat="48.0596827" lon="8.9750401"></trkpt><trkpt lat="48.0598214" lon="8.9749983"></trkpt><trkpt lat="48.0599824" lon="8.9751384"></trkpt><trkpt lat="48.0601527" lon="8.9752801"></trkpt><trkpt lat="48.0603851" lon="8.975414"></trkpt><trkpt lat="48.0605109" lon="8.9754467"></trkpt><trkpt lat="48.0606009" lon="8.9755803"></trkpt><trkpt lat="48.0607558" lon="8.9756404"></trkpt><trkpt lat="48.0609164" lon="8.9756919"></trkpt><trkpt lat="48.060969" lon="8.9757515"></trkpt><trkpt lat="48.060939" lon="8.9758247"></trkpt><trkpt lat="48.060900810163275" lon="8.975892957396418"></trkpt><trkpt lat="48.060900810163275" lon="8.97589295739642"></trkpt><trkpt lat="48.060900810163275" lon="8.975892957396418"></trkpt><trkpt lat="48.0608633" lon="8.97596"></trkpt><trkpt lat="48.0608684" lon="8.9760561"></trkpt><trkpt lat="48.0608967" lon="8.9761384"></trkpt><trkpt lat="48.0609597" lon="8.9761552"></trkpt><trkpt lat="48.0609801" lon="8.9762076"></trkpt><trkpt lat="48.0609126" lon="8.9762953"></trkpt><trkpt lat="48.0608715" lon="8.9763358"></trkpt><trkpt lat="48.0607689" lon="8.9763787"></trkpt><trkpt lat="48.0607005" lon="8.9764285"></trkpt><trkpt lat="48.0606414" lon="8.9764811"></trkpt><trkpt lat="48.0605805" lon="8.9765626"></trkpt><trkpt lat="48.0605531" lon="8.9766513"></trkpt><trkpt lat="48.0605744" lon="8.9767215"></trkpt><trkpt lat="48.0605458" lon="8.9768232"></trkpt><trkpt lat="48.060508" lon="8.9768773"></trkpt><trkpt lat="48.0603512" lon="8.9769846"></trkpt><trkpt lat="48.0603228" lon="8.9769596"></trkpt><trkpt lat="48.0602018" lon="8.9770014"></trkpt><trkpt lat="48.0600792" lon="8.976892"></trkpt><trkpt lat="48.0600557" lon="8.9768812"></trkpt><trkpt lat="48.0599582" lon="8.9768364"></trkpt><trkpt lat="48.059809" lon="8.9769546"></trkpt><trkpt lat="48.0595988" lon="8.9771943"></trkpt><trkpt lat="48.05955370608172" lon="8.977223342586004"></trkpt><trkpt lat="48.05955370608172" lon="8.977223342586003"></trkpt><trkpt lat="48.05955370608172" lon="8.977223342586004"></trkpt><trkpt lat="48.0593586" lon="8.977349"></trkpt><trkpt lat="48.0591702" lon="8.9773919"></trkpt><trkpt lat="48.0589076" lon="8.9774469"></trkpt><trkpt lat="48.0586139" lon="8.9776807"></trkpt><trkpt lat="48.0584977" lon="8.9778482"></trkpt><trkpt lat="48.0584148" lon="8.9779704"></trkpt><trkpt lat="48.0584228" lon="8.9780911"></trkpt><trkpt lat="48.0584397" lon="8.9782097"></trkpt><trkpt lat="48.0580899" lon="8.9782774"></trkpt><trkpt lat="48.05799837114311" lon="8.978283474785576"></trkpt><trkpt lat="48.0580899" lon="8.9782774"></trkpt><trkpt lat="48.058168" lon="8.9785513"></trkpt><trkpt lat="48.058305" lon="8.9786194"></trkpt><trkpt lat="48.0583874" lon="8.9787925"></trkpt><trkpt lat="48.05852" lon="8.9791801"></trkpt><trkpt lat="48.0586046" lon="8.9792957"></trkpt><trkpt lat="48.0590321" lon="8.9795626"></trkpt><trkpt lat="48.05903630208032" lon="8.979572389533999"></trkpt><trkpt lat="48.05903630208032" lon="8.979572389534"></trkpt><trkpt lat="48.05903630208032" lon="8.979572389533999"></trkpt><trkpt lat="48.0590961" lon="8.9797117"></trkpt><trkpt lat="48.0591194" lon="8.9799652"></trkpt><trkpt lat="48.0592361" lon="8.9804019"></trkpt><trkpt lat="48.059451" lon="8.9810367"></trkpt><trkpt lat="48.0595508" lon="8.9812642"></trkpt><trkpt lat="48.0597011" lon="8.9815378"></trkpt><trkpt lat="48.0598403" lon="8.9818489"></trkpt><trkpt lat="48.059872096754184" lon="8.981893063412308"></trkpt><trkpt lat="48.059872096754184" lon="8.98189306341231"></trkpt><trkpt lat="48.059872096754184" lon="8.981893063412308"></trkpt><trkpt lat="48.0599812" lon="8.9820446"></trkpt><trkpt lat="48.0601918" lon="8.9822578"></trkpt><trkpt lat="48.060267" lon="8.9823223"></trkpt><trkpt lat="48.0604546" lon="8.9824527"></trkpt><trkpt lat="48.0605244" lon="8.9824845"></trkpt><trkpt lat="48.0606251" lon="8.9825765"></trkpt><trkpt lat="48.0607198" lon="8.9826722"></trkpt><trkpt lat="48.0608175" lon="8.982754"></trkpt><trkpt lat="48.0608594" lon="8.9828568"></trkpt><trkpt lat="48.0609198" lon="8.9829796"></trkpt><trkpt lat="48.06121173094141" lon="8.983315342532315"></trkpt><trkpt lat="48.0612523" lon="8.983362"></trkpt><trkpt lat="48.0615634" lon="8.9836141"></trkpt><trkpt lat="48.0617496" lon="8.9837572"></trkpt><trkpt lat="48.0618557" lon="8.9838132"></trkpt><trkpt lat="48.0619374" lon="8.9838123"></trkpt><trkpt lat="48.0620995" lon="8.9836489"></trkpt><trkpt lat="48.0622653" lon="8.9834862"></trkpt><trkpt lat="48.0624175" lon="8.9832707"></trkpt><trkpt lat="48.0625169" lon="8.9831279"></trkpt><trkpt lat="48.062725079661746" lon="8.98320031836988"></trkpt><trkpt lat="48.062725079661746" lon="8.983200318369878"></trkpt><trkpt lat="48.062725079661746" lon="8.98320031836988"></trkpt><trkpt lat="48.0627417" lon="8.9832061"></trkpt><trkpt lat="48.0627653" lon="8.9833164"></trkpt><trkpt lat="48.0627141" lon="8.9835827"></trkpt><trkpt lat="48.0626527" lon="8.9838268"></trkpt><trkpt lat="48.0627129" lon="8.9840779"></trkpt><trkpt lat="48.0627614" lon="8.9842629"></trkpt><trkpt lat="48.0630089" lon="8.9845457"></trkpt><trkpt lat="48.0632402" lon="8.9852324"></trkpt><trkpt lat="48.0632939" lon="8.9855918"></trkpt><trkpt lat="48.063348100647346" lon="8.985711217686429"></trkpt><trkpt lat="48.063348100647346" lon="8.985711217686427"></trkpt><trkpt lat="48.063348100647346" lon="8.985711217686429"></trkpt><trkpt lat="48.0634784" lon="8.9859983"></trkpt><trkpt lat="48.0636327" lon="8.9863884"></trkpt><trkpt lat="48.0638368" lon="8.986747"></trkpt><trkpt lat="48.0641598" lon="8.9869163"></trkpt><trkpt lat="48.0642924" lon="8.9871984"></trkpt><trkpt lat="48.0643729" lon="8.9872858"></trkpt><trkpt lat="48.06450007215737" lon="8.98762501602284"></trkpt><trkpt lat="48.06450007215737" lon="8.987625016022841"></trkpt><trkpt lat="48.06450007215737" lon="8.98762501602284"></trkpt><trkpt lat="48.0648425" lon="8.9885384"></trkpt><trkpt lat="48.0648839" lon="8.9889902"></trkpt><trkpt lat="48.0648438" lon="8.9894626"></trkpt><trkpt lat="48.0647738" lon="8.9898227"></trkpt><trkpt lat="48.0647559" lon="8.9900073"></trkpt><trkpt lat="48.0647461" lon="8.9900794"></trkpt><trkpt lat="48.06474285728957" lon="8.990131766323636"></trkpt><trkpt lat="48.0647367" lon="8.9902312"></trkpt><trkpt lat="48.0647213" lon="8.9903776"></trkpt><trkpt lat="48.0646843" lon="8.9905801"></trkpt><trkpt lat="48.064635" lon="8.9908553"></trkpt><trkpt lat="48.0646034" lon="8.9909081"></trkpt><trkpt lat="48.0645624" lon="8.9911248"></trkpt><trkpt lat="48.0644953" lon="8.9912852"></trkpt><trkpt lat="48.0642985" lon="8.9915535"></trkpt><trkpt lat="48.0640375" lon="8.9919078"></trkpt><trkpt lat="48.0639631" lon="8.9921003"></trkpt><trkpt lat="48.06391904637902" lon="8.992379306266207"></trkpt><trkpt lat="48.0639631" lon="8.9921003"></trkpt><trkpt lat="48.0640375" lon="8.9919078"></trkpt><trkpt lat="48.0642985" lon="8.9915535"></trkpt><trkpt lat="48.0644953" lon="8.9912852"></trkpt><trkpt lat="48.06453959261802" lon="8.991179320179869"></trkpt><trkpt lat="48.06453959261802" lon="8.991179320179867"></trkpt><trkpt lat="48.06453959261802" lon="8.991179320179869"></trkpt><trkpt lat="48.0645624" lon="8.9911248"></trkpt><trkpt lat="48.0646034" lon="8.9909081"></trkpt><trkpt lat="48.0646092" lon="8.9907565"></trkpt><trkpt lat="48.0645863" lon="8.9905095"></trkpt><trkpt lat="48.0645692" lon="8.9902506"></trkpt><trkpt lat="48.0645404" lon="8.9901646"></trkpt><trkpt lat="48.0645069" lon="8.9900628"></trkpt><trkpt lat="48.0643836" lon="8.9897185"></trkpt><trkpt lat="48.0643026" lon="8.9892304"></trkpt><trkpt lat="48.0641771" lon="8.9887345"></trkpt><trkpt lat="48.06412067366731" lon="8.988641575810444"></trkpt><trkpt lat="48.06412067366731" lon="8.988641575810442"></trkpt><trkpt lat="48.06412067366731" lon="8.988641575810444"></trkpt><trkpt lat="48.0640024" lon="8.9884468"></trkpt><trkpt lat="48.0638813" lon="8.9882966"></trkpt><trkpt lat="48.0638036" lon="8.9881563"></trkpt><trkpt lat="48.0636865" lon="8.9879562"></trkpt><trkpt lat="48.0635624" lon="8.9879039"></trkpt><trkpt lat="48.0632231" lon="8.9877615"></trkpt><trkpt lat="48.0630458" lon="8.9875118"></trkpt><trkpt lat="48.06277971813905" lon="8.986967957611427"></trkpt><trkpt lat="48.06277971813905" lon="8.986967957611428"></trkpt><trkpt lat="48.06277971813905" lon="8.986967957611427"></trkpt><trkpt lat="48.0627405" lon="8.9868878"></trkpt><trkpt lat="48.0625446" lon="8.9862195"></trkpt><trkpt lat="48.062426" lon="8.9859655"></trkpt><trkpt lat="48.0620749" lon="8.9854763"></trkpt><trkpt lat="48.0619645" lon="8.9853797"></trkpt><trkpt lat="48.0618511" lon="8.9853775"></trkpt><trkpt lat="48.0617407" lon="8.9854376"></trkpt><trkpt lat="48.0616832" lon="8.9855021"></trkpt><trkpt lat="48.061480009765816" lon="8.98556848735444"></trkpt><trkpt lat="48.0614209" lon="8.9855878"></trkpt><trkpt lat="48.061335" lon="8.9855771"></trkpt><trkpt lat="48.0611394" lon="8.985552"></trkpt><trkpt lat="48.0609563" lon="8.9857811"></trkpt><trkpt lat="48.0608702" lon="8.9858669"></trkpt><trkpt lat="48.0606999" lon="8.9859152"></trkpt><trkpt lat="48.0602535" lon="8.985942"></trkpt><trkpt lat="48.0600456" lon="8.985942"></trkpt><trkpt lat="48.05975867792495" lon="8.985942"></trkpt><trkpt lat="48.0597014" lon="8.985942"></trkpt><trkpt lat="48.0595149" lon="8.9860707"></trkpt><trkpt lat="48.0594277" lon="8.9862927"></trkpt><trkpt lat="48.0593636" lon="8.9865031"></trkpt><trkpt lat="48.0592391" lon="8.9866428"></trkpt><trkpt lat="48.0591808" lon="8.9867936"></trkpt><trkpt lat="48.0586979180111" lon="8.98808542279248"></trkpt><trkpt lat="48.0586595" lon="8.9881882"></trkpt><trkpt lat="48.0585583" lon="8.9883335"></trkpt><trkpt lat="48.0585054" lon="8.9883696"></trkpt><trkpt lat="48.0584328" lon="8.9883672"></trkpt><trkpt lat="48.0583603" lon="8.9883288"></trkpt><trkpt lat="48.058217" lon="8.9882165"></trkpt><trkpt lat="48.058022" lon="8.9879573"></trkpt><trkpt lat="48.05795" lon="8.9879318"></trkpt><trkpt lat="48.057907" lon="8.9879613"></trkpt><trkpt lat="48.0578136" lon="8.9881655"></trkpt><trkpt lat="48.0577865" lon="8.9882974"></trkpt><trkpt lat="48.0577667" lon="8.9884176"></trkpt><trkpt lat="48.0577237" lon="8.9884593"></trkpt><trkpt lat="48.0576664" lon="8.9884552"></trkpt><trkpt lat="48.0576254" lon="8.9883962"></trkpt><trkpt lat="48.0575816" lon="8.9882527"></trkpt><trkpt lat="48.0575014" lon="8.9880668"></trkpt><trkpt lat="48.0574407" lon="8.9880301"></trkpt><trkpt lat="48.05741553084769" lon="8.988033986413225"></trkpt><trkpt lat="48.0573455" lon="8.9880448"></trkpt><trkpt lat="48.0573574" lon="8.9881359"></trkpt><trkpt lat="48.0571325" lon="8.9886054"></trkpt><trkpt lat="48.0571447" lon="8.9887823"></trkpt><trkpt lat="48.057249" lon="8.9888602"></trkpt><trkpt lat="48.0574139" lon="8.9890641"></trkpt><trkpt lat="48.0574999" lon="8.9892894"></trkpt><trkpt lat="48.0574497" lon="8.9896434"></trkpt><trkpt lat="48.0573852" lon="8.9899653"></trkpt><trkpt lat="48.05736763554402" lon="8.990062356811475"></trkpt><trkpt lat="48.0573852" lon="8.9899653"></trkpt><trkpt lat="48.0574497" lon="8.9896434"></trkpt><trkpt lat="48.0576147" lon="8.9899331"></trkpt><trkpt lat="48.0576362" lon="8.9902013"></trkpt><trkpt lat="48.0577204" lon="8.9901745"></trkpt><trkpt lat="48.0577402" lon="8.9902013"></trkpt><trkpt lat="48.0577132" lon="8.9903623"></trkpt><trkpt lat="48.0577957" lon="8.9903328"></trkpt><trkpt lat="48.0578083" lon="8.9903569"></trkpt><trkpt lat="48.0577282" lon="8.990609"></trkpt><trkpt lat="48.0576576" lon="8.9907765"></trkpt><trkpt lat="48.0576855" lon="8.9908799"></trkpt><trkpt lat="48.0575347" lon="8.99125"></trkpt><trkpt lat="48.05742711132191" lon="8.991473982567692"></trkpt><trkpt lat="48.05742711132191" lon="8.991473982567694"></trkpt><trkpt lat="48.05742711132191" lon="8.991473982567692"></trkpt><trkpt lat="48.0574174" lon="8.9914942"></trkpt><trkpt lat="48.0573206" lon="8.9917262"></trkpt><trkpt lat="48.0572235" lon="8.9920627"></trkpt><trkpt lat="48.057214" lon="8.9922318"></trkpt><trkpt lat="48.0572266" lon="8.9923405"></trkpt><trkpt lat="48.0572997" lon="8.9923765"></trkpt><trkpt lat="48.0577135" lon="8.992963"></trkpt><trkpt lat="48.0577903" lon="8.9930784"></trkpt><trkpt lat="48.0578689" lon="8.99325"></trkpt><trkpt lat="48.05799427493346" lon="8.993683452372204"></trkpt><trkpt lat="48.0580034" lon="8.993715"></trkpt><trkpt lat="48.0581595" lon="8.9941928"></trkpt><trkpt lat="48.0581915" lon="8.9943524"></trkpt><trkpt lat="48.0581925" lon="8.9944697"></trkpt><trkpt lat="48.0581732" lon="8.9946282"></trkpt><trkpt lat="48.0581319" lon="8.9948502"></trkpt><trkpt lat="48.0580795" lon="8.9951329"></trkpt><trkpt lat="48.0580283" lon="8.9954234"></trkpt><trkpt lat="48.0580419" lon="8.995775"></trkpt><trkpt lat="48.058101" lon="8.9961575"></trkpt><trkpt lat="48.05812495519065" lon="8.996253449208648"></trkpt><trkpt lat="48.05812495519065" lon="8.996253449208647"></trkpt><trkpt lat="48.05812495519065" lon="8.996253449208648"></trkpt><trkpt lat="48.0582502" lon="8.9967551"></trkpt><trkpt lat="48.0584363" lon="8.9974959"></trkpt><trkpt lat="48.0584882" lon="8.9979358"></trkpt><trkpt lat="48.0584668" lon="8.9982721"></trkpt><trkpt lat="48.0584049" lon="8.9986464"></trkpt><trkpt lat="48.058355236422344" lon="8.998718676876416"></trkpt><trkpt lat="48.058355236422344" lon="8.998718676876418"></trkpt><trkpt lat="48.058355236422344" lon="8.998718676876416"></trkpt><trkpt lat="48.0582426" lon="8.9988826"></trkpt><trkpt lat="48.0580783" lon="8.9991344"></trkpt><trkpt lat="48.0579058" lon="8.9994764"></trkpt><trkpt lat="48.0578281" lon="8.9998168"></trkpt><trkpt lat="48.0577934" lon="9.0001632"></trkpt><trkpt lat="48.0577127" lon="9.0005712"></trkpt><trkpt lat="48.0576882" lon="9.0007326"></trkpt><trkpt lat="48.0576011" lon="9.0010021"></trkpt><trkpt lat="48.05755566010574" lon="9.001059960335471"></trkpt><trkpt lat="48.05755566010574" lon="9.001059960335473"></trkpt><trkpt lat="48.05755566010574" lon="9.001059960335471"></trkpt><trkpt lat="48.0574522" lon="9.0011917"></trkpt><trkpt lat="48.0572022" lon="9.001398"></trkpt><trkpt lat="48.0570591" lon="9.0015784"></trkpt><trkpt lat="48.0569088" lon="9.0018115"></trkpt><trkpt lat="48.0567797" lon="9.0020771"></trkpt><trkpt lat="48.0566955" lon="9.0024043"></trkpt><trkpt lat="48.0566346" lon="9.0027798"></trkpt><trkpt lat="48.056623961781426" lon="9.003094187354153"></trkpt><trkpt lat="48.0566156" lon="9.0033413"></trkpt><trkpt lat="48.0564498" lon="9.004019"></trkpt><trkpt lat="48.056328" lon="9.0047271"></trkpt><trkpt lat="48.0562491" lon="9.0052501"></trkpt><trkpt lat="48.0561648" lon="9.0055908"></trkpt><trkpt lat="48.0560877" lon="9.0054915"></trkpt><trkpt lat="48.0560501" lon="9.0053548"></trkpt><trkpt lat="48.0560734" lon="9.0050919"></trkpt><trkpt lat="48.0559569" lon="9.0053789"></trkpt><trkpt lat="48.0559174" lon="9.0052019"></trkpt><trkpt lat="48.0559111" lon="9.0048621"></trkpt><trkpt lat="48.0559002" lon="9.0041406"></trkpt><trkpt lat="48.0559916" lon="9.0034517"></trkpt><trkpt lat="48.0560484" lon="9.0030465"></trkpt><trkpt lat="48.05603088838143" lon="9.002644554914616"></trkpt><trkpt lat="48.0560271" lon="9.0025576"></trkpt><trkpt lat="48.0560244" lon="9.0021007"></trkpt><trkpt lat="48.0560434" lon="9.0017154"></trkpt><trkpt lat="48.0560916" lon="9.0012896"></trkpt><trkpt lat="48.0561712" lon="9.0009927"></trkpt><trkpt lat="48.0562749" lon="9.0007678"></trkpt><trkpt lat="48.0564044" lon="9.0005631"></trkpt><trkpt lat="48.0562875" lon="9.0005656"></trkpt><trkpt lat="48.0564124" lon="9.0003635"></trkpt><trkpt lat="48.05638013125049" lon="9.000354535564352"></trkpt><trkpt lat="48.0562119" lon="9.0003078"></trkpt><trkpt lat="48.0560688" lon="9.0003828"></trkpt><trkpt lat="48.0561682" lon="9.0000541"></trkpt><trkpt lat="48.0560514" lon="9.0000449"></trkpt><trkpt lat="48.0559089" lon="9.0000565"></trkpt><trkpt lat="48.0557433" lon="9.0001425"></trkpt><trkpt lat="48.0555277" lon="9.0003009"></trkpt><trkpt lat="48.0554301" lon="9.000369"></trkpt><trkpt lat="48.055396725892194" lon="9.000392305941205"></trkpt><trkpt lat="48.055396725892194" lon="9.000392305941203"></trkpt><trkpt lat="48.055396725892194" lon="9.000392305941205"></trkpt><trkpt lat="48.0553764" lon="9.0004065"></trkpt><trkpt lat="48.0553148" lon="9.0006146"></trkpt><trkpt lat="48.0553147" lon="9.0006942"></trkpt><trkpt lat="48.0553101" lon="9.0010075"></trkpt><trkpt lat="48.0553036" lon="9.0012101"></trkpt><trkpt lat="48.0552779" lon="9.0014246"></trkpt><trkpt lat="48.0552451" lon="9.0015161"></trkpt><trkpt lat="48.0551753" lon="9.0016329"></trkpt><trkpt lat="48.0551222" lon="9.001652"></trkpt><trkpt lat="48.0550831" lon="9.001625"></trkpt><trkpt lat="48.0550495" lon="9.0015984"></trkpt><trkpt lat="48.055034" lon="9.0015742"></trkpt><trkpt lat="48.0550383" lon="9.0015382"></trkpt><trkpt lat="48.0550571" lon="9.0013714"></trkpt><trkpt lat="48.0550573" lon="9.0011886"></trkpt><trkpt lat="48.0550637" lon="9.0010178"></trkpt><trkpt lat="48.0550607" lon="9.0008789"></trkpt><trkpt lat="48.0550349" lon="9.0006885"></trkpt><trkpt lat="48.0549987" lon="9.0005494"></trkpt><trkpt lat="48.05498910815785" lon="9.000518362246632"></trkpt><trkpt lat="48.0549669" lon="9.0004465"></trkpt><trkpt lat="48.0549219" lon="9.0003416"></trkpt><trkpt lat="48.0548919" lon="9.0003262"></trkpt><trkpt lat="48.0548599" lon="9.0003227"></trkpt><trkpt lat="48.0548038" lon="9.0003553"></trkpt><trkpt lat="48.0547896" lon="9.0003858"></trkpt><trkpt lat="48.0547873" lon="9.0004192"></trkpt><trkpt lat="48.0547979" lon="9.0004749"></trkpt><trkpt lat="48.0548946" lon="9.0006823"></trkpt><trkpt lat="48.0549129" lon="9.0007422"></trkpt><trkpt lat="48.0549253" lon="9.0008701"></trkpt><trkpt lat="48.054556" lon="9.0010567"></trkpt><trkpt lat="48.0541805" lon="9.001295"></trkpt><trkpt lat="48.05385957602777" lon="9.001549310330882"></trkpt><trkpt lat="48.0537339" lon="9.0016489"></trkpt><trkpt lat="48.0534767" lon="9.0019329"></trkpt><trkpt lat="48.0532676" lon="9.0021434"></trkpt><trkpt lat="48.0532445" lon="9.0020435"></trkpt><trkpt lat="48.0532132" lon="9.001982"></trkpt><trkpt lat="48.0531565" lon="9.0019498"></trkpt><trkpt lat="48.0531007" lon="9.0019454"></trkpt><trkpt lat="48.0530305" lon="9.0018823"></trkpt><trkpt lat="48.0528621" lon="9.0017245"></trkpt><trkpt lat="48.0527191" lon="9.0016022"></trkpt><trkpt lat="48.0526698" lon="9.0015581"></trkpt><trkpt lat="48.0525541" lon="9.0013967"></trkpt><trkpt lat="48.05240610790041" lon="9.000987188399085"></trkpt><trkpt lat="48.05240610790041" lon="9.000987188399087"></trkpt><trkpt lat="48.05240610790041" lon="9.000987188399085"></trkpt><trkpt lat="48.0522956" lon="9.0006814"></trkpt><trkpt lat="48.0521607" lon="9.0002623"></trkpt><trkpt lat="48.0521566" lon="9.0001373"></trkpt><trkpt lat="48.0521553" lon="9.000096"></trkpt><trkpt lat="48.0521087" lon="8.9998975"></trkpt><trkpt lat="48.0520406" lon="8.9996373"></trkpt><trkpt lat="48.0519922" lon="8.9993476"></trkpt><trkpt lat="48.0519438" lon="8.9991009"></trkpt><trkpt lat="48.0519151" lon="8.9988943"></trkpt><trkpt lat="48.05190595016289" lon="8.998768170771267"></trkpt><trkpt lat="48.05189" lon="8.9985483"></trkpt><trkpt lat="48.0518183" lon="8.9983257"></trkpt><trkpt lat="48.0517053" lon="8.9981058"></trkpt><trkpt lat="48.0516121" lon="8.9980307"></trkpt><trkpt lat="48.0514668" lon="8.9979824"></trkpt><trkpt lat="48.0512983" lon="8.9978858"></trkpt><trkpt lat="48.0510796" lon="8.9977195"></trkpt><trkpt lat="48.0509415" lon="8.9975988"></trkpt><trkpt lat="48.0508268" lon="8.9973923"></trkpt><trkpt lat="48.0506855" lon="8.9971361"></trkpt><trkpt lat="48.05066910939368" lon="8.997054406665644"></trkpt><trkpt lat="48.0504646" lon="8.9960351"></trkpt><trkpt lat="48.0504072" lon="8.995724"></trkpt><trkpt lat="48.0503695" lon="8.9954262"></trkpt><trkpt lat="48.0502825" lon="8.9948243"></trkpt><trkpt lat="48.0502053" lon="8.9946049"></trkpt><trkpt lat="48.0501602478567" lon="8.994466278020628"></trkpt><trkpt lat="48.0501351" lon="8.9943889"></trkpt><trkpt lat="48.0501469" lon="8.9941705"></trkpt><trkpt lat="48.0502126" lon="8.9938202"></trkpt><trkpt lat="48.050208" lon="8.9934448"></trkpt><trkpt lat="48.0503158" lon="8.9929067"></trkpt><trkpt lat="48.0506014" lon="8.9923702"></trkpt><trkpt lat="48.0506659" lon="8.9921492"></trkpt><trkpt lat="48.05066839350032" lon="8.991993949920682"></trkpt><trkpt lat="48.0506701" lon="8.9918877"></trkpt><trkpt lat="48.050597" lon="8.9911769"></trkpt><trkpt lat="48.0506074" lon="8.9908277"></trkpt><trkpt lat="48.0506511" lon="8.9905243"></trkpt><trkpt lat="48.0506969" lon="8.9902494"></trkpt><trkpt lat="48.0507551" lon="8.9899657"></trkpt><trkpt lat="48.0507624" lon="8.9896901"></trkpt><trkpt lat="48.0506762" lon="8.9894931"></trkpt><trkpt lat="48.050565843761" lon="8.989361913889391"></trkpt><trkpt lat="48.050565843761" lon="8.989361913889393"></trkpt><trkpt lat="48.050565843761" lon="8.989361913889391"></trkpt><trkpt lat="48.0504664" lon="8.9892437"></trkpt><trkpt lat="48.0504628" lon="8.9891043"></trkpt><trkpt lat="48.0504484" lon="8.9889433"></trkpt><trkpt lat="48.0504054" lon="8.9887422"></trkpt><trkpt lat="48.0504144" lon="8.9885035"></trkpt><trkpt lat="48.0504162" lon="8.9882755"></trkpt><trkpt lat="48.0504628" lon="8.9880019"></trkpt><trkpt lat="48.0505345" lon="8.9879026"></trkpt><trkpt lat="48.0506439" lon="8.9878973"></trkpt><trkpt lat="48.0507765" lon="8.9879026"></trkpt><trkpt lat="48.0509182" lon="8.9879938"></trkpt><trkpt lat="48.05102118602817" lon="8.987987139626311"></trkpt><trkpt lat="48.0510419" lon="8.9879858"></trkpt><trkpt lat="48.0511585" lon="8.9879214"></trkpt><trkpt lat="48.0513485" lon="8.9878544"></trkpt><trkpt lat="48.051526" lon="8.9878195"></trkpt><trkpt lat="48.0517107" lon="8.9878249"></trkpt><trkpt lat="48.0519629" lon="8.987819"></trkpt><trkpt lat="48.0522753" lon="8.9872807"></trkpt><trkpt lat="48.0524331" lon="8.9869851"></trkpt><trkpt lat="48.05250630503798" lon="8.98683122913184"></trkpt><trkpt lat="48.05250630503798" lon="8.986831229131838"></trkpt><trkpt lat="48.05250630503798" lon="8.98683122913184"></trkpt><trkpt lat="48.0526627" lon="8.9865025"></trkpt><trkpt lat="48.0527473" lon="8.9862987"></trkpt><trkpt lat="48.0528169" lon="8.9860975"></trkpt><trkpt lat="48.0529246" lon="8.9858348"></trkpt><trkpt lat="48.0529998" lon="8.9856362"></trkpt><trkpt lat="48.0530769" lon="8.985427"></trkpt><trkpt lat="48.053291" lon="8.9849537"></trkpt><trkpt lat="48.05342113411612" lon="8.984509446915013"></trkpt><trkpt lat="48.053501" lon="8.9842368"></trkpt><trkpt lat="48.0535825" lon="8.9838929"></trkpt><trkpt lat="48.0537525" lon="8.9831959"></trkpt><trkpt lat="48.0537489" lon="8.9831369"></trkpt><trkpt lat="48.0537122" lon="8.9830576"></trkpt><trkpt lat="48.0536077" lon="8.9830051"></trkpt><trkpt lat="48.0534653" lon="8.9829501"></trkpt><trkpt lat="48.0533581" lon="8.9829016"></trkpt><trkpt lat="48.0532526" lon="8.9828815"></trkpt><trkpt lat="48.05295" lon="8.9828697"></trkpt><trkpt lat="48.05292131914965" lon="8.982873918814825"></trkpt><trkpt lat="48.0528691" lon="8.9828816"></trkpt><trkpt lat="48.052721" lon="8.9829388"></trkpt><trkpt lat="48.0525908" lon="8.9829722"></trkpt><trkpt lat="48.0524542" lon="8.9830098"></trkpt><trkpt lat="48.0523291" lon="8.9830406"></trkpt><trkpt lat="48.0522638" lon="8.9830392"></trkpt><trkpt lat="48.0521438" lon="8.9830284"></trkpt><trkpt lat="48.0519908" lon="8.9830055"></trkpt><trkpt lat="48.0518286" lon="8.9830385"></trkpt><trkpt lat="48.05168" lon="8.9830359"></trkpt><trkpt lat="48.0515649" lon="8.9829918"></trkpt><trkpt lat="48.0514552" lon="8.9829345"></trkpt><trkpt lat="48.0513062" lon="8.9828798"></trkpt><trkpt lat="48.05115300883309" lon="8.98284837617089"></trkpt><trkpt lat="48.051119" lon="8.9828414"></trkpt><trkpt lat="48.0509634" lon="8.9828644"></trkpt><trkpt lat="48.0507581" lon="8.9829588"></trkpt><trkpt lat="48.0506465" lon="8.9830088"></trkpt><trkpt lat="48.0505164" lon="8.9831284"></trkpt><trkpt lat="48.0503966" lon="8.9831715"></trkpt><trkpt lat="48.0502602" lon="8.9831202"></trkpt><trkpt lat="48.0501113" lon="8.9830908"></trkpt><trkpt lat="48.0499764" lon="8.9830152"></trkpt><trkpt lat="48.0498137" lon="8.9830049"></trkpt><trkpt lat="48.0496792" lon="8.9830022"></trkpt><trkpt lat="48.0495394" lon="8.9830022"></trkpt><trkpt lat="48.0494372" lon="8.9829513"></trkpt><trkpt lat="48.0494046262949" lon="8.982935543936813"></trkpt><trkpt lat="48.0493206" lon="8.9828949"></trkpt><trkpt lat="48.0491754" lon="8.9828467"></trkpt><trkpt lat="48.0490535" lon="8.9827448"></trkpt><trkpt lat="48.0489351" lon="8.9826321"></trkpt><trkpt lat="48.0487451" lon="8.9825758"></trkpt><trkpt lat="48.0486127" lon="8.9825633"></trkpt><trkpt lat="48.0484651" lon="8.9825307"></trkpt><trkpt lat="48.0483465" lon="8.982458"></trkpt><trkpt lat="48.0482218" lon="8.9823358"></trkpt><trkpt lat="48.0480816" lon="8.9821386"></trkpt><trkpt lat="48.0479543" lon="8.9819803"></trkpt><trkpt lat="48.0478591" lon="8.9818659"></trkpt><trkpt lat="48.047812914601145" lon="8.981814300791259"></trkpt><trkpt lat="48.0477354" lon="8.9817277"></trkpt><trkpt lat="48.0476173" lon="8.9815212"></trkpt><trkpt lat="48.0475651" lon="8.9812524"></trkpt><trkpt lat="48.0474824" lon="8.9810837"></trkpt><trkpt lat="48.0474092" lon="8.9809048"></trkpt><trkpt lat="48.0473209" lon="8.9807214"></trkpt><trkpt lat="48.0472366" lon="8.9804925"></trkpt><trkpt lat="48.0471579" lon="8.9802326"></trkpt><trkpt lat="48.0470836" lon="8.9800182"></trkpt><trkpt lat="48.0470398" lon="8.9798239"></trkpt><trkpt lat="48.0469668" lon="8.9795105"></trkpt><trkpt lat="48.04695984465779" lon="8.979472409861046"></trkpt><trkpt lat="48.0469181" lon="8.9792438"></trkpt><trkpt lat="48.0469092" lon="8.9790166"></trkpt><trkpt lat="48.0469417" lon="8.9786544"></trkpt><trkpt lat="48.0469373" lon="8.9785215"></trkpt><trkpt lat="48.0469193" lon="8.9782898"></trkpt><trkpt lat="48.046888" lon="8.9778124"></trkpt><trkpt lat="48.0468336" lon="8.9774045"></trkpt><trkpt lat="48.0467716" lon="8.97735"></trkpt><trkpt lat="48.0466633" lon="8.9771848"></trkpt><trkpt lat="48.0464863" lon="8.9771034"></trkpt><trkpt lat="48.04647377431831" lon="8.977089315650275"></trkpt><trkpt lat="48.04647377431831" lon="8.977089315650277"></trkpt><trkpt lat="48.04647377431831" lon="8.977089315650275"></trkpt><trkpt lat="48.0464196" lon="8.9770284"></trkpt><trkpt lat="48.0463694" lon="8.9768217"></trkpt><trkpt lat="48.0463905" lon="8.9766473"></trkpt><trkpt lat="48.046419" lon="8.9764082"></trkpt><trkpt lat="48.0464429" lon="8.9761335"></trkpt><trkpt lat="48.0464735" lon="8.9758614"></trkpt><trkpt lat="48.0464782" lon="8.9756883"></trkpt><trkpt lat="48.0465097" lon="8.9754506"></trkpt><trkpt lat="48.0465373" lon="8.9751677"></trkpt><trkpt lat="48.046563" lon="8.9749693"></trkpt><trkpt lat="48.0466098" lon="8.974603"></trkpt><trkpt lat="48.04662392155709" lon="8.974509648360558"></trkpt><trkpt lat="48.046693" lon="8.974053"></trkpt><trkpt lat="48.0468228" lon="8.9733812"></trkpt><trkpt lat="48.0468838" lon="8.97307"></trkpt><trkpt lat="48.0469592" lon="8.9727884"></trkpt><trkpt lat="48.0470533" lon="8.9724983"></trkpt><trkpt lat="48.0470918" lon="8.972201"></trkpt><trkpt lat="48.04712550377612" lon="8.97193110159116"></trkpt><trkpt lat="48.0471295" lon="8.9718991"></trkpt><trkpt lat="48.0472173" lon="8.9716136"></trkpt><trkpt lat="48.0473196" lon="8.9712944"></trkpt><trkpt lat="48.0474308" lon="8.9710235"></trkpt><trkpt lat="48.0476132" lon="8.9707773"></trkpt><trkpt lat="48.0476956" lon="8.9706766"></trkpt><trkpt lat="48.0477423" lon="8.9705724"></trkpt><trkpt lat="48.047813" lon="8.970411"></trkpt><trkpt lat="48.0478587" lon="8.9702817"></trkpt><trkpt lat="48.0479272" lon="8.9700406"></trkpt><trkpt lat="48.0480066" lon="8.9698971"></trkpt><trkpt lat="48.0480794" lon="8.9698413"></trkpt><trkpt lat="48.04810386644623" lon="8.96983180149104"></trkpt><trkpt lat="48.0482051" lon="8.9697925"></trkpt><trkpt lat="48.0483645" lon="8.9697938"></trkpt><trkpt lat="48.048445" lon="8.9697775"></trkpt><trkpt lat="48.0484932" lon="8.9697752"></trkpt><trkpt lat="48.0486845" lon="8.9697381"></trkpt><trkpt lat="48.0487679" lon="8.9696513"></trkpt><trkpt lat="48.0489127" lon="8.9697077"></trkpt><trkpt lat="48.0489974" lon="8.9697109"></trkpt><trkpt lat="48.0494457" lon="8.969742"></trkpt><trkpt lat="48.0495003" lon="8.9697455"></trkpt><trkpt lat="48.049732" lon="8.9697604"></trkpt><trkpt lat="48.0498554" lon="8.9697832"></trkpt><trkpt lat="48.04988951117511" lon="8.969789472210415"></trkpt><trkpt lat="48.0499261" lon="8.9697962"></trkpt><trkpt lat="48.05007" lon="8.9698303"></trkpt><trkpt lat="48.0501856" lon="8.9698826"></trkpt><trkpt lat="48.0504275" lon="8.9700143"></trkpt><trkpt lat="48.0504684" lon="8.9700294"></trkpt><trkpt lat="48.0505849" lon="8.9700409"></trkpt><trkpt lat="48.0507301" lon="8.9700376"></trkpt><trkpt lat="48.0508438" lon="8.9700093"></trkpt><trkpt lat="48.0509603" lon="8.9699327"></trkpt><trkpt lat="48.0511087" lon="8.9698153"></trkpt><trkpt lat="48.0514049" lon="8.9695299"></trkpt><trkpt lat="48.05153532283933" lon="8.969376228325205"></trkpt><trkpt lat="48.0516551" lon="8.9692351"></trkpt><trkpt lat="48.0518834" lon="8.9689661"></trkpt><trkpt lat="48.0518818" lon="8.9688456"></trkpt><trkpt lat="48.0519559" lon="8.9687154"></trkpt><trkpt lat="48.0520214" lon="8.9686095"></trkpt><trkpt lat="48.0520338" lon="8.9685842"></trkpt><trkpt lat="48.0520426" lon="8.9685518"></trkpt><trkpt lat="48.0520425" lon="8.9684843"></trkpt><trkpt lat="48.052034" lon="8.9684257"></trkpt><trkpt lat="48.0520848" lon="8.968393"></trkpt><trkpt lat="48.0520618" lon="8.9683099"></trkpt><trkpt lat="48.0521902" lon="8.968043"></trkpt><trkpt lat="48.052403610841026" lon="8.967657524554584"></trkpt><trkpt lat="48.052403610841026" lon="8.967657524554586"></trkpt></trkseg></trk></gpx>
