<?xml version="1.0" encoding="UTF-8"?>
<gpx version="1.1" creator="Good Shit" xmlns="http://www.topografix.com/GPX/1/1"><trk><name>Creux du Van circuit — Noiraigue–Creux du Van route 286 circuit</name><desc>Route geometry: Data: Federal Roads Office ASTRA, cantons, SwitzerlandMobility Foundation — Wanderland Schweiz — Wanderland Schweiz route and stage geometry. Licence: opendata-swiss-terms-by (https://opendata.swiss/en/terms-of-use/#terms_by). Source: https://opendata.swiss/en/dataset/langsamverkehr-wanderland-schweiz.</desc><trkseg><trkpt lat="46.95506" lon="6.72247"></trkpt><trkpt lat="46.95504" lon="6.72253"></trkpt><trkpt lat="46.95504" lon="6.72257"></trkpt><trkpt lat="46.95503" lon="6.72295"></trkpt><trkpt lat="46.955" lon="6.72368"></trkpt><trkpt lat="46.95498" lon="6.72415"></trkpt><trkpt lat="46.95498" lon="6.72445"></trkpt><trkpt lat="46.95497" lon="6.72471"></trkpt><trkpt lat="46.95493" lon="6.72471"></trkpt><trkpt lat="46.95489" lon="6.72471"></trkpt><trkpt lat="46.95461" lon="6.72467"></trkpt><trkpt lat="46.95433" lon="6.72464"></trkpt><trkpt lat="46.95425" lon="6.72463"></trkpt><trkpt lat="46.95412" lon="6.72461"></trkpt><trkpt lat="46.95406" lon="6.72461"></trkpt><trkpt lat="46.95402" lon="6.7246"></trkpt><trkpt lat="46.95398" lon="6.72458"></trkpt><trkpt lat="46.95389" lon="6.7245"></trkpt><trkpt lat="46.95378" lon="6.72438"></trkpt><trkpt lat="46.95374" lon="6.72434"></trkpt><trkpt lat="46.95369" lon="6.72431"></trkpt><trkpt lat="46.95365" lon="6.72428"></trkpt><trkpt lat="46.95362" lon="6.72426"></trkpt><trkpt lat="46.95358" lon="6.72425"></trkpt><trkpt lat="46.95354" lon="6.72426"></trkpt><trkpt lat="46.95352" lon="6.72428"></trkpt><trkpt lat="46.9535" lon="6.72432"></trkpt><trkpt lat="46.9534" lon="6.7246"></trkpt><trkpt lat="46.95322" lon="6.72508"></trkpt><trkpt lat="46.9531" lon="6.72542"></trkpt><trkpt lat="46.95306" lon="6.72549"></trkpt><trkpt lat="46.95301" lon="6.72555"></trkpt><trkpt lat="46.95296" lon="6.72562"></trkpt><trkpt lat="46.95292" lon="6.72567"></trkpt><trkpt lat="46.95282" lon="6.72576"></trkpt><trkpt lat="46.9527" lon="6.72584"></trkpt><trkpt lat="46.95254" lon="6.72594"></trkpt><trkpt lat="46.95225" lon="6.72613"></trkpt><trkpt lat="46.9522" lon="6.72617"></trkpt><trkpt lat="46.95216" lon="6.72619"></trkpt><trkpt lat="46.9521" lon="6.72625"></trkpt><trkpt lat="46.95205" lon="6.7263"></trkpt><trkpt lat="46.95199" lon="6.72639"></trkpt><trkpt lat="46.95193" lon="6.72648"></trkpt><trkpt lat="46.95189" lon="6.72657"></trkpt><trkpt lat="46.9518" lon="6.72676"></trkpt><trkpt lat="46.95166" lon="6.7271"></trkpt><trkpt lat="46.95152" lon="6.72746"></trkpt><trkpt lat="46.95145" lon="6.72761"></trkpt><trkpt lat="46.95142" lon="6.72766"></trkpt><trkpt lat="46.95138" lon="6.72771"></trkpt><trkpt lat="46.95134" lon="6.72774"></trkpt><trkpt lat="46.95129" lon="6.72777"></trkpt><trkpt lat="46.95122" lon="6.7278"></trkpt><trkpt lat="46.95111" lon="6.72783"></trkpt><trkpt lat="46.95105" lon="6.72785"></trkpt><trkpt lat="46.951" lon="6.72787"></trkpt><trkpt lat="46.95097" lon="6.72791"></trkpt><trkpt lat="46.95095" lon="6.72795"></trkpt><trkpt lat="46.95094" lon="6.72799"></trkpt><trkpt lat="46.95094" lon="6.72803"></trkpt><trkpt lat="46.95094" lon="6.72809"></trkpt><trkpt lat="46.95097" lon="6.72823"></trkpt><trkpt lat="46.95104" lon="6.72867"></trkpt><trkpt lat="46.95113" lon="6.72912"></trkpt><trkpt lat="46.95122" lon="6.72962"></trkpt><trkpt lat="46.95129" lon="6.73005"></trkpt><trkpt lat="46.95131" lon="6.73014"></trkpt><trkpt lat="46.95136" lon="6.73029"></trkpt><trkpt lat="46.95134" lon="6.73043"></trkpt><trkpt lat="46.95132" lon="6.73049"></trkpt><trkpt lat="46.9513" lon="6.73053"></trkpt><trkpt lat="46.95127" lon="6.73056"></trkpt><trkpt lat="46.95124" lon="6.73057"></trkpt><trkpt lat="46.95122" lon="6.73064"></trkpt><trkpt lat="46.95122" lon="6.7307"></trkpt><trkpt lat="46.95122" lon="6.73074"></trkpt><trkpt lat="46.95122" lon="6.73078"></trkpt><trkpt lat="46.95121" lon="6.73081"></trkpt><trkpt lat="46.9512" lon="6.73086"></trkpt><trkpt lat="46.95119" lon="6.73091"></trkpt><trkpt lat="46.95118" lon="6.73096"></trkpt><trkpt lat="46.95117" lon="6.73103"></trkpt><trkpt lat="46.95116" lon="6.7311"></trkpt><trkpt lat="46.95115" lon="6.73115"></trkpt><trkpt lat="46.95114" lon="6.73121"></trkpt><trkpt lat="46.95113" lon="6.73128"></trkpt><trkpt lat="46.95113" lon="6.73135"></trkpt><trkpt lat="46.95112" lon="6.7314"></trkpt><trkpt lat="46.95113" lon="6.73148"></trkpt><trkpt lat="46.95112" lon="6.73154"></trkpt><trkpt lat="46.9511" lon="6.73156"></trkpt><trkpt lat="46.9511" lon="6.73159"></trkpt><trkpt lat="46.95109" lon="6.73161"></trkpt><trkpt lat="46.95108" lon="6.73167"></trkpt><trkpt lat="46.95108" lon="6.73172"></trkpt><trkpt lat="46.95107" lon="6.73175"></trkpt><trkpt lat="46.95106" lon="6.73176"></trkpt><trkpt lat="46.95103" lon="6.73174"></trkpt><trkpt lat="46.95101" lon="6.73173"></trkpt><trkpt lat="46.951" lon="6.73173"></trkpt><trkpt lat="46.95099" lon="6.73175"></trkpt><trkpt lat="46.95099" lon="6.73179"></trkpt><trkpt lat="46.95099" lon="6.73182"></trkpt><trkpt lat="46.95098" lon="6.73185"></trkpt><trkpt lat="46.95097" lon="6.73186"></trkpt><trkpt lat="46.95093" lon="6.73186"></trkpt><trkpt lat="46.95089" lon="6.73186"></trkpt><trkpt lat="46.95084" lon="6.73185"></trkpt><trkpt lat="46.9508" lon="6.73185"></trkpt><trkpt lat="46.95077" lon="6.73186"></trkpt><trkpt lat="46.95073" lon="6.73187"></trkpt><trkpt lat="46.95063" lon="6.73185"></trkpt><trkpt lat="46.9505" lon="6.7318"></trkpt><trkpt lat="46.95025" lon="6.73174"></trkpt><trkpt lat="46.9502" lon="6.73172"></trkpt><trkpt lat="46.95014" lon="6.7317"></trkpt><trkpt lat="46.9501" lon="6.73167"></trkpt><trkpt lat="46.95005" lon="6.73163"></trkpt><trkpt lat="46.95001" lon="6.73159"></trkpt><trkpt lat="46.94998" lon="6.73155"></trkpt><trkpt lat="46.94994" lon="6.73153"></trkpt><trkpt lat="46.9499" lon="6.73149"></trkpt><trkpt lat="46.94987" lon="6.73145"></trkpt><trkpt lat="46.94983" lon="6.73136"></trkpt><trkpt lat="46.9498" lon="6.73129"></trkpt><trkpt lat="46.94977" lon="6.73124"></trkpt><trkpt lat="46.94976" lon="6.73121"></trkpt><trkpt lat="46.94973" lon="6.73115"></trkpt><trkpt lat="46.94969" lon="6.7311"></trkpt><trkpt lat="46.94965" lon="6.73102"></trkpt><trkpt lat="46.94961" lon="6.73095"></trkpt><trkpt lat="46.94956" lon="6.7309"></trkpt><trkpt lat="46.94951" lon="6.73083"></trkpt><trkpt lat="46.94936" lon="6.73062"></trkpt><trkpt lat="46.94916" lon="6.73045"></trkpt><trkpt lat="46.94906" lon="6.73034"></trkpt><trkpt lat="46.94897" lon="6.73018"></trkpt><trkpt lat="46.94897" lon="6.73016"></trkpt><trkpt lat="46.94893" lon="6.73012"></trkpt><trkpt lat="46.94889" lon="6.73009"></trkpt><trkpt lat="46.94882" lon="6.73004"></trkpt><trkpt lat="46.94875" lon="6.72999"></trkpt><trkpt lat="46.94868" lon="6.72998"></trkpt><trkpt lat="46.94863" lon="6.73"></trkpt><trkpt lat="46.94858" lon="6.73012"></trkpt><trkpt lat="46.94851" lon="6.73021"></trkpt><trkpt lat="46.94838" lon="6.73036"></trkpt><trkpt lat="46.94823" lon="6.73054"></trkpt><trkpt lat="46.9481" lon="6.73069"></trkpt><trkpt lat="46.94791" lon="6.73084"></trkpt><trkpt lat="46.94774" lon="6.73096"></trkpt><trkpt lat="46.94764" lon="6.73102"></trkpt><trkpt lat="46.94748" lon="6.73109"></trkpt><trkpt lat="46.9474" lon="6.73113"></trkpt><trkpt lat="46.94728" lon="6.73119"></trkpt><trkpt lat="46.94719" lon="6.73127"></trkpt><trkpt lat="46.94703" lon="6.73139"></trkpt><trkpt lat="46.94683" lon="6.73154"></trkpt><trkpt lat="46.94666" lon="6.73164"></trkpt><trkpt lat="46.94653" lon="6.73172"></trkpt><trkpt lat="46.94646" lon="6.73176"></trkpt><trkpt lat="46.94639" lon="6.73182"></trkpt><trkpt lat="46.94632" lon="6.73188"></trkpt><trkpt lat="46.94623" lon="6.73189"></trkpt><trkpt lat="46.94612" lon="6.7319"></trkpt><trkpt lat="46.946" lon="6.73195"></trkpt><trkpt lat="46.94591" lon="6.73196"></trkpt><trkpt lat="46.94576" lon="6.732"></trkpt><trkpt lat="46.94563" lon="6.73204"></trkpt><trkpt lat="46.94562" lon="6.73193"></trkpt><trkpt lat="46.94561" lon="6.73183"></trkpt><trkpt lat="46.9456" lon="6.73175"></trkpt><trkpt lat="46.94558" lon="6.73166"></trkpt><trkpt lat="46.94557" lon="6.7316"></trkpt><trkpt lat="46.94557" lon="6.73152"></trkpt><trkpt lat="46.94557" lon="6.73146"></trkpt><trkpt lat="46.94558" lon="6.73136"></trkpt><trkpt lat="46.94559" lon="6.73122"></trkpt><trkpt lat="46.9456" lon="6.7311"></trkpt><trkpt lat="46.94561" lon="6.73096"></trkpt><trkpt lat="46.94562" lon="6.73082"></trkpt><trkpt lat="46.94563" lon="6.7307"></trkpt><trkpt lat="46.94565" lon="6.73058"></trkpt><trkpt lat="46.94566" lon="6.7305"></trkpt><trkpt lat="46.94567" lon="6.73042"></trkpt><trkpt lat="46.94568" lon="6.73035"></trkpt><trkpt lat="46.94571" lon="6.73024"></trkpt><trkpt lat="46.94574" lon="6.73012"></trkpt><trkpt lat="46.94577" lon="6.72998"></trkpt><trkpt lat="46.94579" lon="6.72988"></trkpt><trkpt lat="46.94581" lon="6.72977"></trkpt><trkpt lat="46.94583" lon="6.72965"></trkpt><trkpt lat="46.94585" lon="6.72954"></trkpt><trkpt lat="46.94586" lon="6.72942"></trkpt><trkpt lat="46.94586" lon="6.72932"></trkpt><trkpt lat="46.94587" lon="6.72919"></trkpt><trkpt lat="46.94586" lon="6.72914"></trkpt><trkpt lat="46.94586" lon="6.7291"></trkpt><trkpt lat="46.94582" lon="6.72901"></trkpt><trkpt lat="46.94579" lon="6.72892"></trkpt><trkpt lat="46.94577" lon="6.72885"></trkpt><trkpt lat="46.94576" lon="6.72875"></trkpt><trkpt lat="46.94575" lon="6.72866"></trkpt><trkpt lat="46.94574" lon="6.72855"></trkpt><trkpt lat="46.94573" lon="6.72845"></trkpt><trkpt lat="46.94571" lon="6.72834"></trkpt><trkpt lat="46.9457" lon="6.72825"></trkpt><trkpt lat="46.94569" lon="6.72814"></trkpt><trkpt lat="46.94567" lon="6.72802"></trkpt><trkpt lat="46.94565" lon="6.72789"></trkpt><trkpt lat="46.94564" lon="6.7278"></trkpt><trkpt lat="46.94561" lon="6.72767"></trkpt><trkpt lat="46.9456" lon="6.72758"></trkpt><trkpt lat="46.94557" lon="6.72746"></trkpt><trkpt lat="46.94555" lon="6.72737"></trkpt><trkpt lat="46.94552" lon="6.7273"></trkpt><trkpt lat="46.94551" lon="6.72726"></trkpt><trkpt lat="46.9455" lon="6.72722"></trkpt><trkpt lat="46.9455" lon="6.72717"></trkpt><trkpt lat="46.94549" lon="6.72711"></trkpt><trkpt lat="46.9455" lon="6.72706"></trkpt><trkpt lat="46.94552" lon="6.72695"></trkpt><trkpt lat="46.94554" lon="6.72683"></trkpt><trkpt lat="46.94556" lon="6.72672"></trkpt><trkpt lat="46.94556" lon="6.72664"></trkpt><trkpt lat="46.94557" lon="6.72655"></trkpt><trkpt lat="46.94559" lon="6.72646"></trkpt><trkpt lat="46.94562" lon="6.72635"></trkpt><trkpt lat="46.94565" lon="6.72624"></trkpt><trkpt lat="46.94568" lon="6.72614"></trkpt><trkpt lat="46.94571" lon="6.72603"></trkpt><trkpt lat="46.94574" lon="6.72591"></trkpt><trkpt lat="46.94577" lon="6.72577"></trkpt><trkpt lat="46.9458" lon="6.72565"></trkpt><trkpt lat="46.94583" lon="6.72555"></trkpt><trkpt lat="46.94585" lon="6.72546"></trkpt><trkpt lat="46.94588" lon="6.72536"></trkpt><trkpt lat="46.94592" lon="6.72526"></trkpt><trkpt lat="46.94594" lon="6.72516"></trkpt><trkpt lat="46.94598" lon="6.72506"></trkpt><trkpt lat="46.94602" lon="6.72494"></trkpt><trkpt lat="46.94607" lon="6.72482"></trkpt><trkpt lat="46.94613" lon="6.72464"></trkpt><trkpt lat="46.94617" lon="6.72455"></trkpt><trkpt lat="46.94621" lon="6.72443"></trkpt><trkpt lat="46.94621" lon="6.72441"></trkpt><trkpt lat="46.94626" lon="6.72425"></trkpt><trkpt lat="46.9463" lon="6.72411"></trkpt><trkpt lat="46.94632" lon="6.72399"></trkpt><trkpt lat="46.94634" lon="6.72382"></trkpt><trkpt lat="46.94635" lon="6.72358"></trkpt><trkpt lat="46.94634" lon="6.72332"></trkpt><trkpt lat="46.94634" lon="6.72327"></trkpt><trkpt lat="46.94633" lon="6.72318"></trkpt><trkpt lat="46.94632" lon="6.7231"></trkpt><trkpt lat="46.94631" lon="6.723"></trkpt><trkpt lat="46.94629" lon="6.7229"></trkpt><trkpt lat="46.94627" lon="6.72283"></trkpt><trkpt lat="46.94623" lon="6.72272"></trkpt><trkpt lat="46.9462" lon="6.72262"></trkpt><trkpt lat="46.94616" lon="6.72252"></trkpt><trkpt lat="46.94612" lon="6.72244"></trkpt><trkpt lat="46.94608" lon="6.72235"></trkpt><trkpt lat="46.94605" lon="6.72225"></trkpt><trkpt lat="46.946" lon="6.72214"></trkpt><trkpt lat="46.94597" lon="6.72205"></trkpt><trkpt lat="46.94594" lon="6.72197"></trkpt><trkpt lat="46.94591" lon="6.7219"></trkpt><trkpt lat="46.94588" lon="6.72181"></trkpt><trkpt lat="46.94585" lon="6.72171"></trkpt><trkpt lat="46.94581" lon="6.72162"></trkpt><trkpt lat="46.94579" lon="6.72156"></trkpt><trkpt lat="46.94576" lon="6.72151"></trkpt><trkpt lat="46.94572" lon="6.72145"></trkpt><trkpt lat="46.94568" lon="6.72136"></trkpt><trkpt lat="46.94565" lon="6.7213"></trkpt><trkpt lat="46.94561" lon="6.72123"></trkpt><trkpt lat="46.94558" lon="6.72115"></trkpt><trkpt lat="46.94556" lon="6.72108"></trkpt><trkpt lat="46.94554" lon="6.721"></trkpt><trkpt lat="46.94551" lon="6.72088"></trkpt><trkpt lat="46.94548" lon="6.72076"></trkpt><trkpt lat="46.94545" lon="6.72064"></trkpt><trkpt lat="46.94543" lon="6.72053"></trkpt><trkpt lat="46.94542" lon="6.72043"></trkpt><trkpt lat="46.9454" lon="6.72033"></trkpt><trkpt lat="46.94539" lon="6.72022"></trkpt><trkpt lat="46.94538" lon="6.72011"></trkpt><trkpt lat="46.94538" lon="6.72001"></trkpt><trkpt lat="46.94538" lon="6.71989"></trkpt><trkpt lat="46.94538" lon="6.71976"></trkpt><trkpt lat="46.94539" lon="6.71966"></trkpt><trkpt lat="46.9454" lon="6.71952"></trkpt><trkpt lat="46.94542" lon="6.71939"></trkpt><trkpt lat="46.94543" lon="6.71928"></trkpt><trkpt lat="46.94544" lon="6.71918"></trkpt><trkpt lat="46.94546" lon="6.71907"></trkpt><trkpt lat="46.94547" lon="6.71895"></trkpt><trkpt lat="46.94549" lon="6.71886"></trkpt><trkpt lat="46.9455" lon="6.71879"></trkpt><trkpt lat="46.94552" lon="6.71873"></trkpt><trkpt lat="46.94555" lon="6.71866"></trkpt><trkpt lat="46.94559" lon="6.71859"></trkpt><trkpt lat="46.94563" lon="6.71855"></trkpt><trkpt lat="46.94569" lon="6.71848"></trkpt><trkpt lat="46.94575" lon="6.7184"></trkpt><trkpt lat="46.94579" lon="6.71834"></trkpt><trkpt lat="46.94582" lon="6.7183"></trkpt><trkpt lat="46.94586" lon="6.71822"></trkpt><trkpt lat="46.94588" lon="6.71815"></trkpt><trkpt lat="46.9459" lon="6.71807"></trkpt><trkpt lat="46.94591" lon="6.71798"></trkpt><trkpt lat="46.94592" lon="6.71789"></trkpt><trkpt lat="46.94592" lon="6.7178"></trkpt><trkpt lat="46.94591" lon="6.71772"></trkpt><trkpt lat="46.9459" lon="6.71764"></trkpt><trkpt lat="46.94588" lon="6.71758"></trkpt><trkpt lat="46.94587" lon="6.71751"></trkpt><trkpt lat="46.94584" lon="6.71746"></trkpt><trkpt lat="46.94581" lon="6.71741"></trkpt><trkpt lat="46.94577" lon="6.71733"></trkpt><trkpt lat="46.94573" lon="6.71726"></trkpt><trkpt lat="46.94569" lon="6.7172"></trkpt><trkpt lat="46.94563" lon="6.71723"></trkpt><trkpt lat="46.9456" lon="6.71725"></trkpt><trkpt lat="46.94556" lon="6.71726"></trkpt><trkpt lat="46.94553" lon="6.71726"></trkpt><trkpt lat="46.94549" lon="6.71725"></trkpt><trkpt lat="46.94546" lon="6.71724"></trkpt><trkpt lat="46.94542" lon="6.71723"></trkpt><trkpt lat="46.94533" lon="6.71721"></trkpt><trkpt lat="46.94531" lon="6.71719"></trkpt><trkpt lat="46.94527" lon="6.71713"></trkpt><trkpt lat="46.94526" lon="6.71713"></trkpt><trkpt lat="46.94521" lon="6.71712"></trkpt><trkpt lat="46.94514" lon="6.71714"></trkpt><trkpt lat="46.94511" lon="6.71713"></trkpt><trkpt lat="46.94507" lon="6.71708"></trkpt><trkpt lat="46.94505" lon="6.71705"></trkpt><trkpt lat="46.94498" lon="6.71698"></trkpt><trkpt lat="46.94495" lon="6.71695"></trkpt><trkpt lat="46.94491" lon="6.71689"></trkpt><trkpt lat="46.94486" lon="6.71679"></trkpt><trkpt lat="46.94482" lon="6.71673"></trkpt><trkpt lat="46.94475" lon="6.71665"></trkpt><trkpt lat="46.94467" lon="6.71658"></trkpt><trkpt lat="46.94459" lon="6.7165"></trkpt><trkpt lat="46.9445" lon="6.71642"></trkpt><trkpt lat="46.94435" lon="6.71627"></trkpt><trkpt lat="46.94426" lon="6.71615"></trkpt><trkpt lat="46.94419" lon="6.71606"></trkpt><trkpt lat="46.94417" lon="6.71597"></trkpt><trkpt lat="46.94412" lon="6.71584"></trkpt><trkpt lat="46.94403" lon="6.7157"></trkpt><trkpt lat="46.94398" lon="6.71563"></trkpt><trkpt lat="46.94396" lon="6.71562"></trkpt><trkpt lat="46.94393" lon="6.71557"></trkpt><trkpt lat="46.94392" lon="6.71558"></trkpt><trkpt lat="46.94392" lon="6.7156"></trkpt><trkpt lat="46.94395" lon="6.71569"></trkpt><trkpt lat="46.94395" lon="6.71571"></trkpt><trkpt lat="46.94397" lon="6.71575"></trkpt><trkpt lat="46.94397" lon="6.7158"></trkpt><trkpt lat="46.94399" lon="6.71586"></trkpt><trkpt lat="46.94399" lon="6.7159"></trkpt><trkpt lat="46.944" lon="6.71595"></trkpt><trkpt lat="46.944" lon="6.71604"></trkpt><trkpt lat="46.94402" lon="6.7162"></trkpt><trkpt lat="46.94403" lon="6.71632"></trkpt><trkpt lat="46.94404" lon="6.71639"></trkpt><trkpt lat="46.94407" lon="6.71649"></trkpt><trkpt lat="46.94408" lon="6.71658"></trkpt><trkpt lat="46.9441" lon="6.71676"></trkpt><trkpt lat="46.94411" lon="6.71688"></trkpt><trkpt lat="46.94411" lon="6.71692"></trkpt><trkpt lat="46.9441" lon="6.71702"></trkpt><trkpt lat="46.9441" lon="6.71711"></trkpt><trkpt lat="46.9441" lon="6.71717"></trkpt><trkpt lat="46.94411" lon="6.71724"></trkpt><trkpt lat="46.94411" lon="6.71737"></trkpt><trkpt lat="46.94411" lon="6.71747"></trkpt><trkpt lat="46.9441" lon="6.71755"></trkpt><trkpt lat="46.94409" lon="6.71766"></trkpt><trkpt lat="46.94408" lon="6.71776"></trkpt><trkpt lat="46.94406" lon="6.71786"></trkpt><trkpt lat="46.94404" lon="6.71791"></trkpt><trkpt lat="46.94402" lon="6.71798"></trkpt><trkpt lat="46.94401" lon="6.71802"></trkpt><trkpt lat="46.94401" lon="6.7181"></trkpt><trkpt lat="46.94402" lon="6.71819"></trkpt><trkpt lat="46.944" lon="6.71829"></trkpt><trkpt lat="46.94398" lon="6.7184"></trkpt><trkpt lat="46.94397" lon="6.71847"></trkpt><trkpt lat="46.94396" lon="6.71861"></trkpt><trkpt lat="46.94395" lon="6.71872"></trkpt><trkpt lat="46.94393" lon="6.71887"></trkpt><trkpt lat="46.94392" lon="6.71897"></trkpt><trkpt lat="46.9439" lon="6.71905"></trkpt><trkpt lat="46.94387" lon="6.71911"></trkpt><trkpt lat="46.94383" lon="6.7192"></trkpt><trkpt lat="46.94378" lon="6.7193"></trkpt><trkpt lat="46.94376" lon="6.71935"></trkpt><trkpt lat="46.94375" lon="6.71929"></trkpt><trkpt lat="46.94376" lon="6.71924"></trkpt><trkpt lat="46.94376" lon="6.71917"></trkpt><trkpt lat="46.94376" lon="6.71906"></trkpt><trkpt lat="46.94375" lon="6.71898"></trkpt><trkpt lat="46.94373" lon="6.71889"></trkpt><trkpt lat="46.94371" lon="6.7188"></trkpt><trkpt lat="46.94369" lon="6.71871"></trkpt><trkpt lat="46.94366" lon="6.71859"></trkpt><trkpt lat="46.94363" lon="6.71853"></trkpt><trkpt lat="46.94363" lon="6.71846"></trkpt><trkpt lat="46.94364" lon="6.71838"></trkpt><trkpt lat="46.94362" lon="6.71829"></trkpt><trkpt lat="46.94358" lon="6.71819"></trkpt><trkpt lat="46.94355" lon="6.71809"></trkpt><trkpt lat="46.94351" lon="6.71795"></trkpt><trkpt lat="46.94345" lon="6.71779"></trkpt><trkpt lat="46.94343" lon="6.71769"></trkpt><trkpt lat="46.94338" lon="6.71758"></trkpt><trkpt lat="46.94334" lon="6.71747"></trkpt><trkpt lat="46.94329" lon="6.71737"></trkpt><trkpt lat="46.94325" lon="6.71727"></trkpt><trkpt lat="46.94321" lon="6.7172"></trkpt><trkpt lat="46.94317" lon="6.7171"></trkpt><trkpt lat="46.94313" lon="6.71704"></trkpt><trkpt lat="46.94308" lon="6.71697"></trkpt><trkpt lat="46.94305" lon="6.71694"></trkpt><trkpt lat="46.94301" lon="6.71689"></trkpt><trkpt lat="46.94298" lon="6.71684"></trkpt><trkpt lat="46.94297" lon="6.71681"></trkpt><trkpt lat="46.94297" lon="6.71679"></trkpt><trkpt lat="46.94294" lon="6.71676"></trkpt><trkpt lat="46.94292" lon="6.71674"></trkpt><trkpt lat="46.94288" lon="6.71668"></trkpt><trkpt lat="46.94287" lon="6.71665"></trkpt><trkpt lat="46.94285" lon="6.71663"></trkpt><trkpt lat="46.94283" lon="6.71663"></trkpt><trkpt lat="46.94283" lon="6.71665"></trkpt><trkpt lat="46.94282" lon="6.71669"></trkpt><trkpt lat="46.94283" lon="6.71675"></trkpt><trkpt lat="46.94285" lon="6.71682"></trkpt><trkpt lat="46.94286" lon="6.71687"></trkpt><trkpt lat="46.94287" lon="6.71692"></trkpt><trkpt lat="46.94287" lon="6.71697"></trkpt><trkpt lat="46.94289" lon="6.71704"></trkpt><trkpt lat="46.94291" lon="6.71713"></trkpt><trkpt lat="46.94292" lon="6.71723"></trkpt><trkpt lat="46.94293" lon="6.7173"></trkpt><trkpt lat="46.94294" lon="6.71734"></trkpt><trkpt lat="46.94295" lon="6.71741"></trkpt><trkpt lat="46.94295" lon="6.71749"></trkpt><trkpt lat="46.94294" lon="6.71755"></trkpt><trkpt lat="46.94294" lon="6.7176"></trkpt><trkpt lat="46.94296" lon="6.71765"></trkpt><trkpt lat="46.94297" lon="6.71769"></trkpt><trkpt lat="46.94297" lon="6.71775"></trkpt><trkpt lat="46.94295" lon="6.7178"></trkpt><trkpt lat="46.94294" lon="6.71784"></trkpt><trkpt lat="46.94296" lon="6.71787"></trkpt><trkpt lat="46.94297" lon="6.7179"></trkpt><trkpt lat="46.94296" lon="6.71799"></trkpt><trkpt lat="46.94296" lon="6.71804"></trkpt><trkpt lat="46.94297" lon="6.71808"></trkpt><trkpt lat="46.94296" lon="6.71815"></trkpt><trkpt lat="46.94294" lon="6.71824"></trkpt><trkpt lat="46.94292" lon="6.71835"></trkpt><trkpt lat="46.94291" lon="6.7184"></trkpt><trkpt lat="46.94289" lon="6.71847"></trkpt><trkpt lat="46.94287" lon="6.71856"></trkpt><trkpt lat="46.94284" lon="6.71869"></trkpt><trkpt lat="46.94281" lon="6.71875"></trkpt><trkpt lat="46.94279" lon="6.71882"></trkpt><trkpt lat="46.94275" lon="6.71895"></trkpt><trkpt lat="46.94271" lon="6.71904"></trkpt><trkpt lat="46.9427" lon="6.71907"></trkpt><trkpt lat="46.94269" lon="6.71901"></trkpt><trkpt lat="46.94269" lon="6.71889"></trkpt><trkpt lat="46.94268" lon="6.7188"></trkpt><trkpt lat="46.94269" lon="6.71865"></trkpt><trkpt lat="46.94268" lon="6.71852"></trkpt><trkpt lat="46.94269" lon="6.71839"></trkpt><trkpt lat="46.94271" lon="6.71832"></trkpt><trkpt lat="46.9427" lon="6.71828"></trkpt><trkpt lat="46.94267" lon="6.71823"></trkpt><trkpt lat="46.94264" lon="6.71818"></trkpt><trkpt lat="46.94262" lon="6.71814"></trkpt><trkpt lat="46.9426" lon="6.71809"></trkpt><trkpt lat="46.94259" lon="6.71803"></trkpt><trkpt lat="46.94255" lon="6.71796"></trkpt><trkpt lat="46.94254" lon="6.7179"></trkpt><trkpt lat="46.94252" lon="6.71787"></trkpt><trkpt lat="46.94249" lon="6.71777"></trkpt><trkpt lat="46.94246" lon="6.71772"></trkpt><trkpt lat="46.94242" lon="6.71768"></trkpt><trkpt lat="46.94238" lon="6.71757"></trkpt><trkpt lat="46.94234" lon="6.71749"></trkpt><trkpt lat="46.9423" lon="6.71745"></trkpt><trkpt lat="46.94225" lon="6.7174"></trkpt><trkpt lat="46.94222" lon="6.71737"></trkpt><trkpt lat="46.94217" lon="6.71734"></trkpt><trkpt lat="46.94213" lon="6.7173"></trkpt><trkpt lat="46.94209" lon="6.71727"></trkpt><trkpt lat="46.94211" lon="6.71734"></trkpt><trkpt lat="46.94215" lon="6.71745"></trkpt><trkpt lat="46.94218" lon="6.71753"></trkpt><trkpt lat="46.94219" lon="6.7176"></trkpt><trkpt lat="46.94221" lon="6.71771"></trkpt><trkpt lat="46.94222" lon="6.71783"></trkpt><trkpt lat="46.94224" lon="6.71797"></trkpt><trkpt lat="46.94224" lon="6.71807"></trkpt><trkpt lat="46.94223" lon="6.71821"></trkpt><trkpt lat="46.94222" lon="6.71832"></trkpt><trkpt lat="46.94219" lon="6.71841"></trkpt><trkpt lat="46.94216" lon="6.71851"></trkpt><trkpt lat="46.94212" lon="6.71861"></trkpt><trkpt lat="46.94211" lon="6.71865"></trkpt><trkpt lat="46.9421" lon="6.71859"></trkpt><trkpt lat="46.9421" lon="6.71849"></trkpt><trkpt lat="46.94211" lon="6.7184"></trkpt><trkpt lat="46.9421" lon="6.71831"></trkpt><trkpt lat="46.9421" lon="6.71823"></trkpt><trkpt lat="46.94208" lon="6.71817"></trkpt><trkpt lat="46.94205" lon="6.71808"></trkpt><trkpt lat="46.94201" lon="6.71801"></trkpt><trkpt lat="46.94197" lon="6.71792"></trkpt><trkpt lat="46.94193" lon="6.71788"></trkpt><trkpt lat="46.94187" lon="6.71782"></trkpt><trkpt lat="46.94181" lon="6.71776"></trkpt><trkpt lat="46.94177" lon="6.71773"></trkpt><trkpt lat="46.94173" lon="6.7177"></trkpt><trkpt lat="46.94169" lon="6.71769"></trkpt><trkpt lat="46.94172" lon="6.71777"></trkpt><trkpt lat="46.94179" lon="6.71792"></trkpt><trkpt lat="46.94183" lon="6.71803"></trkpt><trkpt lat="46.94185" lon="6.71809"></trkpt><trkpt lat="46.94186" lon="6.71815"></trkpt><trkpt lat="46.94184" lon="6.71827"></trkpt><trkpt lat="46.94183" lon="6.71834"></trkpt><trkpt lat="46.94181" lon="6.71838"></trkpt><trkpt lat="46.94177" lon="6.71849"></trkpt><trkpt lat="46.94174" lon="6.71855"></trkpt><trkpt lat="46.94171" lon="6.7186"></trkpt><trkpt lat="46.94169" lon="6.71869"></trkpt><trkpt lat="46.94167" lon="6.71877"></trkpt><trkpt lat="46.94164" lon="6.71889"></trkpt><trkpt lat="46.94162" lon="6.71888"></trkpt><trkpt lat="46.94161" lon="6.71882"></trkpt><trkpt lat="46.94162" lon="6.71875"></trkpt><trkpt lat="46.94162" lon="6.71869"></trkpt><trkpt lat="46.9416" lon="6.71859"></trkpt><trkpt lat="46.9416" lon="6.71848"></trkpt><trkpt lat="46.94159" lon="6.71838"></trkpt><trkpt lat="46.94158" lon="6.7183"></trkpt><trkpt lat="46.94155" lon="6.71826"></trkpt><trkpt lat="46.94152" lon="6.71822"></trkpt><trkpt lat="46.94148" lon="6.7182"></trkpt><trkpt lat="46.94143" lon="6.71814"></trkpt><trkpt lat="46.9414" lon="6.71809"></trkpt><trkpt lat="46.94138" lon="6.71809"></trkpt><trkpt lat="46.94137" lon="6.71811"></trkpt><trkpt lat="46.94138" lon="6.71818"></trkpt><trkpt lat="46.9414" lon="6.71825"></trkpt><trkpt lat="46.94142" lon="6.71832"></trkpt><trkpt lat="46.94143" lon="6.71838"></trkpt><trkpt lat="46.94142" lon="6.71846"></trkpt><trkpt lat="46.9414" lon="6.71854"></trkpt><trkpt lat="46.9414" lon="6.71862"></trkpt><trkpt lat="46.94138" lon="6.71871"></trkpt><trkpt lat="46.94136" lon="6.71879"></trkpt><trkpt lat="46.94132" lon="6.71887"></trkpt><trkpt lat="46.94131" lon="6.71891"></trkpt><trkpt lat="46.9413" lon="6.71881"></trkpt><trkpt lat="46.94129" lon="6.7187"></trkpt><trkpt lat="46.94127" lon="6.71864"></trkpt><trkpt lat="46.94126" lon="6.71858"></trkpt><trkpt lat="46.94123" lon="6.71853"></trkpt><trkpt lat="46.9412" lon="6.71847"></trkpt><trkpt lat="46.94118" lon="6.71844"></trkpt><trkpt lat="46.94111" lon="6.71842"></trkpt><trkpt lat="46.94107" lon="6.71838"></trkpt><trkpt lat="46.94105" lon="6.71837"></trkpt><trkpt lat="46.94102" lon="6.71838"></trkpt><trkpt lat="46.94104" lon="6.71848"></trkpt><trkpt lat="46.94107" lon="6.71858"></trkpt><trkpt lat="46.94108" lon="6.71865"></trkpt><trkpt lat="46.94108" lon="6.71873"></trkpt><trkpt lat="46.94108" lon="6.71881"></trkpt><trkpt lat="46.94106" lon="6.71893"></trkpt><trkpt lat="46.94105" lon="6.71906"></trkpt><trkpt lat="46.94105" lon="6.71916"></trkpt><trkpt lat="46.94105" lon="6.71926"></trkpt><trkpt lat="46.94105" lon="6.71933"></trkpt><trkpt lat="46.94103" lon="6.71933"></trkpt><trkpt lat="46.94102" lon="6.71928"></trkpt><trkpt lat="46.941" lon="6.71923"></trkpt><trkpt lat="46.94098" lon="6.71917"></trkpt><trkpt lat="46.94093" lon="6.71908"></trkpt><trkpt lat="46.94091" lon="6.71903"></trkpt><trkpt lat="46.94088" lon="6.71897"></trkpt><trkpt lat="46.94085" lon="6.71892"></trkpt><trkpt lat="46.94082" lon="6.71887"></trkpt><trkpt lat="46.94078" lon="6.71882"></trkpt><trkpt lat="46.94072" lon="6.71878"></trkpt><trkpt lat="46.94072" lon="6.71884"></trkpt><trkpt lat="46.94073" lon="6.71889"></trkpt><trkpt lat="46.94075" lon="6.71899"></trkpt><trkpt lat="46.94076" lon="6.71904"></trkpt><trkpt lat="46.94075" lon="6.71909"></trkpt><trkpt lat="46.94073" lon="6.71918"></trkpt><trkpt lat="46.94072" lon="6.71924"></trkpt><trkpt lat="46.94073" lon="6.71931"></trkpt><trkpt lat="46.94071" lon="6.71935"></trkpt><trkpt lat="46.94071" lon="6.71942"></trkpt><trkpt lat="46.94069" lon="6.71947"></trkpt><trkpt lat="46.94069" lon="6.71951"></trkpt><trkpt lat="46.94069" lon="6.71956"></trkpt><trkpt lat="46.94067" lon="6.7196"></trkpt><trkpt lat="46.94065" lon="6.71959"></trkpt><trkpt lat="46.94061" lon="6.71949"></trkpt><trkpt lat="46.94055" lon="6.71939"></trkpt><trkpt lat="46.94051" lon="6.71933"></trkpt><trkpt lat="46.94046" lon="6.71928"></trkpt><trkpt lat="46.94044" lon="6.71926"></trkpt><trkpt lat="46.9404" lon="6.71925"></trkpt><trkpt lat="46.94036" lon="6.71923"></trkpt><trkpt lat="46.94031" lon="6.71922"></trkpt><trkpt lat="46.94028" lon="6.71919"></trkpt><trkpt lat="46.94025" lon="6.71912"></trkpt><trkpt lat="46.94022" lon="6.71905"></trkpt><trkpt lat="46.94019" lon="6.71902"></trkpt><trkpt lat="46.94015" lon="6.71896"></trkpt><trkpt lat="46.9401" lon="6.71889"></trkpt><trkpt lat="46.94004" lon="6.71881"></trkpt><trkpt lat="46.93998" lon="6.71877"></trkpt><trkpt lat="46.93993" lon="6.71873"></trkpt><trkpt lat="46.93988" lon="6.71868"></trkpt><trkpt lat="46.93983" lon="6.71863"></trkpt><trkpt lat="46.93957" lon="6.71858"></trkpt><trkpt lat="46.93949" lon="6.71855"></trkpt><trkpt lat="46.9394" lon="6.7185"></trkpt><trkpt lat="46.93928" lon="6.71842"></trkpt><trkpt lat="46.93923" lon="6.71838"></trkpt><trkpt lat="46.93919" lon="6.71836"></trkpt><trkpt lat="46.93912" lon="6.71832"></trkpt><trkpt lat="46.93906" lon="6.7183"></trkpt><trkpt lat="46.93901" lon="6.71827"></trkpt><trkpt lat="46.93894" lon="6.71825"></trkpt><trkpt lat="46.93891" lon="6.71832"></trkpt><trkpt lat="46.93888" lon="6.71841"></trkpt><trkpt lat="46.93884" lon="6.71852"></trkpt><trkpt lat="46.93882" lon="6.71857"></trkpt><trkpt lat="46.93878" lon="6.71864"></trkpt><trkpt lat="46.93874" lon="6.71867"></trkpt><trkpt lat="46.93868" lon="6.71871"></trkpt><trkpt lat="46.93862" lon="6.71875"></trkpt><trkpt lat="46.93858" lon="6.71877"></trkpt><trkpt lat="46.93853" lon="6.7188"></trkpt><trkpt lat="46.93846" lon="6.71886"></trkpt><trkpt lat="46.93838" lon="6.7189"></trkpt><trkpt lat="46.93832" lon="6.71893"></trkpt><trkpt lat="46.93824" lon="6.71898"></trkpt><trkpt lat="46.93816" lon="6.71906"></trkpt><trkpt lat="46.93812" lon="6.71909"></trkpt><trkpt lat="46.93808" lon="6.71911"></trkpt><trkpt lat="46.93801" lon="6.71909"></trkpt><trkpt lat="46.93794" lon="6.71907"></trkpt><trkpt lat="46.93787" lon="6.71906"></trkpt><trkpt lat="46.93777" lon="6.71908"></trkpt><trkpt lat="46.93769" lon="6.71912"></trkpt><trkpt lat="46.93765" lon="6.71915"></trkpt><trkpt lat="46.93757" lon="6.71922"></trkpt><trkpt lat="46.93753" lon="6.71925"></trkpt><trkpt lat="46.93749" lon="6.71929"></trkpt><trkpt lat="46.93744" lon="6.71934"></trkpt><trkpt lat="46.93741" lon="6.71936"></trkpt><trkpt lat="46.93738" lon="6.71939"></trkpt><trkpt lat="46.93731" lon="6.71944"></trkpt><trkpt lat="46.93728" lon="6.71947"></trkpt><trkpt lat="46.93719" lon="6.71954"></trkpt><trkpt lat="46.93717" lon="6.71955"></trkpt><trkpt lat="46.93713" lon="6.71959"></trkpt><trkpt lat="46.93711" lon="6.71962"></trkpt><trkpt lat="46.93707" lon="6.71963"></trkpt><trkpt lat="46.93702" lon="6.71967"></trkpt><trkpt lat="46.93697" lon="6.71972"></trkpt><trkpt lat="46.93692" lon="6.71976"></trkpt><trkpt lat="46.93689" lon="6.71981"></trkpt><trkpt lat="46.93687" lon="6.71986"></trkpt><trkpt lat="46.93685" lon="6.71992"></trkpt><trkpt lat="46.93683" lon="6.71998"></trkpt><trkpt lat="46.93679" lon="6.72009"></trkpt><trkpt lat="46.93676" lon="6.72022"></trkpt><trkpt lat="46.93669" lon="6.72043"></trkpt><trkpt lat="46.93668" lon="6.72048"></trkpt><trkpt lat="46.93662" lon="6.72051"></trkpt><trkpt lat="46.93658" lon="6.72054"></trkpt><trkpt lat="46.93653" lon="6.72057"></trkpt><trkpt lat="46.9365" lon="6.72058"></trkpt><trkpt lat="46.93647" lon="6.7206"></trkpt><trkpt lat="46.93645" lon="6.7206"></trkpt><trkpt lat="46.93643" lon="6.72061"></trkpt><trkpt lat="46.9364" lon="6.72062"></trkpt><trkpt lat="46.93637" lon="6.72063"></trkpt><trkpt lat="46.93635" lon="6.72063"></trkpt><trkpt lat="46.93631" lon="6.72065"></trkpt><trkpt lat="46.93628" lon="6.72066"></trkpt><trkpt lat="46.93621" lon="6.72069"></trkpt><trkpt lat="46.93614" lon="6.72072"></trkpt><trkpt lat="46.93601" lon="6.72074"></trkpt><trkpt lat="46.93583" lon="6.72076"></trkpt><trkpt lat="46.93573" lon="6.72076"></trkpt><trkpt lat="46.93567" lon="6.72075"></trkpt><trkpt lat="46.93556" lon="6.72073"></trkpt><trkpt lat="46.93548" lon="6.72071"></trkpt><trkpt lat="46.93542" lon="6.72068"></trkpt><trkpt lat="46.93535" lon="6.7206"></trkpt><trkpt lat="46.93526" lon="6.72049"></trkpt><trkpt lat="46.93519" lon="6.72043"></trkpt><trkpt lat="46.93505" lon="6.72035"></trkpt><trkpt lat="46.93499" lon="6.72034"></trkpt><trkpt lat="46.93494" lon="6.72032"></trkpt><trkpt lat="46.93491" lon="6.72029"></trkpt><trkpt lat="46.93489" lon="6.72028"></trkpt><trkpt lat="46.93486" lon="6.72026"></trkpt><trkpt lat="46.93482" lon="6.72025"></trkpt><trkpt lat="46.93477" lon="6.72024"></trkpt><trkpt lat="46.93473" lon="6.72023"></trkpt><trkpt lat="46.93466" lon="6.7202"></trkpt><trkpt lat="46.93464" lon="6.7202"></trkpt><trkpt lat="46.93458" lon="6.72018"></trkpt><trkpt lat="46.93453" lon="6.72016"></trkpt><trkpt lat="46.93448" lon="6.72014"></trkpt><trkpt lat="46.93442" lon="6.72013"></trkpt><trkpt lat="46.93436" lon="6.72011"></trkpt><trkpt lat="46.93433" lon="6.7201"></trkpt><trkpt lat="46.93427" lon="6.72007"></trkpt><trkpt lat="46.93423" lon="6.72007"></trkpt><trkpt lat="46.93415" lon="6.72009"></trkpt><trkpt lat="46.93408" lon="6.7201"></trkpt><trkpt lat="46.93405" lon="6.72007"></trkpt><trkpt lat="46.93402" lon="6.72005"></trkpt><trkpt lat="46.93398" lon="6.72005"></trkpt><trkpt lat="46.93396" lon="6.72004"></trkpt><trkpt lat="46.93393" lon="6.72002"></trkpt><trkpt lat="46.9339" lon="6.72002"></trkpt><trkpt lat="46.93387" lon="6.72001"></trkpt><trkpt lat="46.93384" lon="6.72002"></trkpt><trkpt lat="46.93377" lon="6.72002"></trkpt><trkpt lat="46.93375" lon="6.72004"></trkpt><trkpt lat="46.9337" lon="6.7201"></trkpt><trkpt lat="46.93364" lon="6.72013"></trkpt><trkpt lat="46.93355" lon="6.72014"></trkpt><trkpt lat="46.93338" lon="6.72019"></trkpt><trkpt lat="46.93327" lon="6.72025"></trkpt><trkpt lat="46.93322" lon="6.72027"></trkpt><trkpt lat="46.93315" lon="6.72032"></trkpt><trkpt lat="46.93311" lon="6.72035"></trkpt><trkpt lat="46.93305" lon="6.72038"></trkpt><trkpt lat="46.93298" lon="6.72042"></trkpt><trkpt lat="46.93293" lon="6.72045"></trkpt><trkpt lat="46.93289" lon="6.72048"></trkpt><trkpt lat="46.93285" lon="6.7205"></trkpt><trkpt lat="46.93283" lon="6.72053"></trkpt><trkpt lat="46.93278" lon="6.72056"></trkpt><trkpt lat="46.93276" lon="6.72058"></trkpt><trkpt lat="46.93272" lon="6.72062"></trkpt><trkpt lat="46.93267" lon="6.72066"></trkpt><trkpt lat="46.93258" lon="6.72074"></trkpt><trkpt lat="46.93251" lon="6.72079"></trkpt><trkpt lat="46.93244" lon="6.72083"></trkpt><trkpt lat="46.93239" lon="6.72086"></trkpt><trkpt lat="46.93236" lon="6.72089"></trkpt><trkpt lat="46.93231" lon="6.72093"></trkpt><trkpt lat="46.93227" lon="6.72096"></trkpt><trkpt lat="46.93224" lon="6.72099"></trkpt><trkpt lat="46.93221" lon="6.72102"></trkpt><trkpt lat="46.93214" lon="6.72108"></trkpt><trkpt lat="46.93208" lon="6.72115"></trkpt><trkpt lat="46.93204" lon="6.7212"></trkpt><trkpt lat="46.93195" lon="6.72129"></trkpt><trkpt lat="46.93185" lon="6.72143"></trkpt><trkpt lat="46.93173" lon="6.72161"></trkpt><trkpt lat="46.93162" lon="6.72178"></trkpt><trkpt lat="46.9315" lon="6.72201"></trkpt><trkpt lat="46.93143" lon="6.72218"></trkpt><trkpt lat="46.93139" lon="6.72229"></trkpt><trkpt lat="46.93135" lon="6.72238"></trkpt><trkpt lat="46.93129" lon="6.72254"></trkpt><trkpt lat="46.93119" lon="6.72279"></trkpt><trkpt lat="46.93111" lon="6.72299"></trkpt><trkpt lat="46.93106" lon="6.72324"></trkpt><trkpt lat="46.93103" lon="6.72348"></trkpt><trkpt lat="46.93103" lon="6.7236"></trkpt><trkpt lat="46.93103" lon="6.72365"></trkpt><trkpt lat="46.93102" lon="6.72369"></trkpt><trkpt lat="46.93101" lon="6.72374"></trkpt><trkpt lat="46.93101" lon="6.72379"></trkpt><trkpt lat="46.931" lon="6.72384"></trkpt><trkpt lat="46.93094" lon="6.72412"></trkpt><trkpt lat="46.93094" lon="6.72418"></trkpt><trkpt lat="46.93093" lon="6.72425"></trkpt><trkpt lat="46.93091" lon="6.72437"></trkpt><trkpt lat="46.9309" lon="6.72444"></trkpt><trkpt lat="46.93089" lon="6.72452"></trkpt><trkpt lat="46.93088" lon="6.72456"></trkpt><trkpt lat="46.93087" lon="6.7246"></trkpt><trkpt lat="46.93086" lon="6.72464"></trkpt><trkpt lat="46.93085" lon="6.7247"></trkpt><trkpt lat="46.93083" lon="6.72475"></trkpt><trkpt lat="46.93082" lon="6.72481"></trkpt><trkpt lat="46.93081" lon="6.72485"></trkpt><trkpt lat="46.93079" lon="6.72493"></trkpt><trkpt lat="46.93078" lon="6.72501"></trkpt><trkpt lat="46.93077" lon="6.72506"></trkpt><trkpt lat="46.93075" lon="6.72513"></trkpt><trkpt lat="46.93074" lon="6.72517"></trkpt><trkpt lat="46.93073" lon="6.7252"></trkpt><trkpt lat="46.93072" lon="6.72524"></trkpt><trkpt lat="46.93071" lon="6.72528"></trkpt><trkpt lat="46.9307" lon="6.72536"></trkpt><trkpt lat="46.9307" lon="6.72539"></trkpt><trkpt lat="46.93069" lon="6.72542"></trkpt><trkpt lat="46.93069" lon="6.72547"></trkpt><trkpt lat="46.93069" lon="6.7255"></trkpt><trkpt lat="46.93068" lon="6.72558"></trkpt><trkpt lat="46.93067" lon="6.72563"></trkpt><trkpt lat="46.93066" lon="6.72569"></trkpt><trkpt lat="46.93065" lon="6.72575"></trkpt><trkpt lat="46.93064" lon="6.72579"></trkpt><trkpt lat="46.93064" lon="6.72582"></trkpt><trkpt lat="46.93064" lon="6.72586"></trkpt><trkpt lat="46.93065" lon="6.7259"></trkpt><trkpt lat="46.93065" lon="6.72596"></trkpt><trkpt lat="46.93065" lon="6.726"></trkpt><trkpt lat="46.93065" lon="6.72605"></trkpt><trkpt lat="46.93066" lon="6.7261"></trkpt><trkpt lat="46.93067" lon="6.72614"></trkpt><trkpt lat="46.93069" lon="6.72622"></trkpt><trkpt lat="46.9307" lon="6.72625"></trkpt><trkpt lat="46.93071" lon="6.7263"></trkpt><trkpt lat="46.93073" lon="6.72634"></trkpt><trkpt lat="46.93075" lon="6.72639"></trkpt><trkpt lat="46.93078" lon="6.72645"></trkpt><trkpt lat="46.93083" lon="6.72655"></trkpt><trkpt lat="46.93096" lon="6.72681"></trkpt><trkpt lat="46.93105" lon="6.72696"></trkpt><trkpt lat="46.93111" lon="6.72707"></trkpt><trkpt lat="46.93121" lon="6.72735"></trkpt><trkpt lat="46.93125" lon="6.7275"></trkpt><trkpt lat="46.93128" lon="6.72759"></trkpt><trkpt lat="46.93132" lon="6.72771"></trkpt><trkpt lat="46.93135" lon="6.72778"></trkpt><trkpt lat="46.93136" lon="6.72786"></trkpt><trkpt lat="46.93139" lon="6.72793"></trkpt><trkpt lat="46.9314" lon="6.72797"></trkpt><trkpt lat="46.93147" lon="6.72817"></trkpt><trkpt lat="46.9315" lon="6.72828"></trkpt><trkpt lat="46.93153" lon="6.72838"></trkpt><trkpt lat="46.93155" lon="6.72844"></trkpt><trkpt lat="46.93155" lon="6.7285"></trkpt><trkpt lat="46.93155" lon="6.72854"></trkpt><trkpt lat="46.93156" lon="6.72861"></trkpt><trkpt lat="46.93156" lon="6.72867"></trkpt><trkpt lat="46.93155" lon="6.72891"></trkpt><trkpt lat="46.93159" lon="6.72892"></trkpt><trkpt lat="46.93158" lon="6.729"></trkpt><trkpt lat="46.93158" lon="6.72902"></trkpt><trkpt lat="46.93156" lon="6.72913"></trkpt><trkpt lat="46.93157" lon="6.72917"></trkpt><trkpt lat="46.93157" lon="6.72921"></trkpt><trkpt lat="46.93158" lon="6.72926"></trkpt><trkpt lat="46.93158" lon="6.72931"></trkpt><trkpt lat="46.93157" lon="6.72935"></trkpt><trkpt lat="46.93157" lon="6.72941"></trkpt><trkpt lat="46.93157" lon="6.72946"></trkpt><trkpt lat="46.93158" lon="6.72952"></trkpt><trkpt lat="46.93159" lon="6.72956"></trkpt><trkpt lat="46.93158" lon="6.7296"></trkpt><trkpt lat="46.93158" lon="6.72963"></trkpt><trkpt lat="46.93158" lon="6.72967"></trkpt><trkpt lat="46.9316" lon="6.72971"></trkpt><trkpt lat="46.9316" lon="6.72973"></trkpt><trkpt lat="46.93163" lon="6.72977"></trkpt><trkpt lat="46.93164" lon="6.7298"></trkpt><trkpt lat="46.93167" lon="6.72983"></trkpt><trkpt lat="46.93169" lon="6.72987"></trkpt><trkpt lat="46.93173" lon="6.72991"></trkpt><trkpt lat="46.93178" lon="6.72997"></trkpt><trkpt lat="46.93183" lon="6.73003"></trkpt><trkpt lat="46.9319" lon="6.73016"></trkpt><trkpt lat="46.93195" lon="6.73026"></trkpt><trkpt lat="46.93198" lon="6.7304"></trkpt><trkpt lat="46.93201" lon="6.73054"></trkpt><trkpt lat="46.93204" lon="6.73064"></trkpt><trkpt lat="46.93207" lon="6.7308"></trkpt><trkpt lat="46.93211" lon="6.73103"></trkpt><trkpt lat="46.93214" lon="6.73118"></trkpt><trkpt lat="46.93217" lon="6.73127"></trkpt><trkpt lat="46.93218" lon="6.73134"></trkpt><trkpt lat="46.93222" lon="6.73141"></trkpt><trkpt lat="46.93225" lon="6.73147"></trkpt><trkpt lat="46.93231" lon="6.73153"></trkpt><trkpt lat="46.93238" lon="6.73159"></trkpt><trkpt lat="46.93241" lon="6.73161"></trkpt><trkpt lat="46.93243" lon="6.73161"></trkpt><trkpt lat="46.93245" lon="6.73162"></trkpt><trkpt lat="46.93246" lon="6.73162"></trkpt><trkpt lat="46.93248" lon="6.73162"></trkpt><trkpt lat="46.93249" lon="6.73164"></trkpt><trkpt lat="46.9325" lon="6.73166"></trkpt><trkpt lat="46.93252" lon="6.73169"></trkpt><trkpt lat="46.93253" lon="6.73171"></trkpt><trkpt lat="46.93257" lon="6.73178"></trkpt><trkpt lat="46.93262" lon="6.73188"></trkpt><trkpt lat="46.93266" lon="6.73199"></trkpt><trkpt lat="46.93272" lon="6.73214"></trkpt><trkpt lat="46.93275" lon="6.73221"></trkpt><trkpt lat="46.93277" lon="6.73224"></trkpt><trkpt lat="46.93281" lon="6.73229"></trkpt><trkpt lat="46.93284" lon="6.73232"></trkpt><trkpt lat="46.93286" lon="6.73236"></trkpt><trkpt lat="46.93288" lon="6.7324"></trkpt><trkpt lat="46.93289" lon="6.73247"></trkpt><trkpt lat="46.93291" lon="6.73254"></trkpt><trkpt lat="46.93292" lon="6.73258"></trkpt><trkpt lat="46.93295" lon="6.73265"></trkpt><trkpt lat="46.93299" lon="6.73273"></trkpt><trkpt lat="46.93302" lon="6.73281"></trkpt><trkpt lat="46.93304" lon="6.73289"></trkpt><trkpt lat="46.93304" lon="6.73307"></trkpt><trkpt lat="46.93304" lon="6.73323"></trkpt><trkpt lat="46.93307" lon="6.73333"></trkpt><trkpt lat="46.9331" lon="6.73344"></trkpt><trkpt lat="46.93314" lon="6.73357"></trkpt><trkpt lat="46.93317" lon="6.7337"></trkpt><trkpt lat="46.93319" lon="6.73375"></trkpt><trkpt lat="46.93322" lon="6.73379"></trkpt><trkpt lat="46.93327" lon="6.73386"></trkpt><trkpt lat="46.93336" lon="6.73397"></trkpt><trkpt lat="46.9334" lon="6.73401"></trkpt><trkpt lat="46.93345" lon="6.73409"></trkpt><trkpt lat="46.93351" lon="6.73419"></trkpt><trkpt lat="46.93354" lon="6.73423"></trkpt><trkpt lat="46.93358" lon="6.73429"></trkpt><trkpt lat="46.9336" lon="6.73433"></trkpt><trkpt lat="46.93367" lon="6.73446"></trkpt><trkpt lat="46.93374" lon="6.73464"></trkpt><trkpt lat="46.93383" lon="6.73485"></trkpt><trkpt lat="46.93388" lon="6.73497"></trkpt><trkpt lat="46.93389" lon="6.735"></trkpt><trkpt lat="46.9339" lon="6.73504"></trkpt><trkpt lat="46.93391" lon="6.73508"></trkpt><trkpt lat="46.9339" lon="6.73511"></trkpt><trkpt lat="46.93389" lon="6.73514"></trkpt><trkpt lat="46.93388" lon="6.73517"></trkpt><trkpt lat="46.93386" lon="6.7352"></trkpt><trkpt lat="46.93387" lon="6.73523"></trkpt><trkpt lat="46.93388" lon="6.73527"></trkpt><trkpt lat="46.93389" lon="6.73534"></trkpt><trkpt lat="46.93391" lon="6.73542"></trkpt><trkpt lat="46.93392" lon="6.73551"></trkpt><trkpt lat="46.93393" lon="6.73561"></trkpt><trkpt lat="46.93394" lon="6.73578"></trkpt><trkpt lat="46.93393" lon="6.7359"></trkpt><trkpt lat="46.93394" lon="6.736"></trkpt><trkpt lat="46.93395" lon="6.7361"></trkpt><trkpt lat="46.93396" lon="6.73616"></trkpt><trkpt lat="46.93396" lon="6.73622"></trkpt><trkpt lat="46.93397" lon="6.73646"></trkpt><trkpt lat="46.93397" lon="6.73654"></trkpt><trkpt lat="46.93398" lon="6.73662"></trkpt><trkpt lat="46.934" lon="6.73671"></trkpt><trkpt lat="46.93401" lon="6.73679"></trkpt><trkpt lat="46.934" lon="6.73685"></trkpt><trkpt lat="46.93398" lon="6.73692"></trkpt><trkpt lat="46.93397" lon="6.73698"></trkpt><trkpt lat="46.93397" lon="6.73701"></trkpt><trkpt lat="46.93398" lon="6.73704"></trkpt><trkpt lat="46.93399" lon="6.73707"></trkpt><trkpt lat="46.934" lon="6.73711"></trkpt><trkpt lat="46.93402" lon="6.73715"></trkpt><trkpt lat="46.93405" lon="6.73721"></trkpt><trkpt lat="46.93407" lon="6.73725"></trkpt><trkpt lat="46.93407" lon="6.7373"></trkpt><trkpt lat="46.93408" lon="6.73733"></trkpt><trkpt lat="46.93408" lon="6.73737"></trkpt><trkpt lat="46.93407" lon="6.7374"></trkpt><trkpt lat="46.93407" lon="6.73744"></trkpt><trkpt lat="46.93407" lon="6.73749"></trkpt><trkpt lat="46.93407" lon="6.73752"></trkpt><trkpt lat="46.93407" lon="6.73755"></trkpt><trkpt lat="46.93408" lon="6.73759"></trkpt><trkpt lat="46.93409" lon="6.73765"></trkpt><trkpt lat="46.93409" lon="6.73768"></trkpt><trkpt lat="46.93408" lon="6.73777"></trkpt><trkpt lat="46.93408" lon="6.73781"></trkpt><trkpt lat="46.93408" lon="6.73787"></trkpt><trkpt lat="46.93408" lon="6.73791"></trkpt><trkpt lat="46.93409" lon="6.73798"></trkpt><trkpt lat="46.93409" lon="6.73805"></trkpt><trkpt lat="46.93409" lon="6.7381"></trkpt><trkpt lat="46.93408" lon="6.73816"></trkpt><trkpt lat="46.93406" lon="6.73824"></trkpt><trkpt lat="46.93405" lon="6.73829"></trkpt><trkpt lat="46.93403" lon="6.73836"></trkpt><trkpt lat="46.93401" lon="6.73843"></trkpt><trkpt lat="46.934" lon="6.73848"></trkpt><trkpt lat="46.934" lon="6.73853"></trkpt><trkpt lat="46.934" lon="6.73859"></trkpt><trkpt lat="46.934" lon="6.73864"></trkpt><trkpt lat="46.93401" lon="6.73868"></trkpt><trkpt lat="46.93402" lon="6.73873"></trkpt><trkpt lat="46.93403" lon="6.73877"></trkpt><trkpt lat="46.93404" lon="6.73887"></trkpt><trkpt lat="46.93407" lon="6.73905"></trkpt><trkpt lat="46.93408" lon="6.73916"></trkpt><trkpt lat="46.9341" lon="6.73927"></trkpt><trkpt lat="46.93411" lon="6.73937"></trkpt><trkpt lat="46.93412" lon="6.73944"></trkpt><trkpt lat="46.93413" lon="6.7395"></trkpt><trkpt lat="46.93412" lon="6.7396"></trkpt><trkpt lat="46.93411" lon="6.7397"></trkpt><trkpt lat="46.93412" lon="6.73981"></trkpt><trkpt lat="46.93411" lon="6.73987"></trkpt><trkpt lat="46.93412" lon="6.73993"></trkpt><trkpt lat="46.93412" lon="6.73998"></trkpt><trkpt lat="46.93411" lon="6.74003"></trkpt><trkpt lat="46.9341" lon="6.74013"></trkpt><trkpt lat="46.93409" lon="6.74017"></trkpt><trkpt lat="46.93409" lon="6.74019"></trkpt><trkpt lat="46.93408" lon="6.74022"></trkpt><trkpt lat="46.93408" lon="6.74024"></trkpt><trkpt lat="46.93408" lon="6.74028"></trkpt><trkpt lat="46.93408" lon="6.74029"></trkpt><trkpt lat="46.93407" lon="6.74031"></trkpt><trkpt lat="46.93407" lon="6.74032"></trkpt><trkpt lat="46.93407" lon="6.74036"></trkpt><trkpt lat="46.93408" lon="6.74039"></trkpt><trkpt lat="46.93408" lon="6.74043"></trkpt><trkpt lat="46.93408" lon="6.74048"></trkpt><trkpt lat="46.93407" lon="6.74052"></trkpt><trkpt lat="46.93406" lon="6.74056"></trkpt><trkpt lat="46.93404" lon="6.7406"></trkpt><trkpt lat="46.93403" lon="6.74063"></trkpt><trkpt lat="46.93402" lon="6.74065"></trkpt><trkpt lat="46.93403" lon="6.74069"></trkpt><trkpt lat="46.93403" lon="6.74071"></trkpt><trkpt lat="46.93402" lon="6.74075"></trkpt><trkpt lat="46.93402" lon="6.74081"></trkpt><trkpt lat="46.93401" lon="6.74086"></trkpt><trkpt lat="46.93402" lon="6.7409"></trkpt><trkpt lat="46.93402" lon="6.74093"></trkpt><trkpt lat="46.93402" lon="6.74097"></trkpt><trkpt lat="46.93401" lon="6.74103"></trkpt><trkpt lat="46.93401" lon="6.74105"></trkpt><trkpt lat="46.93399" lon="6.7411"></trkpt><trkpt lat="46.93399" lon="6.74116"></trkpt><trkpt lat="46.93398" lon="6.74123"></trkpt><trkpt lat="46.93399" lon="6.74129"></trkpt><trkpt lat="46.93398" lon="6.74132"></trkpt><trkpt lat="46.93397" lon="6.74135"></trkpt><trkpt lat="46.93398" lon="6.74141"></trkpt><trkpt lat="46.93398" lon="6.74149"></trkpt><trkpt lat="46.934" lon="6.74153"></trkpt><trkpt lat="46.93402" lon="6.74158"></trkpt><trkpt lat="46.93403" lon="6.74164"></trkpt><trkpt lat="46.93407" lon="6.74173"></trkpt><trkpt lat="46.93411" lon="6.74185"></trkpt><trkpt lat="46.93414" lon="6.74191"></trkpt><trkpt lat="46.93417" lon="6.74196"></trkpt><trkpt lat="46.9342" lon="6.742"></trkpt><trkpt lat="46.93422" lon="6.74203"></trkpt><trkpt lat="46.93428" lon="6.74209"></trkpt><trkpt lat="46.93452" lon="6.74232"></trkpt><trkpt lat="46.93459" lon="6.7424"></trkpt><trkpt lat="46.93464" lon="6.74247"></trkpt><trkpt lat="46.93469" lon="6.74253"></trkpt><trkpt lat="46.93475" lon="6.7426"></trkpt><trkpt lat="46.93481" lon="6.74269"></trkpt><trkpt lat="46.93487" lon="6.74277"></trkpt><trkpt lat="46.93494" lon="6.74288"></trkpt><trkpt lat="46.93501" lon="6.74297"></trkpt><trkpt lat="46.93504" lon="6.74302"></trkpt><trkpt lat="46.93508" lon="6.74308"></trkpt><trkpt lat="46.93511" lon="6.74314"></trkpt><trkpt lat="46.93514" lon="6.7432"></trkpt><trkpt lat="46.93518" lon="6.74328"></trkpt><trkpt lat="46.93523" lon="6.74339"></trkpt><trkpt lat="46.93528" lon="6.74353"></trkpt><trkpt lat="46.93532" lon="6.74364"></trkpt><trkpt lat="46.93537" lon="6.74378"></trkpt><trkpt lat="46.93541" lon="6.74388"></trkpt><trkpt lat="46.93547" lon="6.744"></trkpt><trkpt lat="46.93551" lon="6.74409"></trkpt><trkpt lat="46.93553" lon="6.74418"></trkpt><trkpt lat="46.93556" lon="6.74426"></trkpt><trkpt lat="46.93559" lon="6.74436"></trkpt><trkpt lat="46.93562" lon="6.74446"></trkpt><trkpt lat="46.93567" lon="6.74457"></trkpt><trkpt lat="46.93571" lon="6.74469"></trkpt><trkpt lat="46.93575" lon="6.74479"></trkpt><trkpt lat="46.9358" lon="6.74491"></trkpt><trkpt lat="46.93585" lon="6.74501"></trkpt><trkpt lat="46.93589" lon="6.74511"></trkpt><trkpt lat="46.93592" lon="6.7452"></trkpt><trkpt lat="46.93595" lon="6.74529"></trkpt><trkpt lat="46.93597" lon="6.74534"></trkpt><trkpt lat="46.936" lon="6.74541"></trkpt><trkpt lat="46.93603" lon="6.74549"></trkpt><trkpt lat="46.93608" lon="6.74556"></trkpt><trkpt lat="46.93612" lon="6.74563"></trkpt><trkpt lat="46.93615" lon="6.74571"></trkpt><trkpt lat="46.93618" lon="6.74578"></trkpt><trkpt lat="46.93623" lon="6.74593"></trkpt><trkpt lat="46.93626" lon="6.74601"></trkpt><trkpt lat="46.93628" lon="6.74608"></trkpt><trkpt lat="46.9363" lon="6.74614"></trkpt><trkpt lat="46.93631" lon="6.74622"></trkpt><trkpt lat="46.93632" lon="6.74632"></trkpt><trkpt lat="46.93633" lon="6.74642"></trkpt><trkpt lat="46.93634" lon="6.74654"></trkpt><trkpt lat="46.93635" lon="6.74666"></trkpt><trkpt lat="46.93637" lon="6.74679"></trkpt><trkpt lat="46.93639" lon="6.74692"></trkpt><trkpt lat="46.9364" lon="6.74699"></trkpt><trkpt lat="46.9364" lon="6.74708"></trkpt><trkpt lat="46.93641" lon="6.7472"></trkpt><trkpt lat="46.93641" lon="6.7473"></trkpt><trkpt lat="46.93642" lon="6.74739"></trkpt><trkpt lat="46.93643" lon="6.74744"></trkpt><trkpt lat="46.93644" lon="6.7475"></trkpt><trkpt lat="46.93646" lon="6.74754"></trkpt><trkpt lat="46.93648" lon="6.74758"></trkpt><trkpt lat="46.9365" lon="6.74762"></trkpt><trkpt lat="46.93654" lon="6.74765"></trkpt><trkpt lat="46.9366" lon="6.74769"></trkpt><trkpt lat="46.93666" lon="6.74774"></trkpt><trkpt lat="46.93671" lon="6.74779"></trkpt><trkpt lat="46.93677" lon="6.74785"></trkpt><trkpt lat="46.93682" lon="6.74791"></trkpt><trkpt lat="46.93689" lon="6.74799"></trkpt><trkpt lat="46.93695" lon="6.74807"></trkpt><trkpt lat="46.93702" lon="6.74815"></trkpt><trkpt lat="46.93708" lon="6.74823"></trkpt><trkpt lat="46.93712" lon="6.74829"></trkpt><trkpt lat="46.93716" lon="6.74836"></trkpt><trkpt lat="46.93719" lon="6.74843"></trkpt><trkpt lat="46.93721" lon="6.74849"></trkpt><trkpt lat="46.93722" lon="6.74856"></trkpt><trkpt lat="46.93723" lon="6.74862"></trkpt><trkpt lat="46.93723" lon="6.74872"></trkpt><trkpt lat="46.93723" lon="6.74882"></trkpt><trkpt lat="46.93723" lon="6.74893"></trkpt><trkpt lat="46.93723" lon="6.749"></trkpt><trkpt lat="46.93725" lon="6.74909"></trkpt><trkpt lat="46.93728" lon="6.74919"></trkpt><trkpt lat="46.9373" lon="6.74927"></trkpt><trkpt lat="46.93731" lon="6.74934"></trkpt><trkpt lat="46.93731" lon="6.74949"></trkpt><trkpt lat="46.93732" lon="6.74966"></trkpt><trkpt lat="46.93732" lon="6.74973"></trkpt><trkpt lat="46.93733" lon="6.74981"></trkpt><trkpt lat="46.93736" lon="6.74996"></trkpt><trkpt lat="46.93738" lon="6.75007"></trkpt><trkpt lat="46.93739" lon="6.75013"></trkpt><trkpt lat="46.93739" lon="6.75019"></trkpt><trkpt lat="46.93739" lon="6.75033"></trkpt><trkpt lat="46.93739" lon="6.75048"></trkpt><trkpt lat="46.93739" lon="6.75063"></trkpt><trkpt lat="46.93738" lon="6.75073"></trkpt><trkpt lat="46.93738" lon="6.75078"></trkpt><trkpt lat="46.93737" lon="6.75084"></trkpt><trkpt lat="46.93734" lon="6.75094"></trkpt><trkpt lat="46.93732" lon="6.75102"></trkpt><trkpt lat="46.93729" lon="6.75111"></trkpt><trkpt lat="46.93727" lon="6.75116"></trkpt><trkpt lat="46.93727" lon="6.75122"></trkpt><trkpt lat="46.93726" lon="6.75128"></trkpt><trkpt lat="46.93727" lon="6.75135"></trkpt><trkpt lat="46.93727" lon="6.75143"></trkpt><trkpt lat="46.93728" lon="6.7515"></trkpt><trkpt lat="46.9373" lon="6.75159"></trkpt><trkpt lat="46.93731" lon="6.75167"></trkpt><trkpt lat="46.93732" lon="6.75173"></trkpt><trkpt lat="46.93732" lon="6.75179"></trkpt><trkpt lat="46.93732" lon="6.75191"></trkpt><trkpt lat="46.93733" lon="6.75204"></trkpt><trkpt lat="46.93733" lon="6.75215"></trkpt><trkpt lat="46.93733" lon="6.75224"></trkpt><trkpt lat="46.93733" lon="6.75232"></trkpt><trkpt lat="46.93732" lon="6.75239"></trkpt><trkpt lat="46.93731" lon="6.75249"></trkpt><trkpt lat="46.9373" lon="6.75257"></trkpt><trkpt lat="46.93729" lon="6.75271"></trkpt><trkpt lat="46.93728" lon="6.75282"></trkpt><trkpt lat="46.93727" lon="6.75291"></trkpt><trkpt lat="46.93727" lon="6.75299"></trkpt><trkpt lat="46.93727" lon="6.75313"></trkpt><trkpt lat="46.93727" lon="6.75322"></trkpt><trkpt lat="46.93727" lon="6.75336"></trkpt><trkpt lat="46.93728" lon="6.75347"></trkpt><trkpt lat="46.9373" lon="6.75359"></trkpt><trkpt lat="46.93731" lon="6.7537"></trkpt><trkpt lat="46.93732" lon="6.7538"></trkpt><trkpt lat="46.93732" lon="6.75389"></trkpt><trkpt lat="46.93733" lon="6.75396"></trkpt><trkpt lat="46.93733" lon="6.75406"></trkpt><trkpt lat="46.93732" lon="6.75413"></trkpt><trkpt lat="46.93733" lon="6.7542"></trkpt><trkpt lat="46.93734" lon="6.75426"></trkpt><trkpt lat="46.93735" lon="6.75433"></trkpt><trkpt lat="46.93737" lon="6.75439"></trkpt><trkpt lat="46.93738" lon="6.75438"></trkpt><trkpt lat="46.93739" lon="6.75435"></trkpt><trkpt lat="46.93741" lon="6.75423"></trkpt><trkpt lat="46.93742" lon="6.75418"></trkpt><trkpt lat="46.93744" lon="6.75407"></trkpt><trkpt lat="46.93745" lon="6.75398"></trkpt><trkpt lat="46.93746" lon="6.75387"></trkpt><trkpt lat="46.93747" lon="6.75375"></trkpt><trkpt lat="46.93748" lon="6.75365"></trkpt><trkpt lat="46.9375" lon="6.75356"></trkpt><trkpt lat="46.93754" lon="6.75341"></trkpt><trkpt lat="46.93757" lon="6.75327"></trkpt><trkpt lat="46.9376" lon="6.75314"></trkpt><trkpt lat="46.93764" lon="6.75305"></trkpt><trkpt lat="46.93767" lon="6.75299"></trkpt><trkpt lat="46.93775" lon="6.75288"></trkpt><trkpt lat="46.93787" lon="6.75271"></trkpt><trkpt lat="46.93792" lon="6.75263"></trkpt><trkpt lat="46.93799" lon="6.75251"></trkpt><trkpt lat="46.93803" lon="6.75244"></trkpt><trkpt lat="46.93807" lon="6.75241"></trkpt><trkpt lat="46.93814" lon="6.75237"></trkpt><trkpt lat="46.93822" lon="6.75234"></trkpt><trkpt lat="46.93825" lon="6.75233"></trkpt><trkpt lat="46.93834" lon="6.75232"></trkpt><trkpt lat="46.93844" lon="6.7523"></trkpt><trkpt lat="46.93851" lon="6.7523"></trkpt><trkpt lat="46.93864" lon="6.75232"></trkpt><trkpt lat="46.93871" lon="6.75232"></trkpt><trkpt lat="46.93876" lon="6.75231"></trkpt><trkpt lat="46.93879" lon="6.75229"></trkpt><trkpt lat="46.93884" lon="6.75225"></trkpt><trkpt lat="46.93889" lon="6.7522"></trkpt><trkpt lat="46.93893" lon="6.75211"></trkpt><trkpt lat="46.93898" lon="6.75203"></trkpt><trkpt lat="46.93901" lon="6.75194"></trkpt><trkpt lat="46.93905" lon="6.75182"></trkpt><trkpt lat="46.93908" lon="6.75163"></trkpt><trkpt lat="46.93911" lon="6.75146"></trkpt><trkpt lat="46.93914" lon="6.7513"></trkpt><trkpt lat="46.93918" lon="6.75117"></trkpt><trkpt lat="46.93922" lon="6.75104"></trkpt><trkpt lat="46.9393" lon="6.75088"></trkpt><trkpt lat="46.93934" lon="6.7508"></trkpt><trkpt lat="46.93936" lon="6.75073"></trkpt><trkpt lat="46.93937" lon="6.75064"></trkpt><trkpt lat="46.9394" lon="6.75054"></trkpt><trkpt lat="46.93946" lon="6.75034"></trkpt><trkpt lat="46.9395" lon="6.75023"></trkpt><trkpt lat="46.93955" lon="6.75016"></trkpt><trkpt lat="46.9396" lon="6.75009"></trkpt><trkpt lat="46.93965" lon="6.75001"></trkpt><trkpt lat="46.93969" lon="6.74993"></trkpt><trkpt lat="46.93972" lon="6.74985"></trkpt><trkpt lat="46.93975" lon="6.74975"></trkpt><trkpt lat="46.93977" lon="6.74964"></trkpt><trkpt lat="46.93979" lon="6.74953"></trkpt><trkpt lat="46.93981" lon="6.74947"></trkpt><trkpt lat="46.93983" lon="6.74942"></trkpt><trkpt lat="46.93987" lon="6.74935"></trkpt><trkpt lat="46.93993" lon="6.74929"></trkpt><trkpt lat="46.94" lon="6.74922"></trkpt><trkpt lat="46.94007" lon="6.74916"></trkpt><trkpt lat="46.94013" lon="6.7491"></trkpt><trkpt lat="46.94021" lon="6.74903"></trkpt><trkpt lat="46.94027" lon="6.74897"></trkpt><trkpt lat="46.94033" lon="6.7489"></trkpt><trkpt lat="46.94036" lon="6.74885"></trkpt><trkpt lat="46.94039" lon="6.7488"></trkpt><trkpt lat="46.94041" lon="6.74874"></trkpt><trkpt lat="46.94044" lon="6.74863"></trkpt><trkpt lat="46.94046" lon="6.7485"></trkpt><trkpt lat="46.94048" lon="6.74835"></trkpt><trkpt lat="46.94049" lon="6.74822"></trkpt><trkpt lat="46.9405" lon="6.74802"></trkpt><trkpt lat="46.94053" lon="6.74787"></trkpt><trkpt lat="46.94055" lon="6.7477"></trkpt><trkpt lat="46.94058" lon="6.74754"></trkpt><trkpt lat="46.94061" lon="6.74739"></trkpt><trkpt lat="46.94062" lon="6.74727"></trkpt><trkpt lat="46.94064" lon="6.74715"></trkpt><trkpt lat="46.94067" lon="6.74703"></trkpt><trkpt lat="46.94069" lon="6.74695"></trkpt><trkpt lat="46.94071" lon="6.74687"></trkpt><trkpt lat="46.94075" lon="6.74673"></trkpt><trkpt lat="46.94081" lon="6.7466"></trkpt><trkpt lat="46.94087" lon="6.74647"></trkpt><trkpt lat="46.94094" lon="6.74636"></trkpt><trkpt lat="46.94098" lon="6.74629"></trkpt><trkpt lat="46.94102" lon="6.74622"></trkpt><trkpt lat="46.94105" lon="6.74615"></trkpt><trkpt lat="46.94107" lon="6.74607"></trkpt><trkpt lat="46.94109" lon="6.74599"></trkpt><trkpt lat="46.9411" lon="6.7459"></trkpt><trkpt lat="46.9411" lon="6.74582"></trkpt><trkpt lat="46.9411" lon="6.74573"></trkpt><trkpt lat="46.94108" lon="6.74562"></trkpt><trkpt lat="46.94107" lon="6.7455"></trkpt><trkpt lat="46.94106" lon="6.7454"></trkpt><trkpt lat="46.94105" lon="6.74535"></trkpt><trkpt lat="46.94101" lon="6.74523"></trkpt><trkpt lat="46.94099" lon="6.74513"></trkpt><trkpt lat="46.94097" lon="6.74505"></trkpt><trkpt lat="46.94096" lon="6.74497"></trkpt><trkpt lat="46.94094" lon="6.74486"></trkpt><trkpt lat="46.94092" lon="6.74474"></trkpt><trkpt lat="46.9409" lon="6.74463"></trkpt><trkpt lat="46.94087" lon="6.7445"></trkpt><trkpt lat="46.94084" lon="6.74434"></trkpt><trkpt lat="46.94082" lon="6.74423"></trkpt><trkpt lat="46.94079" lon="6.74413"></trkpt><trkpt lat="46.94076" lon="6.74402"></trkpt><trkpt lat="46.94072" lon="6.74392"></trkpt><trkpt lat="46.94067" lon="6.74378"></trkpt><trkpt lat="46.94062" lon="6.74367"></trkpt><trkpt lat="46.94059" lon="6.74359"></trkpt><trkpt lat="46.94055" lon="6.74349"></trkpt><trkpt lat="46.94051" lon="6.7434"></trkpt><trkpt lat="46.94046" lon="6.7433"></trkpt><trkpt lat="46.94042" lon="6.74321"></trkpt><trkpt lat="46.94038" lon="6.74314"></trkpt><trkpt lat="46.94035" lon="6.74308"></trkpt><trkpt lat="46.94033" lon="6.74302"></trkpt><trkpt lat="46.94031" lon="6.74295"></trkpt><trkpt lat="46.94028" lon="6.74287"></trkpt><trkpt lat="46.94025" lon="6.74278"></trkpt><trkpt lat="46.94021" lon="6.74269"></trkpt><trkpt lat="46.94018" lon="6.74264"></trkpt><trkpt lat="46.94014" lon="6.74259"></trkpt><trkpt lat="46.94011" lon="6.74254"></trkpt><trkpt lat="46.94009" lon="6.74251"></trkpt><trkpt lat="46.94005" lon="6.74244"></trkpt><trkpt lat="46.94001" lon="6.74235"></trkpt><trkpt lat="46.93996" lon="6.74226"></trkpt><trkpt lat="46.93992" lon="6.74217"></trkpt><trkpt lat="46.93987" lon="6.74206"></trkpt><trkpt lat="46.93983" lon="6.74195"></trkpt><trkpt lat="46.93978" lon="6.74185"></trkpt><trkpt lat="46.93974" lon="6.74174"></trkpt><trkpt lat="46.93971" lon="6.74165"></trkpt><trkpt lat="46.93967" lon="6.74153"></trkpt><trkpt lat="46.93963" lon="6.74141"></trkpt><trkpt lat="46.9396" lon="6.74133"></trkpt><trkpt lat="46.93959" lon="6.74126"></trkpt><trkpt lat="46.93958" lon="6.74119"></trkpt><trkpt lat="46.93955" lon="6.74109"></trkpt><trkpt lat="46.93953" lon="6.74099"></trkpt><trkpt lat="46.93951" lon="6.74089"></trkpt><trkpt lat="46.93948" lon="6.7408"></trkpt><trkpt lat="46.93944" lon="6.74071"></trkpt><trkpt lat="46.9394" lon="6.7406"></trkpt><trkpt lat="46.93935" lon="6.74046"></trkpt><trkpt lat="46.93931" lon="6.74036"></trkpt><trkpt lat="46.93928" lon="6.74024"></trkpt><trkpt lat="46.93924" lon="6.74012"></trkpt><trkpt lat="46.93921" lon="6.74"></trkpt><trkpt lat="46.93918" lon="6.73989"></trkpt><trkpt lat="46.93915" lon="6.73975"></trkpt><trkpt lat="46.93913" lon="6.73961"></trkpt><trkpt lat="46.93911" lon="6.73948"></trkpt><trkpt lat="46.93908" lon="6.73935"></trkpt><trkpt lat="46.93905" lon="6.73925"></trkpt><trkpt lat="46.93903" lon="6.73912"></trkpt><trkpt lat="46.93901" lon="6.73899"></trkpt><trkpt lat="46.93899" lon="6.73886"></trkpt><trkpt lat="46.93898" lon="6.73874"></trkpt><trkpt lat="46.93896" lon="6.73863"></trkpt><trkpt lat="46.93896" lon="6.73854"></trkpt><trkpt lat="46.93896" lon="6.73845"></trkpt><trkpt lat="46.93896" lon="6.73836"></trkpt><trkpt lat="46.93897" lon="6.73829"></trkpt><trkpt lat="46.93898" lon="6.7382"></trkpt><trkpt lat="46.939" lon="6.73809"></trkpt><trkpt lat="46.93901" lon="6.73803"></trkpt><trkpt lat="46.93901" lon="6.73797"></trkpt><trkpt lat="46.93902" lon="6.73792"></trkpt><trkpt lat="46.93901" lon="6.73787"></trkpt><trkpt lat="46.93901" lon="6.7378"></trkpt><trkpt lat="46.939" lon="6.73773"></trkpt><trkpt lat="46.93897" lon="6.73762"></trkpt><trkpt lat="46.93894" lon="6.73752"></trkpt><trkpt lat="46.93893" lon="6.73744"></trkpt><trkpt lat="46.93891" lon="6.73733"></trkpt><trkpt lat="46.9389" lon="6.73726"></trkpt><trkpt lat="46.93889" lon="6.7372"></trkpt><trkpt lat="46.93888" lon="6.73714"></trkpt><trkpt lat="46.93885" lon="6.73707"></trkpt><trkpt lat="46.93881" lon="6.73697"></trkpt><trkpt lat="46.93875" lon="6.73687"></trkpt><trkpt lat="46.93871" lon="6.73678"></trkpt><trkpt lat="46.93869" lon="6.73671"></trkpt><trkpt lat="46.93866" lon="6.73662"></trkpt><trkpt lat="46.93863" lon="6.73653"></trkpt><trkpt lat="46.93862" lon="6.73642"></trkpt><trkpt lat="46.9386" lon="6.73632"></trkpt><trkpt lat="46.93859" lon="6.73621"></trkpt><trkpt lat="46.93859" lon="6.73613"></trkpt><trkpt lat="46.9386" lon="6.73607"></trkpt><trkpt lat="46.93862" lon="6.73597"></trkpt><trkpt lat="46.93865" lon="6.73587"></trkpt><trkpt lat="46.93869" lon="6.73573"></trkpt><trkpt lat="46.93872" lon="6.73562"></trkpt><trkpt lat="46.93875" lon="6.73551"></trkpt><trkpt lat="46.93877" lon="6.73542"></trkpt><trkpt lat="46.9388" lon="6.73531"></trkpt><trkpt lat="46.93882" lon="6.73518"></trkpt><trkpt lat="46.93884" lon="6.73506"></trkpt><trkpt lat="46.93887" lon="6.73496"></trkpt><trkpt lat="46.9389" lon="6.73488"></trkpt><trkpt lat="46.93894" lon="6.73477"></trkpt><trkpt lat="46.93896" lon="6.73472"></trkpt><trkpt lat="46.93897" lon="6.73468"></trkpt><trkpt lat="46.93898" lon="6.73465"></trkpt><trkpt lat="46.93898" lon="6.73461"></trkpt><trkpt lat="46.93897" lon="6.73455"></trkpt><trkpt lat="46.93895" lon="6.73447"></trkpt><trkpt lat="46.93892" lon="6.73435"></trkpt><trkpt lat="46.9389" lon="6.73424"></trkpt><trkpt lat="46.93887" lon="6.73413"></trkpt><trkpt lat="46.93884" lon="6.73403"></trkpt><trkpt lat="46.93881" lon="6.73393"></trkpt><trkpt lat="46.93878" lon="6.73384"></trkpt><trkpt lat="46.93877" lon="6.7338"></trkpt><trkpt lat="46.93877" lon="6.73376"></trkpt><trkpt lat="46.93877" lon="6.73371"></trkpt><trkpt lat="46.93878" lon="6.73367"></trkpt><trkpt lat="46.9388" lon="6.73363"></trkpt><trkpt lat="46.93883" lon="6.7336"></trkpt><trkpt lat="46.93887" lon="6.73356"></trkpt><trkpt lat="46.93891" lon="6.73364"></trkpt><trkpt lat="46.93896" lon="6.73374"></trkpt><trkpt lat="46.93901" lon="6.73385"></trkpt><trkpt lat="46.93904" lon="6.7339"></trkpt><trkpt lat="46.93905" lon="6.73395"></trkpt><trkpt lat="46.93906" lon="6.73398"></trkpt><trkpt lat="46.93907" lon="6.73403"></trkpt><trkpt lat="46.93908" lon="6.73414"></trkpt><trkpt lat="46.93908" lon="6.7342"></trkpt><trkpt lat="46.9391" lon="6.73428"></trkpt><trkpt lat="46.93911" lon="6.73435"></trkpt><trkpt lat="46.93914" lon="6.73442"></trkpt><trkpt lat="46.93918" lon="6.73453"></trkpt><trkpt lat="46.93921" lon="6.73459"></trkpt><trkpt lat="46.93922" lon="6.73464"></trkpt><trkpt lat="46.93923" lon="6.7347"></trkpt><trkpt lat="46.93923" lon="6.73476"></trkpt><trkpt lat="46.93922" lon="6.73481"></trkpt><trkpt lat="46.93921" lon="6.73487"></trkpt><trkpt lat="46.9392" lon="6.73492"></trkpt><trkpt lat="46.9392" lon="6.73499"></trkpt><trkpt lat="46.93921" lon="6.73508"></trkpt><trkpt lat="46.93922" lon="6.73519"></trkpt><trkpt lat="46.93923" lon="6.7353"></trkpt><trkpt lat="46.93925" lon="6.73542"></trkpt><trkpt lat="46.93928" lon="6.73555"></trkpt><trkpt lat="46.9393" lon="6.73566"></trkpt><trkpt lat="46.93931" lon="6.73573"></trkpt><trkpt lat="46.93931" lon="6.73581"></trkpt><trkpt lat="46.93931" lon="6.73592"></trkpt><trkpt lat="46.93932" lon="6.73603"></trkpt><trkpt lat="46.93933" lon="6.73611"></trkpt><trkpt lat="46.93935" lon="6.73617"></trkpt><trkpt lat="46.93937" lon="6.73622"></trkpt><trkpt lat="46.93939" lon="6.73625"></trkpt><trkpt lat="46.93944" lon="6.73629"></trkpt><trkpt lat="46.93951" lon="6.73633"></trkpt><trkpt lat="46.93954" lon="6.73636"></trkpt><trkpt lat="46.93957" lon="6.73641"></trkpt><trkpt lat="46.93963" lon="6.73653"></trkpt><trkpt lat="46.93968" lon="6.73665"></trkpt><trkpt lat="46.93973" lon="6.73678"></trkpt><trkpt lat="46.93978" lon="6.7369"></trkpt><trkpt lat="46.93984" lon="6.73703"></trkpt><trkpt lat="46.9399" lon="6.73713"></trkpt><trkpt lat="46.93996" lon="6.73721"></trkpt><trkpt lat="46.94002" lon="6.73731"></trkpt><trkpt lat="46.94008" lon="6.73739"></trkpt><trkpt lat="46.94013" lon="6.73748"></trkpt><trkpt lat="46.94019" lon="6.73757"></trkpt><trkpt lat="46.94025" lon="6.73766"></trkpt><trkpt lat="46.94029" lon="6.73774"></trkpt><trkpt lat="46.94034" lon="6.73784"></trkpt><trkpt lat="46.94038" lon="6.73795"></trkpt><trkpt lat="46.94042" lon="6.73806"></trkpt><trkpt lat="46.94047" lon="6.73816"></trkpt><trkpt lat="46.94052" lon="6.73823"></trkpt><trkpt lat="46.94058" lon="6.73831"></trkpt><trkpt lat="46.94065" lon="6.73842"></trkpt><trkpt lat="46.94073" lon="6.73853"></trkpt><trkpt lat="46.94079" lon="6.7386"></trkpt><trkpt lat="46.94085" lon="6.73868"></trkpt><trkpt lat="46.94092" lon="6.73877"></trkpt><trkpt lat="46.94095" lon="6.73884"></trkpt><trkpt lat="46.94098" lon="6.7389"></trkpt><trkpt lat="46.941" lon="6.73898"></trkpt><trkpt lat="46.94102" lon="6.73904"></trkpt><trkpt lat="46.94104" lon="6.73909"></trkpt><trkpt lat="46.94107" lon="6.73914"></trkpt><trkpt lat="46.94112" lon="6.73922"></trkpt><trkpt lat="46.94119" lon="6.73933"></trkpt><trkpt lat="46.94123" lon="6.73941"></trkpt><trkpt lat="46.94128" lon="6.73951"></trkpt><trkpt lat="46.94133" lon="6.73962"></trkpt><trkpt lat="46.94137" lon="6.73973"></trkpt><trkpt lat="46.94141" lon="6.73986"></trkpt><trkpt lat="46.94145" lon="6.73997"></trkpt><trkpt lat="46.94147" lon="6.74006"></trkpt><trkpt lat="46.94149" lon="6.74015"></trkpt><trkpt lat="46.94149" lon="6.74025"></trkpt><trkpt lat="46.94149" lon="6.74034"></trkpt><trkpt lat="46.94148" lon="6.74039"></trkpt><trkpt lat="46.94146" lon="6.74047"></trkpt><trkpt lat="46.94145" lon="6.74055"></trkpt><trkpt lat="46.94144" lon="6.74061"></trkpt><trkpt lat="46.94148" lon="6.74065"></trkpt><trkpt lat="46.94153" lon="6.74069"></trkpt><trkpt lat="46.94156" lon="6.7407"></trkpt><trkpt lat="46.94159" lon="6.74068"></trkpt><trkpt lat="46.94162" lon="6.74067"></trkpt><trkpt lat="46.94165" lon="6.74066"></trkpt><trkpt lat="46.94167" lon="6.74066"></trkpt><trkpt lat="46.94169" lon="6.74067"></trkpt><trkpt lat="46.94171" lon="6.7407"></trkpt><trkpt lat="46.94173" lon="6.74058"></trkpt><trkpt lat="46.94174" lon="6.74053"></trkpt><trkpt lat="46.94175" lon="6.74037"></trkpt><trkpt lat="46.94175" lon="6.74026"></trkpt><trkpt lat="46.94176" lon="6.74017"></trkpt><trkpt lat="46.94175" lon="6.74008"></trkpt><trkpt lat="46.94174" lon="6.73997"></trkpt><trkpt lat="46.94173" lon="6.7399"></trkpt><trkpt lat="46.94174" lon="6.73984"></trkpt><trkpt lat="46.94174" lon="6.73977"></trkpt><trkpt lat="46.94174" lon="6.7397"></trkpt><trkpt lat="46.94173" lon="6.73961"></trkpt><trkpt lat="46.94172" lon="6.73956"></trkpt><trkpt lat="46.94171" lon="6.73947"></trkpt><trkpt lat="46.9417" lon="6.73939"></trkpt><trkpt lat="46.94169" lon="6.73929"></trkpt><trkpt lat="46.94169" lon="6.73919"></trkpt><trkpt lat="46.94168" lon="6.73914"></trkpt><trkpt lat="46.94166" lon="6.73904"></trkpt><trkpt lat="46.94164" lon="6.73894"></trkpt><trkpt lat="46.94161" lon="6.73882"></trkpt><trkpt lat="46.94158" lon="6.73871"></trkpt><trkpt lat="46.94157" lon="6.73864"></trkpt><trkpt lat="46.94156" lon="6.73859"></trkpt><trkpt lat="46.94156" lon="6.73854"></trkpt><trkpt lat="46.94156" lon="6.73848"></trkpt><trkpt lat="46.94157" lon="6.73838"></trkpt><trkpt lat="46.94156" lon="6.73832"></trkpt><trkpt lat="46.94156" lon="6.73826"></trkpt><trkpt lat="46.94154" lon="6.73819"></trkpt><trkpt lat="46.94153" lon="6.73813"></trkpt><trkpt lat="46.9415" lon="6.73806"></trkpt><trkpt lat="46.94146" lon="6.73797"></trkpt><trkpt lat="46.94141" lon="6.73784"></trkpt><trkpt lat="46.94135" lon="6.73773"></trkpt><trkpt lat="46.94131" lon="6.73763"></trkpt><trkpt lat="46.94127" lon="6.73753"></trkpt><trkpt lat="46.94123" lon="6.73745"></trkpt><trkpt lat="46.94118" lon="6.73735"></trkpt><trkpt lat="46.94114" lon="6.73725"></trkpt><trkpt lat="46.94111" lon="6.7372"></trkpt><trkpt lat="46.94109" lon="6.73714"></trkpt><trkpt lat="46.94107" lon="6.73708"></trkpt><trkpt lat="46.94105" lon="6.73701"></trkpt><trkpt lat="46.94102" lon="6.73692"></trkpt><trkpt lat="46.94099" lon="6.73684"></trkpt><trkpt lat="46.94096" lon="6.73676"></trkpt><trkpt lat="46.94093" lon="6.73669"></trkpt><trkpt lat="46.94088" lon="6.73659"></trkpt><trkpt lat="46.94085" lon="6.73652"></trkpt><trkpt lat="46.94083" lon="6.73644"></trkpt><trkpt lat="46.9408" lon="6.73634"></trkpt><trkpt lat="46.94077" lon="6.73623"></trkpt><trkpt lat="46.94073" lon="6.7361"></trkpt><trkpt lat="46.9407" lon="6.73599"></trkpt><trkpt lat="46.94067" lon="6.73587"></trkpt><trkpt lat="46.94066" lon="6.73582"></trkpt><trkpt lat="46.94066" lon="6.73578"></trkpt><trkpt lat="46.94067" lon="6.73573"></trkpt><trkpt lat="46.94069" lon="6.73568"></trkpt><trkpt lat="46.94072" lon="6.73561"></trkpt><trkpt lat="46.94075" lon="6.73553"></trkpt><trkpt lat="46.94078" lon="6.73548"></trkpt><trkpt lat="46.94082" lon="6.73542"></trkpt><trkpt lat="46.94086" lon="6.73537"></trkpt><trkpt lat="46.94088" lon="6.73534"></trkpt><trkpt lat="46.94089" lon="6.7353"></trkpt><trkpt lat="46.94089" lon="6.73525"></trkpt><trkpt lat="46.94089" lon="6.73519"></trkpt><trkpt lat="46.94088" lon="6.73512"></trkpt><trkpt lat="46.94086" lon="6.73506"></trkpt><trkpt lat="46.94083" lon="6.735"></trkpt><trkpt lat="46.9408" lon="6.73493"></trkpt><trkpt lat="46.94079" lon="6.73488"></trkpt><trkpt lat="46.94078" lon="6.73483"></trkpt><trkpt lat="46.94079" lon="6.7348"></trkpt><trkpt lat="46.9408" lon="6.73476"></trkpt><trkpt lat="46.94083" lon="6.73473"></trkpt><trkpt lat="46.94085" lon="6.73472"></trkpt><trkpt lat="46.94086" lon="6.73473"></trkpt><trkpt lat="46.94089" lon="6.73474"></trkpt><trkpt lat="46.94093" lon="6.73478"></trkpt><trkpt lat="46.94097" lon="6.73484"></trkpt><trkpt lat="46.941" lon="6.7349"></trkpt><trkpt lat="46.94104" lon="6.73498"></trkpt><trkpt lat="46.94109" lon="6.73507"></trkpt><trkpt lat="46.94113" lon="6.73517"></trkpt><trkpt lat="46.94116" lon="6.73526"></trkpt><trkpt lat="46.9412" lon="6.73537"></trkpt><trkpt lat="46.94123" lon="6.73547"></trkpt><trkpt lat="46.94126" lon="6.73558"></trkpt><trkpt lat="46.9413" lon="6.73571"></trkpt><trkpt lat="46.94133" lon="6.73579"></trkpt><trkpt lat="46.94136" lon="6.73584"></trkpt><trkpt lat="46.94138" lon="6.73586"></trkpt><trkpt lat="46.94142" lon="6.73585"></trkpt><trkpt lat="46.94144" lon="6.73583"></trkpt><trkpt lat="46.94146" lon="6.73579"></trkpt><trkpt lat="46.94147" lon="6.73574"></trkpt><trkpt lat="46.94148" lon="6.73566"></trkpt><trkpt lat="46.94148" lon="6.73558"></trkpt><trkpt lat="46.9415" lon="6.73549"></trkpt><trkpt lat="46.94153" lon="6.7354"></trkpt><trkpt lat="46.94155" lon="6.73535"></trkpt><trkpt lat="46.94159" lon="6.73529"></trkpt><trkpt lat="46.94165" lon="6.73524"></trkpt><trkpt lat="46.9417" lon="6.73519"></trkpt><trkpt lat="46.94176" lon="6.73514"></trkpt><trkpt lat="46.94179" lon="6.73511"></trkpt><trkpt lat="46.94183" lon="6.7351"></trkpt><trkpt lat="46.94187" lon="6.7351"></trkpt><trkpt lat="46.94189" lon="6.73511"></trkpt><trkpt lat="46.94192" lon="6.73514"></trkpt><trkpt lat="46.94196" lon="6.73517"></trkpt><trkpt lat="46.94201" lon="6.73523"></trkpt><trkpt lat="46.94205" lon="6.73528"></trkpt><trkpt lat="46.94208" lon="6.73533"></trkpt><trkpt lat="46.94209" lon="6.73535"></trkpt><trkpt lat="46.94213" lon="6.73543"></trkpt><trkpt lat="46.94218" lon="6.7355"></trkpt><trkpt lat="46.94222" lon="6.73561"></trkpt><trkpt lat="46.94226" lon="6.73568"></trkpt><trkpt lat="46.94229" lon="6.73573"></trkpt><trkpt lat="46.94234" lon="6.73579"></trkpt><trkpt lat="46.94239" lon="6.73586"></trkpt><trkpt lat="46.94241" lon="6.73589"></trkpt><trkpt lat="46.94245" lon="6.73592"></trkpt><trkpt lat="46.94251" lon="6.73596"></trkpt><trkpt lat="46.94257" lon="6.73599"></trkpt><trkpt lat="46.9426" lon="6.73602"></trkpt><trkpt lat="46.94262" lon="6.73606"></trkpt><trkpt lat="46.94265" lon="6.73611"></trkpt><trkpt lat="46.94267" lon="6.73614"></trkpt><trkpt lat="46.94268" lon="6.73617"></trkpt><trkpt lat="46.94273" lon="6.73625"></trkpt><trkpt lat="46.94277" lon="6.73632"></trkpt><trkpt lat="46.94281" lon="6.73641"></trkpt><trkpt lat="46.94285" lon="6.73645"></trkpt><trkpt lat="46.94291" lon="6.73652"></trkpt><trkpt lat="46.94297" lon="6.73657"></trkpt><trkpt lat="46.94301" lon="6.7366"></trkpt><trkpt lat="46.94308" lon="6.73664"></trkpt><trkpt lat="46.94316" lon="6.73666"></trkpt><trkpt lat="46.94323" lon="6.73669"></trkpt><trkpt lat="46.9433" lon="6.73674"></trkpt><trkpt lat="46.94335" lon="6.73677"></trkpt><trkpt lat="46.94339" lon="6.73681"></trkpt><trkpt lat="46.94343" lon="6.73686"></trkpt><trkpt lat="46.94348" lon="6.73682"></trkpt><trkpt lat="46.94352" lon="6.73678"></trkpt><trkpt lat="46.94353" lon="6.73674"></trkpt><trkpt lat="46.94354" lon="6.7367"></trkpt><trkpt lat="46.94355" lon="6.73664"></trkpt><trkpt lat="46.94354" lon="6.73655"></trkpt><trkpt lat="46.94353" lon="6.73647"></trkpt><trkpt lat="46.94353" lon="6.73644"></trkpt><trkpt lat="46.94351" lon="6.73631"></trkpt><trkpt lat="46.9435" lon="6.73615"></trkpt><trkpt lat="46.94345" lon="6.73544"></trkpt><trkpt lat="46.94345" lon="6.73541"></trkpt><trkpt lat="46.94346" lon="6.73539"></trkpt><trkpt lat="46.94349" lon="6.73536"></trkpt><trkpt lat="46.94352" lon="6.73534"></trkpt><trkpt lat="46.94356" lon="6.73533"></trkpt><trkpt lat="46.94361" lon="6.73532"></trkpt><trkpt lat="46.94366" lon="6.73531"></trkpt><trkpt lat="46.94371" lon="6.73529"></trkpt><trkpt lat="46.94377" lon="6.73525"></trkpt><trkpt lat="46.94384" lon="6.7352"></trkpt><trkpt lat="46.9439" lon="6.73516"></trkpt><trkpt lat="46.94394" lon="6.73514"></trkpt><trkpt lat="46.94398" lon="6.73512"></trkpt><trkpt lat="46.94402" lon="6.73512"></trkpt><trkpt lat="46.94406" lon="6.73513"></trkpt><trkpt lat="46.9441" lon="6.73516"></trkpt><trkpt lat="46.94414" lon="6.73519"></trkpt><trkpt lat="46.94417" lon="6.73523"></trkpt><trkpt lat="46.94424" lon="6.73531"></trkpt><trkpt lat="46.94427" lon="6.73532"></trkpt><trkpt lat="46.94431" lon="6.73531"></trkpt><trkpt lat="46.94435" lon="6.73529"></trkpt><trkpt lat="46.94439" lon="6.73523"></trkpt><trkpt lat="46.94443" lon="6.73516"></trkpt><trkpt lat="46.94448" lon="6.73508"></trkpt><trkpt lat="46.94453" lon="6.73499"></trkpt><trkpt lat="46.94465" lon="6.7348"></trkpt><trkpt lat="46.94482" lon="6.73456"></trkpt><trkpt lat="46.94494" lon="6.73439"></trkpt><trkpt lat="46.94501" lon="6.73428"></trkpt><trkpt lat="46.94508" lon="6.73415"></trkpt><trkpt lat="46.94512" lon="6.73405"></trkpt><trkpt lat="46.94519" lon="6.7339"></trkpt><trkpt lat="46.94525" lon="6.7338"></trkpt><trkpt lat="46.94529" lon="6.73371"></trkpt><trkpt lat="46.9453" lon="6.73363"></trkpt><trkpt lat="46.9453" lon="6.73357"></trkpt><trkpt lat="46.94529" lon="6.73351"></trkpt><trkpt lat="46.94528" lon="6.73348"></trkpt><trkpt lat="46.94526" lon="6.73347"></trkpt><trkpt lat="46.94524" lon="6.73346"></trkpt><trkpt lat="46.94524" lon="6.73343"></trkpt><trkpt lat="46.94523" lon="6.73337"></trkpt><trkpt lat="46.94522" lon="6.73331"></trkpt><trkpt lat="46.94521" lon="6.73327"></trkpt><trkpt lat="46.94521" lon="6.73323"></trkpt><trkpt lat="46.94522" lon="6.73314"></trkpt><trkpt lat="46.94523" lon="6.73304"></trkpt><trkpt lat="46.94526" lon="6.73295"></trkpt><trkpt lat="46.9453" lon="6.73289"></trkpt><trkpt lat="46.9453" lon="6.73281"></trkpt><trkpt lat="46.94529" lon="6.73272"></trkpt><trkpt lat="46.94531" lon="6.73263"></trkpt><trkpt lat="46.94534" lon="6.73252"></trkpt><trkpt lat="46.9454" lon="6.73243"></trkpt><trkpt lat="46.94547" lon="6.73233"></trkpt><trkpt lat="46.94553" lon="6.73225"></trkpt><trkpt lat="46.94556" lon="6.7322"></trkpt><trkpt lat="46.94559" lon="6.73214"></trkpt><trkpt lat="46.9456" lon="6.73209"></trkpt><trkpt lat="46.94563" lon="6.73204"></trkpt><trkpt lat="46.94576" lon="6.732"></trkpt><trkpt lat="46.94591" lon="6.73196"></trkpt><trkpt lat="46.946" lon="6.73195"></trkpt><trkpt lat="46.94612" lon="6.7319"></trkpt><trkpt lat="46.94623" lon="6.73189"></trkpt><trkpt lat="46.94632" lon="6.73188"></trkpt><trkpt lat="46.94639" lon="6.73182"></trkpt><trkpt lat="46.94646" lon="6.73176"></trkpt><trkpt lat="46.94653" lon="6.73172"></trkpt><trkpt lat="46.94666" lon="6.73164"></trkpt><trkpt lat="46.94683" lon="6.73154"></trkpt><trkpt lat="46.94703" lon="6.73139"></trkpt><trkpt lat="46.94719" lon="6.73127"></trkpt><trkpt lat="46.94728" lon="6.73119"></trkpt><trkpt lat="46.9474" lon="6.73113"></trkpt><trkpt lat="46.94748" lon="6.73109"></trkpt><trkpt lat="46.94764" lon="6.73102"></trkpt><trkpt lat="46.94774" lon="6.73096"></trkpt><trkpt lat="46.94791" lon="6.73084"></trkpt><trkpt lat="46.9481" lon="6.73069"></trkpt><trkpt lat="46.94823" lon="6.73054"></trkpt><trkpt lat="46.94838" lon="6.73036"></trkpt><trkpt lat="46.94851" lon="6.73021"></trkpt><trkpt lat="46.94858" lon="6.73012"></trkpt><trkpt lat="46.94863" lon="6.73"></trkpt><trkpt lat="46.94868" lon="6.72998"></trkpt><trkpt lat="46.94875" lon="6.72999"></trkpt><trkpt lat="46.94882" lon="6.73004"></trkpt><trkpt lat="46.94889" lon="6.73009"></trkpt><trkpt lat="46.94893" lon="6.73012"></trkpt><trkpt lat="46.94897" lon="6.73016"></trkpt><trkpt lat="46.94897" lon="6.73018"></trkpt><trkpt lat="46.94906" lon="6.73034"></trkpt><trkpt lat="46.94916" lon="6.73045"></trkpt><trkpt lat="46.94936" lon="6.73062"></trkpt><trkpt lat="46.94951" lon="6.73083"></trkpt><trkpt lat="46.94956" lon="6.7309"></trkpt><trkpt lat="46.94961" lon="6.73095"></trkpt><trkpt lat="46.94965" lon="6.73102"></trkpt><trkpt lat="46.94969" lon="6.7311"></trkpt><trkpt lat="46.94973" lon="6.73115"></trkpt><trkpt lat="46.94976" lon="6.73121"></trkpt><trkpt lat="46.94977" lon="6.73124"></trkpt><trkpt lat="46.9498" lon="6.73129"></trkpt><trkpt lat="46.94983" lon="6.73136"></trkpt><trkpt lat="46.94987" lon="6.73145"></trkpt><trkpt lat="46.9499" lon="6.73149"></trkpt><trkpt lat="46.94994" lon="6.73153"></trkpt><trkpt lat="46.94998" lon="6.73155"></trkpt><trkpt lat="46.95001" lon="6.73159"></trkpt><trkpt lat="46.95005" lon="6.73163"></trkpt><trkpt lat="46.9501" lon="6.73167"></trkpt><trkpt lat="46.95014" lon="6.7317"></trkpt><trkpt lat="46.9502" lon="6.73172"></trkpt><trkpt lat="46.95025" lon="6.73174"></trkpt><trkpt lat="46.9505" lon="6.7318"></trkpt><trkpt lat="46.95063" lon="6.73185"></trkpt><trkpt lat="46.95073" lon="6.73187"></trkpt><trkpt lat="46.95077" lon="6.73186"></trkpt><trkpt lat="46.9508" lon="6.73185"></trkpt><trkpt lat="46.95084" lon="6.73185"></trkpt><trkpt lat="46.95089" lon="6.73186"></trkpt><trkpt lat="46.95093" lon="6.73186"></trkpt><trkpt lat="46.95097" lon="6.73186"></trkpt><trkpt lat="46.95098" lon="6.73185"></trkpt><trkpt lat="46.95099" lon="6.73182"></trkpt><trkpt lat="46.95099" lon="6.73179"></trkpt><trkpt lat="46.95099" lon="6.73175"></trkpt><trkpt lat="46.951" lon="6.73173"></trkpt><trkpt lat="46.95101" lon="6.73173"></trkpt><trkpt lat="46.95103" lon="6.73174"></trkpt><trkpt lat="46.95106" lon="6.73176"></trkpt><trkpt lat="46.95107" lon="6.73175"></trkpt><trkpt lat="46.95108" lon="6.73172"></trkpt><trkpt lat="46.95108" lon="6.73167"></trkpt><trkpt lat="46.95109" lon="6.73161"></trkpt><trkpt lat="46.9511" lon="6.73159"></trkpt><trkpt lat="46.9511" lon="6.73156"></trkpt><trkpt lat="46.95112" lon="6.73154"></trkpt><trkpt lat="46.95113" lon="6.73148"></trkpt><trkpt lat="46.95112" lon="6.7314"></trkpt><trkpt lat="46.95113" lon="6.73135"></trkpt><trkpt lat="46.95113" lon="6.73128"></trkpt><trkpt lat="46.95114" lon="6.73121"></trkpt><trkpt lat="46.95115" lon="6.73115"></trkpt><trkpt lat="46.95116" lon="6.7311"></trkpt><trkpt lat="46.95117" lon="6.73103"></trkpt><trkpt lat="46.95118" lon="6.73096"></trkpt><trkpt lat="46.95119" lon="6.73091"></trkpt><trkpt lat="46.9512" lon="6.73086"></trkpt><trkpt lat="46.95121" lon="6.73081"></trkpt><trkpt lat="46.95122" lon="6.73078"></trkpt><trkpt lat="46.95122" lon="6.73074"></trkpt><trkpt lat="46.95122" lon="6.7307"></trkpt><trkpt lat="46.95122" lon="6.73064"></trkpt><trkpt lat="46.95124" lon="6.73057"></trkpt><trkpt lat="46.95127" lon="6.73056"></trkpt><trkpt lat="46.9513" lon="6.73053"></trkpt><trkpt lat="46.95132" lon="6.73049"></trkpt><trkpt lat="46.95134" lon="6.73043"></trkpt><trkpt lat="46.95136" lon="6.73029"></trkpt><trkpt lat="46.95131" lon="6.73014"></trkpt><trkpt lat="46.95129" lon="6.73005"></trkpt><trkpt lat="46.95122" lon="6.72962"></trkpt><trkpt lat="46.95113" lon="6.72912"></trkpt><trkpt lat="46.95104" lon="6.72867"></trkpt><trkpt lat="46.95097" lon="6.72823"></trkpt><trkpt lat="46.95094" lon="6.72809"></trkpt><trkpt lat="46.95094" lon="6.72803"></trkpt><trkpt lat="46.95094" lon="6.72799"></trkpt><trkpt lat="46.95095" lon="6.72795"></trkpt><trkpt lat="46.95097" lon="6.72791"></trkpt><trkpt lat="46.951" lon="6.72787"></trkpt><trkpt lat="46.95105" lon="6.72785"></trkpt><trkpt lat="46.95111" lon="6.72783"></trkpt><trkpt lat="46.95122" lon="6.7278"></trkpt><trkpt lat="46.95129" lon="6.72777"></trkpt><trkpt lat="46.95134" lon="6.72774"></trkpt><trkpt lat="46.95138" lon="6.72771"></trkpt><trkpt lat="46.95142" lon="6.72766"></trkpt><trkpt lat="46.95145" lon="6.72761"></trkpt><trkpt lat="46.95152" lon="6.72746"></trkpt><trkpt lat="46.95166" lon="6.7271"></trkpt><trkpt lat="46.9518" lon="6.72676"></trkpt><trkpt lat="46.95189" lon="6.72657"></trkpt><trkpt lat="46.95193" lon="6.72648"></trkpt><trkpt lat="46.95199" lon="6.72639"></trkpt><trkpt lat="46.95205" lon="6.7263"></trkpt><trkpt lat="46.9521" lon="6.72625"></trkpt><trkpt lat="46.95216" lon="6.72619"></trkpt><trkpt lat="46.9522" lon="6.72617"></trkpt><trkpt lat="46.95225" lon="6.72613"></trkpt><trkpt lat="46.95254" lon="6.72594"></trkpt><trkpt lat="46.9527" lon="6.72584"></trkpt><trkpt lat="46.95282" lon="6.72576"></trkpt><trkpt lat="46.95292" lon="6.72567"></trkpt><trkpt lat="46.95296" lon="6.72562"></trkpt><trkpt lat="46.95301" lon="6.72555"></trkpt><trkpt lat="46.95306" lon="6.72549"></trkpt><trkpt lat="46.9531" lon="6.72542"></trkpt><trkpt lat="46.95322" lon="6.72508"></trkpt><trkpt lat="46.9534" lon="6.7246"></trkpt><trkpt lat="46.9535" lon="6.72432"></trkpt><trkpt lat="46.95352" lon="6.72428"></trkpt><trkpt lat="46.95354" lon="6.72426"></trkpt><trkpt lat="46.95358" lon="6.72425"></trkpt><trkpt lat="46.95362" lon="6.72426"></trkpt><trkpt lat="46.95365" lon="6.72428"></trkpt><trkpt lat="46.95369" lon="6.72431"></trkpt><trkpt lat="46.95374" lon="6.72434"></trkpt><trkpt lat="46.95378" lon="6.72438"></trkpt><trkpt lat="46.95389" lon="6.7245"></trkpt><trkpt lat="46.95398" lon="6.72458"></trkpt><trkpt lat="46.95402" lon="6.7246"></trkpt><trkpt lat="46.95406" lon="6.72461"></trkpt><trkpt lat="46.95412" lon="6.72461"></trkpt><trkpt lat="46.95425" lon="6.72463"></trkpt><trkpt lat="46.95433" lon="6.72464"></trkpt><trkpt lat="46.95461" lon="6.72467"></trkpt><trkpt lat="46.95489" lon="6.72471"></trkpt><trkpt lat="46.95493" lon="6.72471"></trkpt><trkpt lat="46.95497" lon="6.72471"></trkpt><trkpt lat="46.95498" lon="6.72445"></trkpt><trkpt lat="46.95498" lon="6.72415"></trkpt><trkpt lat="46.955" lon="6.72368"></trkpt><trkpt lat="46.95503" lon="6.72295"></trkpt><trkpt lat="46.95504" lon="6.72257"></trkpt><trkpt lat="46.95504" lon="6.72253"></trkpt><trkpt lat="46.95506" lon="6.72247"></trkpt></trkseg></trk></gpx>
