<?xml version="1.0" encoding="UTF-8"?>
<gpx version="1.1" creator="Good Shit" xmlns="http://www.topografix.com/GPX/1/1"><trk><name>Lapis de Zanfleuron — Zanfleuron–Prarochet–Sanetsch path-aligned traverse [planning only — not navigation-grade]</name><trkseg><trkpt lat="46.322748" lon="7.299738"></trkpt><trkpt lat="46.32275164805778" lon="7.299733282040777"></trkpt><trkpt lat="46.3227114" lon="7.2996689"></trkpt><trkpt lat="46.3226797" lon="7.2996127"></trkpt><trkpt lat="46.3226592" lon="7.299566"></trkpt><trkpt lat="46.3226453" lon="7.2995216"></trkpt><trkpt lat="46.3226389" lon="7.2994906"></trkpt><trkpt lat="46.3226361" lon="7.2994546"></trkpt><trkpt lat="46.3226364" lon="7.2994261"></trkpt><trkpt lat="46.3226406" lon="7.299396"></trkpt><trkpt lat="46.3226483" lon="7.299365"></trkpt><trkpt lat="46.3226643" lon="7.2993184"></trkpt><trkpt lat="46.3227135" lon="7.2992105"></trkpt><trkpt lat="46.3227548" lon="7.2991334"></trkpt><trkpt lat="46.3228139" lon="7.2990445"></trkpt><trkpt lat="46.3229138" lon="7.2989229"></trkpt><trkpt lat="46.3230523" lon="7.2987398"></trkpt><trkpt lat="46.3231791" lon="7.2985538"></trkpt><trkpt lat="46.323241" lon="7.2984693"></trkpt><trkpt lat="46.3232862" lon="7.2984132"></trkpt><trkpt lat="46.3233511" lon="7.2983481"></trkpt><trkpt lat="46.323436" lon="7.2982746"></trkpt><trkpt lat="46.3234687" lon="7.2982438"></trkpt><trkpt lat="46.3234834" lon="7.2982215"></trkpt><trkpt lat="46.3234964" lon="7.2981896"></trkpt><trkpt lat="46.3235076" lon="7.2981539"></trkpt><trkpt lat="46.3235141" lon="7.298105"></trkpt><trkpt lat="46.3235176" lon="7.2980682"></trkpt><trkpt lat="46.3235147" lon="7.2980329"></trkpt><trkpt lat="46.3235034" lon="7.2979552"></trkpt><trkpt lat="46.3234977" lon="7.2979016"></trkpt><trkpt lat="46.3234998" lon="7.2978352"></trkpt><trkpt lat="46.32351" lon="7.2977452"></trkpt><trkpt lat="46.3235366" lon="7.2976331"></trkpt><trkpt lat="46.3235409" lon="7.2975901"></trkpt><trkpt lat="46.3235421" lon="7.2975522"></trkpt><trkpt lat="46.32354" lon="7.2975133"></trkpt><trkpt lat="46.3235346" lon="7.2974753"></trkpt><trkpt lat="46.3235264" lon="7.297451"></trkpt><trkpt lat="46.3235185" lon="7.2974373"></trkpt><trkpt lat="46.3235016" lon="7.2974167"></trkpt><trkpt lat="46.3234839" lon="7.2974065"></trkpt><trkpt lat="46.3234487" lon="7.2973953"></trkpt><trkpt lat="46.3233926" lon="7.2973893"></trkpt><trkpt lat="46.3233419" lon="7.2973851"></trkpt><trkpt lat="46.3233099" lon="7.2973682"></trkpt><trkpt lat="46.323282" lon="7.2973395"></trkpt><trkpt lat="46.3232201" lon="7.2972384"></trkpt><trkpt lat="46.3232224" lon="7.2971057"></trkpt><trkpt lat="46.3231124" lon="7.2968103"></trkpt><trkpt lat="46.3230134" lon="7.2965636"></trkpt><trkpt lat="46.322991" lon="7.2964551"></trkpt><trkpt lat="46.3230402" lon="7.2963963"></trkpt><trkpt lat="46.3230976" lon="7.296271"></trkpt><trkpt lat="46.3230859" lon="7.2951331"></trkpt><trkpt lat="46.3230727" lon="7.2936936"></trkpt><trkpt lat="46.3230067" lon="7.2926371"></trkpt><trkpt lat="46.32232" lon="7.2919239"></trkpt><trkpt lat="46.322189325591275" lon="7.291590458486568"></trkpt><trkpt lat="46.322275" lon="7.291521"></trkpt><trkpt lat="46.322189325591275" lon="7.291590458486568"></trkpt><trkpt lat="46.321937" lon="7.2909466"></trkpt><trkpt lat="46.321937" lon="7.2897185"></trkpt><trkpt lat="46.3220426" lon="7.2893883"></trkpt><trkpt lat="46.3220162" lon="7.28886"></trkpt><trkpt lat="46.3216465" lon="7.2882393"></trkpt><trkpt lat="46.320722" lon="7.2868791"></trkpt><trkpt lat="46.3204783" lon="7.2867651"></trkpt><trkpt lat="46.3203403" lon="7.2867786"></trkpt><trkpt lat="46.3201626" lon="7.2866617"></trkpt><trkpt lat="46.3200655" lon="7.2863568"></trkpt><trkpt lat="46.3199528" lon="7.2861416"></trkpt><trkpt lat="46.3199068" lon="7.2859693"></trkpt><trkpt lat="46.3198231" lon="7.2858704"></trkpt><trkpt lat="46.3197334" lon="7.2857936"></trkpt><trkpt lat="46.3193221" lon="7.2853736"></trkpt><trkpt lat="46.3191974" lon="7.2851402"></trkpt><trkpt lat="46.3191356" lon="7.2848717"></trkpt><trkpt lat="46.3190967" lon="7.2845803"></trkpt><trkpt lat="46.318908957326066" lon="7.284179641757266"></trkpt><trkpt lat="46.318922" lon="7.284167"></trkpt><trkpt lat="46.318908957326066" lon="7.284179641757266"></trkpt><trkpt lat="46.3187939" lon="7.2839341"></trkpt><trkpt lat="46.3186927" lon="7.2836376"></trkpt><trkpt lat="46.3186252" lon="7.2835814"></trkpt><trkpt lat="46.3184374" lon="7.283526"></trkpt><trkpt lat="46.3183904" lon="7.2834537"></trkpt><trkpt lat="46.3183053" lon="7.2832077"></trkpt><trkpt lat="46.3182128" lon="7.2824946"></trkpt><trkpt lat="46.3181016" lon="7.2819709"></trkpt><trkpt lat="46.3180111" lon="7.2813211"></trkpt><trkpt lat="46.3179326" lon="7.2810446"></trkpt><trkpt lat="46.3179033" lon="7.2807854"></trkpt><trkpt lat="46.3174865" lon="7.2793779"></trkpt><trkpt lat="46.3171695" lon="7.2783214"></trkpt><trkpt lat="46.3169186" lon="7.277463"></trkpt><trkpt lat="46.3166545" lon="7.2763801"></trkpt><trkpt lat="46.3165359" lon="7.2760684"></trkpt><trkpt lat="46.316447" lon="7.2759985"></trkpt><trkpt lat="46.3164325" lon="7.2758289"></trkpt><trkpt lat="46.3162529540085" lon="7.275819831095327"></trkpt><trkpt lat="46.316254" lon="7.275777"></trkpt><trkpt lat="46.3162529540085" lon="7.275819831095327"></trkpt><trkpt lat="46.3162365" lon="7.275819"></trkpt><trkpt lat="46.3160638" lon="7.2757495"></trkpt><trkpt lat="46.3160074" lon="7.2756537"></trkpt><trkpt lat="46.3155848" lon="7.2747821"></trkpt><trkpt lat="46.3155314" lon="7.2744344"></trkpt><trkpt lat="46.3153684" lon="7.2740696"></trkpt><trkpt lat="46.3150645" lon="7.2737156"></trkpt><trkpt lat="46.3149756" lon="7.2734795"></trkpt><trkpt lat="46.3148941" lon="7.2727607"></trkpt><trkpt lat="46.3148348" lon="7.2725783"></trkpt><trkpt lat="46.3147385" lon="7.2717629"></trkpt><trkpt lat="46.3144939" lon="7.2713123"></trkpt><trkpt lat="46.3144421" lon="7.2708295"></trkpt><trkpt lat="46.3140123" lon="7.269821"></trkpt><trkpt lat="46.314006" lon="7.2695045"></trkpt><trkpt lat="46.3138641" lon="7.2691022"></trkpt><trkpt lat="46.3138344" lon="7.2689091"></trkpt><trkpt lat="46.3136862" lon="7.2685335"></trkpt><trkpt lat="46.3135454" lon="7.2681902"></trkpt><trkpt lat="46.313538" lon="7.2680722"></trkpt><trkpt lat="46.31329339965223" lon="7.267557934251158"></trkpt><trkpt lat="46.313273" lon="7.267578"></trkpt><trkpt lat="46.31329339965223" lon="7.267557934251158"></trkpt><trkpt lat="46.3132267" lon="7.2674177"></trkpt><trkpt lat="46.3132193" lon="7.2671817"></trkpt><trkpt lat="46.3128859" lon="7.2664092"></trkpt><trkpt lat="46.3127747" lon="7.2662054"></trkpt><trkpt lat="46.312545" lon="7.265787"></trkpt><trkpt lat="46.3125376" lon="7.2647624"></trkpt><trkpt lat="46.3125931" lon="7.2644029"></trkpt><trkpt lat="46.3126784" lon="7.264183"></trkpt><trkpt lat="46.3127414" lon="7.2637646"></trkpt><trkpt lat="46.3129377" lon="7.263314"></trkpt><trkpt lat="46.3130267" lon="7.2629492"></trkpt><trkpt lat="46.3130934" lon="7.2627239"></trkpt><trkpt lat="46.3129785" lon="7.2622786"></trkpt><trkpt lat="46.3130193" lon="7.2621713"></trkpt><trkpt lat="46.3129748" lon="7.261769"></trkpt><trkpt lat="46.3128229" lon="7.2614579"></trkpt><trkpt lat="46.3126413" lon="7.2611253"></trkpt><trkpt lat="46.3126154" lon="7.260782"></trkpt><trkpt lat="46.3124153" lon="7.2605245"></trkpt><trkpt lat="46.312356" lon="7.2601651"></trkpt><trkpt lat="46.3120744" lon="7.2598217"></trkpt><trkpt lat="46.3120151" lon="7.2596447"></trkpt><trkpt lat="46.3119299" lon="7.2593121"></trkpt><trkpt lat="46.3118925870078" lon="7.259075826330991"></trkpt><trkpt lat="46.31184" lon="7.259093"></trkpt><trkpt lat="46.3118925870078" lon="7.259075826330991"></trkpt><trkpt lat="46.3118706" lon="7.2589366"></trkpt><trkpt lat="46.3119076" lon="7.2586523"></trkpt><trkpt lat="46.3120225" lon="7.2584323"></trkpt><trkpt lat="46.3120336" lon="7.2581749"></trkpt><trkpt lat="46.3119929" lon="7.2579656"></trkpt><trkpt lat="46.3120855" lon="7.2575794"></trkpt><trkpt lat="46.3121263" lon="7.2571288"></trkpt><trkpt lat="46.3121707" lon="7.2568928"></trkpt><trkpt lat="46.3121856" lon="7.2567157"></trkpt><trkpt lat="46.3122263" lon="7.2566353"></trkpt><trkpt lat="46.3123375" lon="7.2563349"></trkpt><trkpt lat="46.3123227" lon="7.2559647"></trkpt><trkpt lat="46.3124375" lon="7.2557394"></trkpt><trkpt lat="46.3123523" lon="7.2553317"></trkpt><trkpt lat="46.3123671" lon="7.2551976"></trkpt><trkpt lat="46.3123189" lon="7.2548114"></trkpt><trkpt lat="46.3123782" lon="7.2545431"></trkpt><trkpt lat="46.3123819" lon="7.2541998"></trkpt><trkpt lat="46.3124597" lon="7.2540121"></trkpt><trkpt lat="46.3125524" lon="7.2538458"></trkpt><trkpt lat="46.312645" lon="7.2537975"></trkpt><trkpt lat="46.3128192" lon="7.2536205"></trkpt><trkpt lat="46.3129748" lon="7.2533576"></trkpt><trkpt lat="46.3131378" lon="7.2532235"></trkpt><trkpt lat="46.3132638" lon="7.2529767"></trkpt><trkpt lat="46.313412" lon="7.252907"></trkpt><trkpt lat="46.3135713" lon="7.2528802"></trkpt><trkpt lat="46.3137344" lon="7.2527407"></trkpt><trkpt lat="46.3138571" lon="7.2526741"></trkpt><trkpt lat="46.3137785" lon="7.2524303"></trkpt><trkpt lat="46.3136679" lon="7.2522598"></trkpt><trkpt lat="46.3136507" lon="7.2521648"></trkpt><trkpt lat="46.3137563" lon="7.2519019"></trkpt><trkpt lat="46.3137729" lon="7.2517061"></trkpt><trkpt lat="46.31370806531882" lon="7.251233131000788"></trkpt><trkpt lat="46.313705" lon="7.251234"></trkpt><trkpt lat="46.31370806531882" lon="7.251233131000788"></trkpt><trkpt lat="46.3136729" lon="7.2509766"></trkpt><trkpt lat="46.3136328" lon="7.2503144"></trkpt><trkpt lat="46.3136118" lon="7.2502068"></trkpt><trkpt lat="46.3135874" lon="7.2501243"></trkpt><trkpt lat="46.3135006" lon="7.2496891"></trkpt><trkpt lat="46.3135302" lon="7.2493538"></trkpt><trkpt lat="46.3134931" lon="7.2490296"></trkpt><trkpt lat="46.3134949" lon="7.2488758"></trkpt><trkpt lat="46.3134561" lon="7.2485884"></trkpt><trkpt lat="46.3135145" lon="7.2484527"></trkpt><trkpt lat="46.3136126" lon="7.2483128"></trkpt><trkpt lat="46.3137559" lon="7.2481647"></trkpt><trkpt lat="46.3138914" lon="7.2480436"></trkpt><trkpt lat="46.313993" lon="7.247986"></trkpt><trkpt lat="46.314082" lon="7.247981"></trkpt><trkpt lat="46.314183" lon="7.247807"></trkpt><trkpt lat="46.314279" lon="7.247785"></trkpt><trkpt lat="46.31442" lon="7.247661"></trkpt><trkpt lat="46.3144281" lon="7.2476147"></trkpt><trkpt lat="46.3144543" lon="7.247622"></trkpt><trkpt lat="46.3144849" lon="7.2476507"></trkpt><trkpt lat="46.3145438" lon="7.247669"></trkpt><trkpt lat="46.3148883" lon="7.2480544"></trkpt><trkpt lat="46.3166074" lon="7.2489986"></trkpt><trkpt lat="46.31689773272291" lon="7.249138713031587"></trkpt><trkpt lat="46.316879" lon="7.249219"></trkpt><trkpt lat="46.31689773272291" lon="7.249138713031587"></trkpt><trkpt lat="46.3185637" lon="7.2499427"></trkpt><trkpt lat="46.3193343" lon="7.2505435"></trkpt><trkpt lat="46.3208162" lon="7.250801"></trkpt><trkpt lat="46.3220017" lon="7.2514876"></trkpt><trkpt lat="46.322248317169695" lon="7.251672778613359"></trkpt><trkpt lat="46.322229" lon="7.251726"></trkpt><trkpt lat="46.322248317169695" lon="7.251672778613359"></trkpt><trkpt lat="46.3236021" lon="7.2526893"></trkpt><trkpt lat="46.3245505" lon="7.2544917"></trkpt><trkpt lat="46.324669" lon="7.2556934"></trkpt><trkpt lat="46.3254878" lon="7.2551442"></trkpt><trkpt lat="46.3255828" lon="7.2557373"></trkpt><trkpt lat="46.3258412" lon="7.2557762"></trkpt><trkpt lat="46.3259172" lon="7.2556568"></trkpt><trkpt lat="46.326032" lon="7.2555857"></trkpt><trkpt lat="46.3261366" lon="7.2555146"></trkpt><trkpt lat="46.3262221" lon="7.2553202"></trkpt><trkpt lat="46.3262404" lon="7.2553221"></trkpt><trkpt lat="46.3262577" lon="7.2553238"></trkpt><trkpt lat="46.326302941788526" lon="7.25545436220671"></trkpt><trkpt lat="46.326316" lon="7.255445"></trkpt><trkpt lat="46.326302941788526" lon="7.25545436220671"></trkpt><trkpt lat="46.3269806" lon="7.25741"></trkpt><trkpt lat="46.3276326" lon="7.2602424"></trkpt><trkpt lat="46.3274548" lon="7.2634181"></trkpt><trkpt lat="46.327962825654446" lon="7.264521688366715"></trkpt><trkpt lat="46.327952" lon="7.264532"></trkpt><trkpt lat="46.327962825654446" lon="7.264521688366715"></trkpt><trkpt lat="46.3284031" lon="7.2654781"></trkpt><trkpt lat="46.3288772" lon="7.2674522"></trkpt><trkpt lat="46.3297731" lon="7.2693993"></trkpt><trkpt lat="46.3300005" lon="7.2695246"></trkpt><trkpt lat="46.3304894" lon="7.2703273"></trkpt><trkpt lat="46.3306699" lon="7.2708689"></trkpt><trkpt lat="46.3308981" lon="7.2712817"></trkpt><trkpt lat="46.3310816" lon="7.2717638"></trkpt><trkpt lat="46.3311091" lon="7.2720183"></trkpt><trkpt lat="46.3312966" lon="7.2725973"></trkpt><trkpt lat="46.33130107950021" lon="7.272648258912027"></trkpt><trkpt lat="46.331308" lon="7.272647"></trkpt><trkpt lat="46.33130107950021" lon="7.272648258912027"></trkpt><trkpt lat="46.3313575" lon="7.2732901"></trkpt><trkpt lat="46.3315673" lon="7.2738463"></trkpt><trkpt lat="46.3319708" lon="7.2747114"></trkpt><trkpt lat="46.3320665" lon="7.2752992"></trkpt><trkpt lat="46.3322294" lon="7.2755968"></trkpt><trkpt lat="46.3323693" lon="7.276135"></trkpt><trkpt lat="46.332466" lon="7.2763891"></trkpt><trkpt lat="46.3327715" lon="7.2770337"></trkpt><trkpt lat="46.3330815" lon="7.2776673"></trkpt><trkpt lat="46.333258" lon="7.2784934"></trkpt><trkpt lat="46.3332831" lon="7.2787564"></trkpt><trkpt lat="46.3333814" lon="7.2789535"></trkpt><trkpt lat="46.3335004" lon="7.2797605"></trkpt><trkpt lat="46.3335337" lon="7.2797963"></trkpt><trkpt lat="46.3335911" lon="7.2798671"></trkpt><trkpt lat="46.3336705" lon="7.2800829"></trkpt><trkpt lat="46.3336717" lon="7.280175"></trkpt><trkpt lat="46.3336326" lon="7.2802864"></trkpt><trkpt lat="46.3335544" lon="7.2804333"></trkpt><trkpt lat="46.3335385" lon="7.2805041"></trkpt><trkpt lat="46.3335459" lon="7.280559"></trkpt><trkpt lat="46.3335703" lon="7.280628"></trkpt><trkpt lat="46.3335911" lon="7.2807324"></trkpt><trkpt lat="46.333585" lon="7.2808014"></trkpt><trkpt lat="46.3335447" lon="7.2810155"></trkpt><trkpt lat="46.3335422" lon="7.2811252"></trkpt><trkpt lat="46.3335725" lon="7.2812675"></trkpt><trkpt lat="46.33361990815417" lon="7.281440618808055"></trkpt><trkpt lat="46.333621" lon="7.28144"></trkpt><trkpt lat="46.33361990815417" lon="7.281440618808055"></trkpt><trkpt lat="46.3338214" lon="7.2821764"></trkpt><trkpt lat="46.3339236" lon="7.2826724"></trkpt><trkpt lat="46.334081" lon="7.2835382"></trkpt><trkpt lat="46.3340874" lon="7.2836399"></trkpt><trkpt lat="46.3340767" lon="7.2837138"></trkpt><trkpt lat="46.3339667" lon="7.2840268"></trkpt><trkpt lat="46.3337211" lon="7.283917"></trkpt><trkpt lat="46.333559" lon="7.2838325"></trkpt><trkpt lat="46.3332942" lon="7.2837614"></trkpt><trkpt lat="46.3332052" lon="7.2836732"></trkpt><trkpt lat="46.3331183" lon="7.283651"></trkpt><trkpt lat="46.3330157" lon="7.2836466"></trkpt><trkpt lat="46.33288" lon="7.2836903"></trkpt><trkpt lat="46.3327908" lon="7.2837186"></trkpt><trkpt lat="46.3326421" lon="7.2837974"></trkpt><trkpt lat="46.3324928" lon="7.2838973"></trkpt><trkpt lat="46.3324488" lon="7.283929"></trkpt><trkpt lat="46.3321432" lon="7.2841495"></trkpt><trkpt lat="46.3320617" lon="7.2842645"></trkpt><trkpt lat="46.3319416" lon="7.2846627"></trkpt><trkpt lat="46.3318769" lon="7.2849728"></trkpt><trkpt lat="46.3318463" lon="7.2851068"></trkpt><trkpt lat="46.3317937" lon="7.2853304"></trkpt><trkpt lat="46.3317897" lon="7.2853704"></trkpt><trkpt lat="46.3317582" lon="7.2856862"></trkpt><trkpt lat="46.331748" lon="7.2858281"></trkpt><trkpt lat="46.3317511" lon="7.2859472"></trkpt><trkpt lat="46.3316737" lon="7.2859912"></trkpt><trkpt lat="46.3316194" lon="7.2860686"></trkpt><trkpt lat="46.3315679" lon="7.2861575"></trkpt><trkpt lat="46.33153" lon="7.2862008"></trkpt><trkpt lat="46.3315073" lon="7.2862292"></trkpt><trkpt lat="46.33150207709888" lon="7.286228992081962"></trkpt><trkpt lat="46.331502" lon="7.286233"></trkpt></trkseg></trk></gpx>
