<?xml version="1.0" encoding="UTF-8"?>
<gpx version="1.1" creator="Good Shit" xmlns="http://www.topografix.com/GPX/1/1"><trk><name>Červenohorské sedlo–Keprník–Šerák–Ramzová — Červenohorské sedlo–Keprník–Šerák–Ramzová</name><trkseg><trkpt lat="50.12655159398625" lon="17.151030029830842"></trkpt><trkpt lat="50.1265564" lon="17.1509816"></trkpt><trkpt lat="50.1265505" lon="17.1506211"></trkpt><trkpt lat="50.1265264" lon="17.1503395"></trkpt><trkpt lat="50.1264439" lon="17.1497869"></trkpt><trkpt lat="50.126357" lon="17.149297"></trkpt><trkpt lat="50.1264064" lon="17.1492183"></trkpt><trkpt lat="50.1266561" lon="17.1489504"></trkpt><trkpt lat="50.1270741" lon="17.1485035"></trkpt><trkpt lat="50.127179" lon="17.1484727"></trkpt><trkpt lat="50.127197" lon="17.1484552"></trkpt><trkpt lat="50.1272245" lon="17.1483372"></trkpt><trkpt lat="50.1272761" lon="17.1482889"></trkpt><trkpt lat="50.127344" lon="17.1482863"></trkpt><trkpt lat="50.1275271" lon="17.1480896"></trkpt><trkpt lat="50.1277017" lon="17.1479377"></trkpt><trkpt lat="50.1278203" lon="17.1480207"></trkpt><trkpt lat="50.1278719" lon="17.1480314"></trkpt><trkpt lat="50.127947" lon="17.1479909"></trkpt><trkpt lat="50.1280506" lon="17.1480698"></trkpt><trkpt lat="50.1282855" lon="17.1484359"></trkpt><trkpt lat="50.1283909" lon="17.1486259"></trkpt><trkpt lat="50.1285993" lon="17.1487677"></trkpt><trkpt lat="50.128778" lon="17.1489746"></trkpt><trkpt lat="50.1293008" lon="17.1492337"></trkpt><trkpt lat="50.129753" lon="17.1493363"></trkpt><trkpt lat="50.1301319" lon="17.1495665"></trkpt><trkpt lat="50.1302749" lon="17.1496274"></trkpt><trkpt lat="50.1303987" lon="17.1495614"></trkpt><trkpt lat="50.1307872" lon="17.1496877"></trkpt><trkpt lat="50.1314393" lon="17.149951"></trkpt><trkpt lat="50.1314802" lon="17.1500216"></trkpt><trkpt lat="50.1318085" lon="17.1501968"></trkpt><trkpt lat="50.1320752" lon="17.1504082"></trkpt><trkpt lat="50.1320974" lon="17.1504776"></trkpt><trkpt lat="50.1321884" lon="17.1505705"></trkpt><trkpt lat="50.1322405" lon="17.1506553"></trkpt><trkpt lat="50.132342" lon="17.1506848"></trkpt><trkpt lat="50.1323896" lon="17.150721"></trkpt><trkpt lat="50.1324433" lon="17.1506904"></trkpt><trkpt lat="50.13248" lon="17.150787"></trkpt><trkpt lat="50.132631" lon="17.151006"></trkpt><trkpt lat="50.132757" lon="17.151111"></trkpt><trkpt lat="50.132835" lon="17.151146"></trkpt><trkpt lat="50.132978" lon="17.151158"></trkpt><trkpt lat="50.133066" lon="17.151132"></trkpt><trkpt lat="50.133157" lon="17.151074"></trkpt><trkpt lat="50.1332631" lon="17.1509269"></trkpt><trkpt lat="50.1335262" lon="17.1505366"></trkpt><trkpt lat="50.1336645" lon="17.1503519"></trkpt><trkpt lat="50.1337462" lon="17.1502778"></trkpt><trkpt lat="50.1338577" lon="17.1502106"></trkpt><trkpt lat="50.1341193" lon="17.1500552"></trkpt><trkpt lat="50.1342397" lon="17.1499988"></trkpt><trkpt lat="50.134337" lon="17.149922"></trkpt><trkpt lat="50.134406" lon="17.149835"></trkpt><trkpt lat="50.134485" lon="17.149665"></trkpt><trkpt lat="50.1345388" lon="17.1495134"></trkpt><trkpt lat="50.1345904" lon="17.149339"></trkpt><trkpt lat="50.1346385" lon="17.1491593"></trkpt><trkpt lat="50.1347211" lon="17.1489662"></trkpt><trkpt lat="50.1350013" lon="17.1484029"></trkpt><trkpt lat="50.1351956" lon="17.1479899"></trkpt><trkpt lat="50.1354621" lon="17.1473542"></trkpt><trkpt lat="50.1355446" lon="17.1471557"></trkpt><trkpt lat="50.1356684" lon="17.1468151"></trkpt><trkpt lat="50.1357251" lon="17.1466085"></trkpt><trkpt lat="50.1358678" lon="17.1459568"></trkpt><trkpt lat="50.1360472" lon="17.145221"></trkpt><trkpt lat="50.1360973" lon="17.1450363"></trkpt><trkpt lat="50.1361795" lon="17.1447156"></trkpt><trkpt lat="50.1363325" lon="17.1441579"></trkpt><trkpt lat="50.1363853" lon="17.1440664"></trkpt><trkpt lat="50.1364398" lon="17.1440069"></trkpt><trkpt lat="50.1366157" lon="17.1439017"></trkpt><trkpt lat="50.1370437" lon="17.143684"></trkpt><trkpt lat="50.137292" lon="17.143548"></trkpt><trkpt lat="50.1373579" lon="17.1434874"></trkpt><trkpt lat="50.1374217" lon="17.1434313"></trkpt><trkpt lat="50.137446" lon="17.1433798"></trkpt><trkpt lat="50.1374576" lon="17.1433295"></trkpt><trkpt lat="50.1374637" lon="17.14327"></trkpt><trkpt lat="50.1374851" lon="17.1430116"></trkpt><trkpt lat="50.1375172" lon="17.1428597"></trkpt><trkpt lat="50.1375675" lon="17.1427626"></trkpt><trkpt lat="50.137657" lon="17.142639"></trkpt><trkpt lat="50.137814" lon="17.14237"></trkpt><trkpt lat="50.1379102" lon="17.1421239"></trkpt><trkpt lat="50.137935" lon="17.1420315"></trkpt><trkpt lat="50.1380504" lon="17.1416026"></trkpt><trkpt lat="50.1380796" lon="17.1415122"></trkpt><trkpt lat="50.138122" lon="17.1414273"></trkpt><trkpt lat="50.138156" lon="17.1413724"></trkpt><trkpt lat="50.1382109" lon="17.1413106"></trkpt><trkpt lat="50.1382718" lon="17.1412585"></trkpt><trkpt lat="50.1383482" lon="17.1412131"></trkpt><trkpt lat="50.138488" lon="17.1411669"></trkpt><trkpt lat="50.1385948" lon="17.1411301"></trkpt><trkpt lat="50.1386914" lon="17.1410954"></trkpt><trkpt lat="50.1388011" lon="17.1410236"></trkpt><trkpt lat="50.138902" lon="17.1409346"></trkpt><trkpt lat="50.1391244" lon="17.1407263"></trkpt><trkpt lat="50.1392215" lon="17.1405962"></trkpt><trkpt lat="50.1394207" lon="17.1403233"></trkpt><trkpt lat="50.1394674" lon="17.1402178"></trkpt><trkpt lat="50.1395391" lon="17.1399811"></trkpt><trkpt lat="50.1396147" lon="17.1397313"></trkpt><trkpt lat="50.1397187" lon="17.1394108"></trkpt><trkpt lat="50.1397711" lon="17.1392177"></trkpt><trkpt lat="50.1398235" lon="17.1390635"></trkpt><trkpt lat="50.1398614" lon="17.138975"></trkpt><trkpt lat="50.1399138" lon="17.1388838"></trkpt><trkpt lat="50.1399714" lon="17.1387939"></trkpt><trkpt lat="50.1400608" lon="17.1386692"></trkpt><trkpt lat="50.1402052" lon="17.1385002"></trkpt><trkpt lat="50.1403109" lon="17.1383339"></trkpt><trkpt lat="50.1404149" lon="17.1381837"></trkpt><trkpt lat="50.140512" lon="17.1380188"></trkpt><trkpt lat="50.1405576" lon="17.1378994"></trkpt><trkpt lat="50.1406031" lon="17.137772"></trkpt><trkpt lat="50.1406298" lon="17.137654"></trkpt><trkpt lat="50.1406504" lon="17.1375507"></trkpt><trkpt lat="50.140665" lon="17.137434"></trkpt><trkpt lat="50.1407063" lon="17.1370478"></trkpt><trkpt lat="50.1407888" lon="17.1364577"></trkpt><trkpt lat="50.1408696" lon="17.1359682"></trkpt><trkpt lat="50.1410097" lon="17.1351676"></trkpt><trkpt lat="50.1410767" lon="17.1348028"></trkpt><trkpt lat="50.1411231" lon="17.1346124"></trkpt><trkpt lat="50.1411524" lon="17.1344997"></trkpt><trkpt lat="50.1411979" lon="17.1344018"></trkpt><trkpt lat="50.1412435" lon="17.1343388"></trkpt><trkpt lat="50.1412968" lon="17.1342771"></trkpt><trkpt lat="50.1413672" lon="17.1342288"></trkpt><trkpt lat="50.1415546" lon="17.1341497"></trkpt><trkpt lat="50.1419448" lon="17.13397"></trkpt><trkpt lat="50.142121" lon="17.1338774"></trkpt><trkpt lat="50.1423651" lon="17.1337728"></trkpt><trkpt lat="50.1424562" lon="17.133746"></trkpt><trkpt lat="50.1426341" lon="17.133742"></trkpt><trkpt lat="50.1429659" lon="17.13375"></trkpt><trkpt lat="50.1432186" lon="17.1337795"></trkpt><trkpt lat="50.1434326" lon="17.133805"></trkpt><trkpt lat="50.1436002" lon="17.1338157"></trkpt><trkpt lat="50.1437781" lon="17.1338077"></trkpt><trkpt lat="50.1438761" lon="17.1338144"></trkpt><trkpt lat="50.1439508" lon="17.1338318"></trkpt><trkpt lat="50.1440248" lon="17.1338627"></trkpt><trkpt lat="50.1443247" lon="17.1340182"></trkpt><trkpt lat="50.1444553" lon="17.1341068"></trkpt><trkpt lat="50.1445473" lon="17.1341872"></trkpt><trkpt lat="50.144708" lon="17.1343683"></trkpt><trkpt lat="50.1447587" lon="17.1344125"></trkpt><trkpt lat="50.144882" lon="17.134504"></trkpt><trkpt lat="50.1450997" lon="17.1346256"></trkpt><trkpt lat="50.1451807" lon="17.1345802"></trkpt><trkpt lat="50.1452748" lon="17.1345406"></trkpt><trkpt lat="50.1453493" lon="17.1345258"></trkpt><trkpt lat="50.1453939" lon="17.1345185"></trkpt><trkpt lat="50.1454386" lon="17.1345037"></trkpt><trkpt lat="50.1454996" lon="17.1345064"></trkpt><trkpt lat="50.1455983" lon="17.1344835"></trkpt><trkpt lat="50.145622" lon="17.134493"></trkpt><trkpt lat="50.14562425852364" lon="17.13449339278672"></trkpt><trkpt lat="50.145668" lon="17.134501"></trkpt><trkpt lat="50.1456929" lon="17.1344434"></trkpt><trkpt lat="50.1457346" lon="17.1343817"></trkpt><trkpt lat="50.1458571" lon="17.1343361"></trkpt><trkpt lat="50.1459989" lon="17.1343173"></trkpt><trkpt lat="50.1461794" lon="17.1342865"></trkpt><trkpt lat="50.146324" lon="17.134248"></trkpt><trkpt lat="50.1463908" lon="17.1341993"></trkpt><trkpt lat="50.1464879" lon="17.1341658"></trkpt><trkpt lat="50.1465824" lon="17.1340933"></trkpt><trkpt lat="50.1466907" lon="17.1340035"></trkpt><trkpt lat="50.1467853" lon="17.1339364"></trkpt><trkpt lat="50.1468523" lon="17.1339029"></trkpt><trkpt lat="50.1469821" lon="17.1338426"></trkpt><trkpt lat="50.1471376" lon="17.1337755"></trkpt><trkpt lat="50.1472665" lon="17.1337245"></trkpt><trkpt lat="50.1473525" lon="17.1337031"></trkpt><trkpt lat="50.1474479" lon="17.1336521"></trkpt><trkpt lat="50.1475467" lon="17.1336092"></trkpt><trkpt lat="50.1476275" lon="17.1335931"></trkpt><trkpt lat="50.1476937" lon="17.1335945"></trkpt><trkpt lat="50.1477375" lon="17.1336079"></trkpt><trkpt lat="50.1478922" lon="17.1335864"></trkpt><trkpt lat="50.1479773" lon="17.1335623"></trkpt><trkpt lat="50.1481036" lon="17.1335556"></trkpt><trkpt lat="50.1481784" lon="17.1335475"></trkpt><trkpt lat="50.1482841" lon="17.133522"></trkpt><trkpt lat="50.1483116" lon="17.1335247"></trkpt><trkpt lat="50.1484173" lon="17.1335194"></trkpt><trkpt lat="50.1484791" lon="17.1335247"></trkpt><trkpt lat="50.148589" lon="17.1335261"></trkpt><trkpt lat="50.1486691" lon="17.1335153"></trkpt><trkpt lat="50.1487163" lon="17.1335019"></trkpt><trkpt lat="50.148803" lon="17.133498"></trkpt><trkpt lat="50.148919" lon="17.133485"></trkpt><trkpt lat="50.1490137" lon="17.1334791"></trkpt><trkpt lat="50.1490549" lon="17.1334697"></trkpt><trkpt lat="50.1491615" lon="17.1334898"></trkpt><trkpt lat="50.1492543" lon="17.1334992"></trkpt><trkpt lat="50.1493583" lon="17.1334885"></trkpt><trkpt lat="50.1494416" lon="17.1334925"></trkpt><trkpt lat="50.149537" lon="17.13351"></trkpt><trkpt lat="50.149739" lon="17.1335308"></trkpt><trkpt lat="50.1498232" lon="17.1335328"></trkpt><trkpt lat="50.1500054" lon="17.1335354"></trkpt><trkpt lat="50.150038" lon="17.1335341"></trkpt><trkpt lat="50.1500776" lon="17.1335194"></trkpt><trkpt lat="50.1502434" lon="17.1334483"></trkpt><trkpt lat="50.1503981" lon="17.1333919"></trkpt><trkpt lat="50.1505975" lon="17.1333249"></trkpt><trkpt lat="50.1506834" lon="17.1333101"></trkpt><trkpt lat="50.1507616" lon="17.1333061"></trkpt><trkpt lat="50.1508243" lon="17.1332927"></trkpt><trkpt lat="50.1508604" lon="17.1332954"></trkpt><trkpt lat="50.1509077" lon="17.1332847"></trkpt><trkpt lat="50.1510409" lon="17.1332189"></trkpt><trkpt lat="50.1511724" lon="17.1331653"></trkpt><trkpt lat="50.1512634" lon="17.1331505"></trkpt><trkpt lat="50.1513313" lon="17.1331264"></trkpt><trkpt lat="50.1513846" lon="17.1331157"></trkpt><trkpt lat="50.1514791" lon="17.1330795"></trkpt><trkpt lat="50.1515505" lon="17.133058"></trkpt><trkpt lat="50.1516269" lon="17.1330151"></trkpt><trkpt lat="50.1516622" lon="17.1329802"></trkpt><trkpt lat="50.1517988" lon="17.1329212"></trkpt><trkpt lat="50.1518383" lon="17.1328984"></trkpt><trkpt lat="50.1518993" lon="17.132889"></trkpt><trkpt lat="50.1520231" lon="17.1328287"></trkpt><trkpt lat="50.1521064" lon="17.1327965"></trkpt><trkpt lat="50.152188" lon="17.132728"></trkpt><trkpt lat="50.1522792" lon="17.1326235"></trkpt><trkpt lat="50.1526014" lon="17.132307"></trkpt><trkpt lat="50.1527535" lon="17.1321675"></trkpt><trkpt lat="50.1530388" lon="17.1319288"></trkpt><trkpt lat="50.153149" lon="17.1318454"></trkpt><trkpt lat="50.1531138" lon="17.131801"></trkpt><trkpt lat="50.1530759" lon="17.13172"></trkpt><trkpt lat="50.153028" lon="17.1316143"></trkpt><trkpt lat="50.1529634" lon="17.1314846"></trkpt><trkpt lat="50.1528558" lon="17.1313694"></trkpt><trkpt lat="50.1528485" lon="17.1313085"></trkpt><trkpt lat="50.1528807" lon="17.1312321"></trkpt><trkpt lat="50.1529163" lon="17.1311811"></trkpt><trkpt lat="50.1529838" lon="17.1311426"></trkpt><trkpt lat="50.15306" lon="17.131062"></trkpt><trkpt lat="50.1532563" lon="17.1306156"></trkpt><trkpt lat="50.1532871" lon="17.1305052"></trkpt><trkpt lat="50.1532845" lon="17.1303617"></trkpt><trkpt lat="50.1533108" lon="17.1302538"></trkpt><trkpt lat="50.1533831" lon="17.129841"></trkpt><trkpt lat="50.1534363" lon="17.1294071"></trkpt><trkpt lat="50.1534187" lon="17.1290621"></trkpt><trkpt lat="50.1533941" lon="17.1289757"></trkpt><trkpt lat="50.1533945" lon="17.1288577"></trkpt><trkpt lat="50.1534169" lon="17.1287336"></trkpt><trkpt lat="50.153432" lon="17.1285933"></trkpt><trkpt lat="50.1534314" lon="17.1283112"></trkpt><trkpt lat="50.153413" lon="17.1281985"></trkpt><trkpt lat="50.153422" lon="17.1281335"></trkpt><trkpt lat="50.1534427" lon="17.1279819"></trkpt><trkpt lat="50.1534683" lon="17.1277551"></trkpt><trkpt lat="50.153445" lon="17.127412"></trkpt><trkpt lat="50.153392" lon="17.127243"></trkpt><trkpt lat="50.1533443" lon="17.127015"></trkpt><trkpt lat="50.153259" lon="17.1265933"></trkpt><trkpt lat="50.1532055" lon="17.1262367"></trkpt><trkpt lat="50.1531647" lon="17.1259448"></trkpt><trkpt lat="50.1531518" lon="17.1257859"></trkpt><trkpt lat="50.1531561" lon="17.1256263"></trkpt><trkpt lat="50.153146" lon="17.125469"></trkpt><trkpt lat="50.153079" lon="17.125052"></trkpt><trkpt lat="50.152996" lon="17.124733"></trkpt><trkpt lat="50.152945" lon="17.124273"></trkpt><trkpt lat="50.1529293" lon="17.1238955"></trkpt><trkpt lat="50.1529434" lon="17.1237273"></trkpt><trkpt lat="50.1530113" lon="17.1234647"></trkpt><trkpt lat="50.1530405" lon="17.1233559"></trkpt><trkpt lat="50.1530468" lon="17.123212"></trkpt><trkpt lat="50.1531084" lon="17.1230338"></trkpt><trkpt lat="50.1531466" lon="17.122932"></trkpt><trkpt lat="50.1531849" lon="17.1228871"></trkpt><trkpt lat="50.1532459" lon="17.1228595"></trkpt><trkpt lat="50.153284" lon="17.122734"></trkpt><trkpt lat="50.1532841" lon="17.122645"></trkpt><trkpt lat="50.1532725" lon="17.1224888"></trkpt><trkpt lat="50.1532811" lon="17.1223332"></trkpt><trkpt lat="50.1533247" lon="17.1221271"></trkpt><trkpt lat="50.153279" lon="17.1216787"></trkpt><trkpt lat="50.153265" lon="17.121266"></trkpt><trkpt lat="50.1532532" lon="17.1210833"></trkpt><trkpt lat="50.1532269" lon="17.1209584"></trkpt><trkpt lat="50.153169" lon="17.1208405"></trkpt><trkpt lat="50.1531226" lon="17.1207114"></trkpt><trkpt lat="50.153095" lon="17.120537"></trkpt><trkpt lat="50.153089" lon="17.120426"></trkpt><trkpt lat="50.153065" lon="17.1202806"></trkpt><trkpt lat="50.1530616" lon="17.1201935"></trkpt><trkpt lat="50.1530856" lon="17.120115"></trkpt><trkpt lat="50.153129" lon="17.1200548"></trkpt><trkpt lat="50.1531204" lon="17.1199869"></trkpt><trkpt lat="50.1531375" lon="17.1199041"></trkpt><trkpt lat="50.1532251" lon="17.119746"></trkpt><trkpt lat="50.1532579" lon="17.1196611"></trkpt><trkpt lat="50.1532974" lon="17.1195021"></trkpt><trkpt lat="50.1532961" lon="17.1193888"></trkpt><trkpt lat="50.153285" lon="17.1192909"></trkpt><trkpt lat="50.1533311" lon="17.119145"></trkpt><trkpt lat="50.153551" lon="17.1187255"></trkpt><trkpt lat="50.1535728" lon="17.1186364"></trkpt><trkpt lat="50.1535793" lon="17.1185077"></trkpt><trkpt lat="50.1536118" lon="17.1183893"></trkpt><trkpt lat="50.1536747" lon="17.1183474"></trkpt><trkpt lat="50.1537065" lon="17.1182683"></trkpt><trkpt lat="50.1537318" lon="17.118267"></trkpt><trkpt lat="50.1537553" lon="17.1182491"></trkpt><trkpt lat="50.153788" lon="17.1182139"></trkpt><trkpt lat="50.153818" lon="17.1182284"></trkpt><trkpt lat="50.1538586" lon="17.1182318"></trkpt><trkpt lat="50.1538986" lon="17.1181937"></trkpt><trkpt lat="50.1539336" lon="17.1181203"></trkpt><trkpt lat="50.1539333" lon="17.1180376"></trkpt><trkpt lat="50.1539211" lon="17.1179699"></trkpt><trkpt lat="50.1538719" lon="17.1178991"></trkpt><trkpt lat="50.1538285" lon="17.1178257"></trkpt><trkpt lat="50.153801" lon="17.1177426"></trkpt><trkpt lat="50.1537993" lon="17.1176326"></trkpt><trkpt lat="50.1538113" lon="17.1175656"></trkpt><trkpt lat="50.1537838" lon="17.1175227"></trkpt><trkpt lat="50.1537271" lon="17.1175124"></trkpt><trkpt lat="50.1536876" lon="17.1174556"></trkpt><trkpt lat="50.1536631" lon="17.1173094"></trkpt><trkpt lat="50.153619" lon="17.1171511"></trkpt><trkpt lat="50.1535794" lon="17.116924"></trkpt><trkpt lat="50.1535827" lon="17.1167829"></trkpt><trkpt lat="50.1536334" lon="17.116647"></trkpt><trkpt lat="50.1536807" lon="17.1165812"></trkpt><trkpt lat="50.1536274" lon="17.1164712"></trkpt><trkpt lat="50.1536171" lon="17.1163425"></trkpt><trkpt lat="50.1535827" lon="17.1161923"></trkpt><trkpt lat="50.1535621" lon="17.1161306"></trkpt><trkpt lat="50.1535604" lon="17.116034"></trkpt><trkpt lat="50.1535587" lon="17.1158838"></trkpt><trkpt lat="50.1535243" lon="17.115747"></trkpt><trkpt lat="50.1534779" lon="17.1156773"></trkpt><trkpt lat="50.153459" lon="17.1155915"></trkpt><trkpt lat="50.1534384" lon="17.1155271"></trkpt><trkpt lat="50.1533919" lon="17.1154408"></trkpt><trkpt lat="50.1533324" lon="17.1153737"></trkpt><trkpt lat="50.1533148" lon="17.1152653"></trkpt><trkpt lat="50.153296" lon="17.1151535"></trkpt><trkpt lat="50.1532133" lon="17.115064"></trkpt><trkpt lat="50.1531141" lon="17.1149401"></trkpt><trkpt lat="50.1530866" lon="17.1148007"></trkpt><trkpt lat="50.1530292" lon="17.1145857"></trkpt><trkpt lat="50.1529587" lon="17.1143998"></trkpt><trkpt lat="50.1529124" lon="17.1142243"></trkpt><trkpt lat="50.1528969" lon="17.114097"></trkpt><trkpt lat="50.1529565" lon="17.1139353"></trkpt><trkpt lat="50.153027" lon="17.113789"></trkpt><trkpt lat="50.1530281" lon="17.1136669"></trkpt><trkpt lat="50.1529752" lon="17.1135172"></trkpt><trkpt lat="50.1528738" lon="17.1133572"></trkpt><trkpt lat="50.1527294" lon="17.1132625"></trkpt><trkpt lat="50.152639" lon="17.1131971"></trkpt><trkpt lat="50.1525183" lon="17.1130382"></trkpt><trkpt lat="50.1524278" lon="17.1128875"></trkpt><trkpt lat="50.1524121" lon="17.1126973"></trkpt><trkpt lat="50.1523385" lon="17.1126223"></trkpt><trkpt lat="50.1523135" lon="17.1125378"></trkpt><trkpt lat="50.1523354" lon="17.1124352"></trkpt><trkpt lat="50.1524004" lon="17.1121064"></trkpt><trkpt lat="50.1524295" lon="17.1120094"></trkpt><trkpt lat="50.1524366" lon="17.1118858"></trkpt><trkpt lat="50.1523681" lon="17.1116426"></trkpt><trkpt lat="50.1523238" lon="17.1114072"></trkpt><trkpt lat="50.1523444" lon="17.1112112"></trkpt><trkpt lat="50.1523703" lon="17.1109167"></trkpt><trkpt lat="50.1524055" lon="17.1107809"></trkpt><trkpt lat="50.152465" lon="17.1106613"></trkpt><trkpt lat="50.1526222" lon="17.1104463"></trkpt><trkpt lat="50.1527213" lon="17.1102077"></trkpt><trkpt lat="50.15272" lon="17.1100125"></trkpt><trkpt lat="50.1527312" lon="17.109924"></trkpt><trkpt lat="50.1528254" lon="17.1098208"></trkpt><trkpt lat="50.1528806" lon="17.1096532"></trkpt><trkpt lat="50.1528962" lon="17.109356"></trkpt><trkpt lat="50.1529073" lon="17.1090409"></trkpt><trkpt lat="50.152896" lon="17.10896"></trkpt><trkpt lat="50.1528914" lon="17.1089063"></trkpt><trkpt lat="50.1529024" lon="17.108829"></trkpt><trkpt lat="50.1529344" lon="17.1087572"></trkpt><trkpt lat="50.1530004" lon="17.1087014"></trkpt><trkpt lat="50.1530517" lon="17.1086003"></trkpt><trkpt lat="50.1531058" lon="17.1085836"></trkpt><trkpt lat="50.1531497" lon="17.1084871"></trkpt><trkpt lat="50.1531741" lon="17.1083924"></trkpt><trkpt lat="50.153226" lon="17.1083325"></trkpt><trkpt lat="50.153289" lon="17.1083284"></trkpt><trkpt lat="50.1533009" lon="17.1082851"></trkpt><trkpt lat="50.1533211" lon="17.1081524"></trkpt><trkpt lat="50.1533589" lon="17.1081664"></trkpt><trkpt lat="50.1533788" lon="17.1081263"></trkpt><trkpt lat="50.1535029" lon="17.1079124"></trkpt><trkpt lat="50.1536055" lon="17.1077789"></trkpt><trkpt lat="50.1537083" lon="17.1076173"></trkpt><trkpt lat="50.1537563" lon="17.1076025"></trkpt><trkpt lat="50.1537847" lon="17.1076085"></trkpt><trkpt lat="50.1538143" lon="17.1075784"></trkpt><trkpt lat="50.1538315" lon="17.1075294"></trkpt><trkpt lat="50.1538392" lon="17.1074483"></trkpt><trkpt lat="50.1539012" lon="17.1073714"></trkpt><trkpt lat="50.1539673" lon="17.1072699"></trkpt><trkpt lat="50.1540451" lon="17.1071229"></trkpt><trkpt lat="50.1541322" lon="17.1070218"></trkpt><trkpt lat="50.1541842" lon="17.1069918"></trkpt><trkpt lat="50.15418396897059" lon="17.107006893921653"></trkpt><trkpt lat="50.1541815" lon="17.1071682"></trkpt><trkpt lat="50.1541933" lon="17.1073398"></trkpt><trkpt lat="50.154214" lon="17.1074313"></trkpt><trkpt lat="50.1542681" lon="17.1074876"></trkpt><trkpt lat="50.1543665" lon="17.1075355"></trkpt><trkpt lat="50.1544395" lon="17.1075791"></trkpt><trkpt lat="50.1544963" lon="17.1076242"></trkpt><trkpt lat="50.1545658" lon="17.1077142"></trkpt><trkpt lat="50.1546506" lon="17.1078381"></trkpt><trkpt lat="50.154739" lon="17.1079789"></trkpt><trkpt lat="50.1548021" lon="17.108062"></trkpt><trkpt lat="50.1548625" lon="17.1081211"></trkpt><trkpt lat="50.1549198" lon="17.1081672"></trkpt><trkpt lat="50.1549978" lon="17.1082506"></trkpt><trkpt lat="50.1550402" lon="17.1082689"></trkpt><trkpt lat="50.1550935" lon="17.1082774"></trkpt><trkpt lat="50.1551832" lon="17.1082838"></trkpt><trkpt lat="50.1552446" lon="17.1083066"></trkpt><trkpt lat="50.1553099" lon="17.1083334"></trkpt><trkpt lat="50.1554164" lon="17.1083351"></trkpt><trkpt lat="50.1559181" lon="17.1084035"></trkpt><trkpt lat="50.1560832" lon="17.1084407"></trkpt><trkpt lat="50.1563778" lon="17.1084885"></trkpt><trkpt lat="50.1565456" lon="17.1085336"></trkpt><trkpt lat="50.1566926" lon="17.1085659"></trkpt><trkpt lat="50.15691" lon="17.1086237"></trkpt><trkpt lat="50.1569632" lon="17.1086589"></trkpt><trkpt lat="50.1570408" lon="17.1087335"></trkpt><trkpt lat="50.1571066" lon="17.1087813"></trkpt><trkpt lat="50.1572094" lon="17.1088362"></trkpt><trkpt lat="50.1577064" lon="17.1090751"></trkpt><trkpt lat="50.1581492" lon="17.1093402"></trkpt><trkpt lat="50.1583801" lon="17.1095401"></trkpt><trkpt lat="50.1584893" lon="17.109595"></trkpt><trkpt lat="50.1586074" lon="17.1096879"></trkpt><trkpt lat="50.1587057" lon="17.1097288"></trkpt><trkpt lat="50.1588599" lon="17.1097752"></trkpt><trkpt lat="50.1590376" lon="17.1098695"></trkpt><trkpt lat="50.1591125" lon="17.1099075"></trkpt><trkpt lat="50.1593307" lon="17.1100891"></trkpt><trkpt lat="50.1595796" lon="17.1103003"></trkpt><trkpt lat="50.1597032" lon="17.1104115"></trkpt><trkpt lat="50.1599149" lon="17.1106007"></trkpt><trkpt lat="50.1601848" lon="17.1108324"></trkpt><trkpt lat="50.1603102" lon="17.1109423"></trkpt><trkpt lat="50.1603508" lon="17.1110056"></trkpt><trkpt lat="50.1605158" lon="17.1112632"></trkpt><trkpt lat="50.1606249" lon="17.1114631"></trkpt><trkpt lat="50.1607008" lon="17.1115662"></trkpt><trkpt lat="50.1608098" lon="17.1117179"></trkpt><trkpt lat="50.1608765" lon="17.1118404"></trkpt><trkpt lat="50.1609803" lon="17.1119643"></trkpt><trkpt lat="50.161111" lon="17.1121135"></trkpt><trkpt lat="50.1615549" lon="17.1126051"></trkpt><trkpt lat="50.1618732" lon="17.1129396"></trkpt><trkpt lat="50.162144" lon="17.1133331"></trkpt><trkpt lat="50.1621903" lon="17.1133947"></trkpt><trkpt lat="50.1623114" lon="17.1135776"></trkpt><trkpt lat="50.1625115" lon="17.1138283"></trkpt><trkpt lat="50.1627885" lon="17.1141604"></trkpt><trkpt lat="50.1629068" lon="17.1143255"></trkpt><trkpt lat="50.1630632" lon="17.1145424"></trkpt><trkpt lat="50.1631938" lon="17.11476"></trkpt><trkpt lat="50.1633209" lon="17.1150014"></trkpt><trkpt lat="50.1634481" lon="17.1151972"></trkpt><trkpt lat="50.1635153" lon="17.115395"></trkpt><trkpt lat="50.1635374" lon="17.1155137"></trkpt><trkpt lat="50.1635477" lon="17.1157256"></trkpt><trkpt lat="50.1635254" lon="17.1161655"></trkpt><trkpt lat="50.1635297" lon="17.1162799"></trkpt><trkpt lat="50.163601" lon="17.1162647"></trkpt><trkpt lat="50.1636697" lon="17.1162245"></trkpt><trkpt lat="50.163845" lon="17.116203"></trkpt><trkpt lat="50.1639446" lon="17.1162164"></trkpt><trkpt lat="50.1640065" lon="17.116254"></trkpt><trkpt lat="50.1640872" lon="17.1162674"></trkpt><trkpt lat="50.1642264" lon="17.116262"></trkpt><trkpt lat="50.1643278" lon="17.1162406"></trkpt><trkpt lat="50.1644755" lon="17.1162781"></trkpt><trkpt lat="50.1646834" lon="17.116372"></trkpt><trkpt lat="50.164814" lon="17.1163934"></trkpt><trkpt lat="50.1649205" lon="17.1164122"></trkpt><trkpt lat="50.1650271" lon="17.1164766"></trkpt><trkpt lat="50.1650992" lon="17.1164981"></trkpt><trkpt lat="50.1652436" lon="17.1165222"></trkpt><trkpt lat="50.1655545" lon="17.1166415"></trkpt><trkpt lat="50.1656396" lon="17.1166684"></trkpt><trkpt lat="50.1658552" lon="17.1167529"></trkpt><trkpt lat="50.1660829" lon="17.1168494"></trkpt><trkpt lat="50.1662736" lon="17.1169487"></trkpt><trkpt lat="50.166381" lon="17.1169996"></trkpt><trkpt lat="50.166571" lon="17.117068"></trkpt><trkpt lat="50.16688" lon="17.117177"></trkpt><trkpt lat="50.1673517" lon="17.1174207"></trkpt><trkpt lat="50.1674943" lon="17.1174824"></trkpt><trkpt lat="50.1676025" lon="17.1175066"></trkpt><trkpt lat="50.1677056" lon="17.1175495"></trkpt><trkpt lat="50.1678714" lon="17.1176447"></trkpt><trkpt lat="50.1682683" lon="17.1178552"></trkpt><trkpt lat="50.168386" lon="17.117913"></trkpt><trkpt lat="50.1684616" lon="17.1179397"></trkpt><trkpt lat="50.1685226" lon="17.1179692"></trkpt><trkpt lat="50.1685835" lon="17.1179934"></trkpt><trkpt lat="50.1686892" lon="17.1179987"></trkpt><trkpt lat="50.1688052" lon="17.1179947"></trkpt><trkpt lat="50.1688748" lon="17.1179987"></trkpt><trkpt lat="50.1690096" lon="17.118035"></trkpt><trkpt lat="50.1691359" lon="17.1180484"></trkpt><trkpt lat="50.1692312" lon="17.1180658"></trkpt><trkpt lat="50.1692669" lon="17.1180598"></trkpt><trkpt lat="50.1693047" lon="17.1180269"></trkpt><trkpt lat="50.1693721" lon="17.1180135"></trkpt><trkpt lat="50.1694877" lon="17.1180041"></trkpt><trkpt lat="50.1695585" lon="17.1180296"></trkpt><trkpt lat="50.1696221" lon="17.1180383"></trkpt><trkpt lat="50.1696616" lon="17.1180229"></trkpt><trkpt lat="50.1696955" lon="17.1179726"></trkpt><trkpt lat="50.1697355" lon="17.1179464"></trkpt><trkpt lat="50.1697922" lon="17.1179277"></trkpt><trkpt lat="50.169875" lon="17.117859"></trkpt><trkpt lat="50.1699159" lon="17.1178029"></trkpt><trkpt lat="50.1699605" lon="17.1177654"></trkpt><trkpt lat="50.1699863" lon="17.1177278"></trkpt><trkpt lat="50.1700524" lon="17.1176796"></trkpt><trkpt lat="50.1700997" lon="17.1176366"></trkpt><trkpt lat="50.1701315" lon="17.1176045"></trkpt><trkpt lat="50.1701993" lon="17.1175468"></trkpt><trkpt lat="50.1703557" lon="17.117408"></trkpt><trkpt lat="50.1704708" lon="17.1173215"></trkpt><trkpt lat="50.1705678" lon="17.1172632"></trkpt><trkpt lat="50.1706469" lon="17.1171954"></trkpt><trkpt lat="50.1707121" lon="17.1171579"></trkpt><trkpt lat="50.1707955" lon="17.117119"></trkpt><trkpt lat="50.1708788" lon="17.1170828"></trkpt><trkpt lat="50.1709518" lon="17.1170399"></trkpt><trkpt lat="50.1710102" lon="17.117001"></trkpt><trkpt lat="50.1710895" lon="17.1169619"></trkpt><trkpt lat="50.171125097832224" lon="17.116950142124633"></trkpt><trkpt lat="50.1712542" lon="17.1169075"></trkpt><trkpt lat="50.1714227" lon="17.1168457"></trkpt><trkpt lat="50.1715368" lon="17.1167636"></trkpt><trkpt lat="50.1717" lon="17.1166053"></trkpt><trkpt lat="50.1725433" lon="17.1156385"></trkpt><trkpt lat="50.172776" lon="17.115373"></trkpt><trkpt lat="50.173169" lon="17.114975"></trkpt><trkpt lat="50.1733852" lon="17.1147841"></trkpt><trkpt lat="50.1736274" lon="17.1145669"></trkpt><trkpt lat="50.1736807" lon="17.1145079"></trkpt><trkpt lat="50.1737408" lon="17.1144649"></trkpt><trkpt lat="50.1737924" lon="17.1144086"></trkpt><trkpt lat="50.173849" lon="17.1143603"></trkpt><trkpt lat="50.1739143" lon="17.114296"></trkpt><trkpt lat="50.1739796" lon="17.1142396"></trkpt><trkpt lat="50.1740586" lon="17.1142021"></trkpt><trkpt lat="50.1741737" lon="17.1140975"></trkpt><trkpt lat="50.174945" lon="17.113507"></trkpt><trkpt lat="50.1750275" lon="17.1134135"></trkpt><trkpt lat="50.1750979" lon="17.113384"></trkpt><trkpt lat="50.1751683" lon="17.1133706"></trkpt><trkpt lat="50.1752473" lon="17.1133706"></trkpt><trkpt lat="50.1753023" lon="17.1133491"></trkpt><trkpt lat="50.1753556" lon="17.1133143"></trkpt><trkpt lat="50.1754243" lon="17.1132982"></trkpt><trkpt lat="50.1754947" lon="17.1132714"></trkpt><trkpt lat="50.175616" lon="17.113205"></trkpt><trkpt lat="50.1756802" lon="17.1131909"></trkpt><trkpt lat="50.175759" lon="17.113197"></trkpt><trkpt lat="50.1759224" lon="17.1131533"></trkpt><trkpt lat="50.176118" lon="17.113112"></trkpt><trkpt lat="50.1763295" lon="17.1130675"></trkpt><trkpt lat="50.1764635" lon="17.1130407"></trkpt><trkpt lat="50.176564" lon="17.113015"></trkpt><trkpt lat="50.1766903" lon="17.1129817"></trkpt><trkpt lat="50.176932" lon="17.112939"></trkpt><trkpt lat="50.177156" lon="17.112859"></trkpt><trkpt lat="50.1772898" lon="17.1128368"></trkpt><trkpt lat="50.1774117" lon="17.1128476"></trkpt><trkpt lat="50.177623" lon="17.1128798"></trkpt><trkpt lat="50.177848" lon="17.112928"></trkpt><trkpt lat="50.1781349" lon="17.1129978"></trkpt><trkpt lat="50.1783444" lon="17.1130407"></trkpt><trkpt lat="50.1787258" lon="17.1130836"></trkpt><trkpt lat="50.179019" lon="17.11311"></trkpt><trkpt lat="50.1797873" lon="17.1131614"></trkpt><trkpt lat="50.17998" lon="17.113117"></trkpt><trkpt lat="50.180184" lon="17.113038"></trkpt><trkpt lat="50.1804056" lon="17.1130152"></trkpt><trkpt lat="50.1805155" lon="17.1130125"></trkpt><trkpt lat="50.1806238" lon="17.1130139"></trkpt><trkpt lat="50.1807002" lon="17.112983"></trkpt><trkpt lat="50.1808668" lon="17.1129173"></trkpt><trkpt lat="50.1810119" lon="17.1128824"></trkpt><trkpt lat="50.1812515" lon="17.1128543"></trkpt><trkpt lat="50.181364" lon="17.1128248"></trkpt><trkpt lat="50.181505" lon="17.112782"></trkpt><trkpt lat="50.1817935" lon="17.1127245"></trkpt><trkpt lat="50.1819961" lon="17.1126491"></trkpt><trkpt lat="50.1820917" lon="17.112589"></trkpt><trkpt lat="50.1822712" lon="17.1123722"></trkpt><trkpt lat="50.1825525" lon="17.1119588"></trkpt><trkpt lat="50.1830166" lon="17.1114099"></trkpt><trkpt lat="50.183535" lon="17.1109378"></trkpt><trkpt lat="50.1836793" lon="17.1107689"></trkpt><trkpt lat="50.1838976" lon="17.1104748"></trkpt><trkpt lat="50.1839575" lon="17.110337"></trkpt><trkpt lat="50.1840314" lon="17.1101814"></trkpt><trkpt lat="50.1841293" lon="17.1100312"></trkpt><trkpt lat="50.1845346" lon="17.1093687"></trkpt><trkpt lat="50.1846149" lon="17.1092234"></trkpt><trkpt lat="50.1854662" lon="17.1092354"></trkpt><trkpt lat="50.1857042" lon="17.1092105"></trkpt><trkpt lat="50.1858416" lon="17.109181"></trkpt><trkpt lat="50.1859875" lon="17.1091327"></trkpt><trkpt lat="50.1864308" lon="17.1088676"></trkpt><trkpt lat="50.1864765" lon="17.1088894"></trkpt><trkpt lat="50.1870573" lon="17.1087061"></trkpt><trkpt lat="50.1871194" lon="17.1086867"></trkpt><trkpt lat="50.18711885021161" lon="17.10868038243162"></trkpt><trkpt lat="50.1871139" lon="17.1086235"></trkpt><trkpt lat="50.1870865" lon="17.1084699"></trkpt><trkpt lat="50.1868184" lon="17.1086063"></trkpt><trkpt lat="50.1865423" lon="17.1082315"></trkpt><trkpt lat="50.1859446" lon="17.1074322"></trkpt><trkpt lat="50.1858922" lon="17.1073611"></trkpt><trkpt lat="50.185644" lon="17.1071801"></trkpt><trkpt lat="50.1855307" lon="17.1071157"></trkpt><trkpt lat="50.1852473" lon="17.1070218"></trkpt><trkpt lat="50.1849897" lon="17.1069279"></trkpt><trkpt lat="50.1842701" lon="17.1065819"></trkpt><trkpt lat="50.1837239" lon="17.1063754"></trkpt><trkpt lat="50.1835608" lon="17.1062466"></trkpt><trkpt lat="50.1833667" lon="17.1061474"></trkpt><trkpt lat="50.1832447" lon="17.1061206"></trkpt><trkpt lat="50.1830919" lon="17.1061099"></trkpt><trkpt lat="50.1829665" lon="17.1060669"></trkpt><trkpt lat="50.1829442" lon="17.1059006"></trkpt><trkpt lat="50.1829425" lon="17.1057424"></trkpt><trkpt lat="50.1829579" lon="17.1055815"></trkpt><trkpt lat="50.1830022" lon="17.1053348"></trkpt><trkpt lat="50.183366" lon="17.104305"></trkpt><trkpt lat="50.183403" lon="17.104134"></trkpt><trkpt lat="50.183445" lon="17.103778"></trkpt><trkpt lat="50.183455" lon="17.103546"></trkpt><trkpt lat="50.183409" lon="17.103191"></trkpt><trkpt lat="50.18325" lon="17.102542"></trkpt><trkpt lat="50.183205" lon="17.10223"></trkpt><trkpt lat="50.183195" lon="17.101105"></trkpt><trkpt lat="50.183182" lon="17.100967"></trkpt><trkpt lat="50.1831486" lon="17.1006891"></trkpt><trkpt lat="50.1831125" lon="17.1005389"></trkpt><trkpt lat="50.182981" lon="17.100218"></trkpt><trkpt lat="50.182837" lon="17.099956"></trkpt><trkpt lat="50.1823035" lon="17.0993163"></trkpt><trkpt lat="50.182267" lon="17.099222"></trkpt><trkpt lat="50.182055" lon="17.098699"></trkpt><trkpt lat="50.1819583" lon="17.0985326"></trkpt><trkpt lat="50.181825" lon="17.09821"></trkpt><trkpt lat="50.181747" lon="17.097724"></trkpt><trkpt lat="50.1817127" lon="17.0972371"></trkpt><trkpt lat="50.18168" lon="17.096922"></trkpt><trkpt lat="50.1816595" lon="17.0959094"></trkpt><trkpt lat="50.181647" lon="17.095665"></trkpt><trkpt lat="50.181601" lon="17.09531"></trkpt><trkpt lat="50.18151" lon="17.0948124"></trkpt><trkpt lat="50.1814482" lon="17.0945013"></trkpt><trkpt lat="50.181414" lon="17.094146"></trkpt><trkpt lat="50.1813932" lon="17.0938602"></trkpt><trkpt lat="50.181383" lon="17.09311"></trkpt><trkpt lat="50.181311" lon="17.091969"></trkpt><trkpt lat="50.181297" lon="17.091367"></trkpt><trkpt lat="50.181218" lon="17.0907891"></trkpt><trkpt lat="50.181146" lon="17.090061"></trkpt><trkpt lat="50.181106" lon="17.089547"></trkpt><trkpt lat="50.1810583" lon="17.0891127"></trkpt><trkpt lat="50.18102" lon="17.088805"></trkpt><trkpt lat="50.180962" lon="17.088482"></trkpt><trkpt lat="50.180933" lon="17.088235"></trkpt><trkpt lat="50.180931" lon="17.088067"></trkpt><trkpt lat="50.1809638" lon="17.0874873"></trkpt><trkpt lat="50.181001" lon="17.087095"></trkpt><trkpt lat="50.181186" lon="17.086117"></trkpt><trkpt lat="50.1812166" lon="17.0858456"></trkpt><trkpt lat="50.181276" lon="17.085318"></trkpt><trkpt lat="50.1813605" lon="17.0842139"></trkpt><trkpt lat="50.1813537" lon="17.0838261"></trkpt><trkpt lat="50.1813121" lon="17.0833422"></trkpt><trkpt lat="50.1812575" lon="17.0829168"></trkpt><trkpt lat="50.1811682" lon="17.0825413"></trkpt><trkpt lat="50.1810247" lon="17.0820024"></trkpt><trkpt lat="50.1810732" lon="17.0813341"></trkpt><trkpt lat="50.1811528" lon="17.0805323"></trkpt><trkpt lat="50.1811923" lon="17.0802936"></trkpt><trkpt lat="50.1812338361907" lon="17.080164014458312"></trkpt><trkpt lat="50.1812599" lon="17.0800827"></trkpt><trkpt lat="50.1815822" lon="17.0794648"></trkpt><trkpt lat="50.1817041" lon="17.0792422"></trkpt><trkpt lat="50.1817762" lon="17.0790616"></trkpt><trkpt lat="50.1818037" lon="17.078923"></trkpt><trkpt lat="50.1818319" lon="17.078696"></trkpt><trkpt lat="50.1818233" lon="17.0781016"></trkpt><trkpt lat="50.1817986" lon="17.0774397"></trkpt><trkpt lat="50.1817694" lon="17.0769328"></trkpt><trkpt lat="50.1816856" lon="17.0763015"></trkpt><trkpt lat="50.1815478" lon="17.0756319"></trkpt><trkpt lat="50.1814808" lon="17.0752966"></trkpt><trkpt lat="50.1814111" lon="17.0748075"></trkpt><trkpt lat="50.1812158" lon="17.073978"></trkpt><trkpt lat="50.1811493" lon="17.0735854"></trkpt><trkpt lat="50.1811131" lon="17.0733878"></trkpt><trkpt lat="50.1808903" lon="17.0727728"></trkpt><trkpt lat="50.1806691" lon="17.0722627"></trkpt><trkpt lat="50.1801782" lon="17.0713455"></trkpt><trkpt lat="50.1798013" lon="17.070325"></trkpt><trkpt lat="50.179497" lon="17.0694414"></trkpt><trkpt lat="50.1793716" lon="17.0691597"></trkpt><trkpt lat="50.1795365" lon="17.0691732"></trkpt><trkpt lat="50.1796808" lon="17.0692429"></trkpt><trkpt lat="50.180091" lon="17.0695552"></trkpt><trkpt lat="50.1805241" lon="17.0699269"></trkpt><trkpt lat="50.1806959" lon="17.0700288"></trkpt><trkpt lat="50.1814568" lon="17.0702648"></trkpt><trkpt lat="50.1820305" lon="17.0704499"></trkpt><trkpt lat="50.1823654" lon="17.0705786"></trkpt><trkpt lat="50.182611" lon="17.070702"></trkpt><trkpt lat="50.1827879" lon="17.0708039"></trkpt><trkpt lat="50.1829322" lon="17.0709729"></trkpt><trkpt lat="50.1831314" lon="17.0712948"></trkpt><trkpt lat="50.1832585" lon="17.0714128"></trkpt><trkpt lat="50.1837892" lon="17.0718259"></trkpt><trkpt lat="50.1840977" lon="17.0720443"></trkpt><trkpt lat="50.1846026" lon="17.0723211"></trkpt><trkpt lat="50.1847018" lon="17.0723755"></trkpt><trkpt lat="50.185395" lon="17.0723221"></trkpt><trkpt lat="50.1856479" lon="17.0723209"></trkpt><trkpt lat="50.1859755" lon="17.0724025"></trkpt><trkpt lat="50.1862194" lon="17.0724991"></trkpt><trkpt lat="50.1865491" lon="17.0726439"></trkpt><trkpt lat="50.1867651" lon="17.0727503"></trkpt><trkpt lat="50.1870661" lon="17.0729792"></trkpt><trkpt lat="50.187267" lon="17.0731723"></trkpt><trkpt lat="50.1886273" lon="17.0714988"></trkpt><trkpt lat="50.1892892" lon="17.0709554"></trkpt><trkpt lat="50.1896265" lon="17.0706296"></trkpt><trkpt lat="50.189693" lon="17.070718"></trkpt><trkpt lat="50.18977" lon="17.070753"></trkpt><trkpt lat="50.189912" lon="17.070738"></trkpt><trkpt lat="50.190061" lon="17.070687"></trkpt><trkpt lat="50.1902633" lon="17.0707059"></trkpt><trkpt lat="50.1905312" lon="17.0705169"></trkpt><trkpt lat="50.1909259" lon="17.0699837"></trkpt><trkpt lat="50.1911324" lon="17.0696418"></trkpt><trkpt lat="50.1912586" lon="17.0695894"></trkpt><trkpt lat="50.1913591" lon="17.0695194"></trkpt><trkpt lat="50.1914004" lon="17.0694726"></trkpt><trkpt lat="50.1914991" lon="17.0693608"></trkpt><trkpt lat="50.1916342" lon="17.0691534"></trkpt><trkpt lat="50.1918504" lon="17.0687011"></trkpt><trkpt lat="50.1921004" lon="17.0681415"></trkpt><trkpt lat="50.1923039" lon="17.0676203"></trkpt><trkpt lat="50.1923574" lon="17.0674759"></trkpt><trkpt lat="50.1924728" lon="17.0671649"></trkpt><trkpt lat="50.1926657" lon="17.066553"></trkpt><trkpt lat="50.1928047" lon="17.0660182"></trkpt><trkpt lat="50.1928097" lon="17.0659581"></trkpt><trkpt lat="50.1928685" lon="17.06547"></trkpt><trkpt lat="50.1929258" lon="17.0648233"></trkpt><trkpt lat="50.1929757" lon="17.0644311"></trkpt><trkpt lat="50.1930056" lon="17.0642037"></trkpt><trkpt lat="50.1930241" lon="17.0640696"></trkpt><trkpt lat="50.1930726" lon="17.0638946"></trkpt><trkpt lat="50.1931224" lon="17.0638315"></trkpt><trkpt lat="50.1931778" lon="17.0638007"></trkpt><trkpt lat="50.1934628" lon="17.0637819"></trkpt><trkpt lat="50.1936449" lon="17.0637524"></trkpt><trkpt lat="50.1938698" lon="17.0637149"></trkpt><trkpt lat="50.1939763" lon="17.0636746"></trkpt><trkpt lat="50.1940587" lon="17.0636478"></trkpt><trkpt lat="50.1941695" lon="17.0635865"></trkpt><trkpt lat="50.1944937" lon="17.0633577"></trkpt><trkpt lat="50.1947047" lon="17.0632208"></trkpt><trkpt lat="50.1946617" lon="17.0631422"></trkpt><trkpt lat="50.1946064" lon="17.0630948"></trkpt><trkpt lat="50.1945472" lon="17.0630727"></trkpt><trkpt lat="50.1945081" lon="17.063072"></trkpt><trkpt lat="50.1944663" lon="17.0630797"></trkpt><trkpt lat="50.1943999" lon="17.063104"></trkpt><trkpt lat="50.1943405" lon="17.0631209"></trkpt><trkpt lat="50.1942836" lon="17.0631255"></trkpt><trkpt lat="50.1942295" lon="17.063107"></trkpt><trkpt lat="50.1941763" lon="17.0630786"></trkpt><trkpt lat="50.1939692" lon="17.0629228"></trkpt><trkpt lat="50.1937712" lon="17.0627551"></trkpt><trkpt lat="50.193758" lon="17.0627461"></trkpt><trkpt lat="50.1936666" lon="17.0626835"></trkpt><trkpt lat="50.1935835" lon="17.0626347"></trkpt><trkpt lat="50.193495" lon="17.0626132"></trkpt><trkpt lat="50.1934141" lon="17.0626342"></trkpt><trkpt lat="50.1933175" lon="17.0626813"></trkpt><trkpt lat="50.193327207781856" lon="17.06262486634613"></trkpt></trkseg></trk></gpx>
