<?xml version="1.0" encoding="UTF-8"?>
<gpx version="1.1" creator="Good Shit" xmlns="http://www.topografix.com/GPX/1/1"><trk><name>Úhošť volcanic table-mountain circuit — Úhošť volcanic table-mountain circuit</name><trkseg><trkpt lat="50.378353805842465" lon="13.259050420414306"></trkpt><trkpt lat="50.3782069" lon="13.2589351"></trkpt><trkpt lat="50.3782358" lon="13.2588267"></trkpt><trkpt lat="50.378207" lon="13.2588181"></trkpt><trkpt lat="50.3781289" lon="13.2587407"></trkpt><trkpt lat="50.3777691" lon="13.2583844"></trkpt><trkpt lat="50.3777421" lon="13.2580039"></trkpt><trkpt lat="50.3777641" lon="13.2575309"></trkpt><trkpt lat="50.37777054374688" lon="13.257416482881123"></trkpt><trkpt lat="50.377776" lon="13.2573196"></trkpt><trkpt lat="50.3778353" lon="13.2570011"></trkpt><trkpt lat="50.3779191" lon="13.2567611"></trkpt><trkpt lat="50.3780466" lon="13.2566535"></trkpt><trkpt lat="50.3781478" lon="13.2565427"></trkpt><trkpt lat="50.3782209" lon="13.2564621"></trkpt><trkpt lat="50.3782589" lon="13.2564453"></trkpt><trkpt lat="50.3783045" lon="13.256442"></trkpt><trkpt lat="50.3783644" lon="13.2564513"></trkpt><trkpt lat="50.3784338" lon="13.2564512"></trkpt><trkpt lat="50.3784337" lon="13.2564203"></trkpt><trkpt lat="50.3784277" lon="13.2562656"></trkpt><trkpt lat="50.3784245" lon="13.2562533"></trkpt><trkpt lat="50.3784169" lon="13.2562485"></trkpt><trkpt lat="50.3784089" lon="13.2562548"></trkpt><trkpt lat="50.378407" lon="13.2562695"></trkpt><trkpt lat="50.3784077" lon="13.2563395"></trkpt><trkpt lat="50.3783705" lon="13.2563405"></trkpt><trkpt lat="50.3783166" lon="13.2563372"></trkpt><trkpt lat="50.3782523" lon="13.2563445"></trkpt><trkpt lat="50.3782317" lon="13.2562574"></trkpt><trkpt lat="50.37818285121476" lon="13.256079457040293"></trkpt><trkpt lat="50.3778933" lon="13.2550247"></trkpt><trkpt lat="50.3778484" lon="13.2548592"></trkpt><trkpt lat="50.3781281" lon="13.2546467"></trkpt><trkpt lat="50.378343556909925" lon="13.254459928974807"></trkpt><trkpt lat="50.378343556909925" lon="13.254459928974805"></trkpt><trkpt lat="50.378343556909925" lon="13.254459928974807"></trkpt><trkpt lat="50.3783692" lon="13.2544377"></trkpt><trkpt lat="50.3784385" lon="13.2543291"></trkpt><trkpt lat="50.3784866" lon="13.254193"></trkpt><trkpt lat="50.3785124" lon="13.2540634"></trkpt><trkpt lat="50.3785228" lon="13.2539592"></trkpt><trkpt lat="50.3785222" lon="13.253828"></trkpt><trkpt lat="50.3785055" lon="13.253702"></trkpt><trkpt lat="50.3784662" lon="13.2535748"></trkpt><trkpt lat="50.3784208" lon="13.2534789"></trkpt><trkpt lat="50.378404" lon="13.2534473"></trkpt><trkpt lat="50.3782955" lon="13.2533167"></trkpt><trkpt lat="50.3782163" lon="13.2532636"></trkpt><trkpt lat="50.3780489" lon="13.2532386"></trkpt><trkpt lat="50.37783704296807" lon="13.253270891389162"></trkpt><trkpt lat="50.3771855" lon="13.2533702"></trkpt><trkpt lat="50.37649504053891" lon="13.253480049753954"></trkpt><trkpt lat="50.37649504053891" lon="13.253480049753955"></trkpt><trkpt lat="50.37649504053891" lon="13.253480049753954"></trkpt><trkpt lat="50.37515319328055" lon="13.25369353309292"></trkpt><trkpt lat="50.3747901" lon="13.2537513"></trkpt><trkpt lat="50.3745781" lon="13.25381"></trkpt><trkpt lat="50.37382358501696" lon="13.254064294181548"></trkpt><trkpt lat="50.3736313" lon="13.2541291"></trkpt><trkpt lat="50.3734167" lon="13.2541521"></trkpt><trkpt lat="50.3733738" lon="13.2530186"></trkpt><trkpt lat="50.3733673" lon="13.252906"></trkpt><trkpt lat="50.373355" lon="13.252736"></trkpt><trkpt lat="50.3733341" lon="13.2525647"></trkpt><trkpt lat="50.37332777199258" lon="13.25253027644063"></trkpt><trkpt lat="50.3733025" lon="13.2523928"></trkpt><trkpt lat="50.3732625" lon="13.252226"></trkpt><trkpt lat="50.373164" lon="13.2519011"></trkpt><trkpt lat="50.3730542" lon="13.2515617"></trkpt><trkpt lat="50.3730116" lon="13.2513986"></trkpt><trkpt lat="50.3729935" lon="13.2513043"></trkpt><trkpt lat="50.3729837" lon="13.2512106"></trkpt><trkpt lat="50.3729798" lon="13.2511039"></trkpt><trkpt lat="50.3729817" lon="13.2509998"></trkpt><trkpt lat="50.3730037226656" lon="13.250516596807755"></trkpt><trkpt lat="50.3730038" lon="13.2505149"></trkpt><trkpt lat="50.3730123" lon="13.2502688"></trkpt><trkpt lat="50.373022" lon="13.2500268"></trkpt><trkpt lat="50.3730165" lon="13.2498985"></trkpt><trkpt lat="50.3730067" lon="13.2497741"></trkpt><trkpt lat="50.3729964" lon="13.2496833"></trkpt><trkpt lat="50.3729805" lon="13.2495922"></trkpt><trkpt lat="50.372951" lon="13.24949"></trkpt><trkpt lat="50.3728924" lon="13.2493341"></trkpt><trkpt lat="50.3728713" lon="13.2492845"></trkpt><trkpt lat="50.3727698" lon="13.2490463"></trkpt><trkpt lat="50.372616" lon="13.2487258"></trkpt><trkpt lat="50.3725598" lon="13.248618"></trkpt><trkpt lat="50.37255844248481" lon="13.248615924568128"></trkpt><trkpt lat="50.37255844248481" lon="13.24861592456813"></trkpt><trkpt lat="50.37255844248481" lon="13.248615924568128"></trkpt><trkpt lat="50.372539" lon="13.2485862"></trkpt><trkpt lat="50.3725134" lon="13.2485587"></trkpt><trkpt lat="50.3724858" lon="13.2485448"></trkpt><trkpt lat="50.3724572" lon="13.2485302"></trkpt><trkpt lat="50.3724223" lon="13.2485321"></trkpt><trkpt lat="50.3723249" lon="13.2485689"></trkpt><trkpt lat="50.3722795" lon="13.2485837"></trkpt><trkpt lat="50.3722315" lon="13.2485939"></trkpt><trkpt lat="50.3721787" lon="13.248591"></trkpt><trkpt lat="50.3720767" lon="13.2485651"></trkpt><trkpt lat="50.3720322" lon="13.2485537"></trkpt><trkpt lat="50.3719809" lon="13.2485548"></trkpt><trkpt lat="50.3719401" lon="13.2485771"></trkpt><trkpt lat="50.3719011" lon="13.2486188"></trkpt><trkpt lat="50.3718689" lon="13.2486781"></trkpt><trkpt lat="50.3718542" lon="13.2487375"></trkpt><trkpt lat="50.3718421" lon="13.2487959"></trkpt><trkpt lat="50.3718022" lon="13.2491025"></trkpt><trkpt lat="50.3717852" lon="13.2492114"></trkpt><trkpt lat="50.3717528" lon="13.2493072"></trkpt><trkpt lat="50.3717159" lon="13.2493757"></trkpt><trkpt lat="50.3716672" lon="13.2494283"></trkpt><trkpt lat="50.3715807" lon="13.2494793"></trkpt><trkpt lat="50.371569303361596" lon="13.249481074679487"></trkpt><trkpt lat="50.3714452" lon="13.2495004"></trkpt><trkpt lat="50.3713745" lon="13.2494891"></trkpt><trkpt lat="50.3713042" lon="13.2494579"></trkpt><trkpt lat="50.3712647" lon="13.249411"></trkpt><trkpt lat="50.3712252" lon="13.2493099"></trkpt><trkpt lat="50.3712084" lon="13.249175"></trkpt><trkpt lat="50.3711971" lon="13.2489273"></trkpt><trkpt lat="50.3712" lon="13.2486608"></trkpt><trkpt lat="50.3712241" lon="13.2482386"></trkpt><trkpt lat="50.3711405" lon="13.2481396"></trkpt><trkpt lat="50.37101748952673" lon="13.247838048611246"></trkpt><trkpt lat="50.37101748952673" lon="13.247838048611248"></trkpt><trkpt lat="50.37101748952673" lon="13.247838048611246"></trkpt><trkpt lat="50.3709655" lon="13.2477106"></trkpt><trkpt lat="50.3709042" lon="13.2476154"></trkpt><trkpt lat="50.3708341" lon="13.2475336"></trkpt><trkpt lat="50.3707646" lon="13.247482"></trkpt><trkpt lat="50.3706418" lon="13.2474035"></trkpt><trkpt lat="50.3704246" lon="13.2472859"></trkpt><trkpt lat="50.370368" lon="13.2472737"></trkpt><trkpt lat="50.3702697" lon="13.2472667"></trkpt><trkpt lat="50.369858" lon="13.2472277"></trkpt><trkpt lat="50.36975954296307" lon="13.247169420155794"></trkpt><trkpt lat="50.36975954296307" lon="13.247169420155796"></trkpt><trkpt lat="50.36975954296307" lon="13.247169420155794"></trkpt><trkpt lat="50.3697291" lon="13.2471514"></trkpt><trkpt lat="50.3695515" lon="13.2470033"></trkpt><trkpt lat="50.3693904" lon="13.2468215"></trkpt><trkpt lat="50.3692541" lon="13.2465956"></trkpt><trkpt lat="50.3691132" lon="13.2462743"></trkpt><trkpt lat="50.3690362" lon="13.2461268"></trkpt><trkpt lat="50.3689071" lon="13.2459725"></trkpt><trkpt lat="50.3687935" lon="13.2458152"></trkpt><trkpt lat="50.368754741265136" lon="13.245789468506574"></trkpt><trkpt lat="50.368754741265136" lon="13.245789468506572"></trkpt><trkpt lat="50.368754741265136" lon="13.245789468506574"></trkpt><trkpt lat="50.3687215" lon="13.2457674"></trkpt><trkpt lat="50.3686239" lon="13.2457271"></trkpt><trkpt lat="50.368381" lon="13.2457028"></trkpt><trkpt lat="50.3681857" lon="13.2456558"></trkpt><trkpt lat="50.3676423" lon="13.245531"></trkpt><trkpt lat="50.3674905" lon="13.2454924"></trkpt><trkpt lat="50.36737887973768" lon="13.245500160580368"></trkpt><trkpt lat="50.3673553" lon="13.2455018"></trkpt><trkpt lat="50.367201" lon="13.2455256"></trkpt><trkpt lat="50.3671415" lon="13.2454938"></trkpt><trkpt lat="50.3670765" lon="13.2454133"></trkpt><trkpt lat="50.3667865" lon="13.2451732"></trkpt><trkpt lat="50.3666513" lon="13.2451022"></trkpt><trkpt lat="50.3665841" lon="13.245066"></trkpt><trkpt lat="50.3665581" lon="13.2450653"></trkpt><trkpt lat="50.3664948" lon="13.2450827"></trkpt><trkpt lat="50.3664661" lon="13.2450707"></trkpt><trkpt lat="50.3664509" lon="13.2450486"></trkpt><trkpt lat="50.3663895" lon="13.2449171"></trkpt><trkpt lat="50.3663373" lon="13.2448728"></trkpt><trkpt lat="50.3662709" lon="13.2448588"></trkpt><trkpt lat="50.36609959505586" lon="13.244930539942139"></trkpt><trkpt lat="50.36609959505586" lon="13.24493053994214"></trkpt><trkpt lat="50.36609959505586" lon="13.244930539942139"></trkpt><trkpt lat="50.3660388" lon="13.244956"></trkpt><trkpt lat="50.3658643" lon="13.2449841"></trkpt><trkpt lat="50.3658128" lon="13.2450154"></trkpt><trkpt lat="50.365777" lon="13.2450056"></trkpt><trkpt lat="50.3656812" lon="13.2448313"></trkpt><trkpt lat="50.3656478" lon="13.2448058"></trkpt><trkpt lat="50.3656087" lon="13.2448085"></trkpt><trkpt lat="50.3654804" lon="13.2450056"></trkpt><trkpt lat="50.3654254" lon="13.2450217"></trkpt><trkpt lat="50.3653433" lon="13.2449989"></trkpt><trkpt lat="50.3652295" lon="13.2449155"></trkpt><trkpt lat="50.3649369" lon="13.2444933"></trkpt><trkpt lat="50.36491892732406" lon="13.244469667682038"></trkpt><trkpt lat="50.364747" lon="13.2442436"></trkpt><trkpt lat="50.3646863" lon="13.2442009"></trkpt><trkpt lat="50.3646775" lon="13.2441808"></trkpt><trkpt lat="50.3646804" lon="13.2441541"></trkpt><trkpt lat="50.3647273" lon="13.2440722"></trkpt><trkpt lat="50.3647295" lon="13.2440521"></trkpt><trkpt lat="50.3647238" lon="13.2440334"></trkpt><trkpt lat="50.3646427" lon="13.2439289"></trkpt><trkpt lat="50.364632" lon="13.2438891"></trkpt><trkpt lat="50.3646225" lon="13.2437805"></trkpt><trkpt lat="50.3646089" lon="13.2437275"></trkpt><trkpt lat="50.3645042" lon="13.2435043"></trkpt><trkpt lat="50.3644361" lon="13.2432995"></trkpt><trkpt lat="50.364457" lon="13.2432099"></trkpt><trkpt lat="50.3644643" lon="13.2431978"></trkpt><trkpt lat="50.3646132" lon="13.2431065"></trkpt><trkpt lat="50.36474829317687" lon="13.243041253759776"></trkpt><trkpt lat="50.3648716" lon="13.2429817"></trkpt><trkpt lat="50.3653111" lon="13.2425475"></trkpt><trkpt lat="50.3652896" lon="13.2424108"></trkpt><trkpt lat="50.3652834" lon="13.242373"></trkpt><trkpt lat="50.365274" lon="13.2423589"></trkpt><trkpt lat="50.3652622" lon="13.2423579"></trkpt><trkpt lat="50.3652381" lon="13.2423837"></trkpt><trkpt lat="50.3651983" lon="13.2424454"></trkpt><trkpt lat="50.3651842" lon="13.2424508"></trkpt><trkpt lat="50.3651671" lon="13.2424381"></trkpt><trkpt lat="50.3651538" lon="13.24242"></trkpt><trkpt lat="50.3651452" lon="13.2423904"></trkpt><trkpt lat="50.3651405" lon="13.2422865"></trkpt><trkpt lat="50.3651346" lon="13.2422376"></trkpt><trkpt lat="50.3651106" lon="13.2421719"></trkpt><trkpt lat="50.3650926" lon="13.2420827"></trkpt><trkpt lat="50.3650504" lon="13.2419673"></trkpt><trkpt lat="50.365049" lon="13.2419097"></trkpt><trkpt lat="50.3650516" lon="13.2418299"></trkpt><trkpt lat="50.3650909" lon="13.2416689"></trkpt><trkpt lat="50.3651027" lon="13.2415461"></trkpt><trkpt lat="50.36508718689494" lon="13.241312447434433"></trkpt><trkpt lat="50.365067" lon="13.2410084"></trkpt><trkpt lat="50.3650772" lon="13.24082"></trkpt><trkpt lat="50.3650678" lon="13.2407154"></trkpt><trkpt lat="50.3650397" lon="13.2406466"></trkpt><trkpt lat="50.3649532" lon="13.2404284"></trkpt><trkpt lat="50.3649414" lon="13.2403791"></trkpt><trkpt lat="50.3649404" lon="13.2403332"></trkpt><trkpt lat="50.3649498" lon="13.2400784"></trkpt><trkpt lat="50.3649318" lon="13.2400033"></trkpt><trkpt lat="50.3648086" lon="13.2397552"></trkpt><trkpt lat="50.3648" lon="13.2396997"></trkpt><trkpt lat="50.3648086" lon="13.2396331"></trkpt><trkpt lat="50.3648651" lon="13.2394655"></trkpt><trkpt lat="50.36488390469774" lon="13.239394541648368"></trkpt><trkpt lat="50.36488390469774" lon="13.23939454164837"></trkpt><trkpt lat="50.36488390469774" lon="13.239394541648368"></trkpt><trkpt lat="50.3648907" lon="13.2393689"></trkpt><trkpt lat="50.3649172" lon="13.2390904"></trkpt><trkpt lat="50.3649344" lon="13.2389747"></trkpt><trkpt lat="50.3649681" lon="13.2388819"></trkpt><trkpt lat="50.3651311" lon="13.2385308"></trkpt><trkpt lat="50.3652201" lon="13.2383792"></trkpt><trkpt lat="50.3652996" lon="13.2382764"></trkpt><trkpt lat="50.3653664" lon="13.2382277"></trkpt><trkpt lat="50.3655401" lon="13.2381539"></trkpt><trkpt lat="50.3656176" lon="13.2380879"></trkpt><trkpt lat="50.3656709" lon="13.2380024"></trkpt><trkpt lat="50.365686412898846" lon="13.237954249573699"></trkpt><trkpt lat="50.365686412898846" lon="13.237954249573697"></trkpt><trkpt lat="50.365686412898846" lon="13.237954249573699"></trkpt><trkpt lat="50.3657556" lon="13.2377395"></trkpt><trkpt lat="50.3657975" lon="13.2376535"></trkpt><trkpt lat="50.3658429" lon="13.2376215"></trkpt><trkpt lat="50.3659301" lon="13.237596"></trkpt><trkpt lat="50.3659909" lon="13.2375571"></trkpt><trkpt lat="50.3660589" lon="13.2374684"></trkpt><trkpt lat="50.366097" lon="13.2373506"></trkpt><trkpt lat="50.3661278" lon="13.2371789"></trkpt><trkpt lat="50.3661509" lon="13.2370073"></trkpt><trkpt lat="50.3661912" lon="13.2367921"></trkpt><trkpt lat="50.3661864" lon="13.2366418"></trkpt><trkpt lat="50.3661731" lon="13.2365969"></trkpt><trkpt lat="50.3661489" lon="13.2365764"></trkpt><trkpt lat="50.3659858" lon="13.2365868"></trkpt><trkpt lat="50.365879311409664" lon="13.236553955995161"></trkpt><trkpt lat="50.3658707" lon="13.2365513"></trkpt><trkpt lat="50.3658065" lon="13.2365446"></trkpt><trkpt lat="50.3656239" lon="13.2365895"></trkpt><trkpt lat="50.3655815" lon="13.2365895"></trkpt><trkpt lat="50.3654536" lon="13.2365198"></trkpt><trkpt lat="50.3653971" lon="13.2365015"></trkpt><trkpt lat="50.3653446" lon="13.2364936"></trkpt><trkpt lat="50.365271" lon="13.2365151"></trkpt><trkpt lat="50.3652133" lon="13.2365258"></trkpt><trkpt lat="50.3650922" lon="13.2365204"></trkpt><trkpt lat="50.3649921" lon="13.2365345"></trkpt><trkpt lat="50.3648959" lon="13.2365694"></trkpt><trkpt lat="50.3648326" lon="13.2365819"></trkpt><trkpt lat="50.3647881" lon="13.2365774"></trkpt><trkpt lat="50.3645853" lon="13.2365312"></trkpt><trkpt lat="50.364525689495714" lon="13.236526414617593"></trkpt><trkpt lat="50.3644844" lon="13.2365231"></trkpt><trkpt lat="50.3644132" lon="13.2365356"></trkpt><trkpt lat="50.3643685" lon="13.2365566"></trkpt><trkpt lat="50.3643094" lon="13.2366143"></trkpt><trkpt lat="50.3641952" lon="13.2367833"></trkpt><trkpt lat="50.3641268" lon="13.2368664"></trkpt><trkpt lat="50.364096" lon="13.2368851"></trkpt><trkpt lat="50.3640609" lon="13.2368892"></trkpt><trkpt lat="50.3638231" lon="13.2368155"></trkpt><trkpt lat="50.3635476" lon="13.2367491"></trkpt><trkpt lat="50.363311" lon="13.2367264"></trkpt><trkpt lat="50.36325598732981" lon="13.23676871743861"></trkpt><trkpt lat="50.36325598732981" lon="13.236768717438611"></trkpt><trkpt lat="50.36325598732981" lon="13.23676871743861"></trkpt><trkpt lat="50.363311" lon="13.2367264"></trkpt><trkpt lat="50.3632392" lon="13.2366639"></trkpt><trkpt lat="50.3632182" lon="13.2366224"></trkpt><trkpt lat="50.3632033" lon="13.2365446"></trkpt><trkpt lat="50.3631515" lon="13.2364125"></trkpt><trkpt lat="50.36315" lon="13.2363216"></trkpt><trkpt lat="50.3631344" lon="13.2362408"></trkpt><trkpt lat="50.363113" lon="13.2361972"></trkpt><trkpt lat="50.3630839" lon="13.2361617"></trkpt><trkpt lat="50.3630313" lon="13.2361416"></trkpt><trkpt lat="50.3629509" lon="13.2360544"></trkpt><trkpt lat="50.3629128" lon="13.2360282"></trkpt><trkpt lat="50.3628961" lon="13.2360303"></trkpt><trkpt lat="50.3628572" lon="13.2360551"></trkpt><trkpt lat="50.3628286" lon="13.2360899"></trkpt><trkpt lat="50.3627965" lon="13.2361087"></trkpt><trkpt lat="50.3627627" lon="13.2361034"></trkpt><trkpt lat="50.3627276" lon="13.2360785"></trkpt><trkpt lat="50.362704" lon="13.2360375"></trkpt><trkpt lat="50.362651" lon="13.2357855"></trkpt><trkpt lat="50.3626412" lon="13.2357312"></trkpt><trkpt lat="50.3626314" lon="13.2357084"></trkpt><trkpt lat="50.3626157" lon="13.2356908"></trkpt><trkpt lat="50.3625877" lon="13.2356863"></trkpt><trkpt lat="50.3624756" lon="13.2357332"></trkpt><trkpt lat="50.3623555" lon="13.2357982"></trkpt><trkpt lat="50.36229560857032" lon="13.235838803404606"></trkpt><trkpt lat="50.3621428" lon="13.2359424"></trkpt><trkpt lat="50.3619054" lon="13.2360718"></trkpt><trkpt lat="50.3616535" lon="13.236155"></trkpt><trkpt lat="50.3616103" lon="13.2361932"></trkpt><trkpt lat="50.3615709" lon="13.2362033"></trkpt><trkpt lat="50.3615025" lon="13.2361778"></trkpt><trkpt lat="50.3614845" lon="13.2361771"></trkpt><trkpt lat="50.3614571" lon="13.2361845"></trkpt><trkpt lat="50.3614332" lon="13.2362153"></trkpt><trkpt lat="50.3614084" lon="13.2362328"></trkpt><trkpt lat="50.3613839" lon="13.2362322"></trkpt><trkpt lat="50.3612321" lon="13.236161"></trkpt><trkpt lat="50.3612011" lon="13.236155"></trkpt><trkpt lat="50.3611814" lon="13.2361597"></trkpt><trkpt lat="50.361153" lon="13.2361771"></trkpt><trkpt lat="50.3610845" lon="13.2361899"></trkpt><trkpt lat="50.3610572" lon="13.2361852"></trkpt><trkpt lat="50.361024434413345" lon="13.236166496697704"></trkpt><trkpt lat="50.361024434413345" lon="13.236166496697702"></trkpt><trkpt lat="50.361024434413345" lon="13.236166496697704"></trkpt><trkpt lat="50.3609866" lon="13.2361449"></trkpt><trkpt lat="50.3609549" lon="13.2361382"></trkpt><trkpt lat="50.3609158" lon="13.2361418"></trkpt><trkpt lat="50.3607693" lon="13.236218"></trkpt><trkpt lat="50.3607158" lon="13.2362891"></trkpt><trkpt lat="50.3606542" lon="13.2363468"></trkpt><trkpt lat="50.360587" lon="13.2363796"></trkpt><trkpt lat="50.3603903" lon="13.236444"></trkpt><trkpt lat="50.3603265" lon="13.2364983"></trkpt><trkpt lat="50.3603038" lon="13.2365466"></trkpt><trkpt lat="50.3602769" lon="13.2365761"></trkpt><trkpt lat="50.3601075" lon="13.2366511"></trkpt><trkpt lat="50.3599086" lon="13.2367934"></trkpt><trkpt lat="50.3598551" lon="13.2368611"></trkpt><trkpt lat="50.3597973" lon="13.2369181"></trkpt><trkpt lat="50.35976099444567" lon="13.236972338741444"></trkpt><trkpt lat="50.3596981" lon="13.2370663"></trkpt><trkpt lat="50.3595895" lon="13.2371644"></trkpt><trkpt lat="50.3595734" lon="13.2371843"></trkpt><trkpt lat="50.3595648" lon="13.2372054"></trkpt><trkpt lat="50.3595479" lon="13.237303"></trkpt><trkpt lat="50.3595053" lon="13.2374608"></trkpt><trkpt lat="50.3594643" lon="13.2375588"></trkpt><trkpt lat="50.3594307" lon="13.2376131"></trkpt><trkpt lat="50.3592267" lon="13.2378438"></trkpt><trkpt lat="50.35921" lon="13.237871"></trkpt><trkpt lat="50.3592089" lon="13.2379112"></trkpt><trkpt lat="50.3592307" lon="13.2379799"></trkpt><trkpt lat="50.3592339" lon="13.2380372"></trkpt><trkpt lat="50.359209" lon="13.2382093"></trkpt><trkpt lat="50.3591809" lon="13.2382786"></trkpt><trkpt lat="50.3591491" lon="13.2382972"></trkpt><trkpt lat="50.3590778" lon="13.2382967"></trkpt><trkpt lat="50.3590295" lon="13.2382853"></trkpt><trkpt lat="50.3589794" lon="13.2382827"></trkpt><trkpt lat="50.3589157" lon="13.2382696"></trkpt><trkpt lat="50.358887136846505" lon="13.238270845060537"></trkpt><trkpt lat="50.3588767" lon="13.2382713"></trkpt><trkpt lat="50.3588446" lon="13.2382821"></trkpt><trkpt lat="50.3588228" lon="13.2383008"></trkpt><trkpt lat="50.3588074" lon="13.2383296"></trkpt><trkpt lat="50.3588075" lon="13.2383644"></trkpt><trkpt lat="50.3588642" lon="13.2385277"></trkpt><trkpt lat="50.3589469" lon="13.2387147"></trkpt><trkpt lat="50.3590111" lon="13.2388057"></trkpt><trkpt lat="50.3590731" lon="13.2388566"></trkpt><trkpt lat="50.3591957" lon="13.2390313"></trkpt><trkpt lat="50.3592108" lon="13.2390652"></trkpt><trkpt lat="50.3592327" lon="13.2391356"></trkpt><trkpt lat="50.3592451" lon="13.2391617"></trkpt><trkpt lat="50.3592724" lon="13.2391926"></trkpt><trkpt lat="50.3594269" lon="13.2394855"></trkpt><trkpt lat="50.3594821" lon="13.2395688"></trkpt><trkpt lat="50.3596895" lon="13.2397907"></trkpt><trkpt lat="50.3597066" lon="13.2398122"></trkpt><trkpt lat="50.359721383619274" lon="13.239848567703403"></trkpt><trkpt lat="50.3597316" lon="13.2398737"></trkpt><trkpt lat="50.3597392" lon="13.2399201"></trkpt><trkpt lat="50.3597249" lon="13.2401639"></trkpt><trkpt lat="50.3597049" lon="13.2403164"></trkpt><trkpt lat="50.3597082" lon="13.2403608"></trkpt><trkpt lat="50.359746" lon="13.2405384"></trkpt><trkpt lat="50.3597498" lon="13.2405742"></trkpt><trkpt lat="50.3597516" lon="13.2406557"></trkpt><trkpt lat="50.3597588" lon="13.2407121"></trkpt><trkpt lat="50.3597798" lon="13.2408214"></trkpt><trkpt lat="50.3597905" lon="13.2408489"></trkpt><trkpt lat="50.3597935" lon="13.2408676"></trkpt><trkpt lat="50.3597952" lon="13.2409199"></trkpt><trkpt lat="50.3598097" lon="13.2409823"></trkpt><trkpt lat="50.3598558" lon="13.2411189"></trkpt><trkpt lat="50.3599586" lon="13.2415275"></trkpt><trkpt lat="50.36004378068545" lon="13.241869275354839"></trkpt><trkpt lat="50.3600638" lon="13.2419496"></trkpt><trkpt lat="50.3600882" lon="13.2420196"></trkpt><trkpt lat="50.3601338" lon="13.2421206"></trkpt><trkpt lat="50.360217" lon="13.2422402"></trkpt><trkpt lat="50.3602478" lon="13.2422926"></trkpt><trkpt lat="50.3602672" lon="13.2423397"></trkpt><trkpt lat="50.360312" lon="13.2425353"></trkpt><trkpt lat="50.3603419" lon="13.242721"></trkpt><trkpt lat="50.3603462" lon="13.2427606"></trkpt><trkpt lat="50.3603432" lon="13.2428518"></trkpt><trkpt lat="50.3603474" lon="13.2428971"></trkpt><trkpt lat="50.3603569" lon="13.2429551"></trkpt><trkpt lat="50.3603603" lon="13.242996"></trkpt><trkpt lat="50.3603569" lon="13.2430664"></trkpt><trkpt lat="50.3603593" lon="13.2431847"></trkpt><trkpt lat="50.360383" lon="13.2433098"></trkpt><trkpt lat="50.3604186" lon="13.2434154"></trkpt><trkpt lat="50.360466" lon="13.2435089"></trkpt><trkpt lat="50.360549" lon="13.2436189"></trkpt><trkpt lat="50.3605857" lon="13.2436565"></trkpt><trkpt lat="50.3606097" lon="13.2437168"></trkpt><trkpt lat="50.3605857" lon="13.2436565"></trkpt><trkpt lat="50.360549" lon="13.2436189"></trkpt><trkpt lat="50.360466" lon="13.2435089"></trkpt><trkpt lat="50.3604186" lon="13.2434154"></trkpt><trkpt lat="50.360383" lon="13.2433098"></trkpt><trkpt lat="50.3603593" lon="13.2431847"></trkpt><trkpt lat="50.3602414" lon="13.2433336"></trkpt><trkpt lat="50.360137" lon="13.2434191"></trkpt><trkpt lat="50.3600603" lon="13.2435016"></trkpt><trkpt lat="50.3600001" lon="13.2435948"></trkpt><trkpt lat="50.3599599" lon="13.2436704"></trkpt><trkpt lat="50.3599334" lon="13.2437443"></trkpt><trkpt lat="50.3599252" lon="13.2437865"></trkpt><trkpt lat="50.3599217" lon="13.2438276"></trkpt><trkpt lat="50.3599201" lon="13.2439475"></trkpt><trkpt lat="50.359913" lon="13.2440401"></trkpt><trkpt lat="50.3599046" lon="13.2443886"></trkpt><trkpt lat="50.3599043" lon="13.2444806"></trkpt><trkpt lat="50.359918" lon="13.2445349"></trkpt><trkpt lat="50.3599539" lon="13.2446401"></trkpt><trkpt lat="50.360003" lon="13.2447337"></trkpt><trkpt lat="50.3600386" lon="13.2448138"></trkpt><trkpt lat="50.3600473" lon="13.2448672"></trkpt><trkpt lat="50.3600376" lon="13.2449211"></trkpt><trkpt lat="50.3599841" lon="13.2450204"></trkpt><trkpt lat="50.3598819" lon="13.2451593"></trkpt><trkpt lat="50.35986710303951" lon="13.245172311405476"></trkpt><trkpt lat="50.3597029" lon="13.2453167"></trkpt><trkpt lat="50.3596506" lon="13.2453389"></trkpt><trkpt lat="50.3596155" lon="13.2453456"></trkpt><trkpt lat="50.3595822" lon="13.2453395"></trkpt><trkpt lat="50.3595446" lon="13.2453175"></trkpt><trkpt lat="50.3594744" lon="13.2452416"></trkpt><trkpt lat="50.3594384" lon="13.2452162"></trkpt><trkpt lat="50.3594037" lon="13.2452028"></trkpt><trkpt lat="50.3593452" lon="13.245068"></trkpt><trkpt lat="50.3592074" lon="13.2447064"></trkpt><trkpt lat="50.3591424" lon="13.2445644"></trkpt><trkpt lat="50.3589965" lon="13.2443123"></trkpt><trkpt lat="50.35886512917272" lon="13.244107714865516"></trkpt><trkpt lat="50.35886512917272" lon="13.244107714865514"></trkpt><trkpt lat="50.35886512917272" lon="13.244107714865516"></trkpt><trkpt lat="50.3588002" lon="13.2440066"></trkpt><trkpt lat="50.3584635" lon="13.2435472"></trkpt><trkpt lat="50.3583015" lon="13.2432745"></trkpt><trkpt lat="50.3581352" lon="13.2429626"></trkpt><trkpt lat="50.357951" lon="13.2426956"></trkpt><trkpt lat="50.357883484049886" lon="13.242634651096507"></trkpt><trkpt lat="50.357883484049886" lon="13.242634651096505"></trkpt><trkpt lat="50.357883484049886" lon="13.242634651096507"></trkpt><trkpt lat="50.357951" lon="13.2426956"></trkpt><trkpt lat="50.3581352" lon="13.2429626"></trkpt><trkpt lat="50.3580977" lon="13.2428216"></trkpt><trkpt lat="50.358028" lon="13.2426721"></trkpt><trkpt lat="50.3578149" lon="13.2423623"></trkpt><trkpt lat="50.3577576" lon="13.2422946"></trkpt><trkpt lat="50.3576866" lon="13.2422309"></trkpt><trkpt lat="50.357539" lon="13.2421906"></trkpt><trkpt lat="50.3570921" lon="13.2418295"></trkpt><trkpt lat="50.3568151" lon="13.2414906"></trkpt><trkpt lat="50.35677377066782" lon="13.241452140943203"></trkpt><trkpt lat="50.35677377066782" lon="13.241452140943206"></trkpt><trkpt lat="50.35677377066782" lon="13.241452140943203"></trkpt><trkpt lat="50.3565012" lon="13.2411985"></trkpt><trkpt lat="50.3564401" lon="13.2411166"></trkpt><trkpt lat="50.3563296" lon="13.2408817"></trkpt><trkpt lat="50.3562923" lon="13.2408341"></trkpt><trkpt lat="50.3562115" lon="13.2407463"></trkpt><trkpt lat="50.3560575" lon="13.2406001"></trkpt><trkpt lat="50.3559843" lon="13.2405303"></trkpt><trkpt lat="50.3559287" lon="13.2404526"></trkpt><trkpt lat="50.3558718" lon="13.2403493"></trkpt><trkpt lat="50.3557841" lon="13.2401803"></trkpt><trkpt lat="50.3557533" lon="13.2401421"></trkpt><trkpt lat="50.3557186" lon="13.2401186"></trkpt><trkpt lat="50.3556951" lon="13.2401119"></trkpt><trkpt lat="50.355676388425174" lon="13.240114223498063"></trkpt><trkpt lat="50.3556194" lon="13.2401213"></trkpt><trkpt lat="50.355568" lon="13.2401475"></trkpt><trkpt lat="50.3555351" lon="13.240181"></trkpt><trkpt lat="50.3555107" lon="13.2402172"></trkpt><trkpt lat="50.3554739" lon="13.240322"></trkpt><trkpt lat="50.3554477" lon="13.2403859"></trkpt><trkpt lat="50.3552694" lon="13.2406494"></trkpt><trkpt lat="50.3552407" lon="13.2406745"></trkpt><trkpt lat="50.355208" lon="13.2406782"></trkpt><trkpt lat="50.3551856" lon="13.2406645"></trkpt><trkpt lat="50.355174" lon="13.2406383"></trkpt><trkpt lat="50.3551584" lon="13.2405921"></trkpt><trkpt lat="50.3551449" lon="13.2404619"></trkpt><trkpt lat="50.3550966" lon="13.2398839"></trkpt><trkpt lat="50.355084878330324" lon="13.23966416951005"></trkpt><trkpt lat="50.3550793" lon="13.2395596"></trkpt><trkpt lat="50.355076" lon="13.2394199"></trkpt><trkpt lat="50.3550904" lon="13.2391705"></trkpt><trkpt lat="50.3551026" lon="13.2390236"></trkpt><trkpt lat="50.3551153" lon="13.2389376"></trkpt><trkpt lat="50.3552322" lon="13.2384101"></trkpt><trkpt lat="50.3553044" lon="13.2381584"></trkpt><trkpt lat="50.35541292213684" lon="13.237694619795976"></trkpt><trkpt lat="50.35541292213684" lon="13.237694619795974"></trkpt><trkpt lat="50.35541292213684" lon="13.237694619795976"></trkpt><trkpt lat="50.3554294" lon="13.2376242"></trkpt><trkpt lat="50.3554455" lon="13.2375162"></trkpt><trkpt lat="50.3554551" lon="13.2371841"></trkpt><trkpt lat="50.3554245" lon="13.2366336"></trkpt><trkpt lat="50.3554063" lon="13.2365513"></trkpt><trkpt lat="50.3553847" lon="13.2364826"></trkpt><trkpt lat="50.3553231" lon="13.2363777"></trkpt><trkpt lat="50.3554645" lon="13.2362569"></trkpt><trkpt lat="50.3555783" lon="13.2361396"></trkpt><trkpt lat="50.35575547763822" lon="13.236015370931186"></trkpt><trkpt lat="50.35575547763822" lon="13.236015370931188"></trkpt><trkpt lat="50.35575547763822" lon="13.236015370931186"></trkpt><trkpt lat="50.3557687" lon="13.2360061"></trkpt><trkpt lat="50.3559073" lon="13.2359438"></trkpt><trkpt lat="50.356135" lon="13.2358829"></trkpt><trkpt lat="50.3562444" lon="13.2358351"></trkpt><trkpt lat="50.3563351" lon="13.2357506"></trkpt><trkpt lat="50.3564908" lon="13.2355495"></trkpt><trkpt lat="50.3568104" lon="13.2352054"></trkpt><trkpt lat="50.35693365985297" lon="13.235057500374342"></trkpt><trkpt lat="50.3572146" lon="13.2347204"></trkpt><trkpt lat="50.3573595" lon="13.2344526"></trkpt><trkpt lat="50.3577435" lon="13.2336062"></trkpt><trkpt lat="50.357784494560306" lon="13.233474808960102"></trkpt><trkpt lat="50.357784494560306" lon="13.233474808960104"></trkpt><trkpt lat="50.357784494560306" lon="13.233474808960102"></trkpt><trkpt lat="50.3578025" lon="13.2334171"></trkpt><trkpt lat="50.3578593" lon="13.2332734"></trkpt><trkpt lat="50.3581288" lon="13.2328214"></trkpt><trkpt lat="50.358286" lon="13.2324891"></trkpt><trkpt lat="50.3586783" lon="13.2318766"></trkpt><trkpt lat="50.3588228" lon="13.231506"></trkpt><trkpt lat="50.3588667" lon="13.2313663"></trkpt><trkpt lat="50.3588797" lon="13.2312586"></trkpt><trkpt lat="50.3588938" lon="13.2309958"></trkpt><trkpt lat="50.3589062" lon="13.2308181"></trkpt><trkpt lat="50.3589234" lon="13.230743"></trkpt><trkpt lat="50.3589697" lon="13.2306542"></trkpt><trkpt lat="50.359044" lon="13.2306068"></trkpt><trkpt lat="50.3591086" lon="13.2305928"></trkpt><trkpt lat="50.3591711" lon="13.2306082"></trkpt><trkpt lat="50.3592155" lon="13.2306404"></trkpt><trkpt lat="50.3592361" lon="13.2306913"></trkpt><trkpt lat="50.3593546" lon="13.2309958"></trkpt><trkpt lat="50.35937035823686" lon="13.231023390452503"></trkpt><trkpt lat="50.3594128" lon="13.2310977"></trkpt><trkpt lat="50.3596681" lon="13.2313196"></trkpt><trkpt lat="50.360011" lon="13.231791"></trkpt><trkpt lat="50.3601438" lon="13.2319339"></trkpt><trkpt lat="50.360239" lon="13.2319873"></trkpt><trkpt lat="50.3605194" lon="13.2320579"></trkpt><trkpt lat="50.3605242061048" lon="13.232058386745932"></trkpt><trkpt lat="50.3606369" lon="13.2320698"></trkpt><trkpt lat="50.3607911" lon="13.2320271"></trkpt><trkpt lat="50.3608882" lon="13.231962"></trkpt><trkpt lat="50.3610024" lon="13.2318346"></trkpt><trkpt lat="50.3610553" lon="13.2317389"></trkpt><trkpt lat="50.3611106" lon="13.2315543"></trkpt><trkpt lat="50.3611354" lon="13.2315074"></trkpt><trkpt lat="50.3613023" lon="13.2312928"></trkpt><trkpt lat="50.3614406" lon="13.2311318"></trkpt><trkpt lat="50.3615645" lon="13.2310187"></trkpt><trkpt lat="50.36164863763752" lon="13.230982674124508"></trkpt><trkpt lat="50.3618186" lon="13.2309099"></trkpt><trkpt lat="50.3619704" lon="13.2308736"></trkpt><trkpt lat="50.362281" lon="13.2307967"></trkpt><trkpt lat="50.3623756" lon="13.2307517"></trkpt><trkpt lat="50.3627143" lon="13.2304908"></trkpt><trkpt lat="50.3628786" lon="13.2303433"></trkpt><trkpt lat="50.36288791455766" lon="13.230334313964082"></trkpt><trkpt lat="50.36288791455766" lon="13.23033431396408"></trkpt><trkpt lat="50.36288791455766" lon="13.230334313964082"></trkpt><trkpt lat="50.3630232" lon="13.2302038"></trkpt><trkpt lat="50.3633038" lon="13.2299899"></trkpt><trkpt lat="50.3635485" lon="13.2298142"></trkpt><trkpt lat="50.3637097" lon="13.2297237"></trkpt><trkpt lat="50.36411295530399" lon="13.22944235909024"></trkpt><trkpt lat="50.36411295530399" lon="13.229442359090239"></trkpt><trkpt lat="50.36411295530399" lon="13.22944235909024"></trkpt><trkpt lat="50.3641182" lon="13.2294387"></trkpt><trkpt lat="50.364173" lon="13.229406"></trkpt><trkpt lat="50.3642376" lon="13.2293589"></trkpt><trkpt lat="50.3643188" lon="13.2292765"></trkpt><trkpt lat="50.3644028" lon="13.22917"></trkpt><trkpt lat="50.3644617" lon="13.2290733"></trkpt><trkpt lat="50.3646542" lon="13.2287373"></trkpt><trkpt lat="50.3647391" lon="13.2286395"></trkpt><trkpt lat="50.3650807" lon="13.22836"></trkpt><trkpt lat="50.36519695056414" lon="13.22827442343241"></trkpt><trkpt lat="50.3652304" lon="13.2282498"></trkpt><trkpt lat="50.3652988" lon="13.2282083"></trkpt><trkpt lat="50.3653672" lon="13.2281788"></trkpt><trkpt lat="50.3653991" lon="13.22818"></trkpt><trkpt lat="50.3654412" lon="13.2281841"></trkpt><trkpt lat="50.3654836" lon="13.2282029"></trkpt><trkpt lat="50.365558" lon="13.2282503"></trkpt><trkpt lat="50.3656673" lon="13.2283511"></trkpt><trkpt lat="50.3657428" lon="13.2284047"></trkpt><trkpt lat="50.3658099" lon="13.2284171"></trkpt><trkpt lat="50.3658758" lon="13.2284047"></trkpt><trkpt lat="50.3659575" lon="13.2283692"></trkpt><trkpt lat="50.3661457" lon="13.2282579"></trkpt><trkpt lat="50.3662638" lon="13.2282136"></trkpt><trkpt lat="50.3665279" lon="13.2281733"></trkpt><trkpt lat="50.366540341104916" lon="13.228174975393403"></trkpt><trkpt lat="50.366718" lon="13.2281989"></trkpt><trkpt lat="50.3668412" lon="13.2282364"></trkpt><trkpt lat="50.3669439" lon="13.2283223"></trkpt><trkpt lat="50.3670551" lon="13.2283732"></trkpt><trkpt lat="50.367304" lon="13.2284403"></trkpt><trkpt lat="50.3676019" lon="13.2285836"></trkpt><trkpt lat="50.3677249" lon="13.2286119"></trkpt><trkpt lat="50.3677879" lon="13.2286147"></trkpt><trkpt lat="50.36784318919874" lon="13.228608191358266"></trkpt><trkpt lat="50.3678686" lon="13.2286052"></trkpt><trkpt lat="50.3679607" lon="13.228586"></trkpt><trkpt lat="50.3680491" lon="13.2285503"></trkpt><trkpt lat="50.3681247" lon="13.2284928"></trkpt><trkpt lat="50.3682595" lon="13.2283276"></trkpt><trkpt lat="50.3683168" lon="13.2282968"></trkpt><trkpt lat="50.3683961" lon="13.2282867"></trkpt><trkpt lat="50.3687364" lon="13.2283363"></trkpt><trkpt lat="50.3689353" lon="13.2284148"></trkpt><trkpt lat="50.36917004516194" lon="13.228601287445722"></trkpt><trkpt lat="50.369251" lon="13.2286656"></trkpt><trkpt lat="50.3693895" lon="13.2287313"></trkpt><trkpt lat="50.3697214" lon="13.2288359"></trkpt><trkpt lat="50.3699884" lon="13.2289687"></trkpt><trkpt lat="50.3703251" lon="13.229258"></trkpt><trkpt lat="50.37040793688293" lon="13.22934365172846"></trkpt><trkpt lat="50.37040793688293" lon="13.229343651728458"></trkpt><trkpt lat="50.37040793688293" lon="13.22934365172846"></trkpt><trkpt lat="50.3706959" lon="13.2296414"></trkpt><trkpt lat="50.370755" lon="13.2297379"></trkpt><trkpt lat="50.3708638" lon="13.2300241"></trkpt><trkpt lat="50.3709515" lon="13.2302072"></trkpt><trkpt lat="50.3710012" lon="13.2302744"></trkpt><trkpt lat="50.3710699" lon="13.2303279"></trkpt><trkpt lat="50.3711463" lon="13.2303653"></trkpt><trkpt lat="50.3712196" lon="13.2301482"></trkpt><trkpt lat="50.371388760445704" lon="13.229764878400129"></trkpt><trkpt lat="50.371388760445704" lon="13.22976487840013"></trkpt><trkpt lat="50.371388760445704" lon="13.229764878400129"></trkpt><trkpt lat="50.3713959" lon="13.2297487"></trkpt><trkpt lat="50.3715089" lon="13.2294911"></trkpt><trkpt lat="50.3715914" lon="13.2293008"></trkpt><trkpt lat="50.3718409" lon="13.2287739"></trkpt><trkpt lat="50.3718867" lon="13.2286772"></trkpt><trkpt lat="50.3719909" lon="13.2288514"></trkpt><trkpt lat="50.372008" lon="13.2291307"></trkpt><trkpt lat="50.37202" lon="13.2292681"></trkpt><trkpt lat="50.3720482" lon="13.2293728"></trkpt><trkpt lat="50.3720826" lon="13.2294374"></trkpt><trkpt lat="50.37210242986693" lon="13.229451176539131"></trkpt><trkpt lat="50.37210242986693" lon="13.229451176539133"></trkpt><trkpt lat="50.37210242986693" lon="13.229451176539131"></trkpt><trkpt lat="50.3721396" lon="13.229477"></trkpt><trkpt lat="50.3723992" lon="13.2295707"></trkpt><trkpt lat="50.3726149" lon="13.2297414"></trkpt><trkpt lat="50.3728603" lon="13.2301125"></trkpt><trkpt lat="50.3728897" lon="13.2302954"></trkpt><trkpt lat="50.3729128" lon="13.2304777"></trkpt><trkpt lat="50.3729043" lon="13.2306142"></trkpt><trkpt lat="50.3728739" lon="13.2307423"></trkpt><trkpt lat="50.37281990345695" lon="13.230869518431069"></trkpt><trkpt lat="50.37281990345695" lon="13.23086951843107"></trkpt><trkpt lat="50.37281990345695" lon="13.230869518431069"></trkpt><trkpt lat="50.3728152" lon="13.2308806"></trkpt><trkpt lat="50.3727309" lon="13.2310533"></trkpt><trkpt lat="50.3727054" lon="13.2311413"></trkpt><trkpt lat="50.3726974" lon="13.2312219"></trkpt><trkpt lat="50.3727105" lon="13.2312935"></trkpt><trkpt lat="50.3727597" lon="13.2313753"></trkpt><trkpt lat="50.3728276" lon="13.2314449"></trkpt><trkpt lat="50.3730632" lon="13.2316106"></trkpt><trkpt lat="50.3732925" lon="13.2317017"></trkpt><trkpt lat="50.3735981" lon="13.231535"></trkpt><trkpt lat="50.37367322979741" lon="13.231368005852232"></trkpt><trkpt lat="50.37367322979741" lon="13.23136800585223"></trkpt><trkpt lat="50.37367322979741" lon="13.231368005852232"></trkpt><trkpt lat="50.3739402" lon="13.2307746"></trkpt><trkpt lat="50.3740996" lon="13.2303423"></trkpt><trkpt lat="50.3742425" lon="13.2303007"></trkpt><trkpt lat="50.37455972451317" lon="13.230448063662116"></trkpt><trkpt lat="50.3746909" lon="13.230509"></trkpt><trkpt lat="50.3748171" lon="13.2307642"></trkpt><trkpt lat="50.37483" lon="13.2308357"></trkpt><trkpt lat="50.3749446" lon="13.2315145"></trkpt><trkpt lat="50.3750062" lon="13.2317347"></trkpt><trkpt lat="50.3750733" lon="13.2319231"></trkpt><trkpt lat="50.3751559" lon="13.2321028"></trkpt><trkpt lat="50.37523385787956" lon="13.232203276924325"></trkpt><trkpt lat="50.3752376" lon="13.2322081"></trkpt><trkpt lat="50.3753239" lon="13.2323005"></trkpt><trkpt lat="50.3755005" lon="13.2324071"></trkpt><trkpt lat="50.3757393" lon="13.2324703"></trkpt><trkpt lat="50.3757905" lon="13.232587"></trkpt><trkpt lat="50.3758835" lon="13.2328284"></trkpt><trkpt lat="50.3761618" lon="13.2334471"></trkpt><trkpt lat="50.37619992644002" lon="13.233539789813214"></trkpt><trkpt lat="50.376246" lon="13.2336518"></trkpt><trkpt lat="50.3762899" lon="13.2338087"></trkpt><trkpt lat="50.3763127" lon="13.2339965"></trkpt><trkpt lat="50.3763084" lon="13.2342419"></trkpt><trkpt lat="50.3762776" lon="13.2345445"></trkpt><trkpt lat="50.3761987" lon="13.235592"></trkpt><trkpt lat="50.37619873394796" lon="13.23563053092712"></trkpt><trkpt lat="50.3761989" lon="13.235819"></trkpt><trkpt lat="50.3762746" lon="13.2371229"></trkpt><trkpt lat="50.3763671015131" lon="13.237715774183936"></trkpt><trkpt lat="50.3763816" lon="13.2378087"></trkpt><trkpt lat="50.3763965" lon="13.2380278"></trkpt><trkpt lat="50.3764008" lon="13.2383899"></trkpt><trkpt lat="50.3764217" lon="13.2387569"></trkpt><trkpt lat="50.3764717" lon="13.2392389"></trkpt><trkpt lat="50.3765347" lon="13.2396772"></trkpt><trkpt lat="50.3765363" lon="13.2397525"></trkpt><trkpt lat="50.37652362237158" lon="13.239841303058348"></trkpt><trkpt lat="50.3764938" lon="13.2400502"></trkpt><trkpt lat="50.3764936" lon="13.2401126"></trkpt><trkpt lat="50.3765" lon="13.2401763"></trkpt><trkpt lat="50.3766953" lon="13.2407142"></trkpt><trkpt lat="50.376766" lon="13.2410011"></trkpt><trkpt lat="50.3768173" lon="13.2412921"></trkpt><trkpt lat="50.3768617" lon="13.2415807"></trkpt><trkpt lat="50.3768890102195" lon="13.241790421874262"></trkpt><trkpt lat="50.3769571" lon="13.2423133"></trkpt><trkpt lat="50.3769965" lon="13.2425373"></trkpt><trkpt lat="50.377073" lon="13.2428626"></trkpt><trkpt lat="50.3772175" lon="13.2433051"></trkpt><trkpt lat="50.37737407589526" lon="13.243743584828163"></trkpt><trkpt lat="50.37737407589526" lon="13.243743584828165"></trkpt><trkpt lat="50.37737407589526" lon="13.243743584828163"></trkpt><trkpt lat="50.377434" lon="13.2439114"></trkpt><trkpt lat="50.3775118" lon="13.2442868"></trkpt><trkpt lat="50.3777102" lon="13.2448178"></trkpt><trkpt lat="50.3777082" lon="13.2448732"></trkpt><trkpt lat="50.3776375" lon="13.2449712"></trkpt><trkpt lat="50.3776238" lon="13.2450297"></trkpt><trkpt lat="50.3776298" lon="13.2450888"></trkpt><trkpt lat="50.3777725" lon="13.2453376"></trkpt><trkpt lat="50.3778397" lon="13.2453987"></trkpt><trkpt lat="50.3779383" lon="13.2454519"></trkpt><trkpt lat="50.3779787" lon="13.2455132"></trkpt><trkpt lat="50.3779938153646" lon="13.245559331307534"></trkpt><trkpt lat="50.3780018" lon="13.2455837"></trkpt><trkpt lat="50.3780193" lon="13.2457412"></trkpt><trkpt lat="50.3780322" lon="13.2457969"></trkpt><trkpt lat="50.3780528" lon="13.2458231"></trkpt><trkpt lat="50.3781424" lon="13.2458815"></trkpt><trkpt lat="50.378166" lon="13.2459048"></trkpt><trkpt lat="50.3781848" lon="13.245935"></trkpt><trkpt lat="50.3782545" lon="13.2461108"></trkpt><trkpt lat="50.3783071" lon="13.2464921"></trkpt><trkpt lat="50.3784018" lon="13.2467888"></trkpt><trkpt lat="50.378432" lon="13.2469167"></trkpt><trkpt lat="50.3784551" lon="13.2470454"></trkpt><trkpt lat="50.378468169045796" lon="13.247463708473292"></trkpt><trkpt lat="50.3784683" lon="13.2474679"></trkpt><trkpt lat="50.3784903" lon="13.24771"></trkpt><trkpt lat="50.3785137" lon="13.247832"></trkpt><trkpt lat="50.3785405" lon="13.2479521"></trkpt><trkpt lat="50.3788602" lon="13.2487418"></trkpt><trkpt lat="50.3789538" lon="13.2491102"></trkpt><trkpt lat="50.3789973" lon="13.2492958"></trkpt><trkpt lat="50.37900615826251" lon="13.249342693739969"></trkpt><trkpt lat="50.37900615826251" lon="13.24934269373997"></trkpt><trkpt lat="50.37900615826251" lon="13.249342693739969"></trkpt><trkpt lat="50.3790327" lon="13.2494832"></trkpt><trkpt lat="50.3790884" lon="13.2499338"></trkpt><trkpt lat="50.3791473" lon="13.250306"></trkpt><trkpt lat="50.3792034" lon="13.2505739"></trkpt><trkpt lat="50.3793523" lon="13.2511578"></trkpt><trkpt lat="50.37939122675849" lon="13.25137102241311"></trkpt><trkpt lat="50.37939122675849" lon="13.251371022413112"></trkpt><trkpt lat="50.37939122675849" lon="13.25137102241311"></trkpt><trkpt lat="50.3794057" lon="13.2514503"></trkpt><trkpt lat="50.3794947" lon="13.2523764"></trkpt><trkpt lat="50.3794626" lon="13.2525949"></trkpt><trkpt lat="50.3794178" lon="13.2527768"></trkpt><trkpt lat="50.3792975" lon="13.2530442"></trkpt><trkpt lat="50.3791982" lon="13.2531907"></trkpt><trkpt lat="50.379072823954125" lon="13.2533008635261"></trkpt><trkpt lat="50.3789765" lon="13.2533855"></trkpt><trkpt lat="50.3788518" lon="13.2534546"></trkpt><trkpt lat="50.3787972" lon="13.2536101"></trkpt><trkpt lat="50.3786767" lon="13.2538071"></trkpt><trkpt lat="50.3786193" lon="13.2539219"></trkpt><trkpt lat="50.3785124" lon="13.2540634"></trkpt><trkpt lat="50.3784866" lon="13.254193"></trkpt><trkpt lat="50.3784385" lon="13.2543291"></trkpt><trkpt lat="50.3783692" lon="13.2544377"></trkpt><trkpt lat="50.378166794698274" lon="13.254613157105187"></trkpt><trkpt lat="50.378166794698274" lon="13.254613157105185"></trkpt><trkpt lat="50.378166794698274" lon="13.254613157105187"></trkpt><trkpt lat="50.3781281" lon="13.2546467"></trkpt><trkpt lat="50.3778484" lon="13.2548592"></trkpt><trkpt lat="50.3778933" lon="13.2550247"></trkpt><trkpt lat="50.3782317" lon="13.2562574"></trkpt><trkpt lat="50.3782523" lon="13.2563445"></trkpt><trkpt lat="50.3783166" lon="13.2563372"></trkpt><trkpt lat="50.378357152016505" lon="13.25633968277652"></trkpt><trkpt lat="50.3783705" lon="13.2563405"></trkpt><trkpt lat="50.3784077" lon="13.2563395"></trkpt><trkpt lat="50.378407" lon="13.2562695"></trkpt><trkpt lat="50.3784089" lon="13.2562548"></trkpt><trkpt lat="50.3784169" lon="13.2562485"></trkpt><trkpt lat="50.3784245" lon="13.2562533"></trkpt><trkpt lat="50.3784277" lon="13.2562656"></trkpt><trkpt lat="50.3784337" lon="13.2564203"></trkpt><trkpt lat="50.3784338" lon="13.2564512"></trkpt><trkpt lat="50.3783644" lon="13.2564513"></trkpt><trkpt lat="50.3783045" lon="13.256442"></trkpt><trkpt lat="50.3782589" lon="13.2564453"></trkpt><trkpt lat="50.3782209" lon="13.2564621"></trkpt><trkpt lat="50.3781478" lon="13.2565427"></trkpt><trkpt lat="50.3780466" lon="13.2566535"></trkpt><trkpt lat="50.3779191" lon="13.2567611"></trkpt><trkpt lat="50.3778353" lon="13.2570011"></trkpt><trkpt lat="50.377776" lon="13.2573196"></trkpt><trkpt lat="50.3777641" lon="13.2575309"></trkpt><trkpt lat="50.377746546818884" lon="13.257908293394054"></trkpt><trkpt lat="50.3777421" lon="13.2580039"></trkpt><trkpt lat="50.3777691" lon="13.2583844"></trkpt><trkpt lat="50.3781289" lon="13.2587407"></trkpt><trkpt lat="50.378207" lon="13.2588181"></trkpt><trkpt lat="50.3782358" lon="13.2588267"></trkpt><trkpt lat="50.3782069" lon="13.2589351"></trkpt><trkpt lat="50.378353805842465" lon="13.259050420414306"></trkpt></trkseg></trk></gpx>
