<?xml version="1.0" encoding="UTF-8"?>
<gpx version="1.1" creator="Good Shit" xmlns="http://www.topografix.com/GPX/1/1"><trk><name>Walenpfad: Brunni–Bannalp — Walenpfad: Brunni–Bannalp</name><trkseg><trkpt lat="46.8322689" lon="8.4073288"></trkpt><trkpt lat="46.8324402" lon="8.4074449"></trkpt><trkpt lat="46.8324947" lon="8.4075077"></trkpt><trkpt lat="46.8326158" lon="8.407799"></trkpt><trkpt lat="46.8326444" lon="8.4078554"></trkpt><trkpt lat="46.8326723" lon="8.4078916"></trkpt><trkpt lat="46.8327063" lon="8.4079098"></trkpt><trkpt lat="46.8330328" lon="8.4079752"></trkpt><trkpt lat="46.8329846" lon="8.4080892"></trkpt><trkpt lat="46.8328941" lon="8.4082509"></trkpt><trkpt lat="46.8328341" lon="8.408321"></trkpt><trkpt lat="46.8327636" lon="8.4083559"></trkpt><trkpt lat="46.8325843" lon="8.4083549"></trkpt><trkpt lat="46.8326364" lon="8.4084471"></trkpt><trkpt lat="46.8326805" lon="8.408559"></trkpt><trkpt lat="46.8327742" lon="8.4087275"></trkpt><trkpt lat="46.8327809" lon="8.4087811"></trkpt><trkpt lat="46.8327906" lon="8.4088018"></trkpt><trkpt lat="46.832859" lon="8.4088355"></trkpt><trkpt lat="46.8329149" lon="8.4088925"></trkpt><trkpt lat="46.8329752" lon="8.4089526"></trkpt><trkpt lat="46.8329977" lon="8.4089876"></trkpt><trkpt lat="46.8330063" lon="8.4090164"></trkpt><trkpt lat="46.8330136" lon="8.4090672"></trkpt><trkpt lat="46.8330203" lon="8.4091344"></trkpt><trkpt lat="46.8330291" lon="8.4091614"></trkpt><trkpt lat="46.8330502" lon="8.409199"></trkpt><trkpt lat="46.8332279" lon="8.4094307"></trkpt><trkpt lat="46.8333052" lon="8.4095171"></trkpt><trkpt lat="46.8333236" lon="8.4095429"></trkpt><trkpt lat="46.8333312" lon="8.4095643"></trkpt><trkpt lat="46.8333327" lon="8.4096059"></trkpt><trkpt lat="46.8333364" lon="8.4096631"></trkpt><trkpt lat="46.833344" lon="8.4096844"></trkpt><trkpt lat="46.8333546" lon="8.4096959"></trkpt><trkpt lat="46.8333674" lon="8.4096992"></trkpt><trkpt lat="46.8333896" lon="8.4096989"></trkpt><trkpt lat="46.8334507" lon="8.409698"></trkpt><trkpt lat="46.8334994" lon="8.4097109"></trkpt><trkpt lat="46.8335265" lon="8.4097263"></trkpt><trkpt lat="46.8335486" lon="8.40975"></trkpt><trkpt lat="46.8335633" lon="8.4097814"></trkpt><trkpt lat="46.833575" lon="8.4098302"></trkpt><trkpt lat="46.8335756" lon="8.4098661"></trkpt><trkpt lat="46.833571" lon="8.4099064"></trkpt><trkpt lat="46.8335635" lon="8.4099318"></trkpt><trkpt lat="46.8335536" lon="8.4099546"></trkpt><trkpt lat="46.8335223" lon="8.4099959"></trkpt><trkpt lat="46.8335242" lon="8.4100093"></trkpt><trkpt lat="46.8335299" lon="8.4100138"></trkpt><trkpt lat="46.833578" lon="8.4100053"></trkpt><trkpt lat="46.8336044" lon="8.4099819"></trkpt><trkpt lat="46.833674" lon="8.4098864"></trkpt><trkpt lat="46.833684" lon="8.4098859"></trkpt><trkpt lat="46.8336922" lon="8.4099059"></trkpt><trkpt lat="46.8337113" lon="8.4099187"></trkpt><trkpt lat="46.8337367" lon="8.4099158"></trkpt><trkpt lat="46.8337438" lon="8.4098886"></trkpt><trkpt lat="46.8337587" lon="8.4098565"></trkpt><trkpt lat="46.8337871" lon="8.4098303"></trkpt><trkpt lat="46.8338028" lon="8.4098363"></trkpt><trkpt lat="46.8338295" lon="8.4098602"></trkpt><trkpt lat="46.8338684" lon="8.4098572"></trkpt><trkpt lat="46.8338788" lon="8.4098361"></trkpt><trkpt lat="46.83403" lon="8.4097363"></trkpt><trkpt lat="46.8340549" lon="8.409735"></trkpt><trkpt lat="46.8340693" lon="8.4097439"></trkpt><trkpt lat="46.8340927" lon="8.4097768"></trkpt><trkpt lat="46.8344144" lon="8.4095987"></trkpt><trkpt lat="46.8345149" lon="8.4095062"></trkpt><trkpt lat="46.8345992" lon="8.4094529"></trkpt><trkpt lat="46.8347268" lon="8.409409"></trkpt><trkpt lat="46.8348558" lon="8.4094504"></trkpt><trkpt lat="46.8349172" lon="8.4095112"></trkpt><trkpt lat="46.8349375" lon="8.4095666"></trkpt><trkpt lat="46.8348991" lon="8.4096002"></trkpt><trkpt lat="46.8348806" lon="8.4096208"></trkpt><trkpt lat="46.8348653" lon="8.4096446"></trkpt><trkpt lat="46.8348522" lon="8.4096829"></trkpt><trkpt lat="46.8348451" lon="8.4097259"></trkpt><trkpt lat="46.8348374" lon="8.4097826"></trkpt><trkpt lat="46.8348279" lon="8.409858"></trkpt><trkpt lat="46.8348147" lon="8.4099684"></trkpt><trkpt lat="46.8348061" lon="8.4100676"></trkpt><trkpt lat="46.834799" lon="8.4101492"></trkpt><trkpt lat="46.8347838" lon="8.4102578"></trkpt><trkpt lat="46.8347622" lon="8.4103704"></trkpt><trkpt lat="46.8347543" lon="8.4104427"></trkpt><trkpt lat="46.834751" lon="8.410513"></trkpt><trkpt lat="46.8347508" lon="8.4105931"></trkpt><trkpt lat="46.8347534" lon="8.4106692"></trkpt><trkpt lat="46.8347609" lon="8.4107808"></trkpt><trkpt lat="46.8347707" lon="8.4109091"></trkpt><trkpt lat="46.8347771" lon="8.4110063"></trkpt><trkpt lat="46.83478" lon="8.4110954"></trkpt><trkpt lat="46.8347822" lon="8.4113007"></trkpt><trkpt lat="46.8347836" lon="8.4114274"></trkpt><trkpt lat="46.834786" lon="8.4115172"></trkpt><trkpt lat="46.834791" lon="8.4115768"></trkpt><trkpt lat="46.8347966" lon="8.4116172"></trkpt><trkpt lat="46.834805" lon="8.4116451"></trkpt><trkpt lat="46.8348155" lon="8.4116635"></trkpt><trkpt lat="46.8348287" lon="8.4116786"></trkpt><trkpt lat="46.8348452" lon="8.4116852"></trkpt><trkpt lat="46.8348646" lon="8.4116848"></trkpt><trkpt lat="46.8348821" lon="8.4116783"></trkpt><trkpt lat="46.8349019" lon="8.4116668"></trkpt><trkpt lat="46.8349183" lon="8.4116458"></trkpt><trkpt lat="46.8349488" lon="8.4116004"></trkpt><trkpt lat="46.8349947" lon="8.4115381"></trkpt><trkpt lat="46.8350565" lon="8.4114645"></trkpt><trkpt lat="46.8351115" lon="8.4114079"></trkpt><trkpt lat="46.8351593" lon="8.4113654"></trkpt><trkpt lat="46.835208" lon="8.4113262"></trkpt><trkpt lat="46.8352637" lon="8.4112847"></trkpt><trkpt lat="46.8353198" lon="8.4112475"></trkpt><trkpt lat="46.8353769" lon="8.4112173"></trkpt><trkpt lat="46.8354548" lon="8.4111874"></trkpt><trkpt lat="46.8355193" lon="8.4111636"></trkpt><trkpt lat="46.8355802" lon="8.4111353"></trkpt><trkpt lat="46.8357022" lon="8.4110764"></trkpt><trkpt lat="46.8357453" lon="8.4110588"></trkpt><trkpt lat="46.8357698" lon="8.4110527"></trkpt><trkpt lat="46.8357918" lon="8.4110508"></trkpt><trkpt lat="46.8358215" lon="8.4110617"></trkpt><trkpt lat="46.8358508" lon="8.4110222"></trkpt><trkpt lat="46.8358782" lon="8.4110017"></trkpt><trkpt lat="46.8359099" lon="8.4109854"></trkpt><trkpt lat="46.8359391" lon="8.4109666"></trkpt><trkpt lat="46.8359638" lon="8.410959"></trkpt><trkpt lat="46.8359871" lon="8.41096"></trkpt><trkpt lat="46.836029" lon="8.4109684"></trkpt><trkpt lat="46.8361066" lon="8.4109902"></trkpt><trkpt lat="46.8361512" lon="8.4110016"></trkpt><trkpt lat="46.8362031" lon="8.4110105"></trkpt><trkpt lat="46.8362737" lon="8.4110255"></trkpt><trkpt lat="46.8362977" lon="8.4110232"></trkpt><trkpt lat="46.8363128" lon="8.411016"></trkpt><trkpt lat="46.836342" lon="8.4109898"></trkpt><trkpt lat="46.8363761" lon="8.4109508"></trkpt><trkpt lat="46.8364228" lon="8.4108909"></trkpt><trkpt lat="46.8364499" lon="8.4108545"></trkpt><trkpt lat="46.8365054" lon="8.4107768"></trkpt><trkpt lat="46.8365474" lon="8.4107198"></trkpt><trkpt lat="46.8365934" lon="8.4106532"></trkpt><trkpt lat="46.8366479" lon="8.4105814"></trkpt><trkpt lat="46.8367102" lon="8.4105037"></trkpt><trkpt lat="46.8367598" lon="8.4104299"></trkpt><trkpt lat="46.8368186" lon="8.4103426"></trkpt><trkpt lat="46.8368541" lon="8.4102978"></trkpt><trkpt lat="46.8368907" lon="8.4102435"></trkpt><trkpt lat="46.8369237" lon="8.4101801"></trkpt><trkpt lat="46.8369748" lon="8.4100874"></trkpt><trkpt lat="46.8369995" lon="8.4100353"></trkpt><trkpt lat="46.837017" lon="8.410004"></trkpt><trkpt lat="46.8370463" lon="8.4099731"></trkpt><trkpt lat="46.8370641" lon="8.4099601"></trkpt><trkpt lat="46.8370852" lon="8.409948"></trkpt><trkpt lat="46.8371087" lon="8.4099367"></trkpt><trkpt lat="46.8371357" lon="8.4099326"></trkpt><trkpt lat="46.8371722" lon="8.4099294"></trkpt><trkpt lat="46.8372077" lon="8.4099285"></trkpt><trkpt lat="46.8372412" lon="8.4099313"></trkpt><trkpt lat="46.8372611" lon="8.4099354"></trkpt><trkpt lat="46.837286" lon="8.4099315"></trkpt><trkpt lat="46.8373011" lon="8.409928"></trkpt><trkpt lat="46.8373099" lon="8.4099298"></trkpt><trkpt lat="46.8373165" lon="8.409936"></trkpt><trkpt lat="46.8373204" lon="8.4099456"></trkpt><trkpt lat="46.8373214" lon="8.4099584"></trkpt><trkpt lat="46.837319" lon="8.4099705"></trkpt><trkpt lat="46.8373113" lon="8.4099886"></trkpt><trkpt lat="46.837304" lon="8.4100217"></trkpt><trkpt lat="46.8372971" lon="8.4100478"></trkpt><trkpt lat="46.8372912" lon="8.4100655"></trkpt><trkpt lat="46.8372906" lon="8.4100849"></trkpt><trkpt lat="46.8372987" lon="8.4100888"></trkpt><trkpt lat="46.8373223" lon="8.4100828"></trkpt><trkpt lat="46.8373513" lon="8.410083"></trkpt><trkpt lat="46.8374017" lon="8.410086"></trkpt><trkpt lat="46.8374202" lon="8.4100914"></trkpt><trkpt lat="46.8374519" lon="8.4101034"></trkpt><trkpt lat="46.837488" lon="8.4101248"></trkpt><trkpt lat="46.8375022" lon="8.4101321"></trkpt><trkpt lat="46.8375111" lon="8.410142"></trkpt><trkpt lat="46.8375089" lon="8.410156"></trkpt><trkpt lat="46.8375021" lon="8.4101667"></trkpt><trkpt lat="46.83749" lon="8.4101808"></trkpt><trkpt lat="46.8374809" lon="8.4102069"></trkpt><trkpt lat="46.8374735" lon="8.4102407"></trkpt><trkpt lat="46.8374713" lon="8.4102745"></trkpt><trkpt lat="46.8374729" lon="8.4103"></trkpt><trkpt lat="46.8374781" lon="8.4103092"></trkpt><trkpt lat="46.8374946" lon="8.4103072"></trkpt><trkpt lat="46.8375065" lon="8.4103076"></trkpt><trkpt lat="46.8375105" lon="8.41032"></trkpt><trkpt lat="46.8375112" lon="8.4103498"></trkpt><trkpt lat="46.8375117" lon="8.4103886"></trkpt><trkpt lat="46.8375152" lon="8.4104051"></trkpt><trkpt lat="46.8375258" lon="8.4104189"></trkpt><trkpt lat="46.8375387" lon="8.4104237"></trkpt><trkpt lat="46.8375697" lon="8.4104287"></trkpt><trkpt lat="46.8376034" lon="8.4104379"></trkpt><trkpt lat="46.8376382" lon="8.4104503"></trkpt><trkpt lat="46.8376866" lon="8.4104625"></trkpt><trkpt lat="46.8377226" lon="8.4104844"></trkpt><trkpt lat="46.8377572" lon="8.4105132"></trkpt><trkpt lat="46.8378115" lon="8.4105488"></trkpt><trkpt lat="46.8378879" lon="8.4106006"></trkpt><trkpt lat="46.8379499" lon="8.4106511"></trkpt><trkpt lat="46.8379968" lon="8.410694"></trkpt><trkpt lat="46.8380389" lon="8.4107431"></trkpt><trkpt lat="46.838086" lon="8.4107737"></trkpt><trkpt lat="46.8381294" lon="8.4107918"></trkpt><trkpt lat="46.8381616" lon="8.4107988"></trkpt><trkpt lat="46.8382082" lon="8.4107986"></trkpt><trkpt lat="46.8382897" lon="8.4107973"></trkpt><trkpt lat="46.8383527" lon="8.4107956"></trkpt><trkpt lat="46.8384229" lon="8.4107887"></trkpt><trkpt lat="46.8384891" lon="8.4107915"></trkpt><trkpt lat="46.8385482" lon="8.4107961"></trkpt><trkpt lat="46.8385791" lon="8.4107907"></trkpt><trkpt lat="46.8386084" lon="8.4107794"></trkpt><trkpt lat="46.838654" lon="8.4107775"></trkpt><trkpt lat="46.8387094" lon="8.4107799"></trkpt><trkpt lat="46.8387464" lon="8.4107868"></trkpt><trkpt lat="46.8387902" lon="8.4108018"></trkpt><trkpt lat="46.8388186" lon="8.4108129"></trkpt><trkpt lat="46.8388492" lon="8.4108306"></trkpt><trkpt lat="46.8388858" lon="8.4108561"></trkpt><trkpt lat="46.8389172" lon="8.4108694"></trkpt><trkpt lat="46.8389688" lon="8.4108819"></trkpt><trkpt lat="46.8390085" lon="8.4108949"></trkpt><trkpt lat="46.8390311" lon="8.4109027"></trkpt><trkpt lat="46.8390623" lon="8.4109223"></trkpt><trkpt lat="46.8391173" lon="8.4109056"></trkpt><trkpt lat="46.8391246" lon="8.4108755"></trkpt><trkpt lat="46.8391667" lon="8.4108542"></trkpt><trkpt lat="46.8392302" lon="8.4108447"></trkpt><trkpt lat="46.8392681" lon="8.410832"></trkpt><trkpt lat="46.839316" lon="8.4107968"></trkpt><trkpt lat="46.8393799" lon="8.4107427"></trkpt><trkpt lat="46.8394471" lon="8.4106927"></trkpt><trkpt lat="46.8395355" lon="8.4106291"></trkpt><trkpt lat="46.8396119" lon="8.4105808"></trkpt><trkpt lat="46.8396716" lon="8.4105668"></trkpt><trkpt lat="46.8396992" lon="8.4105537"></trkpt><trkpt lat="46.8397579" lon="8.4105326"></trkpt><trkpt lat="46.8397988" lon="8.4105251"></trkpt><trkpt lat="46.839842" lon="8.4105202"></trkpt><trkpt lat="46.8399226" lon="8.4105054"></trkpt><trkpt lat="46.8399731" lon="8.4104987"></trkpt><trkpt lat="46.840011" lon="8.4104911"></trkpt><trkpt lat="46.8400483" lon="8.410489"></trkpt><trkpt lat="46.8400829" lon="8.4104853"></trkpt><trkpt lat="46.8401275" lon="8.4104697"></trkpt><trkpt lat="46.8401745" lon="8.4104527"></trkpt><trkpt lat="46.8401471" lon="8.4105099"></trkpt><trkpt lat="46.8401175" lon="8.4105796"></trkpt><trkpt lat="46.8401042" lon="8.4106148"></trkpt><trkpt lat="46.8400962" lon="8.4106551"></trkpt><trkpt lat="46.8400941" lon="8.4107068"></trkpt><trkpt lat="46.8401034" lon="8.4107518"></trkpt><trkpt lat="46.8401186" lon="8.4107913"></trkpt><trkpt lat="46.840138" lon="8.4108183"></trkpt><trkpt lat="46.8401651" lon="8.4108438"></trkpt><trkpt lat="46.8401972" lon="8.4108676"></trkpt><trkpt lat="46.8402301" lon="8.4108893"></trkpt><trkpt lat="46.8402741" lon="8.4109155"></trkpt><trkpt lat="46.8403076" lon="8.410932"></trkpt><trkpt lat="46.840354" lon="8.4109531"></trkpt><trkpt lat="46.8403975" lon="8.4109681"></trkpt><trkpt lat="46.8404826" lon="8.4109928"></trkpt><trkpt lat="46.8405744" lon="8.4110181"></trkpt><trkpt lat="46.840684" lon="8.4110508"></trkpt><trkpt lat="46.8407988" lon="8.4110726"></trkpt><trkpt lat="46.8408524" lon="8.4110789"></trkpt><trkpt lat="46.8408901" lon="8.4111026"></trkpt><trkpt lat="46.841152" lon="8.4110894"></trkpt><trkpt lat="46.8411904" lon="8.411019"></trkpt><trkpt lat="46.8412036" lon="8.41089"></trkpt><trkpt lat="46.8412312" lon="8.4107247"></trkpt><trkpt lat="46.8413119" lon="8.4106039"></trkpt><trkpt lat="46.8414571" lon="8.4104782"></trkpt><trkpt lat="46.8415412" lon="8.4104377"></trkpt><trkpt lat="46.8416936" lon="8.4104119"></trkpt><trkpt lat="46.8418424" lon="8.4103872"></trkpt><trkpt lat="46.8418819" lon="8.4103941"></trkpt><trkpt lat="46.8418889" lon="8.4103892"></trkpt><trkpt lat="46.8419543" lon="8.410319"></trkpt><trkpt lat="46.8421176" lon="8.4102219"></trkpt><trkpt lat="46.8423398" lon="8.4101165"></trkpt><trkpt lat="46.8424685" lon="8.4100442"></trkpt><trkpt lat="46.8425763" lon="8.4099658"></trkpt><trkpt lat="46.8426841" lon="8.4099002"></trkpt><trkpt lat="46.8427694" lon="8.4098726"></trkpt><trkpt lat="46.842868" lon="8.4097968"></trkpt><trkpt lat="46.8429456" lon="8.4097235"></trkpt><trkpt lat="46.8430001" lon="8.4096882"></trkpt><trkpt lat="46.8430725" lon="8.4096124"></trkpt><trkpt lat="46.8431198" lon="8.4095635"></trkpt><trkpt lat="46.8431691" lon="8.4095513"></trkpt><trkpt lat="46.8432262" lon="8.4095319"></trkpt><trkpt lat="46.843274" lon="8.4094691"></trkpt><trkpt lat="46.8433198" lon="8.4094059"></trkpt><trkpt lat="46.8433592" lon="8.4092691"></trkpt><trkpt lat="46.84341" lon="8.4091476"></trkpt><trkpt lat="46.8434606" lon="8.4090243"></trkpt><trkpt lat="46.8434984" lon="8.4089072"></trkpt><trkpt lat="46.8435294" lon="8.4088694"></trkpt><trkpt lat="46.8435605" lon="8.4087561"></trkpt><trkpt lat="46.8436435" lon="8.4085932"></trkpt><trkpt lat="46.843694" lon="8.4084966"></trkpt><trkpt lat="46.8437457" lon="8.4084118"></trkpt><trkpt lat="46.8438675" lon="8.4082551"></trkpt><trkpt lat="46.844042" lon="8.4079919"></trkpt><trkpt lat="46.8441383" lon="8.4078554"></trkpt><trkpt lat="46.8441673" lon="8.4078106"></trkpt><trkpt lat="46.8441822" lon="8.4077791"></trkpt><trkpt lat="46.8443447" lon="8.4077301"></trkpt><trkpt lat="46.8444393" lon="8.4077369"></trkpt><trkpt lat="46.8445224" lon="8.4077328"></trkpt><trkpt lat="46.8446081" lon="8.4077637"></trkpt><trkpt lat="46.844695" lon="8.4078098"></trkpt><trkpt lat="46.844762" lon="8.4078093"></trkpt><trkpt lat="46.8448449" lon="8.4077639"></trkpt><trkpt lat="46.8448833" lon="8.4077315"></trkpt><trkpt lat="46.8449138" lon="8.4076709"></trkpt><trkpt lat="46.8449557" lon="8.4076276"></trkpt><trkpt lat="46.8450161" lon="8.4076041"></trkpt><trkpt lat="46.8451086" lon="8.4075995"></trkpt><trkpt lat="46.845191" lon="8.4075464"></trkpt><trkpt lat="46.8452332" lon="8.4075503"></trkpt><trkpt lat="46.8452722" lon="8.4075189"></trkpt><trkpt lat="46.8453039" lon="8.4075089"></trkpt><trkpt lat="46.8453181" lon="8.4074861"></trkpt><trkpt lat="46.8453479" lon="8.4074599"></trkpt><trkpt lat="46.8454393" lon="8.4074027"></trkpt><trkpt lat="46.8454905" lon="8.4073339"></trkpt><trkpt lat="46.8455405" lon="8.4072869"></trkpt><trkpt lat="46.8456081" lon="8.4072741"></trkpt><trkpt lat="46.8456442" lon="8.4072306"></trkpt><trkpt lat="46.8456749" lon="8.4071206"></trkpt><trkpt lat="46.8457048" lon="8.4070244"></trkpt><trkpt lat="46.8457597" lon="8.406904"></trkpt><trkpt lat="46.8457937" lon="8.4067874"></trkpt><trkpt lat="46.8458219" lon="8.4066839"></trkpt><trkpt lat="46.8458474" lon="8.4065247"></trkpt><trkpt lat="46.8458579" lon="8.4063998"></trkpt><trkpt lat="46.8458801" lon="8.4062624"></trkpt><trkpt lat="46.8459383" lon="8.4059037"></trkpt><trkpt lat="46.8460088" lon="8.4057607"></trkpt><trkpt lat="46.8460626" lon="8.4055967"></trkpt><trkpt lat="46.8461106" lon="8.4053004"></trkpt><trkpt lat="46.8461176" lon="8.4052307"></trkpt><trkpt lat="46.846109" lon="8.4051607"></trkpt><trkpt lat="46.8460789" lon="8.4050388"></trkpt><trkpt lat="46.8460638" lon="8.4049342"></trkpt><trkpt lat="46.8460604" lon="8.4047496"></trkpt><trkpt lat="46.8460565" lon="8.4045799"></trkpt><trkpt lat="46.8460885" lon="8.4044137"></trkpt><trkpt lat="46.8461166" lon="8.4043124"></trkpt><trkpt lat="46.8461487" lon="8.4042738"></trkpt><trkpt lat="46.8462154" lon="8.4042174"></trkpt><trkpt lat="46.8462313" lon="8.4041459"></trkpt><trkpt lat="46.8462277" lon="8.4040239"></trkpt><trkpt lat="46.8462211" lon="8.4038115"></trkpt><trkpt lat="46.8462246" lon="8.4035883"></trkpt><trkpt lat="46.8462039" lon="8.4031452"></trkpt><trkpt lat="46.8461432" lon="8.4026338"></trkpt><trkpt lat="46.8461012" lon="8.4024453"></trkpt><trkpt lat="46.8460693" lon="8.4022994"></trkpt><trkpt lat="46.8460773" lon="8.4021828"></trkpt><trkpt lat="46.8460522" lon="8.4020475"></trkpt><trkpt lat="46.8460551" lon="8.401952"></trkpt><trkpt lat="46.8460709" lon="8.4018601"></trkpt><trkpt lat="46.8460806" lon="8.4017985"></trkpt><trkpt lat="46.8461144" lon="8.4017864"></trkpt><trkpt lat="46.8461676" lon="8.4017978"></trkpt><trkpt lat="46.8462055" lon="8.4018367"></trkpt><trkpt lat="46.8462444" lon="8.4018828"></trkpt><trkpt lat="46.8462661" lon="8.4019393"></trkpt><trkpt lat="46.8463124" lon="8.4020311"></trkpt><trkpt lat="46.8463467" lon="8.4021312"></trkpt><trkpt lat="46.8463651" lon="8.4022236"></trkpt><trkpt lat="46.8463773" lon="8.402298"></trkpt><trkpt lat="46.8463695" lon="8.4024338"></trkpt><trkpt lat="46.846353" lon="8.4025678"></trkpt><trkpt lat="46.8463628" lon="8.4026393"></trkpt><trkpt lat="46.8463867" lon="8.4027459"></trkpt><trkpt lat="46.8464109" lon="8.402943"></trkpt><trkpt lat="46.8464241" lon="8.4030836"></trkpt><trkpt lat="46.846461" lon="8.4031697"></trkpt><trkpt lat="46.8465128" lon="8.403271"></trkpt><trkpt lat="46.846572" lon="8.4033558"></trkpt><trkpt lat="46.8466874" lon="8.4035415"></trkpt><trkpt lat="46.8467119" lon="8.4036579"></trkpt><trkpt lat="46.8467501" lon="8.4038377"></trkpt><trkpt lat="46.8467884" lon="8.4039703"></trkpt><trkpt lat="46.8468116" lon="8.4040147"></trkpt><trkpt lat="46.8468425" lon="8.404044"></trkpt><trkpt lat="46.8468648" lon="8.4040821"></trkpt><trkpt lat="46.8468833" lon="8.4041188"></trkpt><trkpt lat="46.8469249" lon="8.4041351"></trkpt><trkpt lat="46.8469532" lon="8.4042241"></trkpt><trkpt lat="46.847017" lon="8.4044315"></trkpt><trkpt lat="46.8470435" lon="8.4045178"></trkpt><trkpt lat="46.8470766" lon="8.4047167"></trkpt><trkpt lat="46.847116" lon="8.4049049"></trkpt><trkpt lat="46.8471717" lon="8.4050005"></trkpt><trkpt lat="46.8473" lon="8.4051558"></trkpt><trkpt lat="46.8473996" lon="8.4052754"></trkpt><trkpt lat="46.847533" lon="8.4054189"></trkpt><trkpt lat="46.8477273" lon="8.405578"></trkpt><trkpt lat="46.8478351" lon="8.4057069"></trkpt><trkpt lat="46.8478965" lon="8.405759"></trkpt><trkpt lat="46.8479603" lon="8.4057769"></trkpt><trkpt lat="46.8480727" lon="8.405905"></trkpt><trkpt lat="46.8481769" lon="8.4059787"></trkpt><trkpt lat="46.8482998" lon="8.40613"></trkpt><trkpt lat="46.8484633" lon="8.4062918"></trkpt><trkpt lat="46.8486178" lon="8.4064132"></trkpt><trkpt lat="46.8486988" lon="8.40649"></trkpt><trkpt lat="46.848793" lon="8.40664"></trkpt><trkpt lat="46.8488249" lon="8.4066811"></trkpt><trkpt lat="46.8488736" lon="8.4067203"></trkpt><trkpt lat="46.8489609" lon="8.4067395"></trkpt><trkpt lat="46.8490104" lon="8.4067668"></trkpt><trkpt lat="46.8490682" lon="8.4067711"></trkpt><trkpt lat="46.849294" lon="8.4069155"></trkpt><trkpt lat="46.8494711" lon="8.4069246"></trkpt><trkpt lat="46.8497986" lon="8.4070417"></trkpt><trkpt lat="46.8499964" lon="8.4071398"></trkpt><trkpt lat="46.8500354" lon="8.4071766"></trkpt><trkpt lat="46.8501425" lon="8.4073237"></trkpt><trkpt lat="46.8502086" lon="8.4074449"></trkpt><trkpt lat="46.8502591" lon="8.4074733"></trkpt><trkpt lat="46.8503128" lon="8.4074563"></trkpt><trkpt lat="46.8503766" lon="8.4073894"></trkpt><trkpt lat="46.8504692" lon="8.4073276"></trkpt><trkpt lat="46.8505284" lon="8.4072775"></trkpt><trkpt lat="46.8506182" lon="8.4072265"></trkpt><trkpt lat="46.8507551" lon="8.407151"></trkpt><trkpt lat="46.8509258" lon="8.4070104"></trkpt><trkpt lat="46.8510232" lon="8.406968"></trkpt><trkpt lat="46.8512076" lon="8.4068465"></trkpt><trkpt lat="46.8514331" lon="8.4067485"></trkpt><trkpt lat="46.8515788" lon="8.4067311"></trkpt><trkpt lat="46.8519024" lon="8.4066859"></trkpt><trkpt lat="46.8520076" lon="8.4066842"></trkpt><trkpt lat="46.8520496" lon="8.4066743"></trkpt><trkpt lat="46.8521158" lon="8.4066035"></trkpt><trkpt lat="46.8521814" lon="8.4065759"></trkpt><trkpt lat="46.8522753" lon="8.4065777"></trkpt><trkpt lat="46.8523608" lon="8.4065364"></trkpt><trkpt lat="46.8524365" lon="8.4064314"></trkpt><trkpt lat="46.8525264" lon="8.4062814"></trkpt><trkpt lat="46.8525921" lon="8.4061801"></trkpt><trkpt lat="46.8526344" lon="8.4060751"></trkpt><trkpt lat="46.8526714" lon="8.4059304"></trkpt><trkpt lat="46.8526681" lon="8.4058329"></trkpt><trkpt lat="46.8526782" lon="8.4056987"></trkpt><trkpt lat="46.8527245" lon="8.4055664"></trkpt><trkpt lat="46.8527648" lon="8.4054323"></trkpt><trkpt lat="46.8528775" lon="8.4052319"></trkpt><trkpt lat="46.8529346" lon="8.4049717"></trkpt><trkpt lat="46.852983" lon="8.4048343"></trkpt><trkpt lat="46.8530467" lon="8.4047842"></trkpt><trkpt lat="46.8531583" lon="8.4047103"></trkpt><trkpt lat="46.8532283" lon="8.4046179"></trkpt><trkpt lat="46.8533012" lon="8.4045791"></trkpt><trkpt lat="46.853355" lon="8.4045806"></trkpt><trkpt lat="46.853414" lon="8.4045451"></trkpt><trkpt lat="46.8535172" lon="8.4044505"></trkpt><trkpt lat="46.8536129" lon="8.4042862"></trkpt><trkpt lat="46.8538905" lon="8.4041146"></trkpt><trkpt lat="46.8539899" lon="8.4039996"></trkpt><trkpt lat="46.8540918" lon="8.4039135"></trkpt><trkpt lat="46.8541497" lon="8.4037944"></trkpt><trkpt lat="46.854181" lon="8.4036074"></trkpt><trkpt lat="46.8542103" lon="8.4035393"></trkpt><trkpt lat="46.8543227" lon="8.4034158"></trkpt><trkpt lat="46.854433" lon="8.4032664"></trkpt><trkpt lat="46.854503" lon="8.4031188"></trkpt><trkpt lat="46.8545719" lon="8.4029052"></trkpt><trkpt lat="46.8546132" lon="8.4027082"></trkpt><trkpt lat="46.8546705" lon="8.4026089"></trkpt><trkpt lat="46.8548002" lon="8.4025734"></trkpt><trkpt lat="46.8549233" lon="8.4024535"></trkpt><trkpt lat="46.8550565" lon="8.4022415"></trkpt><trkpt lat="46.8551307" lon="8.4021658"></trkpt><trkpt lat="46.8552124" lon="8.4019862"></trkpt><trkpt lat="46.8552931" lon="8.4018736"></trkpt><trkpt lat="46.8554252" lon="8.4017559"></trkpt><trkpt lat="46.8555616" lon="8.4016554"></trkpt><trkpt lat="46.8556619" lon="8.4016423"></trkpt><trkpt lat="46.8557786" lon="8.401589"></trkpt><trkpt lat="46.85585" lon="8.4014778"></trkpt><trkpt lat="46.8559608" lon="8.4012485"></trkpt><trkpt lat="46.8560806" lon="8.4010319"></trkpt><trkpt lat="46.8563135" lon="8.4007126"></trkpt><trkpt lat="46.8564412" lon="8.4005015"></trkpt><trkpt lat="46.8565484" lon="8.4003212"></trkpt><trkpt lat="46.8565321" lon="8.4002959"></trkpt><trkpt lat="46.8564356" lon="8.4003175"></trkpt><trkpt lat="46.8564368" lon="8.4002619"></trkpt><trkpt lat="46.8566588" lon="8.3997765"></trkpt><trkpt lat="46.8568265" lon="8.3994947"></trkpt><trkpt lat="46.8569348" lon="8.3993691"></trkpt><trkpt lat="46.8570087" lon="8.3992737"></trkpt><trkpt lat="46.8571214" lon="8.399187"></trkpt><trkpt lat="46.8570962" lon="8.3991604"></trkpt><trkpt lat="46.8569803" lon="8.3991499"></trkpt><trkpt lat="46.8569162" lon="8.3991418"></trkpt><trkpt lat="46.8568517" lon="8.3991418"></trkpt><trkpt lat="46.8568195" lon="8.3991114"></trkpt><trkpt lat="46.8568584" lon="8.3990656"></trkpt><trkpt lat="46.8569265" lon="8.3990026"></trkpt><trkpt lat="46.8570467" lon="8.3989268"></trkpt><trkpt lat="46.8571853" lon="8.3988317"></trkpt><trkpt lat="46.8573322" lon="8.3986587"></trkpt><trkpt lat="46.8574627" lon="8.3984858"></trkpt><trkpt lat="46.8576449" lon="8.3982023"></trkpt><trkpt lat="46.8580753" lon="8.3978005"></trkpt><trkpt lat="46.8582383" lon="8.3975916"></trkpt><trkpt lat="46.8583463" lon="8.397605"></trkpt><trkpt lat="46.8584276" lon="8.3977066"></trkpt><trkpt lat="46.858567" lon="8.3977043"></trkpt><trkpt lat="46.8587081" lon="8.3977181"></trkpt><trkpt lat="46.8588114" lon="8.3977875"></trkpt><trkpt lat="46.8590343" lon="8.3978608"></trkpt><trkpt lat="46.8591256" lon="8.3979498"></trkpt><trkpt lat="46.859248" lon="8.397984"></trkpt><trkpt lat="46.8594448" lon="8.3979842"></trkpt><trkpt lat="46.8596278" lon="8.3978817"></trkpt><trkpt lat="46.8596941" lon="8.3978815"></trkpt><trkpt lat="46.8598174" lon="8.397928"></trkpt><trkpt lat="46.859905" lon="8.3979942"></trkpt><trkpt lat="46.8599806" lon="8.3980264"></trkpt><trkpt lat="46.8600855" lon="8.3980084"></trkpt><trkpt lat="46.8602125" lon="8.3979732"></trkpt><trkpt lat="46.8603202" lon="8.3980026"></trkpt><trkpt lat="46.8603899" lon="8.3979952"></trkpt><trkpt lat="46.8604572" lon="8.3979583"></trkpt><trkpt lat="46.8605892" lon="8.3979734"></trkpt><trkpt lat="46.8606758" lon="8.3980361"></trkpt><trkpt lat="46.8608619" lon="8.3980388"></trkpt><trkpt lat="46.8609903" lon="8.3979458"></trkpt><trkpt lat="46.8610777" lon="8.3979369"></trkpt><trkpt lat="46.8612352" lon="8.3978636"></trkpt><trkpt lat="46.8613112" lon="8.3977945"></trkpt><trkpt lat="46.8613879" lon="8.397812"></trkpt><trkpt lat="46.8614716" lon="8.3977895"></trkpt><trkpt lat="46.861593" lon="8.3977945"></trkpt><trkpt lat="46.8616827" lon="8.3978283"></trkpt><trkpt lat="46.8617145" lon="8.3978296"></trkpt><trkpt lat="46.8617366" lon="8.3978081"></trkpt><trkpt lat="46.8617994" lon="8.3977242"></trkpt><trkpt lat="46.8618626" lon="8.3977183"></trkpt><trkpt lat="46.8620765" lon="8.3976289"></trkpt><trkpt lat="46.8621982" lon="8.3976777"></trkpt><trkpt lat="46.8622859" lon="8.3978147"></trkpt><trkpt lat="46.8623573" lon="8.3980397"></trkpt><trkpt lat="46.8624837" lon="8.3982057"></trkpt><trkpt lat="46.8626705" lon="8.3983209"></trkpt><trkpt lat="46.863055" lon="8.3984629"></trkpt><trkpt lat="46.8635367" lon="8.3986503"></trkpt><trkpt lat="46.8637372" lon="8.3987625"></trkpt><trkpt lat="46.8638478" lon="8.3988314"></trkpt><trkpt lat="46.8638968" lon="8.3988753"></trkpt><trkpt lat="46.8639258" lon="8.3989104"></trkpt><trkpt lat="46.8639475" lon="8.398948"></trkpt><trkpt lat="46.8639668" lon="8.3989857"></trkpt><trkpt lat="46.863971" lon="8.3990164"></trkpt><trkpt lat="46.8639666" lon="8.3990885"></trkpt><trkpt lat="46.8639502" lon="8.3991341"></trkpt><trkpt lat="46.8639254" lon="8.3991803"></trkpt><trkpt lat="46.8638761" lon="8.399238"></trkpt><trkpt lat="46.8638043" lon="8.3993321"></trkpt><trkpt lat="46.8636445" lon="8.3995943"></trkpt><trkpt lat="46.8635993" lon="8.3996877"></trkpt><trkpt lat="46.8635882" lon="8.3997208"></trkpt><trkpt lat="46.8635678" lon="8.3998028"></trkpt><trkpt lat="46.8635622" lon="8.3998734"></trkpt><trkpt lat="46.8635738" lon="8.3999396"></trkpt><trkpt lat="46.8636043" lon="8.4000131"></trkpt><trkpt lat="46.8636126" lon="8.4000699"></trkpt><trkpt lat="46.8636054" lon="8.4001326"></trkpt><trkpt lat="46.863583" lon="8.4001938"></trkpt><trkpt lat="46.8635203" lon="8.4003527"></trkpt><trkpt lat="46.8635019" lon="8.4004528"></trkpt><trkpt lat="46.8634457" lon="8.4005181"></trkpt><trkpt lat="46.8633289" lon="8.4008669"></trkpt><trkpt lat="46.8632972" lon="8.4010398"></trkpt><trkpt lat="46.8632453" lon="8.4011959"></trkpt><trkpt lat="46.8631905" lon="8.4013561"></trkpt><trkpt lat="46.8631357" lon="8.4014742"></trkpt><trkpt lat="46.8631501" lon="8.4016851"></trkpt><trkpt lat="46.8630195" lon="8.401957"></trkpt><trkpt lat="46.8629855" lon="8.4020911"></trkpt><trkpt lat="46.862912" lon="8.4022492"></trkpt><trkpt lat="46.862899" lon="8.4024305"></trkpt><trkpt lat="46.8628673" lon="8.4025739"></trkpt><trkpt lat="46.8628543" lon="8.402692"></trkpt><trkpt lat="46.8628471" lon="8.4028038"></trkpt><trkpt lat="46.8628341" lon="8.4029303"></trkpt><trkpt lat="46.8628399" lon="8.4030568"></trkpt><trkpt lat="46.8629077" lon="8.4032107"></trkpt><trkpt lat="46.8629163" lon="8.4033394"></trkpt><trkpt lat="46.8628961" lon="8.4034785"></trkpt><trkpt lat="46.8629019" lon="8.403624"></trkpt><trkpt lat="46.8629524" lon="8.403837"></trkpt><trkpt lat="46.8629913" lon="8.4040437"></trkpt><trkpt lat="46.8631153" lon="8.4043768"></trkpt><trkpt lat="46.8631758" lon="8.4044907"></trkpt><trkpt lat="46.8632566" lon="8.4046088"></trkpt><trkpt lat="46.8632753" lon="8.4047163"></trkpt><trkpt lat="46.8632609" lon="8.4048217"></trkpt><trkpt lat="46.8632371" lon="8.4049008"></trkpt><trkpt lat="46.8632321" lon="8.4049925"></trkpt><trkpt lat="46.8632241" lon="8.4051096"></trkpt><trkpt lat="46.8632357" lon="8.4051539"></trkpt><trkpt lat="46.8632652" lon="8.405195"></trkpt><trkpt lat="46.8633521" lon="8.4052404"></trkpt><trkpt lat="46.8634292" lon="8.4053069"></trkpt><trkpt lat="46.8634292" lon="8.4053361"></trkpt><trkpt lat="46.8634346" lon="8.4054852"></trkpt><trkpt lat="46.8634872" lon="8.4056894"></trkpt><trkpt lat="46.8636055" lon="8.4059214"></trkpt><trkpt lat="46.8636714" lon="8.4060918"></trkpt><trkpt lat="46.8637808" lon="8.4061637"></trkpt><trkpt lat="46.8639011" lon="8.4062294"></trkpt><trkpt lat="46.8640173" lon="8.4062741"></trkpt><trkpt lat="46.8640927" lon="8.4063486"></trkpt><trkpt lat="46.8640989" lon="8.4064142"></trkpt><trkpt lat="46.8640785" lon="8.4064948"></trkpt><trkpt lat="46.8640336" lon="8.4065246"></trkpt><trkpt lat="46.864003" lon="8.4065932"></trkpt><trkpt lat="46.8640132" lon="8.4066319"></trkpt><trkpt lat="46.8640849" lon="8.4067415"></trkpt><trkpt lat="46.8641252" lon="8.4068363"></trkpt><trkpt lat="46.8641872" lon="8.4070071"></trkpt><trkpt lat="46.8642752" lon="8.4072159"></trkpt><trkpt lat="46.8643271" lon="8.40745"></trkpt><trkpt lat="46.8643631" lon="8.4077726"></trkpt><trkpt lat="46.8644309" lon="8.4080003"></trkpt><trkpt lat="46.8644496" lon="8.4080657"></trkpt><trkpt lat="46.8644338" lon="8.4081121"></trkpt><trkpt lat="46.8644208" lon="8.4081627"></trkpt><trkpt lat="46.8644179" lon="8.4082449"></trkpt><trkpt lat="46.8644424" lon="8.4083082"></trkpt><trkpt lat="46.8644857" lon="8.4083166"></trkpt><trkpt lat="46.8645318" lon="8.4082997"></trkpt><trkpt lat="46.8645837" lon="8.4083082"></trkpt><trkpt lat="46.8646169" lon="8.4083419"></trkpt><trkpt lat="46.8646327" lon="8.4084579"></trkpt><trkpt lat="46.8646356" lon="8.4085212"></trkpt><trkpt lat="46.8646246" lon="8.4085453"></trkpt><trkpt lat="46.8645723" lon="8.4085715"></trkpt><trkpt lat="46.8645554" lon="8.4086094"></trkpt><trkpt lat="46.8645215" lon="8.4087603"></trkpt><trkpt lat="46.864505" lon="8.4088886"></trkpt><trkpt lat="46.864516" lon="8.4089979"></trkpt><trkpt lat="46.8645324" lon="8.4091277"></trkpt><trkpt lat="46.8645808" lon="8.4091976"></trkpt><trkpt lat="46.8646311" lon="8.4092807"></trkpt><trkpt lat="46.864671" lon="8.409315"></trkpt><trkpt lat="46.8647323" lon="8.4093623"></trkpt><trkpt lat="46.8647532" lon="8.4093922"></trkpt><trkpt lat="46.8647816" lon="8.4094462"></trkpt><trkpt lat="46.864799" lon="8.4094535"></trkpt><trkpt lat="46.8648299" lon="8.4094564"></trkpt><trkpt lat="46.8648464" lon="8.4094833"></trkpt><trkpt lat="46.8648509" lon="8.4096043"></trkpt><trkpt lat="46.8648304" lon="8.4096575"></trkpt><trkpt lat="46.8647801" lon="8.4097654"></trkpt><trkpt lat="46.8647816" lon="8.4098113"></trkpt><trkpt lat="46.8647971" lon="8.4098208"></trkpt><trkpt lat="46.8648294" lon="8.4098128"></trkpt><trkpt lat="46.8648703" lon="8.4097909"></trkpt><trkpt lat="46.864948" lon="8.4097989"></trkpt><trkpt lat="46.8649864" lon="8.4097669"></trkpt><trkpt lat="46.8650133" lon="8.4097013"></trkpt><trkpt lat="46.8650492" lon="8.4096422"></trkpt><trkpt lat="46.8650921" lon="8.4096014"></trkpt><trkpt lat="46.8651643" lon="8.4095424"></trkpt><trkpt lat="46.8652022" lon="8.4094855"></trkpt><trkpt lat="46.8652535" lon="8.4093784"></trkpt><trkpt lat="46.8653098" lon="8.4093193"></trkpt><trkpt lat="46.8653886" lon="8.4092691"></trkpt><trkpt lat="46.8654384" lon="8.4091838"></trkpt><trkpt lat="46.8655371" lon="8.409081"></trkpt><trkpt lat="46.8655824" lon="8.4090402"></trkpt><trkpt lat="46.8656183" lon="8.4090271"></trkpt><trkpt lat="46.8657202" lon="8.4090293"></trkpt><trkpt lat="46.8658122" lon="8.4090642"></trkpt><trkpt lat="46.8658839" lon="8.4091051"></trkpt><trkpt lat="46.8658979" lon="8.4090963"></trkpt><trkpt lat="46.8659063" lon="8.4090752"></trkpt><trkpt lat="46.8659278" lon="8.4090271"></trkpt><trkpt lat="46.8659582" lon="8.4090074"></trkpt><trkpt lat="46.8659776" lon="8.4089731"></trkpt><trkpt lat="46.866" lon="8.4088879"></trkpt><trkpt lat="46.8660464" lon="8.4088492"></trkpt><trkpt lat="46.8661276" lon="8.4088303"></trkpt><trkpt lat="46.8662382" lon="8.4087428"></trkpt><trkpt lat="46.8662776" lon="8.4087137"></trkpt><trkpt lat="46.866315" lon="8.4086554"></trkpt><trkpt lat="46.8663653" lon="8.4085883"></trkpt><trkpt lat="46.8664173" lon="8.4085557"></trkpt><trkpt lat="46.8664964" lon="8.4085336"></trkpt><trkpt lat="46.8665821" lon="8.40853"></trkpt><trkpt lat="46.8666603" lon="8.4085468"></trkpt><trkpt lat="46.8667904" lon="8.4085905"></trkpt><trkpt lat="46.8668347" lon="8.4085781"></trkpt><trkpt lat="46.8669807" lon="8.4085628"></trkpt><trkpt lat="46.8671332" lon="8.4085788"></trkpt><trkpt lat="46.8671843" lon="8.4086029"></trkpt><trkpt lat="46.8673111" lon="8.4086583"></trkpt><trkpt lat="46.8674028" lon="8.4087261"></trkpt><trkpt lat="46.8674835" lon="8.4087851"></trkpt><trkpt lat="46.8675483" lon="8.4088565"></trkpt><trkpt lat="46.8676334" lon="8.4089669"></trkpt><trkpt lat="46.8678124" lon="8.4091349"></trkpt><trkpt lat="46.867928" lon="8.409237"></trkpt><trkpt lat="46.868085" lon="8.409347"></trkpt><trkpt lat="46.8682439" lon="8.4095089"></trkpt><trkpt lat="46.8683516" lon="8.4096277"></trkpt><trkpt lat="46.8684796" lon="8.4097355"></trkpt><trkpt lat="46.86853" lon="8.4097814"></trkpt><trkpt lat="46.8685285" lon="8.4098048"></trkpt><trkpt lat="46.868511" lon="8.409807"></trkpt><trkpt lat="46.8684288" lon="8.4098252"></trkpt><trkpt lat="46.8681976" lon="8.4099243"></trkpt><trkpt lat="46.8679883" lon="8.4099914"></trkpt><trkpt lat="46.8678119" lon="8.4100672"></trkpt><trkpt lat="46.8676425" lon="8.4101736"></trkpt><trkpt lat="46.8675209" lon="8.4102698"></trkpt><trkpt lat="46.8674033" lon="8.4104316"></trkpt><trkpt lat="46.8673738" lon="8.4105123"></trkpt><trkpt lat="46.867347" lon="8.4106189"></trkpt><trkpt lat="46.867338" lon="8.410737"></trkpt><trkpt lat="46.867333" lon="8.4108157"></trkpt><trkpt lat="46.867329" lon="8.4109163"></trkpt><trkpt lat="46.8673101" lon="8.4110037"></trkpt><trkpt lat="46.8673078" lon="8.4110466"></trkpt><trkpt lat="46.8673024" lon="8.411178"></trkpt><trkpt lat="46.8672858" lon="8.4112597"></trkpt><trkpt lat="46.8672718" lon="8.4113056"></trkpt><trkpt lat="46.8672663" lon="8.4113281"></trkpt><trkpt lat="46.8672648" lon="8.4113419"></trkpt><trkpt lat="46.8672693" lon="8.4113565"></trkpt><trkpt lat="46.8672802" lon="8.4113572"></trkpt><trkpt lat="46.8672947" lon="8.4113339"></trkpt><trkpt lat="46.8673166" lon="8.4112946"></trkpt><trkpt lat="46.8673998" lon="8.4111437"></trkpt><trkpt lat="46.8674571" lon="8.4110358"></trkpt><trkpt lat="46.8674955" lon="8.4109943"></trkpt><trkpt lat="46.8675488" lon="8.4109811"></trkpt><trkpt lat="46.8676031" lon="8.4109884"></trkpt><trkpt lat="46.8677003" lon="8.41103"></trkpt><trkpt lat="46.8678044" lon="8.4111029"></trkpt><trkpt lat="46.8679187" lon="8.4112083"></trkpt><trkpt lat="46.8680152" lon="8.4113164"></trkpt><trkpt lat="46.8680835" lon="8.4114309"></trkpt><trkpt lat="46.8681109" lon="8.4114607"></trkpt><trkpt lat="46.8682375" lon="8.411554"></trkpt><trkpt lat="46.8683042" lon="8.4116284"></trkpt><trkpt lat="46.8683885" lon="8.4117231"></trkpt><trkpt lat="46.868511" lon="8.4118747"></trkpt><trkpt lat="46.8685977" lon="8.4120001"></trkpt><trkpt lat="46.8687183" lon="8.4121532"></trkpt><trkpt lat="46.868958" lon="8.4124622"></trkpt><trkpt lat="46.8689934" lon="8.4125037"></trkpt><trkpt lat="46.8690283" lon="8.4125701"></trkpt><trkpt lat="46.8691249" lon="8.4126626"></trkpt><trkpt lat="46.869243" lon="8.4127909"></trkpt><trkpt lat="46.8694273" lon="8.4129956"></trkpt><trkpt lat="46.8694577" lon="8.4131087"></trkpt><trkpt lat="46.8694712" lon="8.4132925"></trkpt><trkpt lat="46.8694821" lon="8.4133906"></trkpt><trkpt lat="46.8694397" lon="8.4133923"></trkpt><trkpt lat="46.8693389" lon="8.4134049"></trkpt><trkpt lat="46.8692193" lon="8.4134503"></trkpt><trkpt lat="46.8691576" lon="8.4134948"></trkpt><trkpt lat="46.869156" lon="8.4135281"></trkpt><trkpt lat="46.8691696" lon="8.4135503"></trkpt><trkpt lat="46.8692628" lon="8.4135815"></trkpt><trkpt lat="46.8692794" lon="8.4136028"></trkpt><trkpt lat="46.8692695" lon="8.4136348"></trkpt><trkpt lat="46.869242" lon="8.4136609"></trkpt><trkpt lat="46.8691511" lon="8.4136726"></trkpt><trkpt lat="46.8691244" lon="8.4137013"></trkpt><trkpt lat="46.8690944" lon="8.4138131"></trkpt><trkpt lat="46.8690609" lon="8.4138838"></trkpt><trkpt lat="46.8689688" lon="8.4140574"></trkpt><trkpt lat="46.8689083" lon="8.4142005"></trkpt><trkpt lat="46.8688868" lon="8.4142857"></trkpt><trkpt lat="46.8688787" lon="8.414388"></trkpt><trkpt lat="46.8688856" lon="8.4144977"></trkpt><trkpt lat="46.8688756" lon="8.4145612"></trkpt><trkpt lat="46.8688451" lon="8.414596"></trkpt><trkpt lat="46.8686693" lon="8.4146746"></trkpt><trkpt lat="46.868571" lon="8.4147214"></trkpt><trkpt lat="46.8685482" lon="8.4147775"></trkpt><trkpt lat="46.8685326" lon="8.4149055"></trkpt><trkpt lat="46.8685312" lon="8.4150214"></trkpt><trkpt lat="46.8685183" lon="8.415099"></trkpt><trkpt lat="46.8684811" lon="8.4151724"></trkpt><trkpt lat="46.8685785" lon="8.4151874"></trkpt><trkpt lat="46.8685882" lon="8.4152051"></trkpt><trkpt lat="46.8685454" lon="8.4152771"></trkpt><trkpt lat="46.8686293" lon="8.415291"></trkpt><trkpt lat="46.8686691" lon="8.4153076"></trkpt><trkpt lat="46.8686705" lon="8.4153213"></trkpt><trkpt lat="46.868666" lon="8.4153392"></trkpt><trkpt lat="46.8686597" lon="8.4153561"></trkpt><trkpt lat="46.8686638" lon="8.4153651"></trkpt><trkpt lat="46.8686776" lon="8.4153652"></trkpt><trkpt lat="46.8686826" lon="8.4153616"></trkpt><trkpt lat="46.8686959" lon="8.41535"></trkpt><trkpt lat="46.8687018" lon="8.4153569"></trkpt><trkpt lat="46.8687051" lon="8.4153643"></trkpt><trkpt lat="46.868702" lon="8.4153761"></trkpt><trkpt lat="46.8687" lon="8.4153811"></trkpt><trkpt lat="46.8686387" lon="8.4154361"></trkpt><trkpt lat="46.8685566" lon="8.415519"></trkpt><trkpt lat="46.8684924" lon="8.4156018"></trkpt><trkpt lat="46.868403" lon="8.4156918"></trkpt><trkpt lat="46.8683594" lon="8.4157916"></trkpt><trkpt lat="46.8683648" lon="8.4159074"></trkpt><trkpt lat="46.868365" lon="8.4160049"></trkpt><trkpt lat="46.8683481" lon="8.4161028"></trkpt><trkpt lat="46.8682818" lon="8.4161597"></trkpt><trkpt lat="46.8680944" lon="8.4163073"></trkpt><trkpt lat="46.8679412" lon="8.4164936"></trkpt><trkpt lat="46.8677659" lon="8.4166153"></trkpt><trkpt lat="46.8676927" lon="8.4166599"></trkpt><trkpt lat="46.8676553" lon="8.4166755"></trkpt><trkpt lat="46.8676589" lon="8.4167265"></trkpt><trkpt lat="46.8677005" lon="8.4168138"></trkpt><trkpt lat="46.8676891" lon="8.4168562"></trkpt><trkpt lat="46.8676433" lon="8.4168777"></trkpt><trkpt lat="46.8675883" lon="8.4169281"></trkpt><trkpt lat="46.8675683" lon="8.4169795"></trkpt><trkpt lat="46.8675968" lon="8.4170313"></trkpt><trkpt lat="46.8675889" lon="8.4170815"></trkpt><trkpt lat="46.8675458" lon="8.4171283"></trkpt><trkpt lat="46.8674963" lon="8.4171882"></trkpt><trkpt lat="46.8674477" lon="8.4173156"></trkpt><trkpt lat="46.8674206" lon="8.4173442"></trkpt><trkpt lat="46.8674406" lon="8.4174245"></trkpt><trkpt lat="46.8674317" lon="8.4175678"></trkpt><trkpt lat="46.8674595" lon="8.4176538"></trkpt><trkpt lat="46.8674553" lon="8.4176958"></trkpt><trkpt lat="46.867425" lon="8.4177663"></trkpt><trkpt lat="46.8674581" lon="8.4178304"></trkpt><trkpt lat="46.8674947" lon="8.4179028"></trkpt><trkpt lat="46.8674741" lon="8.4179464"></trkpt><trkpt lat="46.8673806" lon="8.4180544"></trkpt><trkpt lat="46.8673715" lon="8.4181034"></trkpt><trkpt lat="46.8673977" lon="8.4181562"></trkpt><trkpt lat="46.8674727" lon="8.4182126"></trkpt><trkpt lat="46.867528" lon="8.4183419"></trkpt><trkpt lat="46.8675244" lon="8.4184329"></trkpt><trkpt lat="46.8675954" lon="8.4184591"></trkpt><trkpt lat="46.8676389" lon="8.4185197"></trkpt><trkpt lat="46.8676788" lon="8.4186315"></trkpt><trkpt lat="46.8677565" lon="8.4187805"></trkpt><trkpt lat="46.8678502" lon="8.4188833"></trkpt><trkpt lat="46.8679725" lon="8.4189703"></trkpt><trkpt lat="46.8680874" lon="8.4190641"></trkpt><trkpt lat="46.8681995" lon="8.4191514"></trkpt><trkpt lat="46.8682618" lon="8.4191865"></trkpt><trkpt lat="46.8683587" lon="8.419218"></trkpt><trkpt lat="46.8684186" lon="8.4192168"></trkpt><trkpt lat="46.8685208" lon="8.4192036"></trkpt><trkpt lat="46.8685494" lon="8.4192074"></trkpt><trkpt lat="46.8685796" lon="8.4192214"></trkpt><trkpt lat="46.8685891" lon="8.4192308"></trkpt><trkpt lat="46.8686067" lon="8.4192596"></trkpt><trkpt lat="46.8686334" lon="8.4193121"></trkpt><trkpt lat="46.868663" lon="8.4193511"></trkpt><trkpt lat="46.8687004" lon="8.4193808"></trkpt><trkpt lat="46.8687689" lon="8.4194152"></trkpt><trkpt lat="46.8688061" lon="8.419446"></trkpt><trkpt lat="46.868826" lon="8.4194956"></trkpt><trkpt lat="46.8688101" lon="8.4194998"></trkpt><trkpt lat="46.8687702" lon="8.4194936"></trkpt><trkpt lat="46.8687403" lon="8.4194831"></trkpt><trkpt lat="46.8686318" lon="8.4194929"></trkpt><trkpt lat="46.8686087" lon="8.4194923"></trkpt><trkpt lat="46.8685588" lon="8.4194709"></trkpt><trkpt lat="46.8685363" lon="8.4194686"></trkpt><trkpt lat="46.8685103" lon="8.419476"></trkpt><trkpt lat="46.8684382" lon="8.4195186"></trkpt><trkpt lat="46.8682577" lon="8.4195455"></trkpt><trkpt lat="46.8681302" lon="8.4195449"></trkpt><trkpt lat="46.8680471" lon="8.4195432"></trkpt><trkpt lat="46.8679599" lon="8.419555"></trkpt><trkpt lat="46.8678796" lon="8.4195871"></trkpt><trkpt lat="46.8678265" lon="8.4196328"></trkpt><trkpt lat="46.8677816" lon="8.4196996"></trkpt><trkpt lat="46.8677593" lon="8.4197591"></trkpt><trkpt lat="46.867734" lon="8.4198362"></trkpt><trkpt lat="46.8677204" lon="8.4198597"></trkpt><trkpt lat="46.8677024" lon="8.4198804"></trkpt><trkpt lat="46.8676844" lon="8.4198912"></trkpt><trkpt lat="46.8676457" lon="8.4198997"></trkpt><trkpt lat="46.8675818" lon="8.4199032"></trkpt><trkpt lat="46.8673684" lon="8.419854"></trkpt><trkpt lat="46.867309" lon="8.4198646"></trkpt><trkpt lat="46.8672" lon="8.4198407"></trkpt><trkpt lat="46.8672868" lon="8.4199282"></trkpt><trkpt lat="46.8673591" lon="8.4199675"></trkpt><trkpt lat="46.8674644" lon="8.4200473"></trkpt><trkpt lat="46.8674719" lon="8.4200907"></trkpt><trkpt lat="46.8674134" lon="8.4201264"></trkpt><trkpt lat="46.8674177" lon="8.4201526"></trkpt><trkpt lat="46.8674631" lon="8.4201803"></trkpt><trkpt lat="46.8676344" lon="8.4203584"></trkpt><trkpt lat="46.8676823" lon="8.4203872"></trkpt><trkpt lat="46.8677175" lon="8.4203928"></trkpt><trkpt lat="46.8677149" lon="8.4204117"></trkpt><trkpt lat="46.8676184" lon="8.4205101"></trkpt><trkpt lat="46.8675542" lon="8.4205814"></trkpt><trkpt lat="46.8674953" lon="8.4206232"></trkpt><trkpt lat="46.8674517" lon="8.4206441"></trkpt><trkpt lat="46.8673964" lon="8.420649"></trkpt><trkpt lat="46.8672507" lon="8.4207057"></trkpt><trkpt lat="46.8669264" lon="8.4208631"></trkpt><trkpt lat="46.8667848" lon="8.4209429"></trkpt><trkpt lat="46.8666314" lon="8.42101"></trkpt><trkpt lat="46.8664615" lon="8.4210722"></trkpt><trkpt lat="46.8664094" lon="8.4211203"></trkpt><trkpt lat="46.8665317" lon="8.4213209"></trkpt><trkpt lat="46.8666782" lon="8.4215014"></trkpt><trkpt lat="46.8667787" lon="8.4215654"></trkpt><trkpt lat="46.866795" lon="8.4216698"></trkpt><trkpt lat="46.8667828" lon="8.4217354"></trkpt><trkpt lat="46.8666367" lon="8.4219658"></trkpt><trkpt lat="46.8666039" lon="8.4220598"></trkpt><trkpt lat="46.8666027" lon="8.4221703"></trkpt><trkpt lat="46.8666224" lon="8.422244"></trkpt><trkpt lat="46.8666441" lon="8.422312"></trkpt><trkpt lat="46.8667335" lon="8.4224798"></trkpt><trkpt lat="46.8668941" lon="8.4227846"></trkpt><trkpt lat="46.8669571" lon="8.4229121"></trkpt><trkpt lat="46.8669616" lon="8.4230602"></trkpt><trkpt lat="46.8669667" lon="8.4232256"></trkpt><trkpt lat="46.866961" lon="8.4232467"></trkpt><trkpt lat="46.8669268" lon="8.4233028"></trkpt><trkpt lat="46.8669039" lon="8.4234265"></trkpt><trkpt lat="46.8669038" lon="8.4235513"></trkpt><trkpt lat="46.86688" lon="8.4236116"></trkpt><trkpt lat="46.8668476" lon="8.4236352"></trkpt><trkpt lat="46.8668139" lon="8.4236357"></trkpt><trkpt lat="46.8667803" lon="8.4236291"></trkpt><trkpt lat="46.8667441" lon="8.4235949"></trkpt><trkpt lat="46.8667085" lon="8.4235352"></trkpt><trkpt lat="46.8666848" lon="8.4235061"></trkpt><trkpt lat="46.8666545" lon="8.4234909"></trkpt><trkpt lat="46.8666029" lon="8.4234937"></trkpt><trkpt lat="46.8665305" lon="8.4235213"></trkpt><trkpt lat="46.8664084" lon="8.4236307"></trkpt><trkpt lat="46.8662939" lon="8.423711"></trkpt><trkpt lat="46.8661187" lon="8.4236999"></trkpt><trkpt lat="46.8659616" lon="8.4237733"></trkpt><trkpt lat="46.8658864" lon="8.4237514"></trkpt><trkpt lat="46.865696" lon="8.4236518"></trkpt><trkpt lat="46.8654481" lon="8.423669"></trkpt><trkpt lat="46.8653914" lon="8.4237657"></trkpt><trkpt lat="46.865369" lon="8.4239763"></trkpt><trkpt lat="46.8653097" lon="8.4239797"></trkpt><trkpt lat="46.8652773" lon="8.4240895"></trkpt><trkpt lat="46.8652126" lon="8.4240981"></trkpt><trkpt lat="46.8651905" lon="8.4241971"></trkpt><trkpt lat="46.8651434" lon="8.424352"></trkpt><trkpt lat="46.8651464" lon="8.4244875"></trkpt><trkpt lat="46.8651478" lon="8.4247242"></trkpt><trkpt lat="46.8651493" lon="8.4248598"></trkpt><trkpt lat="46.8651405" lon="8.4249372"></trkpt><trkpt lat="46.8651316" lon="8.4250749"></trkpt><trkpt lat="46.8651112" lon="8.4252272"></trkpt><trkpt lat="46.8650793" lon="8.4253256"></trkpt><trkpt lat="46.8650817" lon="8.425688"></trkpt><trkpt lat="46.8650274" lon="8.4258088"></trkpt><trkpt lat="46.8649354" lon="8.4259797"></trkpt><trkpt lat="46.864802" lon="8.4262749"></trkpt><trkpt lat="46.8647595" lon="8.4265027"></trkpt><trkpt lat="46.8647123" lon="8.4266442"></trkpt><trkpt lat="46.8646852" lon="8.4267253"></trkpt><trkpt lat="46.8646663" lon="8.4267926"></trkpt><trkpt lat="46.864625" lon="8.4268789"></trkpt><trkpt lat="46.8646038" lon="8.4269376"></trkpt><trkpt lat="46.8645849" lon="8.4270067"></trkpt><trkpt lat="46.864569" lon="8.4270527"></trkpt><trkpt lat="46.8644545" lon="8.4271165"></trkpt><trkpt lat="46.8644356" lon="8.4272287"></trkpt><trkpt lat="46.864484" lon="8.4273979"></trkpt><trkpt lat="46.8644828" lon="8.4274652"></trkpt><trkpt lat="46.8644427" lon="8.4275291"></trkpt><trkpt lat="46.8644014" lon="8.4276499"></trkpt><trkpt lat="46.8643754" lon="8.4278294"></trkpt><trkpt lat="46.8643707" lon="8.4279803"></trkpt><trkpt lat="46.8643474" lon="8.4280516"></trkpt><trkpt lat="46.8643341" lon="8.4281409"></trkpt><trkpt lat="46.8643236" lon="8.4282219"></trkpt><trkpt lat="46.8642949" lon="8.4283344"></trkpt><trkpt lat="46.8642737" lon="8.428517"></trkpt><trkpt lat="46.8641813" lon="8.4287296"></trkpt><trkpt lat="46.8640861" lon="8.4289019"></trkpt><trkpt lat="46.8640804" lon="8.4291125"></trkpt><trkpt lat="46.8641107" lon="8.4292394"></trkpt><trkpt lat="46.8640301" lon="8.4294265"></trkpt><trkpt lat="46.8640367" lon="8.4295548"></trkpt><trkpt lat="46.8640158" lon="8.4298098"></trkpt><trkpt lat="46.8640323" lon="8.4299237"></trkpt><trkpt lat="46.863995" lon="8.4304048"></trkpt><trkpt lat="46.8639873" lon="8.4307384"></trkpt><trkpt lat="46.8640354" lon="8.431181"></trkpt><trkpt lat="46.8640826" lon="8.4316091"></trkpt><trkpt lat="46.8640614" lon="8.4316833"></trkpt><trkpt lat="46.8640968" lon="8.4317368"></trkpt><trkpt lat="46.8640862" lon="8.4320112"></trkpt><trkpt lat="46.8640831" lon="8.432364"></trkpt><trkpt lat="46.8641404" lon="8.4325697"></trkpt><trkpt lat="46.8641051" lon="8.4326956"></trkpt><trkpt lat="46.8640993" lon="8.4327729"></trkpt><trkpt lat="46.8641317" lon="8.4328326"></trkpt><trkpt lat="46.8642308" lon="8.4329"></trkpt><trkpt lat="46.8642746" lon="8.433049"></trkpt><trkpt lat="46.8644087" lon="8.4334305"></trkpt><trkpt lat="46.864605" lon="8.4337794"></trkpt><trkpt lat="46.8646412" lon="8.4339229"></trkpt><trkpt lat="46.8648783" lon="8.4341028"></trkpt><trkpt lat="46.8651416" lon="8.4344407"></trkpt><trkpt lat="46.865251" lon="8.4345097"></trkpt><trkpt lat="46.865328" lon="8.4346841"></trkpt><trkpt lat="46.8654472" lon="8.4349785"></trkpt><trkpt lat="46.8657155" lon="8.4351819"></trkpt><trkpt lat="46.8657967" lon="8.4352101"></trkpt><trkpt lat="46.8658623" lon="8.4352586"></trkpt><trkpt lat="46.8659316" lon="8.4353323"></trkpt><trkpt lat="46.8661099" lon="8.435411"></trkpt><trkpt lat="46.8661711" lon="8.4354668"></trkpt><trkpt lat="46.8662959" lon="8.4356185"></trkpt><trkpt lat="46.8664539" lon="8.4357646"></trkpt><trkpt lat="46.8665241" lon="8.4358208"></trkpt><trkpt lat="46.8666177" lon="8.4358695"></trkpt><trkpt lat="46.8667267" lon="8.4358901"></trkpt><trkpt lat="46.8667681" lon="8.4359057"></trkpt><trkpt lat="46.8667919" lon="8.4359367"></trkpt><trkpt lat="46.8668304" lon="8.4360438"></trkpt><trkpt lat="46.8668732" lon="8.4362103"></trkpt><trkpt lat="46.8668881" lon="8.4363338"></trkpt><trkpt lat="46.8669325" lon="8.4364464"></trkpt><trkpt lat="46.8669621" lon="8.4366252"></trkpt><trkpt lat="46.8669862" lon="8.4368771"></trkpt><trkpt lat="46.8670077" lon="8.4371946"></trkpt><trkpt lat="46.8670695" lon="8.4373862"></trkpt><trkpt lat="46.8670899" lon="8.437741"></trkpt><trkpt lat="46.8670936" lon="8.4381879"></trkpt><trkpt lat="46.8671214" lon="8.4383585"></trkpt><trkpt lat="46.8671973" lon="8.438521"></trkpt><trkpt lat="46.8672491" lon="8.4386673"></trkpt><trkpt lat="46.8672565" lon="8.4387567"></trkpt><trkpt lat="46.8673399" lon="8.4388596"></trkpt><trkpt lat="46.8674232" lon="8.4388623"></trkpt><trkpt lat="46.8675565" lon="8.4390031"></trkpt><trkpt lat="46.8676065" lon="8.4391304"></trkpt><trkpt lat="46.8676306" lon="8.4393579"></trkpt><trkpt lat="46.8676287" lon="8.4395827"></trkpt><trkpt lat="46.8676213" lon="8.4397561"></trkpt><trkpt lat="46.867588" lon="8.4399863"></trkpt><trkpt lat="46.8675491" lon="8.4401461"></trkpt><trkpt lat="46.8676639" lon="8.4403519"></trkpt><trkpt lat="46.8677657" lon="8.4405577"></trkpt><trkpt lat="46.8678083" lon="8.4408204"></trkpt><trkpt lat="46.8677935" lon="8.4409992"></trkpt><trkpt lat="46.8677769" lon="8.4411536"></trkpt><trkpt lat="46.8676695" lon="8.4413784"></trkpt><trkpt lat="46.8675954" lon="8.4415734"></trkpt><trkpt lat="46.8675898" lon="8.4417711"></trkpt><trkpt lat="46.8676232" lon="8.4419065"></trkpt><trkpt lat="46.8678213" lon="8.4419905"></trkpt><trkpt lat="46.8679117" lon="8.4420897"></trkpt><trkpt lat="46.8679325" lon="8.442181"></trkpt><trkpt lat="46.8679964" lon="8.4422527"></trkpt><trkpt lat="46.8680573" lon="8.442307"></trkpt><trkpt lat="46.8681301" lon="8.4425503"></trkpt><trkpt lat="46.8683291" lon="8.4427719"></trkpt><trkpt lat="46.8683915" lon="8.4428002"></trkpt><trkpt lat="46.8684569" lon="8.4428088"></trkpt><trkpt lat="46.8686893" lon="8.4428678"></trkpt><trkpt lat="46.8687457" lon="8.4428802"></trkpt><trkpt lat="46.8688014" lon="8.4428993"></trkpt><trkpt lat="46.8687996" lon="8.4429848"></trkpt><trkpt lat="46.8687859" lon="8.443149"></trkpt><trkpt lat="46.8687923" lon="8.4432098"></trkpt><trkpt lat="46.8688087" lon="8.4432499"></trkpt><trkpt lat="46.8688242" lon="8.4432605"></trkpt><trkpt lat="46.8688411" lon="8.4432645"></trkpt><trkpt lat="46.8688808" lon="8.4432665"></trkpt><trkpt lat="46.8690449" lon="8.4432815"></trkpt><trkpt lat="46.8695163" lon="8.4431859"></trkpt><trkpt lat="46.8696669" lon="8.4431483"></trkpt><trkpt lat="46.8698775" lon="8.4430953"></trkpt><trkpt lat="46.8700565" lon="8.4430148"></trkpt><trkpt lat="46.870533" lon="8.4425895"></trkpt><trkpt lat="46.8707326" lon="8.4423983"></trkpt><trkpt lat="46.8708599" lon="8.4421768"></trkpt><trkpt lat="46.8709803" lon="8.4420132"></trkpt><trkpt lat="46.8710961" lon="8.441919"></trkpt><trkpt lat="46.8712177" lon="8.441733"></trkpt><trkpt lat="46.8712964" lon="8.4416372"></trkpt><trkpt lat="46.8713833" lon="8.4414977"></trkpt><trkpt lat="46.8713941" lon="8.4413688"></trkpt><trkpt lat="46.8713762" lon="8.441191"></trkpt><trkpt lat="46.8713952" lon="8.441076"></trkpt><trkpt lat="46.8714393" lon="8.4409453"></trkpt><trkpt lat="46.8714465" lon="8.4408581"></trkpt><trkpt lat="46.8714203" lon="8.4407448"></trkpt><trkpt lat="46.8713368" lon="8.4405056"></trkpt><trkpt lat="46.8713285" lon="8.4403838"></trkpt><trkpt lat="46.8713635" lon="8.4401701"></trkpt><trkpt lat="46.8713861" lon="8.4399218"></trkpt><trkpt lat="46.8713666" lon="8.4395502"></trkpt><trkpt lat="46.8713172" lon="8.4393471"></trkpt><trkpt lat="46.8712308" lon="8.4389167"></trkpt><trkpt lat="46.8711588" lon="8.4387046"></trkpt><trkpt lat="46.8710991" lon="8.4382712"></trkpt><trkpt lat="46.8711125" lon="8.437856"></trkpt><trkpt lat="46.8711513" lon="8.4375255"></trkpt><trkpt lat="46.8711766" lon="8.4371766"></trkpt><trkpt lat="46.8711896" lon="8.4369175"></trkpt><trkpt lat="46.8711965" lon="8.436797"></trkpt><trkpt lat="46.8712018" lon="8.4367512"></trkpt><trkpt lat="46.8712133" lon="8.4367233"></trkpt><trkpt lat="46.87124" lon="8.4366987"></trkpt><trkpt lat="46.8713499" lon="8.4366819"></trkpt><trkpt lat="46.8713766" lon="8.4366663"></trkpt><trkpt lat="46.8714308" lon="8.4365692"></trkpt><trkpt lat="46.8714712" lon="8.4364811"></trkpt><trkpt lat="46.8715193" lon="8.4363921"></trkpt><trkpt lat="46.8715881" lon="8.436231"></trkpt><trkpt lat="46.8716212" lon="8.4361287"></trkpt><trkpt lat="46.8716504" lon="8.43599"></trkpt><trkpt lat="46.8716774" lon="8.4358273"></trkpt><trkpt lat="46.8717005" lon="8.4356606"></trkpt><trkpt lat="46.8717141" lon="8.4355582"></trkpt></trkseg></trk></gpx>
