<?xml version="1.0" encoding="UTF-8"?>
<gpx version="1.1" creator="Good Shit" xmlns="http://www.topografix.com/GPX/1/1"><trk><name>Hradčanské stěny–Psí kostel–Skalní brána loop — Hradčanské stěny: viewpoint–Psí kostel–Skalní brána loop</name><desc>A closed forest walk from the western edge of Hradčany to Hradčanská vyhlídka, Psí kostel and Skalní brána, returning along forest tracks. Short connections are unmarked.

Route geometry: © OpenStreetMap contributors — OpenStreetMap route and path geometry. Licence: ODbL-1.0 (https://opendatacommons.org/licenses/odbl/1.0/). Source: https://www.openstreetmap.org/copyright. Dataset: https://www.openstreetmap.org/.</desc><trkseg><trkpt lat="50.61930278702055" lon="14.701051370385086"></trkpt><trkpt lat="50.619299" lon="14.701165"></trkpt><trkpt lat="50.618872" lon="14.7010868"></trkpt><trkpt lat="50.6187661" lon="14.7010653"></trkpt><trkpt lat="50.61882784540414" lon="14.700782316189443"></trkpt><trkpt lat="50.6187661" lon="14.7010653"></trkpt><trkpt lat="50.6187396" lon="14.7004188"></trkpt><trkpt lat="50.61871088941583" lon="14.699743414242834"></trkpt><trkpt lat="50.6186999" lon="14.6994849"></trkpt><trkpt lat="50.61819938786546" lon="14.699174698793279"></trkpt><trkpt lat="50.61819938786546" lon="14.69917469879328"></trkpt><trkpt lat="50.61819938786546" lon="14.699174698793279"></trkpt><trkpt lat="50.6179856" lon="14.6990422"></trkpt><trkpt lat="50.6178499" lon="14.6985006"></trkpt><trkpt lat="50.61783404234816" lon="14.69838375715737"></trkpt><trkpt lat="50.6178222" lon="14.6982965"></trkpt><trkpt lat="50.617723" lon="14.6982211"></trkpt><trkpt lat="50.6175519" lon="14.6982576"></trkpt><trkpt lat="50.6174425" lon="14.6981079"></trkpt><trkpt lat="50.6174611" lon="14.6979631"></trkpt><trkpt lat="50.6174002" lon="14.6978456"></trkpt><trkpt lat="50.61738687097475" lon="14.697725721050654"></trkpt><trkpt lat="50.617384" lon="14.6976999"></trkpt><trkpt lat="50.617396" lon="14.6975691"></trkpt><trkpt lat="50.6174316" lon="14.6974669"></trkpt><trkpt lat="50.6174763" lon="14.6974507"></trkpt><trkpt lat="50.6175114" lon="14.6974764"></trkpt><trkpt lat="50.6175814" lon="14.6974848"></trkpt><trkpt lat="50.6176631" lon="14.6973636"></trkpt><trkpt lat="50.617710016412516" lon="14.697422016530986"></trkpt><trkpt lat="50.6176631" lon="14.6973636"></trkpt><trkpt lat="50.6175814" lon="14.6974848"></trkpt><trkpt lat="50.6175114" lon="14.6974764"></trkpt><trkpt lat="50.6174763" lon="14.6974507"></trkpt><trkpt lat="50.6174316" lon="14.6974669"></trkpt><trkpt lat="50.617396" lon="14.6975691"></trkpt><trkpt lat="50.617384" lon="14.6976999"></trkpt><trkpt lat="50.6174002" lon="14.6978456"></trkpt><trkpt lat="50.6174611" lon="14.6979631"></trkpt><trkpt lat="50.61745167161494" lon="14.698036499470835"></trkpt><trkpt lat="50.6174425" lon="14.6981079"></trkpt><trkpt lat="50.6175519" lon="14.6982576"></trkpt><trkpt lat="50.617723" lon="14.6982211"></trkpt><trkpt lat="50.6178222" lon="14.6982965"></trkpt><trkpt lat="50.6178499" lon="14.6985006"></trkpt><trkpt lat="50.61789819448637" lon="14.698693350875592"></trkpt><trkpt lat="50.61789819448637" lon="14.69869335087559"></trkpt><trkpt lat="50.61789819448637" lon="14.698693350875592"></trkpt><trkpt lat="50.6179856" lon="14.6990422"></trkpt><trkpt lat="50.61839530211858" lon="14.69929612010065"></trkpt><trkpt lat="50.6186999" lon="14.6994849"></trkpt><trkpt lat="50.6187250004692" lon="14.700075361667118"></trkpt><trkpt lat="50.6186999" lon="14.6994849"></trkpt><trkpt lat="50.6189574" lon="14.6996665"></trkpt><trkpt lat="50.61913782374473" lon="14.698755548270553"></trkpt><trkpt lat="50.6191923" lon="14.6984805"></trkpt><trkpt lat="50.61933883887556" lon="14.697740883685375"></trkpt><trkpt lat="50.6193913" lon="14.6974761"></trkpt><trkpt lat="50.61948190857662" lon="14.696705215513063"></trkpt><trkpt lat="50.6194868" lon="14.6966636"></trkpt><trkpt lat="50.619525368947755" lon="14.69563143562132"></trkpt><trkpt lat="50.6195518" lon="14.6949241"></trkpt><trkpt lat="50.61956585717237" lon="14.694571441648542"></trkpt><trkpt lat="50.6196067" lon="14.6935468"></trkpt><trkpt lat="50.61959163701707" lon="14.693526441766773"></trkpt><trkpt lat="50.6195353" lon="14.6934503"></trkpt><trkpt lat="50.6194296" lon="14.6932525"></trkpt><trkpt lat="50.6193083" lon="14.6928302"></trkpt><trkpt lat="50.61925923372222" lon="14.692601139947426"></trkpt><trkpt lat="50.6191916" lon="14.6922854"></trkpt><trkpt lat="50.6191202" lon="14.6918214"></trkpt><trkpt lat="50.61906978481939" lon="14.691579883156217"></trkpt><trkpt lat="50.61906978481939" lon="14.691579883156216"></trkpt><trkpt lat="50.61906978481939" lon="14.691579883156217"></trkpt><trkpt lat="50.6190037" lon="14.6912633"></trkpt><trkpt lat="50.6189078" lon="14.6909855"></trkpt><trkpt lat="50.6187789" lon="14.6908056"></trkpt><trkpt lat="50.61871028733844" lon="14.690773139413835"></trkpt><trkpt lat="50.61871028733844" lon="14.690773139413833"></trkpt><trkpt lat="50.61871028733844" lon="14.690773139413835"></trkpt><trkpt lat="50.6182752" lon="14.6905673"></trkpt><trkpt lat="50.6182342" lon="14.6904138"></trkpt><trkpt lat="50.61816922793652" lon="14.690195215960353"></trkpt><trkpt lat="50.6181491" lon="14.6901275"></trkpt><trkpt lat="50.6180194" lon="14.6895605"></trkpt><trkpt lat="50.617915" lon="14.6892696"></trkpt><trkpt lat="50.61789341458535" lon="14.689233777926981"></trkpt><trkpt lat="50.61789341458535" lon="14.68923377792698"></trkpt><trkpt lat="50.61789341458535" lon="14.689233777926981"></trkpt><trkpt lat="50.6177417" lon="14.688982"></trkpt><trkpt lat="50.6174926" lon="14.6885685"></trkpt><trkpt lat="50.61741171271728" lon="14.688509491684297"></trkpt><trkpt lat="50.61741171271728" lon="14.688509491684298"></trkpt><trkpt lat="50.61741171271728" lon="14.688509491684297"></trkpt><trkpt lat="50.6171436" lon="14.6883139"></trkpt><trkpt lat="50.6169106" lon="14.688122"></trkpt><trkpt lat="50.61681295870454" lon="14.688011999046891"></trkpt><trkpt lat="50.6166183" lon="14.6877927"></trkpt><trkpt lat="50.6164524" lon="14.6875885"></trkpt><trkpt lat="50.6163969" lon="14.6874004"></trkpt><trkpt lat="50.61633891670086" lon="14.68731029081891"></trkpt><trkpt lat="50.61633891670086" lon="14.687310290818909"></trkpt><trkpt lat="50.61633891670086" lon="14.68731029081891"></trkpt><trkpt lat="50.6163007" lon="14.6872509"></trkpt><trkpt lat="50.6162857" lon="14.6868972"></trkpt><trkpt lat="50.6163375" lon="14.6866115"></trkpt><trkpt lat="50.6163334" lon="14.6864246"></trkpt><trkpt lat="50.6162863" lon="14.6862579"></trkpt><trkpt lat="50.61625864815937" lon="14.686218421167293"></trkpt><trkpt lat="50.61625864815937" lon="14.686218421167291"></trkpt><trkpt lat="50.61625864815937" lon="14.686218421167293"></trkpt><trkpt lat="50.6162531" lon="14.6862105"></trkpt><trkpt lat="50.6158197" lon="14.6854939"></trkpt><trkpt lat="50.61579442120195" lon="14.685448163815984"></trkpt><trkpt lat="50.61579442120195" lon="14.685448163815986"></trkpt><trkpt lat="50.61579442120195" lon="14.685448163815984"></trkpt><trkpt lat="50.61535182979135" lon="14.684647396225841"></trkpt><trkpt lat="50.61535182979135" lon="14.68464739622584"></trkpt><trkpt lat="50.61535182979135" lon="14.684647396225841"></trkpt><trkpt lat="50.6152933" lon="14.6845415"></trkpt><trkpt lat="50.6151205" lon="14.6840249"></trkpt><trkpt lat="50.61505642995922" lon="14.683688735434805"></trkpt><trkpt lat="50.615018" lon="14.6834871"></trkpt><trkpt lat="50.61501494986174" lon="14.682644245126397"></trkpt><trkpt lat="50.6150147" lon="14.6825752"></trkpt><trkpt lat="50.61511774278213" lon="14.681592181533837"></trkpt><trkpt lat="50.6151212" lon="14.6815592"></trkpt><trkpt lat="50.615366088836126" lon="14.680608783099466"></trkpt><trkpt lat="50.6153935" lon="14.6805024"></trkpt><trkpt lat="50.6154503" lon="14.6799199"></trkpt><trkpt lat="50.61557075896591" lon="14.67962331610944"></trkpt><trkpt lat="50.615933024691685" lon="14.678731376040425"></trkpt><trkpt lat="50.6161168" lon="14.6782789"></trkpt><trkpt lat="50.6161304" lon="14.678092"></trkpt><trkpt lat="50.616268146625025" lon="14.67780438758168"></trkpt><trkpt lat="50.616268146625025" lon="14.677804387581679"></trkpt><trkpt lat="50.616268146625025" lon="14.67780438758168"></trkpt><trkpt lat="50.6163043" lon="14.6777289"></trkpt><trkpt lat="50.6164697" lon="14.6773045"></trkpt><trkpt lat="50.61665460715268" lon="14.676936968498987"></trkpt><trkpt lat="50.61665460715268" lon="14.676936968498985"></trkpt><trkpt lat="50.61665460715268" lon="14.676936968498987"></trkpt><trkpt lat="50.6167613" lon="14.6767249"></trkpt><trkpt lat="50.6169824" lon="14.6766173"></trkpt><trkpt lat="50.61720554861473" lon="14.676329108828622"></trkpt><trkpt lat="50.6172452" lon="14.6762779"></trkpt><trkpt lat="50.6175599" lon="14.6759396"></trkpt><trkpt lat="50.617729759219934" lon="14.675625624632174"></trkpt><trkpt lat="50.617729759219934" lon="14.675625624632175"></trkpt><trkpt lat="50.617729759219934" lon="14.675625624632174"></trkpt><trkpt lat="50.6181673695786" lon="14.674816726102055"></trkpt><trkpt lat="50.6183893" lon="14.6744065"></trkpt><trkpt lat="50.618527" lon="14.6743421"></trkpt><trkpt lat="50.618641403045146" lon="14.6742433521084"></trkpt><trkpt lat="50.618641403045146" lon="14.674243352108398"></trkpt><trkpt lat="50.618641403045146" lon="14.6742433521084"></trkpt><trkpt lat="50.618736" lon="14.6741617"></trkpt><trkpt lat="50.6189617" lon="14.6738644"></trkpt><trkpt lat="50.61913465624368" lon="14.67350003884665"></trkpt><trkpt lat="50.61913465624368" lon="14.673500038846647"></trkpt><trkpt lat="50.61913465624368" lon="14.67350003884665"></trkpt><trkpt lat="50.6191492" lon="14.6734694"></trkpt><trkpt lat="50.619610078550075" lon="14.67275954108379"></trkpt><trkpt lat="50.619610078550075" lon="14.672759541083789"></trkpt><trkpt lat="50.619610078550075" lon="14.67275954108379"></trkpt><trkpt lat="50.6197756" lon="14.6725046"></trkpt><trkpt lat="50.62012515207317" lon="14.672095711027639"></trkpt><trkpt lat="50.6202781" lon="14.6719168"></trkpt><trkpt lat="50.62068818157542" lon="14.671532798988627"></trkpt><trkpt lat="50.62068818157542" lon="14.671532798988629"></trkpt><trkpt lat="50.62068818157542" lon="14.671532798988627"></trkpt><trkpt lat="50.62083" lon="14.6714"></trkpt><trkpt lat="50.6209775" lon="14.6713296"></trkpt><trkpt lat="50.6212652" lon="14.6712463"></trkpt><trkpt lat="50.62132098558563" lon="14.671202632663961"></trkpt><trkpt lat="50.62132098558563" lon="14.67120263266396"></trkpt><trkpt lat="50.62132098558563" lon="14.671202632663961"></trkpt><trkpt lat="50.6219083" lon="14.6707429"></trkpt><trkpt lat="50.62192223911423" lon="14.670731083412445"></trkpt><trkpt lat="50.62192223911423" lon="14.670731083412443"></trkpt><trkpt lat="50.62192223911423" lon="14.670731083412445"></trkpt><trkpt lat="50.6220646" lon="14.6706104"></trkpt><trkpt lat="50.6223777" lon="14.6704656"></trkpt><trkpt lat="50.6225257088886" lon="14.670265384717014"></trkpt><trkpt lat="50.6229484" lon="14.6696936"></trkpt><trkpt lat="50.623048706377034" lon="14.669638115277513"></trkpt><trkpt lat="50.623048706377034" lon="14.669638115277515"></trkpt><trkpt lat="50.623048706377034" lon="14.669638115277513"></trkpt><trkpt lat="50.6232212" lon="14.6695427"></trkpt><trkpt lat="50.62367" lon="14.66951"></trkpt><trkpt lat="50.62370252517389" lon="14.66949288776369"></trkpt><trkpt lat="50.62370252517389" lon="14.669492887763692"></trkpt><trkpt lat="50.62370252517389" lon="14.66949288776369"></trkpt><trkpt lat="50.6239973" lon="14.6693378"></trkpt><trkpt lat="50.624133" lon="14.6692054"></trkpt><trkpt lat="50.62425" lon="14.66908"></trkpt><trkpt lat="50.624295587466406" lon="14.669018456920357"></trkpt><trkpt lat="50.62465" lon="14.66854"></trkpt><trkpt lat="50.62479842796225" lon="14.66831440363819"></trkpt><trkpt lat="50.62479842796225" lon="14.668314403638188"></trkpt><trkpt lat="50.62479842796225" lon="14.66831440363819"></trkpt><trkpt lat="50.6249439" lon="14.6680933"></trkpt><trkpt lat="50.6250596" lon="14.6680133"></trkpt><trkpt lat="50.6252148" lon="14.6679888"></trkpt><trkpt lat="50.62541178383793" lon="14.66797472144923"></trkpt><trkpt lat="50.6255548" lon="14.6679645"></trkpt><trkpt lat="50.62581" lon="14.66785"></trkpt><trkpt lat="50.62605888397778" lon="14.667663303902781"></trkpt><trkpt lat="50.62605888397778" lon="14.667663303902783"></trkpt><trkpt lat="50.62605888397778" lon="14.667663303902781"></trkpt><trkpt lat="50.6261858" lon="14.6675681"></trkpt><trkpt lat="50.62649" lon="14.66734"></trkpt><trkpt lat="50.62665429089196" lon="14.667173657551166"></trkpt><trkpt lat="50.6267863" lon="14.66704"></trkpt><trkpt lat="50.6268486" lon="14.6669031"></trkpt><trkpt lat="50.62695" lon="14.66668"></trkpt><trkpt lat="50.62707128010019" lon="14.666331319711963"></trkpt><trkpt lat="50.62707128010019" lon="14.666331319711965"></trkpt><trkpt lat="50.62707128010019" lon="14.666331319711963"></trkpt><trkpt lat="50.62719" lon="14.66599"></trkpt><trkpt lat="50.62745850099056" lon="14.665464451443203"></trkpt><trkpt lat="50.62745850099056" lon="14.665464451443201"></trkpt><trkpt lat="50.62745850099056" lon="14.665464451443203"></trkpt><trkpt lat="50.6275182" lon="14.6653476"></trkpt><trkpt lat="50.627682" lon="14.664898"></trkpt><trkpt lat="50.6276772" lon="14.6647423"></trkpt><trkpt lat="50.62763339662611" lon="14.664611294528434"></trkpt><trkpt lat="50.62763339662611" lon="14.664611294528436"></trkpt><trkpt lat="50.62763339662611" lon="14.664611294528434"></trkpt><trkpt lat="50.6275473" lon="14.6643538"></trkpt><trkpt lat="50.6275769" lon="14.6639221"></trkpt><trkpt lat="50.627622124924706" lon="14.66360095641096"></trkpt><trkpt lat="50.6276254" lon="14.6635777"></trkpt><trkpt lat="50.6276566" lon="14.6632529"></trkpt><trkpt lat="50.6275271" lon="14.6629016"></trkpt><trkpt lat="50.6275114" lon="14.6627727"></trkpt><trkpt lat="50.6274518" lon="14.6626818"></trkpt><trkpt lat="50.62742731647167" lon="14.662663924857632"></trkpt><trkpt lat="50.62742731647167" lon="14.662663924857634"></trkpt><trkpt lat="50.62742731647167" lon="14.662663924857632"></trkpt><trkpt lat="50.6273388" lon="14.6625993"></trkpt><trkpt lat="50.6270698" lon="14.6622802"></trkpt><trkpt lat="50.62684127328853" lon="14.662140582782941"></trkpt><trkpt lat="50.62684127328853" lon="14.662140582782943"></trkpt><trkpt lat="50.62684127328853" lon="14.662140582782941"></trkpt><trkpt lat="50.6268359" lon="14.6621373"></trkpt><trkpt lat="50.626727" lon="14.6620165"></trkpt><trkpt lat="50.6267023" lon="14.6619177"></trkpt><trkpt lat="50.6267026" lon="14.6615625"></trkpt><trkpt lat="50.6266963" lon="14.6613729"></trkpt><trkpt lat="50.626647" lon="14.6612576"></trkpt><trkpt lat="50.62662453178293" lon="14.661215105046134"></trkpt><trkpt lat="50.626647" lon="14.6612576"></trkpt><trkpt lat="50.6266963" lon="14.6613729"></trkpt><trkpt lat="50.6267026" lon="14.6615625"></trkpt><trkpt lat="50.6267023" lon="14.6619177"></trkpt><trkpt lat="50.626721176002754" lon="14.661993204011015"></trkpt><trkpt lat="50.626721176002754" lon="14.661993204011017"></trkpt><trkpt lat="50.626721176002754" lon="14.661993204011015"></trkpt><trkpt lat="50.626727" lon="14.6620165"></trkpt><trkpt lat="50.6268359" lon="14.6621373"></trkpt><trkpt lat="50.6270698" lon="14.6622802"></trkpt><trkpt lat="50.627298374022445" lon="14.662551344871982"></trkpt><trkpt lat="50.627298374022445" lon="14.662551344871984"></trkpt><trkpt lat="50.627298374022445" lon="14.662551344871982"></trkpt><trkpt lat="50.6273388" lon="14.6625993"></trkpt><trkpt lat="50.6274518" lon="14.6626818"></trkpt><trkpt lat="50.6275114" lon="14.6627727"></trkpt><trkpt lat="50.6275271" lon="14.6629016"></trkpt><trkpt lat="50.6276566" lon="14.6632529"></trkpt><trkpt lat="50.62764335429932" lon="14.66339079114036"></trkpt><trkpt lat="50.6276254" lon="14.6635777"></trkpt><trkpt lat="50.6275769" lon="14.6639221"></trkpt><trkpt lat="50.6275473" lon="14.6643538"></trkpt><trkpt lat="50.627565630409435" lon="14.664408621894255"></trkpt><trkpt lat="50.627565630409435" lon="14.664408621894253"></trkpt><trkpt lat="50.627565630409435" lon="14.664408621894255"></trkpt><trkpt lat="50.6276772" lon="14.6647423"></trkpt><trkpt lat="50.627682" lon="14.664898"></trkpt><trkpt lat="50.6280944" lon="14.6639515"></trkpt><trkpt lat="50.62819439742034" lon="14.663441767387036"></trkpt><trkpt lat="50.62819439742034" lon="14.663441767387038"></trkpt><trkpt lat="50.62819439742034" lon="14.663441767387036"></trkpt><trkpt lat="50.6282124" lon="14.66335"></trkpt><trkpt lat="50.6283038" lon="14.662994"></trkpt><trkpt lat="50.62839" lon="14.66259"></trkpt><trkpt lat="50.628437788794926" lon="14.662454152508632"></trkpt><trkpt lat="50.6284936" lon="14.6622955"></trkpt><trkpt lat="50.628551" lon="14.6620203"></trkpt><trkpt lat="50.6286096" lon="14.6618552"></trkpt><trkpt lat="50.6287006" lon="14.6616625"></trkpt><trkpt lat="50.628758562887135" lon="14.661520456703562"></trkpt><trkpt lat="50.6288615" lon="14.6612682"></trkpt><trkpt lat="50.6292372" lon="14.6616977"></trkpt><trkpt lat="50.62925405774603" lon="14.661718662612536"></trkpt><trkpt lat="50.62925405774603" lon="14.661718662612534"></trkpt><trkpt lat="50.62925405774603" lon="14.661718662612536"></trkpt><trkpt lat="50.6297103" lon="14.662286"></trkpt><trkpt lat="50.62977510500671" lon="14.662387470997345"></trkpt><trkpt lat="50.6299383" lon="14.662643"></trkpt><trkpt lat="50.6300866" lon="14.6631697"></trkpt><trkpt lat="50.6301155163096" lon="14.663279647324083"></trkpt><trkpt lat="50.6301155163096" lon="14.663279647324085"></trkpt><trkpt lat="50.6301155163096" lon="14.663279647324083"></trkpt><trkpt lat="50.6301928" lon="14.6635735"></trkpt><trkpt lat="50.6303555" lon="14.6636767"></trkpt><trkpt lat="50.63028007024129" lon="14.664307829982164"></trkpt><trkpt lat="50.63028007024129" lon="14.664307829982166"></trkpt><trkpt lat="50.63028007024129" lon="14.664307829982164"></trkpt><trkpt lat="50.6301651" lon="14.6652698"></trkpt><trkpt lat="50.6301527371403" lon="14.665352971280686"></trkpt><trkpt lat="50.6300128" lon="14.6662944"></trkpt><trkpt lat="50.6300065" lon="14.666563"></trkpt><trkpt lat="50.63011777212669" lon="14.666222981566976"></trkpt><trkpt lat="50.63011777212669" lon="14.666222981566978"></trkpt><trkpt lat="50.63011777212669" lon="14.666222981566976"></trkpt><trkpt lat="50.6300065" lon="14.666563"></trkpt><trkpt lat="50.6298492" lon="14.6671192"></trkpt><trkpt lat="50.629844535006534" lon="14.667137801564119"></trkpt><trkpt lat="50.629844535006534" lon="14.66713780156412"></trkpt><trkpt lat="50.629844535006534" lon="14.667137801564119"></trkpt><trkpt lat="50.6297294" lon="14.6675969"></trkpt><trkpt lat="50.6296056" lon="14.6679913"></trkpt><trkpt lat="50.629572170601826" lon="14.668073073093511"></trkpt><trkpt lat="50.629572170601826" lon="14.66807307309351"></trkpt><trkpt lat="50.629572170601826" lon="14.668073073093511"></trkpt><trkpt lat="50.6294617" lon="14.6683433"></trkpt><trkpt lat="50.6291951" lon="14.6689011"></trkpt><trkpt lat="50.62918504228781" lon="14.668915501874665"></trkpt><trkpt lat="50.6288499" lon="14.6693954"></trkpt><trkpt lat="50.628671336082135" lon="14.669587883786916"></trkpt><trkpt lat="50.62811559789868" lon="14.670186944287853"></trkpt><trkpt lat="50.62811559789868" lon="14.67018694428785"></trkpt><trkpt lat="50.62811559789868" lon="14.670186944287853"></trkpt><trkpt lat="50.6279699" lon="14.670344"></trkpt><trkpt lat="50.6277451" lon="14.6706051"></trkpt><trkpt lat="50.62756477317524" lon="14.670801825928558"></trkpt><trkpt lat="50.62756477317524" lon="14.670801825928557"></trkpt><trkpt lat="50.62756477317524" lon="14.670801825928558"></trkpt><trkpt lat="50.6274603" lon="14.6709158"></trkpt><trkpt lat="50.62707743247189" lon="14.671572225244203"></trkpt><trkpt lat="50.62707743247189" lon="14.671572225244205"></trkpt><trkpt lat="50.62707743247189" lon="14.671572225244203"></trkpt><trkpt lat="50.6267167" lon="14.6721907"></trkpt><trkpt lat="50.62662711976984" lon="14.672373271010418"></trkpt><trkpt lat="50.62662711976984" lon="14.672373271010416"></trkpt><trkpt lat="50.62662711976984" lon="14.672373271010418"></trkpt><trkpt lat="50.6265486" lon="14.6725333"></trkpt><trkpt lat="50.6262416" lon="14.6731004"></trkpt><trkpt lat="50.62619324656109" lon="14.67317526856238"></trkpt><trkpt lat="50.6259976" lon="14.6734782"></trkpt><trkpt lat="50.6258251" lon="14.6737195"></trkpt><trkpt lat="50.62570575883933" lon="14.673909316491724"></trkpt><trkpt lat="50.62570575883933" lon="14.673909316491722"></trkpt><trkpt lat="50.62570575883933" lon="14.673909316491724"></trkpt><trkpt lat="50.6253369" lon="14.674496"></trkpt><trkpt lat="50.62543140142453" lon="14.674495305136585"></trkpt><trkpt lat="50.6254729" lon="14.674495"></trkpt><trkpt lat="50.6253351" lon="14.6746793"></trkpt><trkpt lat="50.62499167309078" lon="14.675294254283655"></trkpt><trkpt lat="50.6248842" lon="14.6754867"></trkpt><trkpt lat="50.624624315398925" lon="14.676167806144326"></trkpt><trkpt lat="50.6244554" lon="14.6766105"></trkpt><trkpt lat="50.62431677238997" lon="14.677115055666922"></trkpt><trkpt lat="50.62431677238997" lon="14.67711505566692"></trkpt><trkpt lat="50.62431677238997" lon="14.677115055666922"></trkpt><trkpt lat="50.624049017623435" lon="14.678089588696604"></trkpt><trkpt lat="50.624049017623435" lon="14.678089588696606"></trkpt><trkpt lat="50.624049017623435" lon="14.678089588696604"></trkpt><trkpt lat="50.623899" lon="14.6786356"></trkpt><trkpt lat="50.6238164546959" lon="14.679080702333795"></trkpt><trkpt lat="50.6237088" lon="14.6796612"></trkpt><trkpt lat="50.62360590196513" lon="14.680083931057185"></trkpt><trkpt lat="50.62360590196513" lon="14.680083931057183"></trkpt><trkpt lat="50.62360590196513" lon="14.680083931057185"></trkpt><trkpt lat="50.6235961" lon="14.6801242"></trkpt><trkpt lat="50.6233766" lon="14.6807787"></trkpt><trkpt lat="50.623264206426676" lon="14.681003925613126"></trkpt><trkpt lat="50.62284726404479" lon="14.681839436940148"></trkpt><trkpt lat="50.62243026974329" lon="14.682675052308959"></trkpt><trkpt lat="50.62243026974329" lon="14.682675052308957"></trkpt><trkpt lat="50.62243026974329" lon="14.682675052308959"></trkpt><trkpt lat="50.62201327533943" lon="14.683510667882894"></trkpt><trkpt lat="50.62201327533943" lon="14.683510667882896"></trkpt><trkpt lat="50.62201327533943" lon="14.683510667882894"></trkpt><trkpt lat="50.6217617" lon="14.6840148"></trkpt><trkpt lat="50.6216068" lon="14.6843574"></trkpt><trkpt lat="50.621606405768595" lon="14.684358098620965"></trkpt><trkpt lat="50.621606405768595" lon="14.684358098620967"></trkpt><trkpt lat="50.621606405768595" lon="14.684358098620965"></trkpt><trkpt lat="50.6214598" lon="14.6846179"></trkpt><trkpt lat="50.6213635" lon="14.6847638"></trkpt><trkpt lat="50.62124429122768" lon="14.685228291643643"></trkpt><trkpt lat="50.62124429122768" lon="14.685228291643645"></trkpt><trkpt lat="50.62124429122768" lon="14.685228291643643"></trkpt><trkpt lat="50.620991369003235" lon="14.686213791766312"></trkpt><trkpt lat="50.6209347" lon="14.6864346"></trkpt><trkpt lat="50.620672124931666" lon="14.68715223233599"></trkpt><trkpt lat="50.62033520966885" lon="14.68807304057805"></trkpt><trkpt lat="50.62033520966885" lon="14.688073040578049"></trkpt><trkpt lat="50.62033520966885" lon="14.68807304057805"></trkpt><trkpt lat="50.61999832138917" lon="14.688993775073724"></trkpt><trkpt lat="50.61999832138917" lon="14.688993775073726"></trkpt><trkpt lat="50.61999832138917" lon="14.688993775073724"></trkpt><trkpt lat="50.6199255" lon="14.6891928"></trkpt><trkpt lat="50.619786" lon="14.6897158"></trkpt><trkpt lat="50.61972913568985" lon="14.689960845445116"></trkpt><trkpt lat="50.61972913568985" lon="14.689960845445118"></trkpt><trkpt lat="50.61972913568985" lon="14.689960845445116"></trkpt><trkpt lat="50.6195613" lon="14.6906841"></trkpt><trkpt lat="50.61955634095305" lon="14.690964923744449"></trkpt><trkpt lat="50.6195543" lon="14.6910805"></trkpt><trkpt lat="50.6195845" lon="14.6912697"></trkpt><trkpt lat="50.6196108" lon="14.6915633"></trkpt><trkpt lat="50.619638390957086" lon="14.692006416704402"></trkpt><trkpt lat="50.6196573" lon="14.6923101"></trkpt><trkpt lat="50.6196672" lon="14.6928636"></trkpt><trkpt lat="50.619649662485706" lon="14.693072913480808"></trkpt><trkpt lat="50.6196348" lon="14.6932503"></trkpt><trkpt lat="50.6196067" lon="14.6935468"></trkpt><trkpt lat="50.61958350114774" lon="14.694128799621478"></trkpt><trkpt lat="50.6195518" lon="14.6949241"></trkpt><trkpt lat="50.61954191037662" lon="14.69518876153649"></trkpt><trkpt lat="50.61950229476538" lon="14.696248936240316"></trkpt><trkpt lat="50.6194868" lon="14.6966636"></trkpt><trkpt lat="50.61941056354521" lon="14.6973122085813"></trkpt><trkpt lat="50.6193913" lon="14.6974761"></trkpt><trkpt lat="50.619221751815566" lon="14.698331849730886"></trkpt><trkpt lat="50.6191923" lon="14.6984805"></trkpt><trkpt lat="50.61902079034158" lon="14.699346444890963"></trkpt><trkpt lat="50.6189574" lon="14.6996665"></trkpt><trkpt lat="50.618766068109956" lon="14.700327376863537"></trkpt><trkpt lat="50.6187396" lon="14.7004188"></trkpt><trkpt lat="50.6187661" lon="14.7010653"></trkpt><trkpt lat="50.618872" lon="14.7010868"></trkpt><trkpt lat="50.619299" lon="14.701165"></trkpt><trkpt lat="50.61930278702055" lon="14.701051370385086"></trkpt></trkseg></trk></gpx>
