<?xml version="1.0" encoding="UTF-8"?>
<gpx version="1.1" creator="Good Shit" xmlns="http://www.topografix.com/GPX/1/1"><trk><name>Breitachklamm–Engenkopf circuit — Breitachklamm and Engenkopf loop</name><trkseg><trkpt lat="47.401847830736074" lon="10.2292023422044"></trkpt><trkpt lat="47.4019583" lon="10.2291872"></trkpt><trkpt lat="47.4021048" lon="10.2291631"></trkpt><trkpt lat="47.4022498" lon="10.229135"></trkpt><trkpt lat="47.4022774" lon="10.2291854"></trkpt><trkpt lat="47.4022807" lon="10.2292698"></trkpt><trkpt lat="47.4022124" lon="10.2293744"></trkpt><trkpt lat="47.4021158" lon="10.2294839"></trkpt><trkpt lat="47.4018539" lon="10.2295232"></trkpt><trkpt lat="47.4018562" lon="10.2296446"></trkpt><trkpt lat="47.4018459" lon="10.2296781"></trkpt><trkpt lat="47.4017518" lon="10.2298642"></trkpt><trkpt lat="47.4017264" lon="10.22997"></trkpt><trkpt lat="47.4017112" lon="10.2300442"></trkpt><trkpt lat="47.4016721" lon="10.2302814"></trkpt><trkpt lat="47.4015975" lon="10.230762"></trkpt><trkpt lat="47.4015587" lon="10.2309472"></trkpt><trkpt lat="47.40149991569111" lon="10.231011155948968"></trkpt><trkpt lat="47.4014905" lon="10.2310214"></trkpt><trkpt lat="47.4013982" lon="10.2311077"></trkpt><trkpt lat="47.4012282" lon="10.2312376"></trkpt><trkpt lat="47.4007672" lon="10.2313764"></trkpt><trkpt lat="47.4003876" lon="10.2313869"></trkpt><trkpt lat="47.4002561" lon="10.2313905"></trkpt><trkpt lat="47.4000113" lon="10.2314401"></trkpt><trkpt lat="47.399773119234744" lon="10.231550023683289"></trkpt><trkpt lat="47.3997008" lon="10.2315834"></trkpt><trkpt lat="47.399433" lon="10.2317175"></trkpt><trkpt lat="47.3993757" lon="10.2318293"></trkpt><trkpt lat="47.3993326" lon="10.2318501"></trkpt><trkpt lat="47.3990355" lon="10.2318936"></trkpt><trkpt lat="47.3989529" lon="10.2318587"></trkpt><trkpt lat="47.3989102" lon="10.2317702"></trkpt><trkpt lat="47.3988659" lon="10.2317208"></trkpt><trkpt lat="47.3985836" lon="10.231559"></trkpt><trkpt lat="47.398113" lon="10.2316696"></trkpt><trkpt lat="47.3980419" lon="10.231715"></trkpt><trkpt lat="47.398024" lon="10.2317264"></trkpt><trkpt lat="47.397998627315125" lon="10.231742591371033"></trkpt><trkpt lat="47.397998627315125" lon="10.231742591371034"></trkpt><trkpt lat="47.397998627315125" lon="10.231742591371033"></trkpt><trkpt lat="47.3979422" lon="10.2317786"></trkpt><trkpt lat="47.3977562" lon="10.2318301"></trkpt><trkpt lat="47.3975702" lon="10.231799"></trkpt><trkpt lat="47.3973635" lon="10.231834"></trkpt><trkpt lat="47.3969807" lon="10.2318321"></trkpt><trkpt lat="47.3965048" lon="10.2317579"></trkpt><trkpt lat="47.3963053" lon="10.2317502"></trkpt><trkpt lat="47.39622248112205" lon="10.231810567131978"></trkpt><trkpt lat="47.39622248112205" lon="10.231810567131976"></trkpt><trkpt lat="47.39622248112205" lon="10.231810567131978"></trkpt><trkpt lat="47.3960102" lon="10.2319653"></trkpt><trkpt lat="47.3958613" lon="10.232078"></trkpt><trkpt lat="47.3957464" lon="10.2321916"></trkpt><trkpt lat="47.3952583" lon="10.2326484"></trkpt><trkpt lat="47.3951574" lon="10.2327473"></trkpt><trkpt lat="47.3950032" lon="10.2328914"></trkpt><trkpt lat="47.3949458" lon="10.2330112"></trkpt><trkpt lat="47.394717" lon="10.2330351"></trkpt><trkpt lat="47.394614484064384" lon="10.233057430203797"></trkpt><trkpt lat="47.394614484064384" lon="10.233057430203798"></trkpt><trkpt lat="47.394614484064384" lon="10.233057430203797"></trkpt><trkpt lat="47.3944948" lon="10.2330835"></trkpt><trkpt lat="47.394234" lon="10.2331194"></trkpt><trkpt lat="47.3941491" lon="10.2330818"></trkpt><trkpt lat="47.3940777" lon="10.2330205"></trkpt><trkpt lat="47.3939848" lon="10.2329705"></trkpt><trkpt lat="47.3939417" lon="10.2329511"></trkpt><trkpt lat="47.3938511" lon="10.2328488"></trkpt><trkpt lat="47.3937994" lon="10.2327449"></trkpt><trkpt lat="47.3938228" lon="10.2326981"></trkpt><trkpt lat="47.3937889" lon="10.2326309"></trkpt><trkpt lat="47.3937372" lon="10.2325759"></trkpt><trkpt lat="47.3936591" lon="10.2323922"></trkpt><trkpt lat="47.3935931" lon="10.2322114"></trkpt><trkpt lat="47.3934989" lon="10.232024"></trkpt><trkpt lat="47.3934094" lon="10.2318674"></trkpt><trkpt lat="47.3934174" lon="10.2317239"></trkpt><trkpt lat="47.393438" lon="10.2315879"></trkpt><trkpt lat="47.393428328146925" lon="10.231490909022659"></trkpt><trkpt lat="47.3934238" lon="10.2314455"></trkpt><trkpt lat="47.3933738" lon="10.2313323"></trkpt><trkpt lat="47.3933425" lon="10.2312358"></trkpt><trkpt lat="47.3933075" lon="10.2312277"></trkpt><trkpt lat="47.3932726" lon="10.2312552"></trkpt><trkpt lat="47.393263" lon="10.2312311"></trkpt><trkpt lat="47.393273" lon="10.2312063"></trkpt><trkpt lat="47.3932862" lon="10.2311687"></trkpt><trkpt lat="47.3932679" lon="10.2311251"></trkpt><trkpt lat="47.3932365" lon="10.2311054"></trkpt><trkpt lat="47.3931861" lon="10.231098"></trkpt><trkpt lat="47.3931484" lon="10.231039"></trkpt><trkpt lat="47.3931238" lon="10.2309906"></trkpt><trkpt lat="47.3930841" lon="10.2310194"></trkpt><trkpt lat="47.3929243" lon="10.2308964"></trkpt><trkpt lat="47.3928506" lon="10.2307976"></trkpt><trkpt lat="47.3927912" lon="10.2307654"></trkpt><trkpt lat="47.3927494" lon="10.23076"></trkpt><trkpt lat="47.3927171" lon="10.2306903"></trkpt><trkpt lat="47.3926727" lon="10.2306288"></trkpt><trkpt lat="47.3925549" lon="10.2305659"></trkpt><trkpt lat="47.39247" lon="10.2305102"></trkpt><trkpt lat="47.3923642" lon="10.2304579"></trkpt><trkpt lat="47.392293" lon="10.230417"></trkpt><trkpt lat="47.3922512" lon="10.2304108"></trkpt><trkpt lat="47.3923532" lon="10.2305488"></trkpt><trkpt lat="47.3923441" lon="10.2305644"></trkpt><trkpt lat="47.3923334" lon="10.2305814"></trkpt><trkpt lat="47.3922774" lon="10.2305174"></trkpt><trkpt lat="47.39223742927181" lon="10.230493940128934"></trkpt><trkpt lat="47.39223742927181" lon="10.230493940128936"></trkpt><trkpt lat="47.39223742927181" lon="10.230493940128934"></trkpt><trkpt lat="47.3922055" lon="10.2304752"></trkpt><trkpt lat="47.3920066" lon="10.2303679"></trkpt><trkpt lat="47.3918855" lon="10.230243"></trkpt><trkpt lat="47.3917306" lon="10.2300326"></trkpt><trkpt lat="47.3916308" lon="10.2298757"></trkpt><trkpt lat="47.3914946" lon="10.2297711"></trkpt><trkpt lat="47.3914524" lon="10.2297671"></trkpt><trkpt lat="47.3913452" lon="10.2297691"></trkpt><trkpt lat="47.3912308" lon="10.2297329"></trkpt><trkpt lat="47.3911196" lon="10.2295954"></trkpt><trkpt lat="47.3910486" lon="10.2295341"></trkpt><trkpt lat="47.3909405" lon="10.2295086"></trkpt><trkpt lat="47.3907163" lon="10.2294315"></trkpt><trkpt lat="47.3907009" lon="10.2293988"></trkpt><trkpt lat="47.3906718" lon="10.2293638"></trkpt><trkpt lat="47.3906398" lon="10.2293413"></trkpt><trkpt lat="47.3906073" lon="10.2293302"></trkpt><trkpt lat="47.3904947" lon="10.2292578"></trkpt><trkpt lat="47.3904257" lon="10.2291787"></trkpt><trkpt lat="47.3902469" lon="10.2291385"></trkpt><trkpt lat="47.3901633" lon="10.2290902"></trkpt><trkpt lat="47.3900653" lon="10.2290258"></trkpt><trkpt lat="47.3898886" lon="10.2288397"></trkpt><trkpt lat="47.3897449" lon="10.2285482"></trkpt><trkpt lat="47.389606" lon="10.2283331"></trkpt><trkpt lat="47.38942147321373" lon="10.227938395517777"></trkpt><trkpt lat="47.38942147321373" lon="10.227938395517779"></trkpt><trkpt lat="47.38942147321373" lon="10.227938395517777"></trkpt><trkpt lat="47.3893981" lon="10.2278884"></trkpt><trkpt lat="47.3891872" lon="10.2276037"></trkpt><trkpt lat="47.3889717" lon="10.2272921"></trkpt><trkpt lat="47.3889172" lon="10.2272126"></trkpt><trkpt lat="47.3888759" lon="10.2272285"></trkpt><trkpt lat="47.3889123" lon="10.2272507"></trkpt><trkpt lat="47.3890284" lon="10.2270673"></trkpt><trkpt lat="47.3890234" lon="10.2270135"></trkpt><trkpt lat="47.3889912" lon="10.2269465"></trkpt><trkpt lat="47.388894" lon="10.2268773"></trkpt><trkpt lat="47.388837" lon="10.2268212"></trkpt><trkpt lat="47.3887682" lon="10.2267797"></trkpt><trkpt lat="47.38871669785414" lon="10.226732258724217"></trkpt><trkpt lat="47.38871669785414" lon="10.226732258724219"></trkpt><trkpt lat="47.38871669785414" lon="10.226732258724217"></trkpt><trkpt lat="47.3886883" lon="10.2267061"></trkpt><trkpt lat="47.3886368" lon="10.2266476"></trkpt><trkpt lat="47.3884644" lon="10.2265121"></trkpt><trkpt lat="47.3884342" lon="10.2264274"></trkpt><trkpt lat="47.3883947" lon="10.2263629"></trkpt><trkpt lat="47.3882512" lon="10.2263573"></trkpt><trkpt lat="47.3881657" lon="10.2262948"></trkpt><trkpt lat="47.3880704" lon="10.2262242"></trkpt><trkpt lat="47.3879968" lon="10.2261764"></trkpt><trkpt lat="47.3879175" lon="10.2261646"></trkpt><trkpt lat="47.3878004" lon="10.226178"></trkpt><trkpt lat="47.3877333" lon="10.2261391"></trkpt><trkpt lat="47.3876783" lon="10.2260863"></trkpt><trkpt lat="47.3875687" lon="10.2258807"></trkpt><trkpt lat="47.38754372654155" lon="10.225763336200998"></trkpt><trkpt lat="47.3875251" lon="10.2256758"></trkpt><trkpt lat="47.3875132" lon="10.2254152"></trkpt><trkpt lat="47.3875512" lon="10.2247443"></trkpt><trkpt lat="47.387489" lon="10.2242644"></trkpt><trkpt lat="47.3872935" lon="10.2237756"></trkpt><trkpt lat="47.3869840340827" lon="10.223392822642413"></trkpt><trkpt lat="47.3869558" lon="10.2233579"></trkpt><trkpt lat="47.3868561" lon="10.2231757"></trkpt><trkpt lat="47.3868098" lon="10.2231156"></trkpt><trkpt lat="47.3867681" lon="10.2230485"></trkpt><trkpt lat="47.3866602" lon="10.2229278"></trkpt><trkpt lat="47.3864792" lon="10.2228089"></trkpt><trkpt lat="47.3863762" lon="10.2227595"></trkpt><trkpt lat="47.3862626" lon="10.2224875"></trkpt><trkpt lat="47.3861052" lon="10.2223531"></trkpt><trkpt lat="47.3859428" lon="10.2222447"></trkpt><trkpt lat="47.3858364" lon="10.2221211"></trkpt><trkpt lat="47.385803083506794" lon="10.222068309479148"></trkpt><trkpt lat="47.385803083506794" lon="10.222068309479146"></trkpt><trkpt lat="47.385803083506794" lon="10.222068309479148"></trkpt><trkpt lat="47.3857589" lon="10.2219983"></trkpt><trkpt lat="47.385662" lon="10.2217835"></trkpt><trkpt lat="47.3856137" lon="10.2217251"></trkpt><trkpt lat="47.3855711" lon="10.2217065"></trkpt><trkpt lat="47.3852451" lon="10.2216897"></trkpt><trkpt lat="47.3851377" lon="10.2215934"></trkpt><trkpt lat="47.3850354" lon="10.2213731"></trkpt><trkpt lat="47.3848424" lon="10.2210891"></trkpt><trkpt lat="47.3846761" lon="10.2208669"></trkpt><trkpt lat="47.384610046312595" lon="10.220669144797618"></trkpt><trkpt lat="47.3845459" lon="10.2204771"></trkpt><trkpt lat="47.3844002" lon="10.2202453"></trkpt><trkpt lat="47.3842221" lon="10.2199273"></trkpt><trkpt lat="47.3840961" lon="10.2196598"></trkpt><trkpt lat="47.3839994" lon="10.219475"></trkpt><trkpt lat="47.3838694" lon="10.2193178"></trkpt><trkpt lat="47.383714" lon="10.2192123"></trkpt><trkpt lat="47.3833452" lon="10.2189269"></trkpt><trkpt lat="47.38332743488257" lon="10.218926295515853"></trkpt><trkpt lat="47.3833452" lon="10.2189269"></trkpt><trkpt lat="47.3833305" lon="10.2187641"></trkpt><trkpt lat="47.3832521" lon="10.218591"></trkpt><trkpt lat="47.3830077" lon="10.218297"></trkpt><trkpt lat="47.3829387" lon="10.218129"></trkpt><trkpt lat="47.3828725" lon="10.2179377"></trkpt><trkpt lat="47.3828846" lon="10.2178253"></trkpt><trkpt lat="47.3829399" lon="10.2177463"></trkpt><trkpt lat="47.3832024" lon="10.2177308"></trkpt><trkpt lat="47.3833273" lon="10.2177201"></trkpt><trkpt lat="47.3835101" lon="10.2176402"></trkpt><trkpt lat="47.3837619" lon="10.2176066"></trkpt><trkpt lat="47.38372504337665" lon="10.217562801928464"></trkpt><trkpt lat="47.3836573" lon="10.2174823"></trkpt><trkpt lat="47.3835286" lon="10.2173239"></trkpt><trkpt lat="47.383459" lon="10.2172484"></trkpt><trkpt lat="47.3834105" lon="10.2171535"></trkpt><trkpt lat="47.3833795" lon="10.2169821"></trkpt><trkpt lat="47.383316" lon="10.2168603"></trkpt><trkpt lat="47.3832955" lon="10.2167431"></trkpt><trkpt lat="47.3832943" lon="10.2165407"></trkpt><trkpt lat="47.3832235" lon="10.2162557"></trkpt><trkpt lat="47.3832424" lon="10.2159993"></trkpt><trkpt lat="47.3832348" lon="10.215747"></trkpt><trkpt lat="47.3831905" lon="10.2156119"></trkpt><trkpt lat="47.3831171" lon="10.2155045"></trkpt><trkpt lat="47.38304715654209" lon="10.215337006391584"></trkpt><trkpt lat="47.38304715654209" lon="10.215337006391582"></trkpt><trkpt lat="47.38304715654209" lon="10.215337006391584"></trkpt><trkpt lat="47.3830454" lon="10.2153328"></trkpt><trkpt lat="47.3829831" lon="10.2151175"></trkpt><trkpt lat="47.3828905" lon="10.2149561"></trkpt><trkpt lat="47.3828177" lon="10.2148935"></trkpt><trkpt lat="47.3827376" lon="10.2148912"></trkpt><trkpt lat="47.3826169" lon="10.2149861"></trkpt><trkpt lat="47.3825459" lon="10.2150072"></trkpt><trkpt lat="47.3824823" lon="10.2149502"></trkpt><trkpt lat="47.3824267" lon="10.2148786"></trkpt><trkpt lat="47.3823292" lon="10.2146885"></trkpt><trkpt lat="47.3822151" lon="10.2145"></trkpt><trkpt lat="47.3819588" lon="10.2143141"></trkpt><trkpt lat="47.3818478" lon="10.2142284"></trkpt><trkpt lat="47.3817708" lon="10.2141342"></trkpt><trkpt lat="47.38166562600443" lon="10.213994645995736"></trkpt><trkpt lat="47.38166562600443" lon="10.213994645995735"></trkpt><trkpt lat="47.38166562600443" lon="10.213994645995736"></trkpt><trkpt lat="47.3812382" lon="10.2134275"></trkpt><trkpt lat="47.3810969" lon="10.2132401"></trkpt><trkpt lat="47.3809755" lon="10.2131016"></trkpt><trkpt lat="47.3809209" lon="10.2129924"></trkpt><trkpt lat="47.3808064" lon="10.2128299"></trkpt><trkpt lat="47.3807484" lon="10.2127301"></trkpt><trkpt lat="47.3806964" lon="10.2125029"></trkpt><trkpt lat="47.3806687" lon="10.2123476"></trkpt><trkpt lat="47.3806508" lon="10.2122907"></trkpt><trkpt lat="47.3806116" lon="10.2122508"></trkpt><trkpt lat="47.38053375370737" lon="10.21225490157886"></trkpt><trkpt lat="47.3805186" lon="10.2122557"></trkpt><trkpt lat="47.3800927" lon="10.2121128"></trkpt><trkpt lat="47.3799356" lon="10.2120519"></trkpt><trkpt lat="47.379689" lon="10.2119016"></trkpt><trkpt lat="47.3794648" lon="10.2117347"></trkpt><trkpt lat="47.3793372" lon="10.2116246"></trkpt><trkpt lat="47.3792536" lon="10.2114619"></trkpt><trkpt lat="47.3791765" lon="10.2112411"></trkpt><trkpt lat="47.379162197239694" lon="10.211094124576265"></trkpt><trkpt lat="47.3791544" lon="10.211014"></trkpt><trkpt lat="47.3792164" lon="10.2106215"></trkpt><trkpt lat="47.3792435" lon="10.2103319"></trkpt><trkpt lat="47.3792511" lon="10.2101115"></trkpt><trkpt lat="47.3792009" lon="10.2099857"></trkpt><trkpt lat="47.3791006" lon="10.2098751"></trkpt><trkpt lat="47.3790914" lon="10.2097244"></trkpt><trkpt lat="47.3790734" lon="10.2094795"></trkpt><trkpt lat="47.3790078" lon="10.2092706"></trkpt><trkpt lat="47.3789247" lon="10.2091623"></trkpt><trkpt lat="47.3789776" lon="10.2090927"></trkpt><trkpt lat="47.3790809" lon="10.2089823"></trkpt><trkpt lat="47.37909877714586" lon="10.208970081698796"></trkpt><trkpt lat="47.37909877714586" lon="10.208970081698798"></trkpt><trkpt lat="47.37909877714586" lon="10.208970081698796"></trkpt><trkpt lat="47.3792" lon="10.2089009"></trkpt><trkpt lat="47.379342" lon="10.2087337"></trkpt><trkpt lat="47.3794213" lon="10.2087069"></trkpt><trkpt lat="47.3796755" lon="10.2088738"></trkpt><trkpt lat="47.3798021" lon="10.2089645"></trkpt><trkpt lat="47.3798582" lon="10.2090289"></trkpt><trkpt lat="47.3798633" lon="10.2091667"></trkpt><trkpt lat="47.3798162" lon="10.2094299"></trkpt><trkpt lat="47.3798118" lon="10.2096721"></trkpt><trkpt lat="47.3797662" lon="10.2098094"></trkpt><trkpt lat="47.37976" lon="10.2099328"></trkpt><trkpt lat="47.3797715" lon="10.2100189"></trkpt><trkpt lat="47.3798216" lon="10.2100792"></trkpt><trkpt lat="47.3799158" lon="10.2101239"></trkpt><trkpt lat="47.379976605860676" lon="10.21012008686652"></trkpt><trkpt lat="47.3800051" lon="10.2101183"></trkpt><trkpt lat="47.3801094" lon="10.2100399"></trkpt><trkpt lat="47.380213" lon="10.2099422"></trkpt><trkpt lat="47.3803423" lon="10.2098063"></trkpt><trkpt lat="47.3803892" lon="10.209572"></trkpt><trkpt lat="47.3804128" lon="10.2093682"></trkpt><trkpt lat="47.3804426" lon="10.2092462"></trkpt><trkpt lat="47.3805155" lon="10.2091681"></trkpt><trkpt lat="47.3806458" lon="10.2090118"></trkpt><trkpt lat="47.3806843" lon="10.2089015"></trkpt><trkpt lat="47.3806792" lon="10.2088027"></trkpt><trkpt lat="47.380635" lon="10.2086814"></trkpt><trkpt lat="47.3805629" lon="10.2085336"></trkpt><trkpt lat="47.380375" lon="10.208363"></trkpt><trkpt lat="47.3803126" lon="10.2082587"></trkpt><trkpt lat="47.380301026417364" lon="10.208170262732638"></trkpt><trkpt lat="47.380301026417364" lon="10.208170262732637"></trkpt><trkpt lat="47.380301026417364" lon="10.208170262732638"></trkpt><trkpt lat="47.3802942" lon="10.2081181"></trkpt><trkpt lat="47.380329" lon="10.2078938"></trkpt><trkpt lat="47.3803929" lon="10.2077612"></trkpt><trkpt lat="47.380502" lon="10.2076612"></trkpt><trkpt lat="47.3805895" lon="10.2076375"></trkpt><trkpt lat="47.3806805" lon="10.207649"></trkpt><trkpt lat="47.3807959" lon="10.2077374"></trkpt><trkpt lat="47.3808603" lon="10.2078085"></trkpt><trkpt lat="47.3809309" lon="10.2078515"></trkpt><trkpt lat="47.38097668835926" lon="10.207838308509084"></trkpt><trkpt lat="47.3810628" lon="10.2078135"></trkpt><trkpt lat="47.3810905" lon="10.2078187"></trkpt><trkpt lat="47.3811584" lon="10.2078225"></trkpt><trkpt lat="47.3812954" lon="10.2078024"></trkpt><trkpt lat="47.381393" lon="10.20777"></trkpt><trkpt lat="47.3814562" lon="10.2077506"></trkpt><trkpt lat="47.381518" lon="10.2077395"></trkpt><trkpt lat="47.381586" lon="10.2077519"></trkpt><trkpt lat="47.3816462" lon="10.2077613"></trkpt><trkpt lat="47.381724" lon="10.2077653"></trkpt><trkpt lat="47.3818043" lon="10.2077618"></trkpt><trkpt lat="47.3818698" lon="10.2077741"></trkpt><trkpt lat="47.3819978" lon="10.2078224"></trkpt><trkpt lat="47.3820414" lon="10.207829"></trkpt><trkpt lat="47.3820735" lon="10.2078281"></trkpt><trkpt lat="47.3821109" lon="10.2078203"></trkpt><trkpt lat="47.3821363" lon="10.2078069"></trkpt><trkpt lat="47.3821705" lon="10.2077811"></trkpt><trkpt lat="47.3822035" lon="10.2077405"></trkpt><trkpt lat="47.3822294" lon="10.2076862"></trkpt><trkpt lat="47.3822645" lon="10.2076252"></trkpt><trkpt lat="47.3823216" lon="10.2075534"></trkpt><trkpt lat="47.3823548" lon="10.2075284"></trkpt><trkpt lat="47.3823833" lon="10.2075092"></trkpt><trkpt lat="47.3824173" lon="10.2074985"></trkpt><trkpt lat="47.3824569" lon="10.2075007"></trkpt><trkpt lat="47.3824809" lon="10.2075132"></trkpt><trkpt lat="47.3825207" lon="10.2075377"></trkpt><trkpt lat="47.3825677" lon="10.2075764"></trkpt><trkpt lat="47.3825769638066" lon="10.207583393867232"></trkpt><trkpt lat="47.3825769638066" lon="10.20758339386723"></trkpt><trkpt lat="47.3825769638066" lon="10.207583393867232"></trkpt><trkpt lat="47.382613" lon="10.2076106"></trkpt><trkpt lat="47.3826457" lon="10.2076265"></trkpt><trkpt lat="47.3826752" lon="10.2076292"></trkpt><trkpt lat="47.382702" lon="10.2076158"></trkpt><trkpt lat="47.3827459" lon="10.2075835"></trkpt><trkpt lat="47.3827892" lon="10.2075286"></trkpt><trkpt lat="47.3828304" lon="10.2074724"></trkpt><trkpt lat="47.3828541" lon="10.2074086"></trkpt><trkpt lat="47.3828776" lon="10.2073222"></trkpt><trkpt lat="47.3828832" lon="10.2072329"></trkpt><trkpt lat="47.3828705" lon="10.2070888"></trkpt><trkpt lat="47.3828608" lon="10.2070104"></trkpt><trkpt lat="47.3828076" lon="10.2067421"></trkpt><trkpt lat="47.3827651" lon="10.2065429"></trkpt><trkpt lat="47.3827493" lon="10.2065027"></trkpt><trkpt lat="47.3827288" lon="10.2064551"></trkpt><trkpt lat="47.3827214" lon="10.2063934"></trkpt><trkpt lat="47.3827261" lon="10.2063337"></trkpt><trkpt lat="47.3827392" lon="10.2062663"></trkpt><trkpt lat="47.3827592" lon="10.2061687"></trkpt><trkpt lat="47.3827835" lon="10.2060565"></trkpt><trkpt lat="47.3828096" lon="10.2059609"></trkpt><trkpt lat="47.3828346" lon="10.2059079"></trkpt><trkpt lat="47.3828701" lon="10.2058221"></trkpt><trkpt lat="47.3828959" lon="10.2057288"></trkpt><trkpt lat="47.3829045" lon="10.2056611"></trkpt><trkpt lat="47.3829086" lon="10.2055899"></trkpt><trkpt lat="47.3828868" lon="10.2054352"></trkpt><trkpt lat="47.3828689" lon="10.2052874"></trkpt><trkpt lat="47.382865317008125" lon="10.205253938836972"></trkpt><trkpt lat="47.3828509" lon="10.2051193"></trkpt><trkpt lat="47.3828284" lon="10.2049639"></trkpt><trkpt lat="47.382826" lon="10.2048612"></trkpt><trkpt lat="47.3828314" lon="10.2048062"></trkpt><trkpt lat="47.382844" lon="10.2047664"></trkpt><trkpt lat="47.3828682" lon="10.2047312"></trkpt><trkpt lat="47.3829448" lon="10.2047048"></trkpt><trkpt lat="47.382977" lon="10.2047019"></trkpt><trkpt lat="47.383016" lon="10.2047194"></trkpt><trkpt lat="47.383038" lon="10.2047465"></trkpt><trkpt lat="47.383068" lon="10.2047908"></trkpt><trkpt lat="47.3830972" lon="10.2048231"></trkpt><trkpt lat="47.3831441" lon="10.2048583"></trkpt><trkpt lat="47.3831745" lon="10.2048978"></trkpt><trkpt lat="47.3831878" lon="10.2049691"></trkpt><trkpt lat="47.383206" lon="10.2049772"></trkpt><trkpt lat="47.383221" lon="10.2049745"></trkpt><trkpt lat="47.3832355" lon="10.2049054"></trkpt><trkpt lat="47.383249" lon="10.2049065"></trkpt><trkpt lat="47.3832682" lon="10.2049517"></trkpt><trkpt lat="47.3832845" lon="10.2049993"></trkpt><trkpt lat="47.3832948" lon="10.2050562"></trkpt><trkpt lat="47.3833104" lon="10.205071"></trkpt><trkpt lat="47.3833238" lon="10.2050747"></trkpt><trkpt lat="47.383339" lon="10.2050724"></trkpt><trkpt lat="47.3833563" lon="10.2050462"></trkpt><trkpt lat="47.3833713" lon="10.2050201"></trkpt><trkpt lat="47.3833944" lon="10.2050064"></trkpt><trkpt lat="47.383418" lon="10.2050114"></trkpt><trkpt lat="47.3834274" lon="10.2050405"></trkpt><trkpt lat="47.3834442" lon="10.2051015"></trkpt><trkpt lat="47.3834686" lon="10.2051186"></trkpt><trkpt lat="47.3835241" lon="10.2051343"></trkpt><trkpt lat="47.3835674" lon="10.2051341"></trkpt><trkpt lat="47.3836101" lon="10.2051508"></trkpt><trkpt lat="47.383691" lon="10.2051774"></trkpt><trkpt lat="47.3837589" lon="10.2051892"></trkpt><trkpt lat="47.3838002" lon="10.205225"></trkpt><trkpt lat="47.3838364" lon="10.2052693"></trkpt><trkpt lat="47.3838737" lon="10.2052927"></trkpt><trkpt lat="47.3839033" lon="10.2052855"></trkpt><trkpt lat="47.3839284" lon="10.2052641"></trkpt><trkpt lat="47.3839715" lon="10.2052133"></trkpt><trkpt lat="47.38401706580539" lon="10.205157795734511"></trkpt><trkpt lat="47.38401706580539" lon="10.205157795734513"></trkpt><trkpt lat="47.38401706580539" lon="10.205157795734511"></trkpt><trkpt lat="47.3840499" lon="10.2051178"></trkpt><trkpt lat="47.3841095" lon="10.2050603"></trkpt><trkpt lat="47.3841407" lon="10.2050215"></trkpt><trkpt lat="47.3842205" lon="10.2049642"></trkpt><trkpt lat="47.3842897" lon="10.2049275"></trkpt><trkpt lat="47.3843556" lon="10.2049092"></trkpt><trkpt lat="47.384386" lon="10.2049108"></trkpt><trkpt lat="47.3844518" lon="10.2049611"></trkpt><trkpt lat="47.3844661" lon="10.2049582"></trkpt><trkpt lat="47.3844767" lon="10.2049334"></trkpt><trkpt lat="47.3844872" lon="10.2049161"></trkpt><trkpt lat="47.3845227" lon="10.204839"></trkpt><trkpt lat="47.3845484" lon="10.2047436"></trkpt><trkpt lat="47.3845711" lon="10.2046923"></trkpt><trkpt lat="47.3846116" lon="10.204658"></trkpt><trkpt lat="47.3846266" lon="10.204601"></trkpt><trkpt lat="47.3846633" lon="10.204569"></trkpt><trkpt lat="47.3847074" lon="10.2045695"></trkpt><trkpt lat="47.384719" lon="10.2045874"></trkpt><trkpt lat="47.3847282" lon="10.2046092"></trkpt><trkpt lat="47.3847851" lon="10.2046265"></trkpt><trkpt lat="47.3848086" lon="10.2046278"></trkpt><trkpt lat="47.3848377" lon="10.2046217"></trkpt><trkpt lat="47.3848626" lon="10.2045863"></trkpt><trkpt lat="47.384878" lon="10.2045236"></trkpt><trkpt lat="47.3848966" lon="10.2044863"></trkpt><trkpt lat="47.3849544" lon="10.2044508"></trkpt><trkpt lat="47.3850032" lon="10.2044428"></trkpt><trkpt lat="47.3850575" lon="10.2044548"></trkpt><trkpt lat="47.3851064" lon="10.2044825"></trkpt><trkpt lat="47.3851533" lon="10.2045085"></trkpt><trkpt lat="47.3851912" lon="10.2045504"></trkpt><trkpt lat="47.3852068" lon="10.204745"></trkpt><trkpt lat="47.3852146" lon="10.2049361"></trkpt><trkpt lat="47.385222166930845" lon="10.2050280862006"></trkpt><trkpt lat="47.3852485" lon="10.2053482"></trkpt><trkpt lat="47.3852747" lon="10.205764"></trkpt><trkpt lat="47.3853515" lon="10.2061443"></trkpt><trkpt lat="47.3853769" lon="10.20632"></trkpt><trkpt lat="47.3853885" lon="10.2064802"></trkpt><trkpt lat="47.3853871" lon="10.2066033"></trkpt><trkpt lat="47.3853629" lon="10.2067563"></trkpt><trkpt lat="47.3853029" lon="10.2069725"></trkpt><trkpt lat="47.3852331" lon="10.2071599"></trkpt><trkpt lat="47.38513269039859" lon="10.207428767210832"></trkpt><trkpt lat="47.38513269039859" lon="10.207428767210834"></trkpt><trkpt lat="47.38513269039859" lon="10.207428767210832"></trkpt><trkpt lat="47.3850972" lon="10.2075238"></trkpt><trkpt lat="47.3850051" lon="10.2078089"></trkpt><trkpt lat="47.3849334" lon="10.2081419"></trkpt><trkpt lat="47.3848713" lon="10.2085757"></trkpt><trkpt lat="47.3848294" lon="10.2087796"></trkpt><trkpt lat="47.3847771" lon="10.2089305"></trkpt><trkpt lat="47.3847223" lon="10.2090177"></trkpt><trkpt lat="47.3845788" lon="10.2092195"></trkpt><trkpt lat="47.3844915" lon="10.2093801"></trkpt><trkpt lat="47.3844553" lon="10.2094743"></trkpt><trkpt lat="47.3844066" lon="10.2096664"></trkpt><trkpt lat="47.384402990088134" lon="10.20976791956221"></trkpt><trkpt lat="47.3844017" lon="10.2098042"></trkpt><trkpt lat="47.3844382" lon="10.2100113"></trkpt><trkpt lat="47.3845084" lon="10.2102069"></trkpt><trkpt lat="47.3846923" lon="10.2105593"></trkpt><trkpt lat="47.384872" lon="10.2108726"></trkpt><trkpt lat="47.3850651" lon="10.2111926"></trkpt><trkpt lat="47.3853015" lon="10.2114824"></trkpt><trkpt lat="47.38554232252012" lon="10.211757290362463"></trkpt><trkpt lat="47.38554232252012" lon="10.211757290362462"></trkpt><trkpt lat="47.38554232252012" lon="10.211757290362463"></trkpt><trkpt lat="47.3857426" lon="10.2119859"></trkpt><trkpt lat="47.3862506" lon="10.2125669"></trkpt><trkpt lat="47.3864268" lon="10.2127603"></trkpt><trkpt lat="47.3865266" lon="10.2128729"></trkpt><trkpt lat="47.3867922" lon="10.2131745"></trkpt><trkpt lat="47.38696796909688" lon="10.213353323380515"></trkpt><trkpt lat="47.3869706" lon="10.213356"></trkpt><trkpt lat="47.3874341" lon="10.2137306"></trkpt><trkpt lat="47.3876089" lon="10.2138774"></trkpt><trkpt lat="47.3878089" lon="10.2140919"></trkpt><trkpt lat="47.388003" lon="10.214325"></trkpt><trkpt lat="47.3880968" lon="10.214482"></trkpt><trkpt lat="47.3882009" lon="10.2146687"></trkpt><trkpt lat="47.3882471" lon="10.214832"></trkpt><trkpt lat="47.388277984368216" lon="10.214962606374566"></trkpt><trkpt lat="47.3882838" lon="10.2149872"></trkpt><trkpt lat="47.3883338" lon="10.2151948"></trkpt><trkpt lat="47.3884675" lon="10.215704"></trkpt><trkpt lat="47.3886548" lon="10.2162734"></trkpt><trkpt lat="47.3886748" lon="10.21645"></trkpt><trkpt lat="47.3886661" lon="10.2165949"></trkpt><trkpt lat="47.3886226" lon="10.2167192"></trkpt><trkpt lat="47.3885699" lon="10.2168408"></trkpt><trkpt lat="47.3884719" lon="10.216984"></trkpt><trkpt lat="47.3884171" lon="10.2170765"></trkpt><trkpt lat="47.3883687" lon="10.2171565"></trkpt><trkpt lat="47.3883538" lon="10.2172856"></trkpt><trkpt lat="47.38835312692425" lon="10.217309052070576"></trkpt><trkpt lat="47.3883487" lon="10.2174633"></trkpt><trkpt lat="47.3883737" lon="10.2179269"></trkpt><trkpt lat="47.3884227" lon="10.2186235"></trkpt><trkpt lat="47.3884682" lon="10.2189298"></trkpt><trkpt lat="47.3885295" lon="10.2192117"></trkpt><trkpt lat="47.3885707" lon="10.2193718"></trkpt><trkpt lat="47.3886298" lon="10.2196794"></trkpt><trkpt lat="47.388651619892634" lon="10.219888844837689"></trkpt><trkpt lat="47.3886632" lon="10.22"></trkpt><trkpt lat="47.3887517" lon="10.2208326"></trkpt><trkpt lat="47.3888134" lon="10.2212068"></trkpt><trkpt lat="47.3889799" lon="10.2220587"></trkpt><trkpt lat="47.3890781" lon="10.2223772"></trkpt><trkpt lat="47.38911300631201" lon="10.22245451167826"></trkpt><trkpt lat="47.38911300631201" lon="10.222454511678261"></trkpt><trkpt lat="47.38911300631201" lon="10.22245451167826"></trkpt><trkpt lat="47.3891563" lon="10.2225504"></trkpt><trkpt lat="47.3893154" lon="10.22279"></trkpt><trkpt lat="47.3894751" lon="10.2229517"></trkpt><trkpt lat="47.3896913" lon="10.2231072"></trkpt><trkpt lat="47.3898778" lon="10.2231817"></trkpt><trkpt lat="47.3900094" lon="10.2234095"></trkpt><trkpt lat="47.3902094" lon="10.2238256"></trkpt><trkpt lat="47.3903161" lon="10.2240191"></trkpt><trkpt lat="47.39042993268425" lon="10.224210211766566"></trkpt><trkpt lat="47.39042993268425" lon="10.224210211766565"></trkpt><trkpt lat="47.39042993268425" lon="10.224210211766566"></trkpt><trkpt lat="47.3904307" lon="10.2242115"></trkpt><trkpt lat="47.3908427" lon="10.2248272"></trkpt><trkpt lat="47.3910818" lon="10.2252178"></trkpt><trkpt lat="47.3913501" lon="10.225555"></trkpt><trkpt lat="47.3915119" lon="10.2257595"></trkpt><trkpt lat="47.39159" lon="10.2258463"></trkpt><trkpt lat="47.3916771" lon="10.2259278"></trkpt><trkpt lat="47.39176078916667" lon="10.22598989343517"></trkpt><trkpt lat="47.39176078916667" lon="10.225989893435171"></trkpt><trkpt lat="47.39176078916667" lon="10.22598989343517"></trkpt><trkpt lat="47.3918604" lon="10.2260638"></trkpt><trkpt lat="47.3920245" lon="10.2262133"></trkpt><trkpt lat="47.3921966" lon="10.2264426"></trkpt><trkpt lat="47.3923301" lon="10.2266108"></trkpt><trkpt lat="47.39243" lon="10.2267054"></trkpt><trkpt lat="47.3925821" lon="10.2268273"></trkpt><trkpt lat="47.3931752" lon="10.2271675"></trkpt><trkpt lat="47.39327833866204" lon="10.227267562596682"></trkpt><trkpt lat="47.39327833866204" lon="10.227267562596683"></trkpt><trkpt lat="47.39327833866204" lon="10.227267562596682"></trkpt><trkpt lat="47.3933462" lon="10.2273334"></trkpt><trkpt lat="47.3935197" lon="10.2275967"></trkpt><trkpt lat="47.393631" lon="10.2278248"></trkpt><trkpt lat="47.3937782" lon="10.2281241"></trkpt><trkpt lat="47.3939411" lon="10.2283893"></trkpt><trkpt lat="47.394008" lon="10.2284733"></trkpt><trkpt lat="47.3940877" lon="10.2285415"></trkpt><trkpt lat="47.3942879" lon="10.2286945"></trkpt><trkpt lat="47.3945027" lon="10.2287837"></trkpt><trkpt lat="47.39466612508953" lon="10.228799037877948"></trkpt><trkpt lat="47.3947158" lon="10.2288037"></trkpt><trkpt lat="47.3949965" lon="10.2287964"></trkpt><trkpt lat="47.3952026" lon="10.2287399"></trkpt><trkpt lat="47.3956864" lon="10.2285835"></trkpt><trkpt lat="47.3959624" lon="10.228471"></trkpt><trkpt lat="47.3961067" lon="10.2283946"></trkpt><trkpt lat="47.3961747" lon="10.2283328"></trkpt><trkpt lat="47.39631907550751" lon="10.228199449531244"></trkpt><trkpt lat="47.39631907550751" lon="10.228199449531246"></trkpt><trkpt lat="47.39631907550751" lon="10.228199449531244"></trkpt><trkpt lat="47.3965597" lon="10.2279772"></trkpt><trkpt lat="47.3967764" lon="10.2276479"></trkpt><trkpt lat="47.3970429" lon="10.2272417"></trkpt><trkpt lat="47.3973128" lon="10.2268152"></trkpt><trkpt lat="47.3974468" lon="10.2265515"></trkpt><trkpt lat="47.3974836260896" lon="10.226453012860214"></trkpt><trkpt lat="47.3976541" lon="10.2259971"></trkpt><trkpt lat="47.397847" lon="10.2254563"></trkpt><trkpt lat="47.3981339" lon="10.2246326"></trkpt><trkpt lat="47.3982004" lon="10.2244945"></trkpt><trkpt lat="47.3982908" lon="10.2243849"></trkpt><trkpt lat="47.398374" lon="10.2243384"></trkpt><trkpt lat="47.39839764189083" lon="10.224333179870504"></trkpt><trkpt lat="47.398499" lon="10.2243108"></trkpt><trkpt lat="47.3986164" lon="10.2243046"></trkpt><trkpt lat="47.3987168" lon="10.2242813"></trkpt><trkpt lat="47.3988733" lon="10.2242027"></trkpt><trkpt lat="47.3990411" lon="10.224077"></trkpt><trkpt lat="47.3995129" lon="10.2237506"></trkpt><trkpt lat="47.3996418" lon="10.2236472"></trkpt><trkpt lat="47.3997345" lon="10.2235841"></trkpt><trkpt lat="47.3998215" lon="10.2235802"></trkpt><trkpt lat="47.3999007" lon="10.2235778"></trkpt><trkpt lat="47.3999896" lon="10.2235262"></trkpt><trkpt lat="47.40006044542091" lon="10.223432512860407"></trkpt><trkpt lat="47.400127" lon="10.2233445"></trkpt><trkpt lat="47.4005427" lon="10.2228321"></trkpt><trkpt lat="47.4007175" lon="10.2226523"></trkpt><trkpt lat="47.400855" lon="10.2225397"></trkpt><trkpt lat="47.4009509" lon="10.222491"></trkpt><trkpt lat="47.4010441" lon="10.2224784"></trkpt><trkpt lat="47.4011981" lon="10.2224821"></trkpt><trkpt lat="47.4013016" lon="10.2224577"></trkpt><trkpt lat="47.4014064" lon="10.2224149"></trkpt><trkpt lat="47.4014997" lon="10.2223366"></trkpt><trkpt lat="47.4015276" lon="10.2223801"></trkpt><trkpt lat="47.4015393" lon="10.2224759"></trkpt><trkpt lat="47.40154219815777" lon="10.22252121246675"></trkpt><trkpt lat="47.4015456" lon="10.2225744"></trkpt><trkpt lat="47.4015939" lon="10.2229286"></trkpt><trkpt lat="47.401648" lon="10.2231948"></trkpt><trkpt lat="47.4016666" lon="10.2232598"></trkpt><trkpt lat="47.4017028" lon="10.2233216"></trkpt><trkpt lat="47.4017647" lon="10.2233499"></trkpt><trkpt lat="47.4017936" lon="10.2233708"></trkpt><trkpt lat="47.4018072" lon="10.2234132"></trkpt><trkpt lat="47.4018049" lon="10.2234921"></trkpt><trkpt lat="47.401743" lon="10.2238071"></trkpt><trkpt lat="47.4017285" lon="10.2238989"></trkpt><trkpt lat="47.4017248" lon="10.2239826"></trkpt><trkpt lat="47.4017367" lon="10.2240592"></trkpt><trkpt lat="47.4017613" lon="10.2241278"></trkpt><trkpt lat="47.4017936" lon="10.2241751"></trkpt><trkpt lat="47.4018296" lon="10.2242063"></trkpt><trkpt lat="47.4018715" lon="10.2242253"></trkpt><trkpt lat="47.401917" lon="10.2242389"></trkpt><trkpt lat="47.4020327" lon="10.2242302"></trkpt><trkpt lat="47.4021" lon="10.224227"></trkpt><trkpt lat="47.4021674" lon="10.2242345"></trkpt><trkpt lat="47.4022228" lon="10.2242524"></trkpt><trkpt lat="47.402271" lon="10.2242783"></trkpt><trkpt lat="47.4023241" lon="10.2243197"></trkpt><trkpt lat="47.40233227015683" lon="10.224329969554736"></trkpt><trkpt lat="47.40233227015683" lon="10.224329969554738"></trkpt><trkpt lat="47.40233227015683" lon="10.224329969554736"></trkpt><trkpt lat="47.4023708" lon="10.2243784"></trkpt><trkpt lat="47.4024873" lon="10.2246212"></trkpt><trkpt lat="47.4025251" lon="10.2246724"></trkpt><trkpt lat="47.4025548" lon="10.2247036"></trkpt><trkpt lat="47.4026007" lon="10.2247376"></trkpt><trkpt lat="47.4026429" lon="10.2247636"></trkpt><trkpt lat="47.4027108" lon="10.2247891"></trkpt><trkpt lat="47.4027823" lon="10.2248092"></trkpt><trkpt lat="47.4028492" lon="10.224828"></trkpt><trkpt lat="47.4029216" lon="10.2248575"></trkpt><trkpt lat="47.4030092" lon="10.2249032"></trkpt><trkpt lat="47.403095" lon="10.2249542"></trkpt><trkpt lat="47.4031753" lon="10.2250081"></trkpt><trkpt lat="47.4034713" lon="10.2251307"></trkpt><trkpt lat="47.4035164" lon="10.2251539"></trkpt><trkpt lat="47.4035615" lon="10.2251797"></trkpt><trkpt lat="47.4036007" lon="10.2252177"></trkpt><trkpt lat="47.4036425" lon="10.2252692"></trkpt><trkpt lat="47.4037288" lon="10.2254052"></trkpt><trkpt lat="47.4037787" lon="10.2254754"></trkpt><trkpt lat="47.40382388445782" lon="10.225586323769209"></trkpt><trkpt lat="47.4038286" lon="10.2255979"></trkpt><trkpt lat="47.4038513" lon="10.2257906"></trkpt><trkpt lat="47.4038592" lon="10.2260318"></trkpt><trkpt lat="47.4038268" lon="10.2263389"></trkpt><trkpt lat="47.4038267" lon="10.2264718"></trkpt><trkpt lat="47.4038484" lon="10.226586"></trkpt><trkpt lat="47.4038664" lon="10.2266764"></trkpt><trkpt lat="47.4038663" lon="10.2267883"></trkpt><trkpt lat="47.4037964" lon="10.2269519"></trkpt><trkpt lat="47.4037794" lon="10.2270104"></trkpt><trkpt lat="47.4037768" lon="10.2270689"></trkpt><trkpt lat="47.4037868" lon="10.2271345"></trkpt><trkpt lat="47.4038085" lon="10.2271947"></trkpt><trkpt lat="47.4038433" lon="10.227247"></trkpt><trkpt lat="47.4038999" lon="10.2272832"></trkpt><trkpt lat="47.4039933" lon="10.2273071"></trkpt><trkpt lat="47.4040778" lon="10.2273097"></trkpt><trkpt lat="47.4041437" lon="10.2273815"></trkpt><trkpt lat="47.4041538" lon="10.2275169"></trkpt><trkpt lat="47.4041102" lon="10.227642"></trkpt><trkpt lat="47.4040457" lon="10.2277009"></trkpt><trkpt lat="47.4039385" lon="10.2277097"></trkpt><trkpt lat="47.40389157424098" lon="10.227711322031864"></trkpt><trkpt lat="47.4038141" lon="10.227714"></trkpt><trkpt lat="47.4037424" lon="10.227745"></trkpt><trkpt lat="47.4036081" lon="10.2277368"></trkpt><trkpt lat="47.4035338" lon="10.2277057"></trkpt><trkpt lat="47.4034568" lon="10.2276753"></trkpt><trkpt lat="47.4034131" lon="10.2276583"></trkpt><trkpt lat="47.4033631" lon="10.2276572"></trkpt><trkpt lat="47.4033308" lon="10.2276968"></trkpt><trkpt lat="47.403304" lon="10.2277714"></trkpt><trkpt lat="47.4033237" lon="10.2278316"></trkpt><trkpt lat="47.4033705" lon="10.2279039"></trkpt><trkpt lat="47.4034267" lon="10.2280424"></trkpt><trkpt lat="47.40352" lon="10.2281405"></trkpt><trkpt lat="47.4037183" lon="10.2283244"></trkpt><trkpt lat="47.4037946" lon="10.2284033"></trkpt><trkpt lat="47.4038627" lon="10.2284903"></trkpt><trkpt lat="47.4039349" lon="10.228557"></trkpt><trkpt lat="47.4040888" lon="10.2285981"></trkpt><trkpt lat="47.4041945" lon="10.2286608"></trkpt><trkpt lat="47.4042922" lon="10.2287158"></trkpt><trkpt lat="47.404316063964394" lon="10.228720875362571"></trkpt><trkpt lat="47.4044389" lon="10.228747"></trkpt><trkpt lat="47.4045339" lon="10.228756"></trkpt><trkpt lat="47.4045705" lon="10.2287991"></trkpt><trkpt lat="47.4045902" lon="10.2288808"></trkpt><trkpt lat="47.4044331" lon="10.2289035"></trkpt><trkpt lat="47.4042304" lon="10.2289758"></trkpt><trkpt lat="47.4039909" lon="10.2290716"></trkpt><trkpt lat="47.4038123" lon="10.2290846"></trkpt><trkpt lat="47.403526" lon="10.2290369"></trkpt><trkpt lat="47.40301069137938" lon="10.229091180978061"></trkpt><trkpt lat="47.4029545" lon="10.2290971"></trkpt><trkpt lat="47.402868" lon="10.2291052"></trkpt><trkpt lat="47.4026545" lon="10.2291246"></trkpt><trkpt lat="47.402633" lon="10.2291273"></trkpt><trkpt lat="47.4025972" lon="10.2291319"></trkpt><trkpt lat="47.402518" lon="10.229142"></trkpt><trkpt lat="47.4024524" lon="10.2291524"></trkpt><trkpt lat="47.4023975" lon="10.2291611"></trkpt><trkpt lat="47.4022774" lon="10.2291854"></trkpt><trkpt lat="47.4022498" lon="10.229135"></trkpt><trkpt lat="47.4021048" lon="10.2291631"></trkpt><trkpt lat="47.4019583" lon="10.2291872"></trkpt><trkpt lat="47.401847830736074" lon="10.2292023422044"></trkpt></trkseg></trk></gpx>
