<?xml version="1.0" encoding="UTF-8"?>
<gpx version="1.1" creator="Good Shit" xmlns="http://www.topografix.com/GPX/1/1"><trk><name>Riegrova–Kamenického stezka loop — Riegrova–Kamenického stezka loop from Bítouchov</name><trkseg><trkpt lat="50.6144037" lon="15.3198245"></trkpt><trkpt lat="50.614375" lon="15.3196598"></trkpt><trkpt lat="50.6143384" lon="15.3194309"></trkpt><trkpt lat="50.6142445" lon="15.3190419"></trkpt><trkpt lat="50.6142194" lon="15.3188942"></trkpt><trkpt lat="50.6142174" lon="15.3187337"></trkpt><trkpt lat="50.6143012" lon="15.3171787"></trkpt><trkpt lat="50.6143505" lon="15.3162884"></trkpt><trkpt lat="50.6143832" lon="15.3155737"></trkpt><trkpt lat="50.6143928" lon="15.3154421"></trkpt><trkpt lat="50.6144152" lon="15.3153229"></trkpt><trkpt lat="50.6144617" lon="15.3152076"></trkpt><trkpt lat="50.6147753" lon="15.3148125"></trkpt><trkpt lat="50.614793" lon="15.3147708"></trkpt><trkpt lat="50.6148094" lon="15.3147325"></trkpt><trkpt lat="50.6148284" lon="15.3146517"></trkpt><trkpt lat="50.6148321" lon="15.3145536"></trkpt><trkpt lat="50.6147258" lon="15.3136019"></trkpt><trkpt lat="50.6146616" lon="15.3129027"></trkpt><trkpt lat="50.6146297" lon="15.3124694"></trkpt><trkpt lat="50.6145486" lon="15.3121229"></trkpt><trkpt lat="50.6145104" lon="15.3118138"></trkpt><trkpt lat="50.6145393" lon="15.3114578"></trkpt><trkpt lat="50.614533" lon="15.3107274"></trkpt><trkpt lat="50.6145918" lon="15.3101588"></trkpt><trkpt lat="50.6146754" lon="15.3095822"></trkpt><trkpt lat="50.6147847" lon="15.3092933"></trkpt><trkpt lat="50.615156" lon="15.3088411"></trkpt><trkpt lat="50.6156379" lon="15.309109"></trkpt><trkpt lat="50.6158005" lon="15.3092268"></trkpt><trkpt lat="50.6158342" lon="15.3093084"></trkpt><trkpt lat="50.6161752" lon="15.3093117"></trkpt><trkpt lat="50.6162723" lon="15.3093528"></trkpt><trkpt lat="50.6165872" lon="15.3091924"></trkpt><trkpt lat="50.6168216" lon="15.3089333"></trkpt><trkpt lat="50.6169367" lon="15.3087835"></trkpt><trkpt lat="50.6169845" lon="15.3087473"></trkpt><trkpt lat="50.6170457" lon="15.3087738"></trkpt><trkpt lat="50.61716" lon="15.3085495"></trkpt><trkpt lat="50.617183" lon="15.308439"></trkpt><trkpt lat="50.6172469" lon="15.3081527"></trkpt><trkpt lat="50.6172451" lon="15.3079745"></trkpt><trkpt lat="50.617389" lon="15.3075407"></trkpt><trkpt lat="50.6174098" lon="15.3074779"></trkpt><trkpt lat="50.6174542" lon="15.307344"></trkpt><trkpt lat="50.6175132" lon="15.3071661"></trkpt><trkpt lat="50.6178592" lon="15.3066515"></trkpt><trkpt lat="50.6181518" lon="15.3063868"></trkpt><trkpt lat="50.6182691" lon="15.3061447"></trkpt><trkpt lat="50.6185941" lon="15.3061651"></trkpt><trkpt lat="50.6187395" lon="15.3060634"></trkpt><trkpt lat="50.6189942" lon="15.3057416"></trkpt><trkpt lat="50.6192243" lon="15.3058039"></trkpt><trkpt lat="50.6195292" lon="15.3060192"></trkpt><trkpt lat="50.6197565" lon="15.3060975"></trkpt><trkpt lat="50.6197707" lon="15.3061282"></trkpt><trkpt lat="50.6197554" lon="15.3061534"></trkpt><trkpt lat="50.6195308" lon="15.3061568"></trkpt><trkpt lat="50.6195187" lon="15.3061784"></trkpt><trkpt lat="50.6195277" lon="15.3062026"></trkpt><trkpt lat="50.6196326" lon="15.3063543"></trkpt><trkpt lat="50.6198181" lon="15.3065028"></trkpt><trkpt lat="50.6203609" lon="15.3063164"></trkpt><trkpt lat="50.6206207" lon="15.3061039"></trkpt><trkpt lat="50.620752" lon="15.305635"></trkpt><trkpt lat="50.6207812" lon="15.3055242"></trkpt><trkpt lat="50.6208477" lon="15.3052715"></trkpt><trkpt lat="50.6210692" lon="15.304962"></trkpt><trkpt lat="50.6213164" lon="15.3045975"></trkpt><trkpt lat="50.6213251" lon="15.304556"></trkpt><trkpt lat="50.6212911" lon="15.3045453"></trkpt><trkpt lat="50.6211221" lon="15.30467"></trkpt><trkpt lat="50.621094" lon="15.3046735"></trkpt><trkpt lat="50.6210983" lon="15.3046262"></trkpt><trkpt lat="50.621212" lon="15.304096"></trkpt><trkpt lat="50.621228" lon="15.3037425"></trkpt><trkpt lat="50.621449" lon="15.3030331"></trkpt><trkpt lat="50.6217025" lon="15.3026397"></trkpt><trkpt lat="50.6217641" lon="15.3025626"></trkpt><trkpt lat="50.6218123" lon="15.3024925"></trkpt><trkpt lat="50.6219542" lon="15.3023706"></trkpt><trkpt lat="50.6220049" lon="15.3023271"></trkpt><trkpt lat="50.6221681" lon="15.302187"></trkpt><trkpt lat="50.6222789" lon="15.3020919"></trkpt><trkpt lat="50.6224141" lon="15.3020368"></trkpt><trkpt lat="50.6226976" lon="15.3020507"></trkpt><trkpt lat="50.6229718" lon="15.3021321"></trkpt><trkpt lat="50.623726" lon="15.3026718"></trkpt><trkpt lat="50.6246233" lon="15.3031957"></trkpt><trkpt lat="50.6248639" lon="15.303494"></trkpt><trkpt lat="50.6251573" lon="15.3034913"></trkpt><trkpt lat="50.6252897" lon="15.3034261"></trkpt><trkpt lat="50.6254894" lon="15.3032258"></trkpt><trkpt lat="50.6256329" lon="15.3031826"></trkpt><trkpt lat="50.6259528" lon="15.3032818"></trkpt><trkpt lat="50.6262466" lon="15.3032773"></trkpt><trkpt lat="50.6263843" lon="15.3033312"></trkpt><trkpt lat="50.6265608" lon="15.3034734"></trkpt><trkpt lat="50.6268154" lon="15.3036332"></trkpt><trkpt lat="50.6271083" lon="15.304011"></trkpt><trkpt lat="50.6272755" lon="15.3041988"></trkpt><trkpt lat="50.6276847" lon="15.3048328"></trkpt><trkpt lat="50.6280999" lon="15.3051827"></trkpt><trkpt lat="50.628243" lon="15.3054094"></trkpt><trkpt lat="50.628357" lon="15.3055188"></trkpt><trkpt lat="50.6286071" lon="15.3056475"></trkpt><trkpt lat="50.6287959" lon="15.3057652"></trkpt><trkpt lat="50.6288647" lon="15.305958"></trkpt><trkpt lat="50.6289431" lon="15.3061515"></trkpt><trkpt lat="50.6290664" lon="15.3063044"></trkpt><trkpt lat="50.6291056" lon="15.306239"></trkpt><trkpt lat="50.6291482" lon="15.3061773"></trkpt><trkpt lat="50.6292188" lon="15.3060746"></trkpt><trkpt lat="50.6295788" lon="15.3058951"></trkpt><trkpt lat="50.6299689" lon="15.305789"></trkpt><trkpt lat="50.6303851" lon="15.3053069"></trkpt><trkpt lat="50.6308239" lon="15.3047436"></trkpt><trkpt lat="50.6319391" lon="15.3033807"></trkpt><trkpt lat="50.6321285" lon="15.3029916"></trkpt><trkpt lat="50.6322799" lon="15.3028075"></trkpt><trkpt lat="50.6323288" lon="15.3027268"></trkpt><trkpt lat="50.6327703" lon="15.3024808"></trkpt><trkpt lat="50.6330652" lon="15.3023368"></trkpt><trkpt lat="50.6332837" lon="15.3021986"></trkpt><trkpt lat="50.6333998" lon="15.3020681"></trkpt><trkpt lat="50.6335223" lon="15.3018978"></trkpt><trkpt lat="50.6335654" lon="15.3017548"></trkpt><trkpt lat="50.6335627" lon="15.3014829"></trkpt><trkpt lat="50.6337952" lon="15.3013088"></trkpt><trkpt lat="50.6339408" lon="15.3012152"></trkpt><trkpt lat="50.6340321" lon="15.3010865"></trkpt><trkpt lat="50.6340623" lon="15.3009916"></trkpt><trkpt lat="50.6341107" lon="15.3010452"></trkpt><trkpt lat="50.6344638" lon="15.3013046"></trkpt><trkpt lat="50.6347234" lon="15.3014478"></trkpt><trkpt lat="50.6348406" lon="15.3015072"></trkpt><trkpt lat="50.634941" lon="15.3015349"></trkpt><trkpt lat="50.6351643" lon="15.3017358"></trkpt><trkpt lat="50.6352726" lon="15.3018889"></trkpt><trkpt lat="50.6354907" lon="15.3022391"></trkpt><trkpt lat="50.635983" lon="15.3031432"></trkpt><trkpt lat="50.6359883" lon="15.3034696"></trkpt><trkpt lat="50.6356432" lon="15.3031675"></trkpt><trkpt lat="50.63574" lon="15.3034517"></trkpt><trkpt lat="50.6359886" lon="15.3042486"></trkpt><trkpt lat="50.6360439" lon="15.3046688"></trkpt><trkpt lat="50.6361043" lon="15.3051284"></trkpt><trkpt lat="50.6360771" lon="15.3060189"></trkpt><trkpt lat="50.63594" lon="15.3069569"></trkpt><trkpt lat="50.6357614" lon="15.307591"></trkpt><trkpt lat="50.6356375" lon="15.3078893"></trkpt><trkpt lat="50.6354621" lon="15.3081377"></trkpt><trkpt lat="50.6351302" lon="15.3084533"></trkpt><trkpt lat="50.6351335" lon="15.3085051"></trkpt><trkpt lat="50.6351612" lon="15.3085803"></trkpt><trkpt lat="50.6353146" lon="15.3088015"></trkpt><trkpt lat="50.6353751" lon="15.3089049"></trkpt><trkpt lat="50.6355251" lon="15.3091157"></trkpt><trkpt lat="50.6356737" lon="15.3096383"></trkpt><trkpt lat="50.635839" lon="15.3101934"></trkpt><trkpt lat="50.6359499" lon="15.3105059"></trkpt><trkpt lat="50.6359668" lon="15.3105667"></trkpt><trkpt lat="50.63597" lon="15.3106678"></trkpt><trkpt lat="50.6359545" lon="15.3107781"></trkpt><trkpt lat="50.6359137" lon="15.3108469"></trkpt><trkpt lat="50.6358759" lon="15.3109117"></trkpt><trkpt lat="50.6358358" lon="15.3109238"></trkpt><trkpt lat="50.6357511" lon="15.3109603"></trkpt><trkpt lat="50.6355916" lon="15.3110258"></trkpt><trkpt lat="50.6353751" lon="15.3113004"></trkpt><trkpt lat="50.6352456" lon="15.3114668"></trkpt><trkpt lat="50.6351809" lon="15.3114972"></trkpt><trkpt lat="50.6351151" lon="15.3115064"></trkpt><trkpt lat="50.6351065" lon="15.3113782"></trkpt><trkpt lat="50.6350846" lon="15.3111401"></trkpt><trkpt lat="50.6350359" lon="15.3108898"></trkpt><trkpt lat="50.6349463" lon="15.3106038"></trkpt><trkpt lat="50.6349128" lon="15.3105302"></trkpt><trkpt lat="50.6348475" lon="15.3104489"></trkpt><trkpt lat="50.634771" lon="15.3104039"></trkpt><trkpt lat="50.6346914" lon="15.3104147"></trkpt><trkpt lat="50.6345807" lon="15.3104993"></trkpt><trkpt lat="50.6345113" lon="15.310629"></trkpt><trkpt lat="50.6343969" lon="15.3108426"></trkpt><trkpt lat="50.6343272" lon="15.3109384"></trkpt><trkpt lat="50.6341034" lon="15.3110499"></trkpt><trkpt lat="50.6338179" lon="15.3113271"></trkpt><trkpt lat="50.6336805" lon="15.3114243"></trkpt><trkpt lat="50.633639" lon="15.3113053"></trkpt><trkpt lat="50.6335973" lon="15.3112368"></trkpt><trkpt lat="50.6335091" lon="15.3111393"></trkpt><trkpt lat="50.633398" lon="15.3110514"></trkpt><trkpt lat="50.6332373" lon="15.3109324"></trkpt><trkpt lat="50.6328955" lon="15.3105267"></trkpt><trkpt lat="50.6329008" lon="15.3104796"></trkpt><trkpt lat="50.6329138" lon="15.3101737"></trkpt><trkpt lat="50.6329272" lon="15.3098673"></trkpt><trkpt lat="50.6329161" lon="15.3092973"></trkpt><trkpt lat="50.6329246" lon="15.309042"></trkpt><trkpt lat="50.6330081" lon="15.3088283"></trkpt><trkpt lat="50.6330451" lon="15.3086947"></trkpt><trkpt lat="50.6330758" lon="15.3085259"></trkpt><trkpt lat="50.633022" lon="15.3083874"></trkpt><trkpt lat="50.6329094" lon="15.3082022"></trkpt><trkpt lat="50.6326678" lon="15.3078857"></trkpt><trkpt lat="50.6322838" lon="15.3075545"></trkpt><trkpt lat="50.63196" lon="15.3073868"></trkpt><trkpt lat="50.6316824" lon="15.307397"></trkpt><trkpt lat="50.6314864" lon="15.3075365"></trkpt><trkpt lat="50.631391" lon="15.3077714"></trkpt><trkpt lat="50.6311903" lon="15.3082657"></trkpt><trkpt lat="50.6309355" lon="15.308802"></trkpt><trkpt lat="50.6307532" lon="15.3092806"></trkpt><trkpt lat="50.6303775" lon="15.3098621"></trkpt><trkpt lat="50.6303603" lon="15.3102966"></trkpt><trkpt lat="50.6302297" lon="15.3105035"></trkpt><trkpt lat="50.6300075" lon="15.3107357"></trkpt><trkpt lat="50.6297332" lon="15.3108553"></trkpt><trkpt lat="50.6293751" lon="15.311322"></trkpt><trkpt lat="50.6293973" lon="15.3117071"></trkpt><trkpt lat="50.6294993" lon="15.3120887"></trkpt><trkpt lat="50.6295463" lon="15.3126338"></trkpt><trkpt lat="50.6294611" lon="15.3127359"></trkpt><trkpt lat="50.6291866" lon="15.3129009"></trkpt><trkpt lat="50.6288811" lon="15.3130191"></trkpt><trkpt lat="50.6287325" lon="15.3129767"></trkpt><trkpt lat="50.6286137" lon="15.3128898"></trkpt><trkpt lat="50.6284461" lon="15.3129086"></trkpt><trkpt lat="50.6281555" lon="15.3130608"></trkpt><trkpt lat="50.6280153" lon="15.3132332"></trkpt><trkpt lat="50.6277462" lon="15.3132497"></trkpt><trkpt lat="50.627394" lon="15.3128923"></trkpt><trkpt lat="50.6273009" lon="15.3126956"></trkpt><trkpt lat="50.6272279" lon="15.3123194"></trkpt><trkpt lat="50.627259" lon="15.3118678"></trkpt><trkpt lat="50.6272223" lon="15.3116946"></trkpt><trkpt lat="50.6269699" lon="15.3115342"></trkpt><trkpt lat="50.6266764" lon="15.3112631"></trkpt><trkpt lat="50.6265167" lon="15.3110499"></trkpt><trkpt lat="50.6263042" lon="15.3109837"></trkpt><trkpt lat="50.6262936" lon="15.3104117"></trkpt><trkpt lat="50.6262239" lon="15.3101411"></trkpt><trkpt lat="50.6259318" lon="15.3097"></trkpt><trkpt lat="50.6259492" lon="15.3092401"></trkpt><trkpt lat="50.6257331" lon="15.3089444"></trkpt><trkpt lat="50.6255928" lon="15.3084552"></trkpt><trkpt lat="50.625401" lon="15.3083471"></trkpt><trkpt lat="50.6252399" lon="15.3081278"></trkpt><trkpt lat="50.6250008" lon="15.3077333"></trkpt><trkpt lat="50.6249141" lon="15.3075233"></trkpt><trkpt lat="50.6248888" lon="15.3074619"></trkpt><trkpt lat="50.6245825" lon="15.3070221"></trkpt><trkpt lat="50.6240891" lon="15.3062442"></trkpt><trkpt lat="50.6237453" lon="15.3059814"></trkpt><trkpt lat="50.6233403" lon="15.3059706"></trkpt><trkpt lat="50.6225167" lon="15.3062281"></trkpt><trkpt lat="50.622095" lon="15.3064779"></trkpt><trkpt lat="50.621817" lon="15.3071"></trkpt><trkpt lat="50.6215093" lon="15.3077023"></trkpt><trkpt lat="50.6213151" lon="15.3080728"></trkpt><trkpt lat="50.621118" lon="15.3082237"></trkpt><trkpt lat="50.6209062" lon="15.308084"></trkpt><trkpt lat="50.6206618" lon="15.3080967"></trkpt><trkpt lat="50.6202226" lon="15.3083799"></trkpt><trkpt lat="50.6200955" lon="15.3084497"></trkpt><trkpt lat="50.619935" lon="15.3082857"></trkpt><trkpt lat="50.6196441" lon="15.3084832"></trkpt><trkpt lat="50.6193385" lon="15.308249"></trkpt><trkpt lat="50.619083" lon="15.3084445"></trkpt><trkpt lat="50.6190711" lon="15.3081754"></trkpt><trkpt lat="50.6188688" lon="15.3082758"></trkpt><trkpt lat="50.6186777" lon="15.308113"></trkpt><trkpt lat="50.6185981" lon="15.3083579"></trkpt><trkpt lat="50.6182519" lon="15.3084874"></trkpt><trkpt lat="50.6181484" lon="15.3083832"></trkpt><trkpt lat="50.6181765" lon="15.3085263"></trkpt><trkpt lat="50.6180791" lon="15.3086572"></trkpt><trkpt lat="50.6179424" lon="15.3090305"></trkpt><trkpt lat="50.6177008" lon="15.3097955"></trkpt><trkpt lat="50.6174219" lon="15.3100367"></trkpt><trkpt lat="50.6173538" lon="15.3103396"></trkpt><trkpt lat="50.6172612" lon="15.3105037"></trkpt><trkpt lat="50.6170807" lon="15.3106102"></trkpt><trkpt lat="50.6170009" lon="15.3107451"></trkpt><trkpt lat="50.6170022" lon="15.3108484"></trkpt><trkpt lat="50.6169293" lon="15.3109597"></trkpt><trkpt lat="50.6167358" lon="15.3110205"></trkpt><trkpt lat="50.6165558" lon="15.3111074"></trkpt><trkpt lat="50.6161797" lon="15.3109991"></trkpt><trkpt lat="50.6161321" lon="15.3109984"></trkpt><trkpt lat="50.6160192" lon="15.3109967"></trkpt><trkpt lat="50.6158919" lon="15.3109654"></trkpt><trkpt lat="50.6157879" lon="15.3109056"></trkpt><trkpt lat="50.6157199" lon="15.3109074"></trkpt><trkpt lat="50.6154937" lon="15.3109836"></trkpt><trkpt lat="50.6152678" lon="15.3116413"></trkpt><trkpt lat="50.6151278" lon="15.3117545"></trkpt><trkpt lat="50.6151425" lon="15.3118677"></trkpt><trkpt lat="50.6153357" lon="15.3128754"></trkpt><trkpt lat="50.6152946" lon="15.3136528"></trkpt><trkpt lat="50.6153309" lon="15.3141403"></trkpt><trkpt lat="50.6154327" lon="15.3143044"></trkpt><trkpt lat="50.6153576" lon="15.3144755"></trkpt><trkpt lat="50.6154277" lon="15.3150152"></trkpt><trkpt lat="50.6154919" lon="15.3155728"></trkpt><trkpt lat="50.6154924" lon="15.315675"></trkpt><trkpt lat="50.6154964" lon="15.3164098"></trkpt><trkpt lat="50.615359" lon="15.316914"></trkpt><trkpt lat="50.6152955" lon="15.3172341"></trkpt><trkpt lat="50.6152765" lon="15.3173843"></trkpt><trkpt lat="50.6152321" lon="15.3176475"></trkpt><trkpt lat="50.615231" lon="15.3178432"></trkpt><trkpt lat="50.6152265" lon="15.3180761"></trkpt><trkpt lat="50.6152706" lon="15.318401"></trkpt><trkpt lat="50.61527" lon="15.3185208"></trkpt><trkpt lat="50.6152116" lon="15.3187012"></trkpt><trkpt lat="50.6151132" lon="15.3192163"></trkpt><trkpt lat="50.6150805" lon="15.3195805"></trkpt><trkpt lat="50.6149911" lon="15.3195673"></trkpt><trkpt lat="50.6148842" lon="15.3195881"></trkpt><trkpt lat="50.6144037" lon="15.3198245"></trkpt></trkseg></trk></gpx>
