<?xml version="1.0" encoding="UTF-8"?>
<gpx version="1.1" creator="Good Shit" xmlns="http://www.topografix.com/GPX/1/1"><trk><name>Areuse Gorge: Noiraigue–Boudry — Areuse Gorge: Noiraigue–Boudry</name><trkseg><trkpt lat="46.9550596" lon="6.7224712"></trkpt><trkpt lat="46.955041" lon="6.7225392"></trkpt><trkpt lat="46.9550339" lon="6.7227559"></trkpt><trkpt lat="46.9550101" lon="6.7234443"></trkpt><trkpt lat="46.9550033" lon="6.7235982"></trkpt><trkpt lat="46.955" lon="6.7236737"></trkpt><trkpt lat="46.9549748" lon="6.7244169"></trkpt><trkpt lat="46.9549648" lon="6.7247158"></trkpt><trkpt lat="46.954934" lon="6.7247133"></trkpt><trkpt lat="46.9543455" lon="6.7246478"></trkpt><trkpt lat="46.9543191" lon="6.7246447"></trkpt><trkpt lat="46.9541033" lon="6.724619"></trkpt><trkpt lat="46.954003" lon="6.7249142"></trkpt><trkpt lat="46.9538053" lon="6.7254553"></trkpt><trkpt lat="46.9536528" lon="6.7259102"></trkpt><trkpt lat="46.9536117" lon="6.7260328"></trkpt><trkpt lat="46.953581" lon="6.7262286"></trkpt><trkpt lat="46.953536" lon="6.7263577"></trkpt><trkpt lat="46.9533376" lon="6.7269269"></trkpt><trkpt lat="46.9531161" lon="6.7276442"></trkpt><trkpt lat="46.953108" lon="6.7276892"></trkpt><trkpt lat="46.9531069" lon="6.7277477"></trkpt><trkpt lat="46.9531177" lon="6.7278697"></trkpt><trkpt lat="46.9530879" lon="6.7279269"></trkpt><trkpt lat="46.9530722" lon="6.7279806"></trkpt><trkpt lat="46.9530223" lon="6.7282119"></trkpt><trkpt lat="46.9529903" lon="6.7283917"></trkpt><trkpt lat="46.9529601" lon="6.7285815"></trkpt><trkpt lat="46.9529344" lon="6.7287793"></trkpt><trkpt lat="46.9529127" lon="6.729093"></trkpt><trkpt lat="46.9529006" lon="6.7293318"></trkpt><trkpt lat="46.9529019" lon="6.7294328"></trkpt><trkpt lat="46.9529092" lon="6.7295597"></trkpt><trkpt lat="46.9529404" lon="6.7299635"></trkpt><trkpt lat="46.9529532" lon="6.7300884"></trkpt><trkpt lat="46.9529726" lon="6.7302608"></trkpt><trkpt lat="46.9529953" lon="6.7303997"></trkpt><trkpt lat="46.9530336" lon="6.730571"></trkpt><trkpt lat="46.9530564" lon="6.7306448"></trkpt><trkpt lat="46.9530936" lon="6.730729"></trkpt><trkpt lat="46.9530498" lon="6.7307702"></trkpt><trkpt lat="46.9530093" lon="6.7307869"></trkpt><trkpt lat="46.952936" lon="6.730831"></trkpt><trkpt lat="46.9529525" lon="6.7308919"></trkpt><trkpt lat="46.9530002" lon="6.7309858"></trkpt><trkpt lat="46.953083" lon="6.7312526"></trkpt><trkpt lat="46.9531194" lon="6.731378"></trkpt><trkpt lat="46.9532513" lon="6.7318663"></trkpt><trkpt lat="46.9533653" lon="6.7322873"></trkpt><trkpt lat="46.9533873" lon="6.7323746"></trkpt><trkpt lat="46.9535187" lon="6.7328928"></trkpt><trkpt lat="46.9535847" lon="6.7331619"></trkpt><trkpt lat="46.9536369" lon="6.7334393"></trkpt><trkpt lat="46.9537007" lon="6.7338823"></trkpt><trkpt lat="46.9537367" lon="6.7343732"></trkpt><trkpt lat="46.9537421" lon="6.7345873"></trkpt><trkpt lat="46.9537422" lon="6.7348046"></trkpt><trkpt lat="46.9537306" lon="6.7351563"></trkpt><trkpt lat="46.9536453" lon="6.7366134"></trkpt><trkpt lat="46.9536363" lon="6.7368642"></trkpt><trkpt lat="46.9536319" lon="6.737001"></trkpt><trkpt lat="46.9536215" lon="6.7373286"></trkpt><trkpt lat="46.9536178" lon="6.7374465"></trkpt><trkpt lat="46.9536153" lon="6.7374893"></trkpt><trkpt lat="46.9536041" lon="6.7376628"></trkpt><trkpt lat="46.9535811" lon="6.7378086"></trkpt><trkpt lat="46.9535663" lon="6.7379779"></trkpt><trkpt lat="46.9535403" lon="6.7382012"></trkpt><trkpt lat="46.9535041" lon="6.7383917"></trkpt><trkpt lat="46.9534846" lon="6.7385355"></trkpt><trkpt lat="46.9534949" lon="6.7387772"></trkpt><trkpt lat="46.9535054" lon="6.7390156"></trkpt><trkpt lat="46.9534922" lon="6.7391759"></trkpt><trkpt lat="46.9534812" lon="6.7392543"></trkpt><trkpt lat="46.953484" lon="6.7394141"></trkpt><trkpt lat="46.953457" lon="6.7396825"></trkpt><trkpt lat="46.9534512" lon="6.7398236"></trkpt><trkpt lat="46.9534524" lon="6.739945"></trkpt><trkpt lat="46.9534437" lon="6.7400647"></trkpt><trkpt lat="46.95344" lon="6.7402183"></trkpt><trkpt lat="46.953448" lon="6.740292"></trkpt><trkpt lat="46.9534343" lon="6.7409238"></trkpt><trkpt lat="46.9534165" lon="6.7414414"></trkpt><trkpt lat="46.9534087" lon="6.7418564"></trkpt><trkpt lat="46.9534055" lon="6.7421181"></trkpt><trkpt lat="46.9534006" lon="6.7423316"></trkpt><trkpt lat="46.9533992" lon="6.7423728"></trkpt><trkpt lat="46.9533901" lon="6.7425509"></trkpt><trkpt lat="46.9533771" lon="6.7426379"></trkpt><trkpt lat="46.953346" lon="6.7427622"></trkpt><trkpt lat="46.9532864" lon="6.7429733"></trkpt><trkpt lat="46.9532494" lon="6.7430688"></trkpt><trkpt lat="46.9531489" lon="6.743281"></trkpt><trkpt lat="46.9530781" lon="6.7434407"></trkpt><trkpt lat="46.952923" lon="6.7437694"></trkpt><trkpt lat="46.9529064" lon="6.7438036"></trkpt><trkpt lat="46.9528729" lon="6.7438787"></trkpt><trkpt lat="46.9528207" lon="6.7439956"></trkpt><trkpt lat="46.9527698" lon="6.7441365"></trkpt><trkpt lat="46.952735" lon="6.7442506"></trkpt><trkpt lat="46.9527247" lon="6.7443358"></trkpt><trkpt lat="46.9527214" lon="6.7443626"></trkpt><trkpt lat="46.9526817" lon="6.7444957"></trkpt><trkpt lat="46.9526344" lon="6.7445737"></trkpt><trkpt lat="46.9526057" lon="6.744643"></trkpt><trkpt lat="46.9525698" lon="6.7447551"></trkpt><trkpt lat="46.9525193" lon="6.7449222"></trkpt><trkpt lat="46.9524072" lon="6.7453551"></trkpt><trkpt lat="46.9523513" lon="6.7455833"></trkpt><trkpt lat="46.9522789" lon="6.7458457"></trkpt><trkpt lat="46.9522191" lon="6.746044"></trkpt><trkpt lat="46.9521531" lon="6.7462385"></trkpt><trkpt lat="46.9520723" lon="6.7464316"></trkpt><trkpt lat="46.9519101" lon="6.7467421"></trkpt><trkpt lat="46.9517909" lon="6.746829"></trkpt><trkpt lat="46.9516744" lon="6.7468986"></trkpt><trkpt lat="46.9516318" lon="6.7469262"></trkpt><trkpt lat="46.9516151" lon="6.7469368"></trkpt><trkpt lat="46.9515009" lon="6.7469794"></trkpt><trkpt lat="46.9514433" lon="6.7469899"></trkpt><trkpt lat="46.9513082" lon="6.7469831"></trkpt><trkpt lat="46.9511324" lon="6.746965"></trkpt><trkpt lat="46.9510894" lon="6.7469533"></trkpt><trkpt lat="46.9510454" lon="6.7469586"></trkpt><trkpt lat="46.9509559" lon="6.7470166"></trkpt><trkpt lat="46.9508972" lon="6.7470214"></trkpt><trkpt lat="46.9508472" lon="6.7470089"></trkpt><trkpt lat="46.9507907" lon="6.7470124"></trkpt><trkpt lat="46.9505241" lon="6.7470868"></trkpt><trkpt lat="46.950508" lon="6.7471248"></trkpt><trkpt lat="46.9504845" lon="6.7471601"></trkpt><trkpt lat="46.9504375" lon="6.7471891"></trkpt><trkpt lat="46.9504195" lon="6.7472142"></trkpt><trkpt lat="46.9503991" lon="6.7472879"></trkpt><trkpt lat="46.9503662" lon="6.7473286"></trkpt><trkpt lat="46.9503479" lon="6.7473667"></trkpt><trkpt lat="46.9502944" lon="6.7474789"></trkpt><trkpt lat="46.9502534" lon="6.747538"></trkpt><trkpt lat="46.9502328" lon="6.747594"></trkpt><trkpt lat="46.9502053" lon="6.7477167"></trkpt><trkpt lat="46.950167" lon="6.747784"></trkpt><trkpt lat="46.9501531" lon="6.747859"></trkpt><trkpt lat="46.950109" lon="6.747944"></trkpt><trkpt lat="46.9501241" lon="6.7480938"></trkpt><trkpt lat="46.950061" lon="6.7482198"></trkpt><trkpt lat="46.9500592" lon="6.7482269"></trkpt><trkpt lat="46.9500312" lon="6.7483388"></trkpt><trkpt lat="46.9500263" lon="6.7484228"></trkpt><trkpt lat="46.9500291" lon="6.7485558"></trkpt><trkpt lat="46.9500311" lon="6.7486303"></trkpt><trkpt lat="46.9500004" lon="6.7486789"></trkpt><trkpt lat="46.9499717" lon="6.7487185"></trkpt><trkpt lat="46.949944" lon="6.7487814"></trkpt><trkpt lat="46.9499343" lon="6.7488798"></trkpt><trkpt lat="46.9499164" lon="6.7489431"></trkpt><trkpt lat="46.9498312" lon="6.749115"></trkpt><trkpt lat="46.9498662" lon="6.7493111"></trkpt><trkpt lat="46.9498282" lon="6.7493772"></trkpt><trkpt lat="46.9497916" lon="6.7494306"></trkpt><trkpt lat="46.9497329" lon="6.7495562"></trkpt><trkpt lat="46.9496756" lon="6.7497086"></trkpt><trkpt lat="46.9496425" lon="6.7497916"></trkpt><trkpt lat="46.9496389" lon="6.7498577"></trkpt><trkpt lat="46.949635" lon="6.7499295"></trkpt><trkpt lat="46.949612" lon="6.7500414"></trkpt><trkpt lat="46.9495611" lon="6.7501701"></trkpt><trkpt lat="46.949532" lon="6.7502913"></trkpt><trkpt lat="46.9495402" lon="6.7503721"></trkpt><trkpt lat="46.9495354" lon="6.7504174"></trkpt><trkpt lat="46.9495321" lon="6.7504492"></trkpt><trkpt lat="46.9495368" lon="6.7505562"></trkpt><trkpt lat="46.9495303" lon="6.7506923"></trkpt><trkpt lat="46.9495312" lon="6.7507996"></trkpt><trkpt lat="46.9495408" lon="6.7509008"></trkpt><trkpt lat="46.9495507" lon="6.7510476"></trkpt><trkpt lat="46.9495628" lon="6.7511731"></trkpt><trkpt lat="46.9495852" lon="6.7512941"></trkpt><trkpt lat="46.9496046" lon="6.7513633"></trkpt><trkpt lat="46.9496412" lon="6.7514445"></trkpt><trkpt lat="46.949767" lon="6.7516636"></trkpt><trkpt lat="46.9498842" lon="6.7518468"></trkpt><trkpt lat="46.949983" lon="6.7520391"></trkpt><trkpt lat="46.9500271" lon="6.7521163"></trkpt><trkpt lat="46.9500726" lon="6.7521903"></trkpt><trkpt lat="46.9501889" lon="6.7523162"></trkpt><trkpt lat="46.9502502" lon="6.752372"></trkpt><trkpt lat="46.9504059" lon="6.7525507"></trkpt><trkpt lat="46.9506407" lon="6.7528138"></trkpt><trkpt lat="46.9507565" lon="6.7530832"></trkpt><trkpt lat="46.9507924" lon="6.7531475"></trkpt><trkpt lat="46.9508585" lon="6.7532278"></trkpt><trkpt lat="46.9509219" lon="6.7532749"></trkpt><trkpt lat="46.9510098" lon="6.7533401"></trkpt><trkpt lat="46.9510629" lon="6.7533601"></trkpt><trkpt lat="46.9511092" lon="6.7533892"></trkpt><trkpt lat="46.9511492" lon="6.7534296"></trkpt><trkpt lat="46.9511953" lon="6.7534868"></trkpt><trkpt lat="46.9514871" lon="6.7539424"></trkpt><trkpt lat="46.9518843" lon="6.754483"></trkpt><trkpt lat="46.9520679" lon="6.7547413"></trkpt><trkpt lat="46.9520655" lon="6.7547456"></trkpt><trkpt lat="46.9520713" lon="6.7547534"></trkpt><trkpt lat="46.9518836" lon="6.7550965"></trkpt><trkpt lat="46.9519149" lon="6.7551401"></trkpt><trkpt lat="46.9519339" lon="6.7552078"></trkpt><trkpt lat="46.952014" lon="6.7554207"></trkpt><trkpt lat="46.9520231" lon="6.7556359"></trkpt><trkpt lat="46.9520231" lon="6.7557462"></trkpt><trkpt lat="46.9519807" lon="6.7558951"></trkpt><trkpt lat="46.9519555" lon="6.756207"></trkpt><trkpt lat="46.9519511" lon="6.7563133"></trkpt><trkpt lat="46.9519589" lon="6.7564205"></trkpt><trkpt lat="46.9519874" lon="6.7566599"></trkpt><trkpt lat="46.9520287" lon="6.7568821"></trkpt><trkpt lat="46.952074" lon="6.757194"></trkpt><trkpt lat="46.952112" lon="6.7575572"></trkpt><trkpt lat="46.9520603" lon="6.757611"></trkpt><trkpt lat="46.9521" lon="6.7580411"></trkpt><trkpt lat="46.9521978" lon="6.7586795"></trkpt><trkpt lat="46.952347" lon="6.759236"></trkpt><trkpt lat="46.95258" lon="6.7597378"></trkpt><trkpt lat="46.9527525" lon="6.7601509"></trkpt><trkpt lat="46.952869" lon="6.760523"></trkpt><trkpt lat="46.9529854" lon="6.7605924"></trkpt><trkpt lat="46.9533311" lon="6.7605135"></trkpt><trkpt lat="46.9533437" lon="6.7605949"></trkpt><trkpt lat="46.953361" lon="6.7606757"></trkpt><trkpt lat="46.9533851" lon="6.7607551"></trkpt><trkpt lat="46.953513" lon="6.7610362"></trkpt><trkpt lat="46.9537378" lon="6.761409"></trkpt><trkpt lat="46.9538395" lon="6.7615949"></trkpt><trkpt lat="46.9539498" lon="6.7618267"></trkpt><trkpt lat="46.9543367" lon="6.7623955"></trkpt><trkpt lat="46.9544145" lon="6.7625183"></trkpt><trkpt lat="46.9545641" lon="6.762783"></trkpt><trkpt lat="46.9546436" lon="6.7629038"></trkpt><trkpt lat="46.9546921" lon="6.7629972"></trkpt><trkpt lat="46.9547566" lon="6.763157"></trkpt><trkpt lat="46.9548104" lon="6.7633342"></trkpt><trkpt lat="46.954864" lon="6.763497"></trkpt><trkpt lat="46.9548942" lon="6.7635518"></trkpt><trkpt lat="46.9549684" lon="6.7636531"></trkpt><trkpt lat="46.9551571" lon="6.7638482"></trkpt><trkpt lat="46.9552157" lon="6.7639169"></trkpt><trkpt lat="46.9552624" lon="6.7639911"></trkpt><trkpt lat="46.9556045" lon="6.7645351"></trkpt><trkpt lat="46.9556331" lon="6.7645918"></trkpt><trkpt lat="46.95566" lon="6.7646545"></trkpt><trkpt lat="46.9556791" lon="6.7647353"></trkpt><trkpt lat="46.9556921" lon="6.7648333"></trkpt><trkpt lat="46.9557248" lon="6.7651501"></trkpt><trkpt lat="46.9557518" lon="6.7653605"></trkpt><trkpt lat="46.9557741" lon="6.7655665"></trkpt><trkpt lat="46.9558104" lon="6.7658171"></trkpt><trkpt lat="46.9558567" lon="6.7660573"></trkpt><trkpt lat="46.955943" lon="6.766456"></trkpt><trkpt lat="46.9559957" lon="6.7666507"></trkpt><trkpt lat="46.9560368" lon="6.7667533"></trkpt><trkpt lat="46.9561318" lon="6.7669706"></trkpt><trkpt lat="46.9562068" lon="6.7671242"></trkpt><trkpt lat="46.9562832" lon="6.7672565"></trkpt><trkpt lat="46.9565265" lon="6.7675915"></trkpt><trkpt lat="46.9565654" lon="6.7676351"></trkpt><trkpt lat="46.9566464" lon="6.7677136"></trkpt><trkpt lat="46.9568309" lon="6.7678688"></trkpt><trkpt lat="46.9570163" lon="6.7680068"></trkpt><trkpt lat="46.9570542" lon="6.7680348"></trkpt><trkpt lat="46.9572149" lon="6.7682011"></trkpt><trkpt lat="46.9574325" lon="6.7684212"></trkpt><trkpt lat="46.9578102" lon="6.7688013"></trkpt><trkpt lat="46.9578694" lon="6.7688823"></trkpt><trkpt lat="46.9579188" lon="6.7689695"></trkpt><trkpt lat="46.9579567" lon="6.7690683"></trkpt><trkpt lat="46.9579841" lon="6.769156"></trkpt><trkpt lat="46.9579478" lon="6.7691762"></trkpt><trkpt lat="46.9579092" lon="6.7692036"></trkpt><trkpt lat="46.9578221" lon="6.7692735"></trkpt><trkpt lat="46.9577645" lon="6.7693201"></trkpt><trkpt lat="46.9577299" lon="6.7693471"></trkpt><trkpt lat="46.9577149" lon="6.769361"></trkpt><trkpt lat="46.9577039" lon="6.7693718"></trkpt><trkpt lat="46.9575282" lon="6.7695907"></trkpt><trkpt lat="46.9575136" lon="6.769612"></trkpt><trkpt lat="46.957501" lon="6.7696371"></trkpt><trkpt lat="46.9575217" lon="6.7696588"></trkpt><trkpt lat="46.957752" lon="6.7700378"></trkpt><trkpt lat="46.9578839" lon="6.7702783"></trkpt><trkpt lat="46.9580206" lon="6.7705132"></trkpt><trkpt lat="46.9582584" lon="6.7709508"></trkpt><trkpt lat="46.9584443" lon="6.7713188"></trkpt><trkpt lat="46.958553" lon="6.7717398"></trkpt><trkpt lat="46.9586158" lon="6.7721653"></trkpt><trkpt lat="46.9586383" lon="6.7725626"></trkpt><trkpt lat="46.9586119" lon="6.7729485"></trkpt><trkpt lat="46.9586002" lon="6.7732923"></trkpt><trkpt lat="46.9585133" lon="6.7734625"></trkpt><trkpt lat="46.9585329" lon="6.7736054"></trkpt><trkpt lat="46.9585121" lon="6.7737892"></trkpt><trkpt lat="46.9585732" lon="6.7739756"></trkpt><trkpt lat="46.9585483" lon="6.774176"></trkpt><trkpt lat="46.9586399" lon="6.7744737"></trkpt><trkpt lat="46.9586534" lon="6.7746945"></trkpt><trkpt lat="46.9587043" lon="6.7749107"></trkpt><trkpt lat="46.958703" lon="6.7750039"></trkpt><trkpt lat="46.9587772" lon="6.7749991"></trkpt><trkpt lat="46.9590086" lon="6.775012"></trkpt><trkpt lat="46.9590639" lon="6.7750149"></trkpt><trkpt lat="46.9590822" lon="6.7750396"></trkpt><trkpt lat="46.9590998" lon="6.7750629"></trkpt><trkpt lat="46.9591425" lon="6.7750982"></trkpt><trkpt lat="46.9591464" lon="6.7751933"></trkpt><trkpt lat="46.9591591" lon="6.7752751"></trkpt><trkpt lat="46.959181" lon="6.7753459"></trkpt><trkpt lat="46.959211" lon="6.7754789"></trkpt><trkpt lat="46.9592466" lon="6.7756098"></trkpt><trkpt lat="46.9592963" lon="6.7757096"></trkpt><trkpt lat="46.9593682" lon="6.7758099"></trkpt><trkpt lat="46.959438" lon="6.7758878"></trkpt><trkpt lat="46.9594943" lon="6.7759892"></trkpt><trkpt lat="46.9595298" lon="6.7760693"></trkpt><trkpt lat="46.9595587" lon="6.7761449"></trkpt><trkpt lat="46.9595939" lon="6.7762839"></trkpt><trkpt lat="46.9596555" lon="6.7763639"></trkpt><trkpt lat="46.9597475" lon="6.7765404"></trkpt><trkpt lat="46.9598108" lon="6.7766215"></trkpt><trkpt lat="46.9598851" lon="6.7768071"></trkpt><trkpt lat="46.9599309" lon="6.7769674"></trkpt><trkpt lat="46.9599472" lon="6.7770565"></trkpt><trkpt lat="46.9599449" lon="6.7772377"></trkpt><trkpt lat="46.9599765" lon="6.7773477"></trkpt><trkpt lat="46.960005" lon="6.7774625"></trkpt><trkpt lat="46.960044" lon="6.7776596"></trkpt><trkpt lat="46.9600721" lon="6.7777274"></trkpt><trkpt lat="46.960101" lon="6.7778423"></trkpt><trkpt lat="46.9601244" lon="6.7779195"></trkpt><trkpt lat="46.9601586" lon="6.7779986"></trkpt><trkpt lat="46.9601848" lon="6.7781199"></trkpt><trkpt lat="46.960202" lon="6.7782474"></trkpt><trkpt lat="46.960216" lon="6.7783329"></trkpt><trkpt lat="46.9602633" lon="6.7784694"></trkpt><trkpt lat="46.960279" lon="6.7785779"></trkpt><trkpt lat="46.9602862" lon="6.7787173"></trkpt><trkpt lat="46.9603653" lon="6.7788461"></trkpt><trkpt lat="46.960442" lon="6.7789099"></trkpt><trkpt lat="46.9605112" lon="6.7789592"></trkpt><trkpt lat="46.9605662" lon="6.7790808"></trkpt><trkpt lat="46.960595" lon="6.7791884"></trkpt><trkpt lat="46.960606" lon="6.7793422"></trkpt><trkpt lat="46.960606" lon="6.7796685"></trkpt><trkpt lat="46.9606037" lon="6.7797932"></trkpt><trkpt lat="46.9605848" lon="6.7798911"></trkpt><trkpt lat="46.960556" lon="6.779967"></trkpt><trkpt lat="46.9605196" lon="6.7800311"></trkpt><trkpt lat="46.9604943" lon="6.7801725"></trkpt><trkpt lat="46.960511" lon="6.7803411"></trkpt><trkpt lat="46.9605199" lon="6.7805141"></trkpt><trkpt lat="46.9605396" lon="6.780676"></trkpt><trkpt lat="46.9605541" lon="6.7809184"></trkpt><trkpt lat="46.9605462" lon="6.7810167"></trkpt><trkpt lat="46.9605121" lon="6.7811032"></trkpt><trkpt lat="46.9604853" lon="6.7811907"></trkpt><trkpt lat="46.9603267" lon="6.7812469"></trkpt><trkpt lat="46.9602641" lon="6.7812269"></trkpt><trkpt lat="46.9601797" lon="6.7811783"></trkpt><trkpt lat="46.9601142" lon="6.781379"></trkpt><trkpt lat="46.9601009" lon="6.781416"></trkpt><trkpt lat="46.9600467" lon="6.7815018"></trkpt><trkpt lat="46.959999" lon="6.7816101"></trkpt><trkpt lat="46.959972" lon="6.781733"></trkpt><trkpt lat="46.9599771" lon="6.7818669"></trkpt><trkpt lat="46.9600003" lon="6.7819506"></trkpt><trkpt lat="46.9600485" lon="6.7820932"></trkpt><trkpt lat="46.9601202" lon="6.7824312"></trkpt><trkpt lat="46.9601849" lon="6.7827185"></trkpt><trkpt lat="46.9602316" lon="6.7829006"></trkpt><trkpt lat="46.9603455" lon="6.7832194"></trkpt><trkpt lat="46.9604204" lon="6.7833455"></trkpt><trkpt lat="46.9605274" lon="6.783508"></trkpt><trkpt lat="46.9606366" lon="6.7836466"></trkpt><trkpt lat="46.9607226" lon="6.7837471"></trkpt><trkpt lat="46.9607876" lon="6.7838128"></trkpt><trkpt lat="46.9608474" lon="6.7839013"></trkpt><trkpt lat="46.9609682" lon="6.7839979"></trkpt><trkpt lat="46.9610453" lon="6.7840723"></trkpt><trkpt lat="46.9611037" lon="6.7841118"></trkpt><trkpt lat="46.9611694" lon="6.784143"></trkpt><trkpt lat="46.9612437" lon="6.7841495"></trkpt><trkpt lat="46.9613098" lon="6.7841334"></trkpt><trkpt lat="46.9613719" lon="6.7840961"></trkpt><trkpt lat="46.9614201" lon="6.7840411"></trkpt><trkpt lat="46.9615841" lon="6.7838066"></trkpt><trkpt lat="46.9617462" lon="6.784283"></trkpt><trkpt lat="46.9617519" lon="6.7843014"></trkpt><trkpt lat="46.9617778" lon="6.7843617"></trkpt><trkpt lat="46.9618365" lon="6.7844766"></trkpt><trkpt lat="46.9618654" lon="6.7845324"></trkpt><trkpt lat="46.9620482" lon="6.7844814"></trkpt><trkpt lat="46.9621008" lon="6.7843501"></trkpt><trkpt lat="46.9621367" lon="6.7843022"></trkpt><trkpt lat="46.9621788" lon="6.784254"></trkpt><trkpt lat="46.962243" lon="6.7841989"></trkpt><trkpt lat="46.9622969" lon="6.7841611"></trkpt><trkpt lat="46.9623358" lon="6.7840942"></trkpt><trkpt lat="46.9623833" lon="6.7840708"></trkpt><trkpt lat="46.9624309" lon="6.7840474"></trkpt><trkpt lat="46.9625285" lon="6.7839758"></trkpt><trkpt lat="46.9625563" lon="6.7839408"></trkpt><trkpt lat="46.962559" lon="6.7839008"></trkpt><trkpt lat="46.9626345" lon="6.7839027"></trkpt><trkpt lat="46.9626903" lon="6.7839188"></trkpt><trkpt lat="46.9627809" lon="6.7839731"></trkpt><trkpt lat="46.9628176" lon="6.7840053"></trkpt><trkpt lat="46.962928" lon="6.7841366"></trkpt><trkpt lat="46.9629514" lon="6.7841871"></trkpt><trkpt lat="46.9628737" lon="6.7842342"></trkpt><trkpt lat="46.9628281" lon="6.7842278"></trkpt><trkpt lat="46.9627616" lon="6.7843029"></trkpt><trkpt lat="46.9626627" lon="6.784355"></trkpt><trkpt lat="46.9625819" lon="6.7843728"></trkpt><trkpt lat="46.9625924" lon="6.7845001"></trkpt><trkpt lat="46.9625217" lon="6.7846732"></trkpt><trkpt lat="46.9624698" lon="6.7848514"></trkpt><trkpt lat="46.9624603" lon="6.7849406"></trkpt><trkpt lat="46.9624251" lon="6.7851161"></trkpt><trkpt lat="46.9624294" lon="6.7852428"></trkpt><trkpt lat="46.9624466" lon="6.7853989"></trkpt><trkpt lat="46.962422" lon="6.785772"></trkpt><trkpt lat="46.9624443" lon="6.7858179"></trkpt><trkpt lat="46.9624729" lon="6.7858768"></trkpt><trkpt lat="46.9624541" lon="6.7860623"></trkpt><trkpt lat="46.962464" lon="6.7862979"></trkpt><trkpt lat="46.9624785" lon="6.7864143"></trkpt><trkpt lat="46.9624751" lon="6.7865201"></trkpt><trkpt lat="46.9624919" lon="6.7866557"></trkpt><trkpt lat="46.9625512" lon="6.7867901"></trkpt><trkpt lat="46.9626274" lon="6.7869113"></trkpt><trkpt lat="46.9626608" lon="6.7869993"></trkpt><trkpt lat="46.9626699" lon="6.7871501"></trkpt><trkpt lat="46.9627049" lon="6.7873754"></trkpt><trkpt lat="46.9628834" lon="6.7877688"></trkpt><trkpt lat="46.9629801" lon="6.7878889"></trkpt><trkpt lat="46.9630546" lon="6.7880045"></trkpt><trkpt lat="46.9630894" lon="6.7880441"></trkpt><trkpt lat="46.963144" lon="6.7880906"></trkpt><trkpt lat="46.9631738" lon="6.7881274"></trkpt><trkpt lat="46.9632296" lon="6.7882158"></trkpt><trkpt lat="46.9632795" lon="6.7882717"></trkpt><trkpt lat="46.9632914" lon="6.7883056"></trkpt><trkpt lat="46.9632992" lon="6.7883589"></trkpt><trkpt lat="46.9633" lon="6.7885838"></trkpt><trkpt lat="46.9633035" lon="6.7887177"></trkpt><trkpt lat="46.9633086" lon="6.7888007"></trkpt><trkpt lat="46.9633297" lon="6.7888902"></trkpt><trkpt lat="46.9634124" lon="6.7891733"></trkpt><trkpt lat="46.9634413" lon="6.7892983"></trkpt><trkpt lat="46.9635261" lon="6.7897726"></trkpt><trkpt lat="46.9635629" lon="6.7899775"></trkpt><trkpt lat="46.9636215" lon="6.7902819"></trkpt><trkpt lat="46.9636419" lon="6.7903987"></trkpt><trkpt lat="46.963663" lon="6.7905616"></trkpt><trkpt lat="46.963667" lon="6.790671"></trkpt><trkpt lat="46.9636331" lon="6.790915"></trkpt><trkpt lat="46.963626" lon="6.791018"></trkpt><trkpt lat="46.963633" lon="6.7911242"></trkpt><trkpt lat="46.9636669" lon="6.7912506"></trkpt><trkpt lat="46.9636831" lon="6.7913485"></trkpt><trkpt lat="46.9636791" lon="6.7915805"></trkpt><trkpt lat="46.9636631" lon="6.7918068"></trkpt><trkpt lat="46.9637221" lon="6.791837"></trkpt><trkpt lat="46.9637603" lon="6.7919302"></trkpt><trkpt lat="46.963801" lon="6.7919262"></trkpt><trkpt lat="46.9638571" lon="6.7918498"></trkpt><trkpt lat="46.9639093" lon="6.7918472"></trkpt><trkpt lat="46.9639367" lon="6.7918507"></trkpt><trkpt lat="46.9639636" lon="6.7918351"></trkpt><trkpt lat="46.963988" lon="6.7918028"></trkpt><trkpt lat="46.9640114" lon="6.7917308"></trkpt><trkpt lat="46.964069" lon="6.791525"></trkpt><trkpt lat="46.964156" lon="6.791482"></trkpt><trkpt lat="46.9641619" lon="6.7914867"></trkpt><trkpt lat="46.9642076" lon="6.7915225"></trkpt><trkpt lat="46.96429" lon="6.7916256"></trkpt><trkpt lat="46.9643518" lon="6.7916865"></trkpt><trkpt lat="46.964372" lon="6.7917039"></trkpt><trkpt lat="46.9643653" lon="6.7917931"></trkpt><trkpt lat="46.9643535" lon="6.7919069"></trkpt><trkpt lat="46.9643036" lon="6.7920171"></trkpt><trkpt lat="46.964264" lon="6.7920761"></trkpt><trkpt lat="46.964235" lon="6.792285"></trkpt><trkpt lat="46.9641454" lon="6.7926181"></trkpt><trkpt lat="46.964094" lon="6.7927921"></trkpt><trkpt lat="46.964058" lon="6.792874"></trkpt><trkpt lat="46.964006" lon="6.79305"></trkpt><trkpt lat="46.9639689" lon="6.7931213"></trkpt><trkpt lat="46.9636123" lon="6.7940974"></trkpt><trkpt lat="46.9633731" lon="6.794733"></trkpt><trkpt lat="46.9632987" lon="6.7949712"></trkpt><trkpt lat="46.9632621" lon="6.7951023"></trkpt><trkpt lat="46.9632145" lon="6.7952585"></trkpt><trkpt lat="46.963177" lon="6.7953971"></trkpt><trkpt lat="46.9631418" lon="6.7954885"></trkpt><trkpt lat="46.9631093" lon="6.7955824"></trkpt><trkpt lat="46.9630839" lon="6.7957115"></trkpt><trkpt lat="46.9630725" lon="6.795839"></trkpt><trkpt lat="46.9630279" lon="6.795905"></trkpt><trkpt lat="46.9630062" lon="6.7960239"></trkpt><trkpt lat="46.9629921" lon="6.7961108"></trkpt><trkpt lat="46.962982" lon="6.7962223"></trkpt><trkpt lat="46.9629701" lon="6.7963265"></trkpt><trkpt lat="46.9629611" lon="6.7964274"></trkpt><trkpt lat="46.9629402" lon="6.7965907"></trkpt><trkpt lat="46.962926" lon="6.7966851"></trkpt><trkpt lat="46.962915" lon="6.796829"></trkpt><trkpt lat="46.9628951" lon="6.7970242"></trkpt><trkpt lat="46.9628791" lon="6.797102"></trkpt><trkpt lat="46.962813" lon="6.7972881"></trkpt><trkpt lat="46.9628028" lon="6.7973641"></trkpt><trkpt lat="46.9627859" lon="6.7974978"></trkpt><trkpt lat="46.9627676" lon="6.7976394"></trkpt><trkpt lat="46.9627794" lon="6.7977692"></trkpt><trkpt lat="46.9627763" lon="6.7978371"></trkpt><trkpt lat="46.9627319" lon="6.7980691"></trkpt><trkpt lat="46.9627108" lon="6.7981531"></trkpt><trkpt lat="46.9627093" lon="6.7982411"></trkpt><trkpt lat="46.9627043" lon="6.7983337"></trkpt><trkpt lat="46.9626945" lon="6.7984212"></trkpt><trkpt lat="46.9626665" lon="6.7986277"></trkpt><trkpt lat="46.9626217" lon="6.7988372"></trkpt><trkpt lat="46.962613" lon="6.7989167"></trkpt><trkpt lat="46.9625823" lon="6.7990559"></trkpt><trkpt lat="46.962542" lon="6.799145"></trkpt><trkpt lat="46.962504" lon="6.7992691"></trkpt><trkpt lat="46.9624693" lon="6.7994424"></trkpt><trkpt lat="46.9624327" lon="6.7996049"></trkpt><trkpt lat="46.9624079" lon="6.7997546"></trkpt><trkpt lat="46.9623922" lon="6.8000101"></trkpt><trkpt lat="46.9623871" lon="6.8001343"></trkpt><trkpt lat="46.9623718" lon="6.8002778"></trkpt><trkpt lat="46.9621338" lon="6.8002141"></trkpt><trkpt lat="46.9621348" lon="6.8004031"></trkpt><trkpt lat="46.9621433" lon="6.8007103"></trkpt><trkpt lat="46.9621215" lon="6.8012537"></trkpt><trkpt lat="46.9621174" lon="6.8015391"></trkpt><trkpt lat="46.9621429" lon="6.8018473"></trkpt><trkpt lat="46.9621671" lon="6.8020864"></trkpt><trkpt lat="46.9621864" lon="6.8023265"></trkpt><trkpt lat="46.9622169" lon="6.80296"></trkpt><trkpt lat="46.962218" lon="6.8030941"></trkpt><trkpt lat="46.9622059" lon="6.8032022"></trkpt><trkpt lat="46.9621845" lon="6.8033215"></trkpt><trkpt lat="46.9621454" lon="6.8035163"></trkpt><trkpt lat="46.9620285" lon="6.8039445"></trkpt><trkpt lat="46.9619713" lon="6.8040747"></trkpt><trkpt lat="46.96185" lon="6.804332"></trkpt><trkpt lat="46.9618043" lon="6.8045019"></trkpt><trkpt lat="46.9617631" lon="6.8047193"></trkpt><trkpt lat="46.9617099" lon="6.8049394"></trkpt><trkpt lat="46.9616231" lon="6.8053453"></trkpt><trkpt lat="46.9615965" lon="6.8055917"></trkpt><trkpt lat="46.9615396" lon="6.8059159"></trkpt><trkpt lat="46.9614511" lon="6.8064745"></trkpt><trkpt lat="46.9614123" lon="6.8066934"></trkpt><trkpt lat="46.9613346" lon="6.8069636"></trkpt><trkpt lat="46.9612712" lon="6.8071367"></trkpt><trkpt lat="46.9612021" lon="6.8073539"></trkpt><trkpt lat="46.9611554" lon="6.8074639"></trkpt><trkpt lat="46.9611025" lon="6.8075628"></trkpt><trkpt lat="46.9610387" lon="6.8077392"></trkpt><trkpt lat="46.9609696" lon="6.8078693"></trkpt><trkpt lat="46.9609232" lon="6.8079869"></trkpt><trkpt lat="46.9608719" lon="6.8081043"></trkpt><trkpt lat="46.9607854" lon="6.8082471"></trkpt><trkpt lat="46.9607133" lon="6.8083765"></trkpt><trkpt lat="46.9605751" lon="6.8085693"></trkpt><trkpt lat="46.9604617" lon="6.8087133"></trkpt><trkpt lat="46.9603808" lon="6.8087975"></trkpt><trkpt lat="46.960337" lon="6.8088541"></trkpt><trkpt lat="46.9602595" lon="6.8091396"></trkpt><trkpt lat="46.9602159" lon="6.8093487"></trkpt><trkpt lat="46.9602061" lon="6.8094449"></trkpt><trkpt lat="46.9601705" lon="6.8096814"></trkpt><trkpt lat="46.9601384" lon="6.8099387"></trkpt><trkpt lat="46.9601367" lon="6.8100371"></trkpt><trkpt lat="46.9601506" lon="6.810242"></trkpt><trkpt lat="46.9601909" lon="6.8104043"></trkpt><trkpt lat="46.9602085" lon="6.8104834"></trkpt><trkpt lat="46.9602414" lon="6.8106356"></trkpt><trkpt lat="46.960156" lon="6.810733"></trkpt><trkpt lat="46.9601125" lon="6.810851"></trkpt><trkpt lat="46.9600538" lon="6.8110675"></trkpt><trkpt lat="46.9600551" lon="6.8111654"></trkpt><trkpt lat="46.960045" lon="6.811268"></trkpt><trkpt lat="46.9600478" lon="6.8113421"></trkpt><trkpt lat="46.9600691" lon="6.8114145"></trkpt><trkpt lat="46.9601009" lon="6.8114923"></trkpt><trkpt lat="46.9601767" lon="6.8115838"></trkpt><trkpt lat="46.9602449" lon="6.8116364"></trkpt><trkpt lat="46.9603634" lon="6.8116901"></trkpt><trkpt lat="46.96048" lon="6.8117643"></trkpt><trkpt lat="46.9605494" lon="6.8117985"></trkpt><trkpt lat="46.9606291" lon="6.8117957"></trkpt><trkpt lat="46.9606778" lon="6.8118156"></trkpt><trkpt lat="46.960765" lon="6.8119124"></trkpt><trkpt lat="46.960804" lon="6.8119899"></trkpt><trkpt lat="46.9609348" lon="6.8121038"></trkpt><trkpt lat="46.9609897" lon="6.8121454"></trkpt><trkpt lat="46.9610588" lon="6.812205"></trkpt><trkpt lat="46.9611036" lon="6.8122985"></trkpt><trkpt lat="46.9611375" lon="6.8124113"></trkpt><trkpt lat="46.9611754" lon="6.812537"></trkpt><trkpt lat="46.9611915" lon="6.8126651"></trkpt><trkpt lat="46.9611883" lon="6.8128721"></trkpt><trkpt lat="46.9612326" lon="6.8131251"></trkpt><trkpt lat="46.9612049" lon="6.8133344"></trkpt><trkpt lat="46.961191" lon="6.8134597"></trkpt><trkpt lat="46.961192" lon="6.8136622"></trkpt><trkpt lat="46.961225" lon="6.8138699"></trkpt><trkpt lat="46.9612625" lon="6.8139698"></trkpt><trkpt lat="46.9613061" lon="6.8140469"></trkpt><trkpt lat="46.9613721" lon="6.8141481"></trkpt><trkpt lat="46.96144" lon="6.8142117"></trkpt><trkpt lat="46.9615295" lon="6.8143024"></trkpt><trkpt lat="46.9616058" lon="6.8143948"></trkpt><trkpt lat="46.9616541" lon="6.814466"></trkpt><trkpt lat="46.9617261" lon="6.81451"></trkpt><trkpt lat="46.961829" lon="6.8145277"></trkpt><trkpt lat="46.9618722" lon="6.8145448"></trkpt><trkpt lat="46.9619072" lon="6.8145919"></trkpt><trkpt lat="46.9619313" lon="6.8146527"></trkpt><trkpt lat="46.9619519" lon="6.8147257"></trkpt><trkpt lat="46.9619539" lon="6.8149823"></trkpt><trkpt lat="46.9619004" lon="6.8153841"></trkpt><trkpt lat="46.9618814" lon="6.8155605"></trkpt><trkpt lat="46.9618945" lon="6.8157412"></trkpt><trkpt lat="46.9619206" lon="6.8160181"></trkpt><trkpt lat="46.9619676" lon="6.8161553"></trkpt><trkpt lat="46.9619826" lon="6.8163113"></trkpt><trkpt lat="46.9619926" lon="6.8164156"></trkpt><trkpt lat="46.9619543" lon="6.8165098"></trkpt><trkpt lat="46.961916" lon="6.816604"></trkpt><trkpt lat="46.9618936" lon="6.8166569"></trkpt><trkpt lat="46.9618385" lon="6.816751"></trkpt><trkpt lat="46.961795" lon="6.816834"></trkpt><trkpt lat="46.961779" lon="6.8169387"></trkpt><trkpt lat="46.9619055" lon="6.8172369"></trkpt><trkpt lat="46.9619509" lon="6.8173435"></trkpt><trkpt lat="46.9619617" lon="6.8174807"></trkpt><trkpt lat="46.9620385" lon="6.8177152"></trkpt><trkpt lat="46.9620975" lon="6.8178"></trkpt><trkpt lat="46.9621512" lon="6.8179021"></trkpt><trkpt lat="46.9623198" lon="6.8182311"></trkpt><trkpt lat="46.9624416" lon="6.8185465"></trkpt><trkpt lat="46.9625511" lon="6.8187061"></trkpt><trkpt lat="46.962674" lon="6.8188432"></trkpt><trkpt lat="46.9627475" lon="6.8190189"></trkpt><trkpt lat="46.9628148" lon="6.8191964"></trkpt><trkpt lat="46.9628514" lon="6.8193776"></trkpt><trkpt lat="46.9628963" lon="6.8197283"></trkpt><trkpt lat="46.962904" lon="6.8198158"></trkpt><trkpt lat="46.9629259" lon="6.8200411"></trkpt><trkpt lat="46.9628708" lon="6.8201544"></trkpt><trkpt lat="46.9628606" lon="6.8202402"></trkpt><trkpt lat="46.9628472" lon="6.8204015"></trkpt><trkpt lat="46.96281" lon="6.8206541"></trkpt><trkpt lat="46.9627596" lon="6.8208657"></trkpt><trkpt lat="46.9627194" lon="6.8208863"></trkpt><trkpt lat="46.9626979" lon="6.8209082"></trkpt><trkpt lat="46.9625898" lon="6.8210651"></trkpt><trkpt lat="46.9625145" lon="6.8211278"></trkpt><trkpt lat="46.9624473" lon="6.8211358"></trkpt><trkpt lat="46.96238" lon="6.821113"></trkpt><trkpt lat="46.962245" lon="6.8211519"></trkpt><trkpt lat="46.9621315" lon="6.8211727"></trkpt><trkpt lat="46.9619292" lon="6.8212894"></trkpt><trkpt lat="46.9616975" lon="6.8214493"></trkpt><trkpt lat="46.9615049" lon="6.8216463"></trkpt><trkpt lat="46.9612956" lon="6.821859"></trkpt><trkpt lat="46.9611158" lon="6.8220518"></trkpt><trkpt lat="46.9610135" lon="6.8221781"></trkpt><trkpt lat="46.9609741" lon="6.8222476"></trkpt><trkpt lat="46.9609465" lon="6.8223166"></trkpt><trkpt lat="46.9609217" lon="6.8223911"></trkpt><trkpt lat="46.9609073" lon="6.8224675"></trkpt><trkpt lat="46.9608982" lon="6.8225731"></trkpt><trkpt lat="46.960906" lon="6.8227019"></trkpt><trkpt lat="46.9609665" lon="6.8229267"></trkpt><trkpt lat="46.9611102" lon="6.8234898"></trkpt><trkpt lat="46.9611849" lon="6.8237231"></trkpt><trkpt lat="46.9612652" lon="6.8239924"></trkpt><trkpt lat="46.9613165" lon="6.8241245"></trkpt><trkpt lat="46.9614897" lon="6.8244885"></trkpt><trkpt lat="46.9615208" lon="6.8245878"></trkpt><trkpt lat="46.9615403" lon="6.8246694"></trkpt><trkpt lat="46.9615564" lon="6.8247773"></trkpt><trkpt lat="46.961559" lon="6.8248473"></trkpt><trkpt lat="46.9615554" lon="6.8249492"></trkpt><trkpt lat="46.961537" lon="6.8250525"></trkpt><trkpt lat="46.9615149" lon="6.825123"></trkpt><trkpt lat="46.9614657" lon="6.8252244"></trkpt><trkpt lat="46.9613604" lon="6.8253945"></trkpt><trkpt lat="46.9612638" lon="6.8255568"></trkpt><trkpt lat="46.9612062" lon="6.8256426"></trkpt><trkpt lat="46.9611597" lon="6.8256942"></trkpt><trkpt lat="46.9611013" lon="6.8257469"></trkpt><trkpt lat="46.9610094" lon="6.8258139"></trkpt><trkpt lat="46.960913" lon="6.8258801"></trkpt><trkpt lat="46.960804" lon="6.8259916"></trkpt><trkpt lat="46.9607028" lon="6.8260892"></trkpt><trkpt lat="46.9606044" lon="6.8262139"></trkpt><trkpt lat="46.9604153" lon="6.8264204"></trkpt><trkpt lat="46.9602138" lon="6.826711"></trkpt><trkpt lat="46.9600364" lon="6.8271165"></trkpt><trkpt lat="46.9599725" lon="6.8272275"></trkpt><trkpt lat="46.9599704" lon="6.8272457"></trkpt><trkpt lat="46.9599314" lon="6.8274245"></trkpt><trkpt lat="46.95994" lon="6.8275705"></trkpt><trkpt lat="46.9599646" lon="6.8276544"></trkpt><trkpt lat="46.9599905" lon="6.8277162"></trkpt><trkpt lat="46.960042" lon="6.827839"></trkpt><trkpt lat="46.9600341" lon="6.827963"></trkpt><trkpt lat="46.9599879" lon="6.8280784"></trkpt><trkpt lat="46.9597952" lon="6.8283516"></trkpt><trkpt lat="46.9596834" lon="6.8284923"></trkpt><trkpt lat="46.9595806" lon="6.8286359"></trkpt><trkpt lat="46.9594941" lon="6.8287486"></trkpt><trkpt lat="46.9593934" lon="6.8288217"></trkpt><trkpt lat="46.9591948" lon="6.8289404"></trkpt><trkpt lat="46.958876" lon="6.8291013"></trkpt><trkpt lat="46.958069" lon="6.8295846"></trkpt><trkpt lat="46.957809" lon="6.829755"></trkpt><trkpt lat="46.9568512" lon="6.8304275"></trkpt><trkpt lat="46.9564355" lon="6.8305531"></trkpt><trkpt lat="46.9562398" lon="6.8306822"></trkpt><trkpt lat="46.9561692" lon="6.8307431"></trkpt><trkpt lat="46.9561426" lon="6.830813"></trkpt><trkpt lat="46.9560033" lon="6.8311504"></trkpt><trkpt lat="46.9559683" lon="6.831198"></trkpt><trkpt lat="46.9556995" lon="6.8312742"></trkpt><trkpt lat="46.9554705" lon="6.8313615"></trkpt><trkpt lat="46.9554334" lon="6.8313841"></trkpt><trkpt lat="46.9554088" lon="6.8314136"></trkpt><trkpt lat="46.9553999" lon="6.8314388"></trkpt><trkpt lat="46.9553936" lon="6.831482"></trkpt><trkpt lat="46.9553158" lon="6.8314822"></trkpt><trkpt lat="46.9553074" lon="6.8314236"></trkpt><trkpt lat="46.955235" lon="6.8309156"></trkpt><trkpt lat="46.9552238" lon="6.8309109"></trkpt><trkpt lat="46.9549159" lon="6.8307954"></trkpt><trkpt lat="46.9548029" lon="6.8307544"></trkpt><trkpt lat="46.9547106" lon="6.830724"></trkpt><trkpt lat="46.9545717" lon="6.830683"></trkpt><trkpt lat="46.9545385" lon="6.8306299"></trkpt><trkpt lat="46.9545095" lon="6.8306132"></trkpt><trkpt lat="46.9544411" lon="6.8305858"></trkpt><trkpt lat="46.9543872" lon="6.830557"></trkpt><trkpt lat="46.9543436" lon="6.8305478"></trkpt><trkpt lat="46.9542721" lon="6.8305463"></trkpt><trkpt lat="46.9541466" lon="6.8305418"></trkpt><trkpt lat="46.9541186" lon="6.8305418"></trkpt><trkpt lat="46.954101" lon="6.8305144"></trkpt><trkpt lat="46.9540813" lon="6.8305008"></trkpt><trkpt lat="46.9540761" lon="6.8304704"></trkpt><trkpt lat="46.9540678" lon="6.8304522"></trkpt><trkpt lat="46.954017" lon="6.8304415"></trkpt><trkpt lat="46.9539766" lon="6.8304248"></trkpt><trkpt lat="46.9539144" lon="6.8304263"></trkpt><trkpt lat="46.9538221" lon="6.830443"></trkpt><trkpt lat="46.9537558" lon="6.8304673"></trkpt><trkpt lat="46.9536728" lon="6.8304932"></trkpt><trkpt lat="46.9536189" lon="6.8305114"></trkpt><trkpt lat="46.953564" lon="6.8305387"></trkpt><trkpt lat="46.9535733" lon="6.830598"></trkpt><trkpt lat="46.9535266" lon="6.8306238"></trkpt><trkpt lat="46.9533805" lon="6.8307985"></trkpt><trkpt lat="46.9533151" lon="6.830885"></trkpt><trkpt lat="46.9532685" lon="6.8309655"></trkpt><trkpt lat="46.9532322" lon="6.8310673"></trkpt><trkpt lat="46.9531969" lon="6.8311721"></trkpt><trkpt lat="46.9531171" lon="6.8313665"></trkpt><trkpt lat="46.9530891" lon="6.8315275"></trkpt><trkpt lat="46.9530622" lon="6.8317356"></trkpt><trkpt lat="46.9530663" lon="6.8318237"></trkpt><trkpt lat="46.9530819" lon="6.8321427"></trkpt><trkpt lat="46.9530756" lon="6.8322809"></trkpt><trkpt lat="46.9530705" lon="6.8323781"></trkpt><trkpt lat="46.9530684" lon="6.8325376"></trkpt><trkpt lat="46.9530601" lon="6.8326393"></trkpt><trkpt lat="46.9530497" lon="6.83277"></trkpt><trkpt lat="46.9530342" lon="6.8329446"></trkpt><trkpt lat="46.9530155" lon="6.8330874"></trkpt><trkpt lat="46.9530025" lon="6.8331747"></trkpt><trkpt lat="46.9529895" lon="6.8332513"></trkpt><trkpt lat="46.9529655" lon="6.8333251"></trkpt><trkpt lat="46.9527675" lon="6.8332242"></trkpt><trkpt lat="46.9527418" lon="6.833211"></trkpt><trkpt lat="46.9526886" lon="6.8333388"></trkpt><trkpt lat="46.9526043" lon="6.8335427"></trkpt><trkpt lat="46.9524096" lon="6.833874"></trkpt><trkpt lat="46.9522133" lon="6.8341554"></trkpt><trkpt lat="46.9518332" lon="6.834592"></trkpt><trkpt lat="46.9514629" lon="6.8350159"></trkpt><trkpt lat="46.9511458" lon="6.8353439"></trkpt><trkpt lat="46.9510379" lon="6.8354408"></trkpt><trkpt lat="46.9508956" lon="6.8355155"></trkpt><trkpt lat="46.9506137" lon="6.8355791"></trkpt><trkpt lat="46.9505547" lon="6.8355913"></trkpt><trkpt lat="46.9505367" lon="6.8355927"></trkpt><trkpt lat="46.9505194" lon="6.8355941"></trkpt><trkpt lat="46.9505229" lon="6.835961"></trkpt><trkpt lat="46.9504921" lon="6.835993"></trkpt><trkpt lat="46.9504606" lon="6.835993"></trkpt><trkpt lat="46.9504442" lon="6.8359537"></trkpt><trkpt lat="46.9504281" lon="6.83594"></trkpt><trkpt lat="46.9503863" lon="6.8359216"></trkpt><trkpt lat="46.9502677" lon="6.8359232"></trkpt><trkpt lat="46.9501084" lon="6.8359536"></trkpt><trkpt lat="46.9499611" lon="6.8359587"></trkpt><trkpt lat="46.949807" lon="6.8359663"></trkpt><trkpt lat="46.9497117" lon="6.8359993"></trkpt><trkpt lat="46.9496476" lon="6.8360399"></trkpt><trkpt lat="46.9495696" lon="6.8361439"></trkpt><trkpt lat="46.9495056" lon="6.8362708"></trkpt><trkpt lat="46.9494519" lon="6.8364357"></trkpt><trkpt lat="46.9494207" lon="6.8366895"></trkpt><trkpt lat="46.9493999" lon="6.83706"></trkpt><trkpt lat="46.9493739" lon="6.8376005"></trkpt><trkpt lat="46.9493815" lon="6.8378592"></trkpt><trkpt lat="46.949375" lon="6.8379093"></trkpt><trkpt lat="46.9493676" lon="6.8379666"></trkpt></trkseg></trk></gpx>
