<?xml version="1.0" encoding="UTF-8"?>
<gpx version="1.1" creator="Good Shit" xmlns="http://www.topografix.com/GPX/1/1"><trk><name>Zollernburg-Panorama Traufgang — Zollernburg-Panorama Traufgang loop</name><trkseg><trkpt lat="48.28478152789537" lon="8.971504451643227"></trkpt><trkpt lat="48.28478152789537" lon="8.971504451643229"></trkpt><trkpt lat="48.2847901" lon="8.9714979"></trkpt><trkpt lat="48.2848326" lon="8.9714602"></trkpt><trkpt lat="48.284889" lon="8.9713842"></trkpt><trkpt lat="48.2849102" lon="8.9713164"></trkpt><trkpt lat="48.284914" lon="8.9711742"></trkpt><trkpt lat="48.2849122" lon="8.9710114"></trkpt><trkpt lat="48.2848834" lon="8.9708846"></trkpt><trkpt lat="48.28487" lon="8.9707786"></trkpt><trkpt lat="48.2848504" lon="8.9707142"></trkpt><trkpt lat="48.2848344" lon="8.9706144"></trkpt><trkpt lat="48.284794" lon="8.9704694"></trkpt><trkpt lat="48.284737" lon="8.970322"></trkpt><trkpt lat="48.2846633" lon="8.9701961"></trkpt><trkpt lat="48.2845229" lon="8.9699994"></trkpt><trkpt lat="48.2844783" lon="8.9698935"></trkpt><trkpt lat="48.2844494" lon="8.9697017"></trkpt><trkpt lat="48.2844462" lon="8.9695113"></trkpt><trkpt lat="48.2844783" lon="8.9693128"></trkpt><trkpt lat="48.284521523916894" lon="8.969201193099222"></trkpt><trkpt lat="48.284521523916894" lon="8.96920119309922"></trkpt><trkpt lat="48.284521523916894" lon="8.969201193099222"></trkpt><trkpt lat="48.284708" lon="8.9687197"></trkpt><trkpt lat="48.2848036" lon="8.9683795"></trkpt><trkpt lat="48.2848784" lon="8.9679975"></trkpt><trkpt lat="48.285022" lon="8.9676938"></trkpt><trkpt lat="48.2851248" lon="8.9674958"></trkpt><trkpt lat="48.2853301" lon="8.9672797"></trkpt><trkpt lat="48.28550986534906" lon="8.967079977693468"></trkpt><trkpt lat="48.28550986534906" lon="8.96707997769347"></trkpt><trkpt lat="48.28550986534906" lon="8.967079977693468"></trkpt><trkpt lat="48.2856832" lon="8.9668874"></trkpt><trkpt lat="48.2860483" lon="8.9664024"></trkpt><trkpt lat="48.2862099" lon="8.9662267"></trkpt><trkpt lat="48.2863499" lon="8.9660534"></trkpt><trkpt lat="48.2864965" lon="8.9659334"></trkpt><trkpt lat="48.2866898" lon="8.9658601"></trkpt><trkpt lat="48.2868329" lon="8.9657711"></trkpt><trkpt lat="48.2869899" lon="8.9656665"></trkpt><trkpt lat="48.28701832461449" lon="8.965637050415507"></trkpt><trkpt lat="48.28701832461449" lon="8.96563705041551"></trkpt><trkpt lat="48.28701832461449" lon="8.965637050415507"></trkpt><trkpt lat="48.2871452" lon="8.9655056"></trkpt><trkpt lat="48.2874296" lon="8.9651936"></trkpt><trkpt lat="48.2876229" lon="8.9649403"></trkpt><trkpt lat="48.2877804" lon="8.9647375"></trkpt><trkpt lat="48.2878495" lon="8.9646204"></trkpt><trkpt lat="48.2879447" lon="8.9644166"></trkpt><trkpt lat="48.2880316" lon="8.9643176"></trkpt><trkpt lat="48.2882571" lon="8.964147"></trkpt><trkpt lat="48.28844923549487" lon="8.964098893384424"></trkpt><trkpt lat="48.2884552" lon="8.9640974"></trkpt><trkpt lat="48.2886026" lon="8.9640272"></trkpt><trkpt lat="48.2889559" lon="8.9638606"></trkpt><trkpt lat="48.2892767" lon="8.9635751"></trkpt><trkpt lat="48.2894358" lon="8.9634207"></trkpt><trkpt lat="48.2896424" lon="8.9633074"></trkpt><trkpt lat="48.289769" lon="8.9631874"></trkpt><trkpt lat="48.2899357" lon="8.9629741"></trkpt><trkpt lat="48.29003538782483" lon="8.962784670697454"></trkpt><trkpt lat="48.29003538782483" lon="8.962784670697452"></trkpt><trkpt lat="48.29003538782483" lon="8.962784670697454"></trkpt><trkpt lat="48.290069" lon="8.9627208"></trkpt><trkpt lat="48.2901623" lon="8.9623809"></trkpt><trkpt lat="48.2902289" lon="8.9620477"></trkpt><trkpt lat="48.2902889" lon="8.9616611"></trkpt><trkpt lat="48.290324" lon="8.9613811"></trkpt><trkpt lat="48.2903181" lon="8.9611182"></trkpt><trkpt lat="48.2903011" lon="8.9609116"></trkpt><trkpt lat="48.2902573" lon="8.9606296"></trkpt><trkpt lat="48.29032621940332" lon="8.960164205517218"></trkpt><trkpt lat="48.2903487" lon="8.9600124"></trkpt><trkpt lat="48.2903808" lon="8.9597523"></trkpt><trkpt lat="48.2904022" lon="8.9595882"></trkpt><trkpt lat="48.2905355" lon="8.9594816"></trkpt><trkpt lat="48.2906955" lon="8.9593416"></trkpt><trkpt lat="48.2908288" lon="8.959215"></trkpt><trkpt lat="48.2910287" lon="8.959055"></trkpt><trkpt lat="48.2912154" lon="8.9588884"></trkpt><trkpt lat="48.291402" lon="8.9587284"></trkpt><trkpt lat="48.2914755" lon="8.9586374"></trkpt><trkpt lat="48.291562" lon="8.9584475"></trkpt><trkpt lat="48.29160355306014" lon="8.958378619251656"></trkpt><trkpt lat="48.29160355306014" lon="8.958378619251654"></trkpt><trkpt lat="48.29160355306014" lon="8.958378619251656"></trkpt><trkpt lat="48.2916619" lon="8.9582819"></trkpt><trkpt lat="48.2917885" lon="8.9581486"></trkpt><trkpt lat="48.2919485" lon="8.9579886"></trkpt><trkpt lat="48.2920685" lon="8.957762"></trkpt><trkpt lat="48.2921885" lon="8.9576154"></trkpt><trkpt lat="48.2923018" lon="8.9575554"></trkpt><trkpt lat="48.2924817" lon="8.9575087"></trkpt><trkpt lat="48.2926217" lon="8.9574421"></trkpt><trkpt lat="48.2927683" lon="8.9573488"></trkpt><trkpt lat="48.2929549" lon="8.9571822"></trkpt><trkpt lat="48.2930749" lon="8.9570422"></trkpt><trkpt lat="48.2931143" lon="8.9570018"></trkpt><trkpt lat="48.29312434162209" lon="8.956990462308083"></trkpt><trkpt lat="48.2932003" lon="8.9569047"></trkpt><trkpt lat="48.2933682" lon="8.9567956"></trkpt><trkpt lat="48.2935815" lon="8.9566756"></trkpt><trkpt lat="48.2937429" lon="8.9564424"></trkpt><trkpt lat="48.2938219" lon="8.9562029"></trkpt><trkpt lat="48.2938522" lon="8.9561047"></trkpt><trkpt lat="48.2939283" lon="8.9559679"></trkpt><trkpt lat="48.294048" lon="8.9557492"></trkpt><trkpt lat="48.2941366" lon="8.9555023"></trkpt><trkpt lat="48.2941748" lon="8.9554682"></trkpt><trkpt lat="48.2942049" lon="8.9554924"></trkpt><trkpt lat="48.2942346" lon="8.9555359"></trkpt><trkpt lat="48.29423638763336" lon="8.955538777453468"></trkpt><trkpt lat="48.29423638763336" lon="8.95553877745347"></trkpt><trkpt lat="48.29423638763336" lon="8.955538777453468"></trkpt><trkpt lat="48.2943217" lon="8.9556761"></trkpt><trkpt lat="48.2943727" lon="8.9558442"></trkpt><trkpt lat="48.2944132" lon="8.9560913"></trkpt><trkpt lat="48.294455" lon="8.9562707"></trkpt><trkpt lat="48.2945012" lon="8.9564823"></trkpt><trkpt lat="48.2946128" lon="8.9568948"></trkpt><trkpt lat="48.2947339" lon="8.9573009"></trkpt><trkpt lat="48.2948349" lon="8.9575216"></trkpt><trkpt lat="48.29503982429364" lon="8.957811864118842"></trkpt><trkpt lat="48.2950611" lon="8.957842"></trkpt><trkpt lat="48.2952477" lon="8.9580153"></trkpt><trkpt lat="48.2954343" lon="8.9582019"></trkpt><trkpt lat="48.2955943" lon="8.9582886"></trkpt><trkpt lat="48.2957743" lon="8.9583419"></trkpt><trkpt lat="48.2957913" lon="8.9583444"></trkpt><trkpt lat="48.2959542" lon="8.9583685"></trkpt><trkpt lat="48.2960049" lon="8.9584413"></trkpt><trkpt lat="48.2960376" lon="8.9585543"></trkpt><trkpt lat="48.2960971" lon="8.958755"></trkpt><trkpt lat="48.2961801" lon="8.9589614"></trkpt><trkpt lat="48.2962899" lon="8.9591787"></trkpt><trkpt lat="48.29638917133055" lon="8.959343387120631"></trkpt><trkpt lat="48.29638917133055" lon="8.959343387120633"></trkpt><trkpt lat="48.29638917133055" lon="8.959343387120631"></trkpt><trkpt lat="48.2964629" lon="8.9594657"></trkpt><trkpt lat="48.2967039" lon="8.9598149"></trkpt><trkpt lat="48.2969767" lon="8.9600816"></trkpt><trkpt lat="48.2972552" lon="8.9602749"></trkpt><trkpt lat="48.2973876" lon="8.9604"></trkpt><trkpt lat="48.2974778" lon="8.9604745"></trkpt><trkpt lat="48.2977271" lon="8.9605547"></trkpt><trkpt lat="48.2978238" lon="8.9605761"></trkpt><trkpt lat="48.29793453244377" lon="8.960656453916634"></trkpt><trkpt lat="48.29793453244377" lon="8.960656453916632"></trkpt><trkpt lat="48.29793453244377" lon="8.960656453916634"></trkpt><trkpt lat="48.2979871" lon="8.9606946"></trkpt><trkpt lat="48.2981737" lon="8.9609146"></trkpt><trkpt lat="48.2983137" lon="8.9611412"></trkpt><trkpt lat="48.2984723" lon="8.9614478"></trkpt><trkpt lat="48.2986402" lon="8.9617077"></trkpt><trkpt lat="48.2988269" lon="8.9620477"></trkpt><trkpt lat="48.2989763" lon="8.9624341"></trkpt><trkpt lat="48.2990082" lon="8.9627188"></trkpt><trkpt lat="48.29900444650753" lon="8.96275305500372"></trkpt><trkpt lat="48.2989868" lon="8.9629141"></trkpt><trkpt lat="48.2989205" lon="8.9631094"></trkpt><trkpt lat="48.2988269" lon="8.9633007"></trkpt><trkpt lat="48.2987357" lon="8.9635127"></trkpt><trkpt lat="48.298684" lon="8.9638078"></trkpt><trkpt lat="48.2986701" lon="8.9640411"></trkpt><trkpt lat="48.2986744" lon="8.964216"></trkpt><trkpt lat="48.2986077" lon="8.9643648"></trkpt><trkpt lat="48.2985658" lon="8.9645217"></trkpt><trkpt lat="48.298456250764644" lon="8.965111852332411"></trkpt><trkpt lat="48.298456250764644" lon="8.965111852332413"></trkpt><trkpt lat="48.298456250764644" lon="8.965111852332411"></trkpt><trkpt lat="48.2984449" lon="8.965173"></trkpt><trkpt lat="48.298386" lon="8.965637"></trkpt><trkpt lat="48.2983486" lon="8.966156"></trkpt><trkpt lat="48.298347" lon="8.9665799"></trkpt><trkpt lat="48.2983292" lon="8.9669076"></trkpt><trkpt lat="48.2983682" lon="8.966994"></trkpt><trkpt lat="48.2983835" lon="8.967093"></trkpt><trkpt lat="48.2983897" lon="8.9671825"></trkpt><trkpt lat="48.2984302" lon="8.9674102"></trkpt><trkpt lat="48.2984203" lon="8.9675597"></trkpt><trkpt lat="48.29844558079454" lon="8.967752999956476"></trkpt><trkpt lat="48.2984641" lon="8.9678946"></trkpt><trkpt lat="48.2984703" lon="8.968207"></trkpt><trkpt lat="48.2984899" lon="8.9684283"></trkpt><trkpt lat="48.298501" lon="8.9685871"></trkpt><trkpt lat="48.2985888" lon="8.9687047"></trkpt><trkpt lat="48.2986538" lon="8.968869"></trkpt><trkpt lat="48.2986674" lon="8.9689833"></trkpt><trkpt lat="48.2987576" lon="8.9693001"></trkpt><trkpt lat="48.2988774" lon="8.9696598"></trkpt><trkpt lat="48.299023" lon="8.9700278"></trkpt><trkpt lat="48.29911323136081" lon="8.970214318974357"></trkpt><trkpt lat="48.2991556" lon="8.9703019"></trkpt><trkpt lat="48.2993174" lon="8.9705482"></trkpt><trkpt lat="48.2994156" lon="8.9707949"></trkpt><trkpt lat="48.2994965" lon="8.9709084"></trkpt><trkpt lat="48.2995765" lon="8.9710267"></trkpt><trkpt lat="48.2997068" lon="8.9712366"></trkpt><trkpt lat="48.2997923" lon="8.9714299"></trkpt><trkpt lat="48.2998002" lon="8.9716768"></trkpt><trkpt lat="48.29983" lon="8.9719813"></trkpt><trkpt lat="48.2999058" lon="8.9722621"></trkpt><trkpt lat="48.2999877" lon="8.9723991"></trkpt><trkpt lat="48.30004208882672" lon="8.972482737929088"></trkpt><trkpt lat="48.3000777" lon="8.9725375"></trkpt><trkpt lat="48.3001745" lon="8.9726862"></trkpt><trkpt lat="48.3002443" lon="8.9728625"></trkpt><trkpt lat="48.3002861" lon="8.9730106"></trkpt><trkpt lat="48.3003088" lon="8.9731511"></trkpt><trkpt lat="48.3003374" lon="8.9733788"></trkpt><trkpt lat="48.3004344" lon="8.9735576"></trkpt><trkpt lat="48.3005414" lon="8.9738231"></trkpt><trkpt lat="48.3006574" lon="8.9740672"></trkpt><trkpt lat="48.3007698" lon="8.9742764"></trkpt><trkpt lat="48.3008573" lon="8.9744427"></trkpt><trkpt lat="48.3009291" lon="8.9746101"></trkpt><trkpt lat="48.30099170058042" lon="8.974713512008535"></trkpt><trkpt lat="48.30099170058042" lon="8.974713512008533"></trkpt><trkpt lat="48.30099170058042" lon="8.974713512008535"></trkpt><trkpt lat="48.3010558" lon="8.9748194"></trkpt><trkpt lat="48.3012146" lon="8.9750715"></trkpt><trkpt lat="48.301368" lon="8.9753236"></trkpt><trkpt lat="48.3015663" lon="8.9756724"></trkpt><trkpt lat="48.3016517" lon="8.9758922"></trkpt><trkpt lat="48.3017195" lon="8.975971"></trkpt><trkpt lat="48.3017862" lon="8.9761976"></trkpt><trkpt lat="48.3018728" lon="8.9764042"></trkpt><trkpt lat="48.3019061" lon="8.9766442"></trkpt><trkpt lat="48.3018772" lon="8.9769364"></trkpt><trkpt lat="48.30186527404631" lon="8.976967113531536"></trkpt><trkpt lat="48.3013165" lon="8.9783804"></trkpt><trkpt lat="48.3014966" lon="8.9785466"></trkpt><trkpt lat="48.301928404445704" lon="8.9789746468632"></trkpt><trkpt lat="48.301928404445704" lon="8.978974646863202"></trkpt><trkpt lat="48.301928404445704" lon="8.9789746468632"></trkpt><trkpt lat="48.3023125" lon="8.9793554"></trkpt><trkpt lat="48.3031641" lon="8.9801998"></trkpt><trkpt lat="48.303204" lon="8.9802669"></trkpt><trkpt lat="48.3032093" lon="8.9803608"></trkpt><trkpt lat="48.30311784086483" lon="8.980599645151484"></trkpt><trkpt lat="48.30311784086483" lon="8.980599645151486"></trkpt><trkpt lat="48.30311784086483" lon="8.980599645151484"></trkpt><trkpt lat="48.3030649" lon="8.9807379"></trkpt><trkpt lat="48.302967" lon="8.9809993"></trkpt><trkpt lat="48.3028902" lon="8.9812204"></trkpt><trkpt lat="48.3028845" lon="8.981306"></trkpt><trkpt lat="48.3028961" lon="8.9813862"></trkpt><trkpt lat="48.3030705" lon="8.9812945"></trkpt><trkpt lat="48.3031965" lon="8.9811829"></trkpt><trkpt lat="48.3032986" lon="8.9811012"></trkpt><trkpt lat="48.3034248" lon="8.9810246"></trkpt><trkpt lat="48.30352" lon="8.9809839"></trkpt><trkpt lat="48.3036505" lon="8.9810125"></trkpt><trkpt lat="48.3039372" lon="8.9811983"></trkpt><trkpt lat="48.30402809174316" lon="8.981273596799364"></trkpt><trkpt lat="48.304168" lon="8.9813895"></trkpt><trkpt lat="48.304339" lon="8.9815132"></trkpt><trkpt lat="48.3045297" lon="8.9815693"></trkpt><trkpt lat="48.3047574" lon="8.9815705"></trkpt><trkpt lat="48.3047944" lon="8.9815707"></trkpt><trkpt lat="48.3053318" lon="8.9815095"></trkpt><trkpt lat="48.3056899" lon="8.9815137"></trkpt><trkpt lat="48.30578248928472" lon="8.98152096286045"></trkpt><trkpt lat="48.3060698" lon="8.9815435"></trkpt><trkpt lat="48.306559" lon="8.9816035"></trkpt><trkpt lat="48.3069851" lon="8.9815726"></trkpt><trkpt lat="48.3074242" lon="8.9815754"></trkpt><trkpt lat="48.30758072021986" lon="8.98158496751344"></trkpt><trkpt lat="48.307861" lon="8.9816021"></trkpt><trkpt lat="48.3082431" lon="8.9816988"></trkpt><trkpt lat="48.3085658" lon="8.9818456"></trkpt><trkpt lat="48.3088684" lon="8.9821525"></trkpt><trkpt lat="48.3089656" lon="8.982241"></trkpt><trkpt lat="48.3091101" lon="8.9824337"></trkpt><trkpt lat="48.309206368523455" lon="8.982535509157902"></trkpt><trkpt lat="48.309206368523455" lon="8.982535509157904"></trkpt><trkpt lat="48.309206368523455" lon="8.982535509157902"></trkpt><trkpt lat="48.3093325" lon="8.9826689"></trkpt><trkpt lat="48.3094348" lon="8.9826822"></trkpt><trkpt lat="48.3095378" lon="8.9826646"></trkpt><trkpt lat="48.3096819" lon="8.9826393"></trkpt><trkpt lat="48.3098041" lon="8.9825812"></trkpt><trkpt lat="48.3099414" lon="8.9825067"></trkpt><trkpt lat="48.3100661" lon="8.982397"></trkpt><trkpt lat="48.3101879" lon="8.982209"></trkpt><trkpt lat="48.3104166" lon="8.9818101"></trkpt><trkpt lat="48.3106195" lon="8.9814237"></trkpt><trkpt lat="48.310635645832924" lon="8.98139080730484"></trkpt><trkpt lat="48.3107968" lon="8.9810625"></trkpt><trkpt lat="48.3109615" lon="8.9807114"></trkpt><trkpt lat="48.3111165" lon="8.9804258"></trkpt><trkpt lat="48.311256" lon="8.9801362"></trkpt><trkpt lat="48.3113629" lon="8.9800953"></trkpt><trkpt lat="48.3114288" lon="8.9800724"></trkpt><trkpt lat="48.3114674" lon="8.9800547"></trkpt><trkpt lat="48.3115667" lon="8.9799876"></trkpt><trkpt lat="48.3116379" lon="8.9799369"></trkpt><trkpt lat="48.311719" lon="8.9799075"></trkpt><trkpt lat="48.3117907" lon="8.9798817"></trkpt><trkpt lat="48.3118974" lon="8.9798127"></trkpt><trkpt lat="48.311943940433075" lon="8.979761460228794"></trkpt><trkpt lat="48.311943940433075" lon="8.979761460228795"></trkpt><trkpt lat="48.311943940433075" lon="8.979761460228794"></trkpt><trkpt lat="48.3119796" lon="8.9797222"></trkpt><trkpt lat="48.312055" lon="8.9796875"></trkpt><trkpt lat="48.3121024" lon="8.9796697"></trkpt><trkpt lat="48.3121495" lon="8.979693"></trkpt><trkpt lat="48.3120852" lon="8.9799057"></trkpt><trkpt lat="48.3120049" lon="8.9800933"></trkpt><trkpt lat="48.3119944" lon="8.9802296"></trkpt><trkpt lat="48.3120076" lon="8.9803165"></trkpt><trkpt lat="48.3120393" lon="8.9805083"></trkpt><trkpt lat="48.3120603" lon="8.9806056"></trkpt><trkpt lat="48.3120461" lon="8.9807075"></trkpt><trkpt lat="48.3121656" lon="8.9807961"></trkpt><trkpt lat="48.312273" lon="8.9808865"></trkpt><trkpt lat="48.312115317069875" lon="8.981226020720879"></trkpt><trkpt lat="48.312115317069875" lon="8.98122602072088"></trkpt><trkpt lat="48.312115317069875" lon="8.981226020720879"></trkpt><trkpt lat="48.3121098" lon="8.9812379"></trkpt><trkpt lat="48.3118623" lon="8.9817619"></trkpt><trkpt lat="48.3117644" lon="8.9820181"></trkpt><trkpt lat="48.3116317" lon="8.9822558"></trkpt><trkpt lat="48.3111825" lon="8.9828661"></trkpt><trkpt lat="48.3110323" lon="8.9831177"></trkpt><trkpt lat="48.310940765712594" lon="8.98326115687274"></trkpt><trkpt lat="48.310940765712594" lon="8.983261156872741"></trkpt><trkpt lat="48.310940765712594" lon="8.98326115687274"></trkpt><trkpt lat="48.3108888" lon="8.9833426"></trkpt><trkpt lat="48.3107686" lon="8.9835541"></trkpt><trkpt lat="48.3106298" lon="8.9837544"></trkpt><trkpt lat="48.3105251" lon="8.9839674"></trkpt><trkpt lat="48.3103669" lon="8.9842057"></trkpt><trkpt lat="48.3102636" lon="8.9843304"></trkpt><trkpt lat="48.3100024" lon="8.9846378"></trkpt><trkpt lat="48.309866" lon="8.9848585"></trkpt><trkpt lat="48.3097928" lon="8.9850865"></trkpt><trkpt lat="48.309744017570715" lon="8.9852352290701"></trkpt><trkpt lat="48.309744017570715" lon="8.985235229070097"></trkpt><trkpt lat="48.309744017570715" lon="8.9852352290701"></trkpt><trkpt lat="48.3096822" lon="8.9854237"></trkpt><trkpt lat="48.3096081" lon="8.9855823"></trkpt><trkpt lat="48.3095216" lon="8.9856865"></trkpt><trkpt lat="48.3094897" lon="8.9857183"></trkpt><trkpt lat="48.3094607" lon="8.9857488"></trkpt><trkpt lat="48.3094072" lon="8.9857766"></trkpt><trkpt lat="48.3093843" lon="8.9858041"></trkpt><trkpt lat="48.3093538" lon="8.9858407"></trkpt><trkpt lat="48.3093218" lon="8.9859392"></trkpt><trkpt lat="48.3093179" lon="8.9861316"></trkpt><trkpt lat="48.3093438" lon="8.9866318"></trkpt><trkpt lat="48.3093518" lon="8.9870194"></trkpt><trkpt lat="48.3093677" lon="8.9872191"></trkpt><trkpt lat="48.3093525" lon="8.9873703"></trkpt><trkpt lat="48.3093126" lon="8.9875357"></trkpt><trkpt lat="48.3092543" lon="8.9876224"></trkpt><trkpt lat="48.309215601356726" lon="8.987660247573498"></trkpt><trkpt lat="48.309177" lon="8.987698"></trkpt><trkpt lat="48.309194" lon="8.9880203"></trkpt><trkpt lat="48.3092258" lon="8.9880717"></trkpt><trkpt lat="48.3092258" lon="8.9881145"></trkpt><trkpt lat="48.3091972" lon="8.9881535"></trkpt><trkpt lat="48.3091646" lon="8.9881674"></trkpt><trkpt lat="48.3091036" lon="8.9882487"></trkpt><trkpt lat="48.3091143" lon="8.9883412"></trkpt><trkpt lat="48.3091371" lon="8.9883901"></trkpt><trkpt lat="48.3091812" lon="8.9884499"></trkpt><trkpt lat="48.3092534" lon="8.9885249"></trkpt><trkpt lat="48.309364" lon="8.9885505"></trkpt><trkpt lat="48.3094223" lon="8.9885992"></trkpt><trkpt lat="48.3094957" lon="8.9887877"></trkpt><trkpt lat="48.3096776" lon="8.9889811"></trkpt><trkpt lat="48.3097163" lon="8.9890298"></trkpt><trkpt lat="48.3097757" lon="8.9891009"></trkpt><trkpt lat="48.309784950642495" lon="8.98923978549649"></trkpt><trkpt lat="48.3097904" lon="8.9893216"></trkpt><trkpt lat="48.3097292" lon="8.9895862"></trkpt><trkpt lat="48.3096628" lon="8.9899371"></trkpt><trkpt lat="48.3096325" lon="8.9903355"></trkpt><trkpt lat="48.3096303" lon="8.9907633"></trkpt><trkpt lat="48.309641753665815" lon="8.990968948304772"></trkpt><trkpt lat="48.309648" lon="8.9910811"></trkpt><trkpt lat="48.3096533" lon="8.9914893"></trkpt><trkpt lat="48.3096316" lon="8.9918536"></trkpt><trkpt lat="48.3096316" lon="8.9921486"></trkpt><trkpt lat="48.3096834" lon="8.9923672"></trkpt><trkpt lat="48.30976" lon="8.9925594"></trkpt><trkpt lat="48.3097712" lon="8.9926603"></trkpt><trkpt lat="48.3097637" lon="8.9927642"></trkpt><trkpt lat="48.3097076" lon="8.9928467"></trkpt><trkpt lat="48.3097514" lon="8.9929191"></trkpt><trkpt lat="48.3097427" lon="8.9933559"></trkpt><trkpt lat="48.3097274" lon="8.9935224"></trkpt><trkpt lat="48.309716199303224" lon="8.993639939591018"></trkpt><trkpt lat="48.3096199" lon="8.9946505"></trkpt><trkpt lat="48.3095878" lon="8.9950072"></trkpt><trkpt lat="48.3095613" lon="8.9950916"></trkpt><trkpt lat="48.3094617" lon="8.9953383"></trkpt><trkpt lat="48.3091278" lon="8.9959187"></trkpt><trkpt lat="48.30909897129206" lon="8.995943112300797"></trkpt><trkpt lat="48.30909897129206" lon="8.995943112300795"></trkpt><trkpt lat="48.30909897129206" lon="8.995943112300797"></trkpt><trkpt lat="48.308868" lon="8.9961387"></trkpt><trkpt lat="48.308691" lon="8.9963743"></trkpt><trkpt lat="48.3085253" lon="8.9965515"></trkpt><trkpt lat="48.3084518" lon="8.9966053"></trkpt><trkpt lat="48.3082423" lon="8.9969517"></trkpt><trkpt lat="48.3080944" lon="8.9972709"></trkpt><trkpt lat="48.30790571427803" lon="8.997841861567958"></trkpt><trkpt lat="48.3078828" lon="8.9979112"></trkpt><trkpt lat="48.3078268" lon="8.998214"></trkpt><trkpt lat="48.3077806" lon="8.9985382"></trkpt><trkpt lat="48.3076193" lon="8.9987331"></trkpt><trkpt lat="48.3075218" lon="8.9988637"></trkpt><trkpt lat="48.3073404" lon="8.9990663"></trkpt><trkpt lat="48.3073074" lon="8.9990917"></trkpt><trkpt lat="48.3071169" lon="8.9992378"></trkpt><trkpt lat="48.3068388" lon="8.9995233"></trkpt><trkpt lat="48.30675915774821" lon="8.999618618257385"></trkpt><trkpt lat="48.30675915774821" lon="8.999618618257387"></trkpt><trkpt lat="48.30675915774821" lon="8.999618618257385"></trkpt><trkpt lat="48.3066432" lon="8.9997574"></trkpt><trkpt lat="48.3064532" lon="8.999825"></trkpt><trkpt lat="48.3064296" lon="8.9999022"></trkpt><trkpt lat="48.3064277" lon="8.9999261"></trkpt><trkpt lat="48.3063547" lon="9.0001839"></trkpt><trkpt lat="48.306179" lon="9.0002724"></trkpt><trkpt lat="48.3060585" lon="9.0003126"></trkpt><trkpt lat="48.3060059" lon="9.0003301"></trkpt><trkpt lat="48.3058254" lon="9.0004789"></trkpt><trkpt lat="48.3055847" lon="9.0004912"></trkpt><trkpt lat="48.3054921" lon="9.0003891"></trkpt><trkpt lat="48.3054681" lon="9.0001004"></trkpt><trkpt lat="48.30543605034776" lon="8.999894807824615"></trkpt><trkpt lat="48.30541" lon="8.9997277"></trkpt><trkpt lat="48.3052499" lon="8.999162"></trkpt><trkpt lat="48.3052315" lon="8.9991016"></trkpt><trkpt lat="48.3051589" lon="8.9988642"></trkpt><trkpt lat="48.3050358" lon="8.9986362"></trkpt><trkpt lat="48.3048813" lon="8.9986841"></trkpt><trkpt lat="48.3046895" lon="8.9986474"></trkpt><trkpt lat="48.3043712" lon="8.9985535"></trkpt><trkpt lat="48.304115179252214" lon="8.998508292732822"></trkpt><trkpt lat="48.3040937" lon="8.9985045"></trkpt><trkpt lat="48.303965" lon="8.9985362"></trkpt><trkpt lat="48.3036978" lon="8.9989534"></trkpt><trkpt lat="48.3033529" lon="8.9994937"></trkpt><trkpt lat="48.30272186543139" lon="9.000003442970387"></trkpt><trkpt lat="48.3015684" lon="9.0009352"></trkpt><trkpt lat="48.3014728" lon="9.0009617"></trkpt><trkpt lat="48.3013979" lon="9.0009456"></trkpt><trkpt lat="48.3013657" lon="9.0009857"></trkpt><trkpt lat="48.30112937465503" lon="9.0012806925597"></trkpt><trkpt lat="48.30112937465503" lon="9.001280692559702"></trkpt><trkpt lat="48.30112937465503" lon="9.0012806925597"></trkpt><trkpt lat="48.3010233" lon="9.0014131"></trkpt><trkpt lat="48.3006094" lon="9.0017108"></trkpt><trkpt lat="48.2999333" lon="9.0021403"></trkpt><trkpt lat="48.299831" lon="9.002133"></trkpt><trkpt lat="48.2997607" lon="9.0024092"></trkpt><trkpt lat="48.2997501" lon="9.0024964"></trkpt><trkpt lat="48.29972599656124" lon="9.002693631022936"></trkpt><trkpt lat="48.2997189" lon="9.0027517"></trkpt><trkpt lat="48.2996968" lon="9.0031382"></trkpt><trkpt lat="48.2997525" lon="9.0035946"></trkpt><trkpt lat="48.2997597" lon="9.0040348"></trkpt><trkpt lat="48.2998759" lon="9.0043712"></trkpt><trkpt lat="48.3000323" lon="9.0046763"></trkpt><trkpt lat="48.3001497" lon="9.0050342"></trkpt><trkpt lat="48.300194871171826" lon="9.005223835443115"></trkpt><trkpt lat="48.3002471" lon="9.0054431"></trkpt><trkpt lat="48.3002152" lon="9.0058435"></trkpt><trkpt lat="48.3001033" lon="9.0061895"></trkpt><trkpt lat="48.2999863" lon="9.0065223"></trkpt><trkpt lat="48.2999594" lon="9.0067646"></trkpt><trkpt lat="48.2999696" lon="9.0069695"></trkpt><trkpt lat="48.2999893" lon="9.0072222"></trkpt><trkpt lat="48.300007964329474" lon="9.007355878295924"></trkpt><trkpt lat="48.300007964329474" lon="9.007355878295922"></trkpt><trkpt lat="48.300007964329474" lon="9.007355878295924"></trkpt><trkpt lat="48.2999893" lon="9.0072222"></trkpt><trkpt lat="48.2999696" lon="9.0069695"></trkpt><trkpt lat="48.2998796" lon="9.0069352"></trkpt><trkpt lat="48.2997788" lon="9.006887"></trkpt><trkpt lat="48.2996032" lon="9.0067061"></trkpt><trkpt lat="48.2994244" lon="9.0066062"></trkpt><trkpt lat="48.299289207517496" lon="9.00633737095871"></trkpt><trkpt lat="48.299268" lon="9.0062952"></trkpt><trkpt lat="48.298934" lon="9.0059252"></trkpt><trkpt lat="48.2988221" lon="9.0059782"></trkpt><trkpt lat="48.2986734" lon="9.0060478"></trkpt><trkpt lat="48.2984452" lon="9.0063119"></trkpt><trkpt lat="48.2983703" lon="9.0064636"></trkpt><trkpt lat="48.2982868" lon="9.0066782"></trkpt><trkpt lat="48.298146" lon="9.0071567"></trkpt><trkpt lat="48.29811581718551" lon="9.007300045709064"></trkpt><trkpt lat="48.29811581718551" lon="9.007300045709066"></trkpt><trkpt lat="48.29811581718551" lon="9.007300045709064"></trkpt><trkpt lat="48.2980794" lon="9.007473"></trkpt><trkpt lat="48.2980195" lon="9.0076102"></trkpt><trkpt lat="48.2979441" lon="9.0076765"></trkpt><trkpt lat="48.2977838" lon="9.007493"></trkpt><trkpt lat="48.2976879" lon="9.0073833"></trkpt><trkpt lat="48.2974478" lon="9.0071388"></trkpt><trkpt lat="48.2973209" lon="9.0070386"></trkpt><trkpt lat="48.2971482" lon="9.0069342"></trkpt><trkpt lat="48.2970261" lon="9.0070471"></trkpt><trkpt lat="48.2968871" lon="9.0071653"></trkpt><trkpt lat="48.2967312" lon="9.0072499"></trkpt><trkpt lat="48.29668238770258" lon="9.00726396892228"></trkpt><trkpt lat="48.29668238770258" lon="9.007263968922281"></trkpt><trkpt lat="48.29668238770258" lon="9.00726396892228"></trkpt><trkpt lat="48.2965036" lon="9.0073155"></trkpt><trkpt lat="48.2962445" lon="9.007348"></trkpt><trkpt lat="48.2960007" lon="9.0074385"></trkpt><trkpt lat="48.2955841" lon="9.0076432"></trkpt><trkpt lat="48.2950823" lon="9.0078702"></trkpt><trkpt lat="48.29496463892028" lon="9.007965732861098"></trkpt><trkpt lat="48.29496463892028" lon="9.0079657328611"></trkpt><trkpt lat="48.29496463892028" lon="9.007965732861098"></trkpt><trkpt lat="48.294851" lon="9.008058"></trkpt><trkpt lat="48.2948426" lon="9.0077199"></trkpt><trkpt lat="48.2948052" lon="9.0074798"></trkpt><trkpt lat="48.2947969" lon="9.0074198"></trkpt><trkpt lat="48.2946856" lon="9.007158"></trkpt><trkpt lat="48.2946035" lon="9.0070333"></trkpt><trkpt lat="48.2943556" lon="9.0068132"></trkpt><trkpt lat="48.2942271" lon="9.0066499"></trkpt><trkpt lat="48.2941064" lon="9.0064212"></trkpt><trkpt lat="48.2940363" lon="9.0061997"></trkpt><trkpt lat="48.29403240085429" lon="9.006165459602803"></trkpt><trkpt lat="48.2940125" lon="9.0059907"></trkpt><trkpt lat="48.2940109" lon="9.0056488"></trkpt><trkpt lat="48.293995" lon="9.0050751"></trkpt><trkpt lat="48.2939673" lon="9.0043999"></trkpt><trkpt lat="48.293965" lon="9.0042497"></trkpt><trkpt lat="48.2939943" lon="9.0041104"></trkpt><trkpt lat="48.2941328" lon="9.0037846"></trkpt><trkpt lat="48.29421880240389" lon="9.003575590654036"></trkpt><trkpt lat="48.2942755" lon="9.0034378"></trkpt><trkpt lat="48.2943497" lon="9.0031722"></trkpt><trkpt lat="48.294403" lon="9.0028332"></trkpt><trkpt lat="48.2944221" lon="9.0025274"></trkpt><trkpt lat="48.2943222" lon="9.0024108"></trkpt><trkpt lat="48.2942673" lon="9.0022687"></trkpt><trkpt lat="48.2942792" lon="9.0021266"></trkpt><trkpt lat="48.2943036" lon="9.0017661"></trkpt><trkpt lat="48.2943264" lon="9.0011717"></trkpt><trkpt lat="48.294332018839505" lon="9.001042910284108"></trkpt><trkpt lat="48.2943416" lon="9.0008233"></trkpt><trkpt lat="48.2943254" lon="9.0004876"></trkpt><trkpt lat="48.2943267" lon="9.0003794"></trkpt><trkpt lat="48.2943201" lon="9.0002861"></trkpt><trkpt lat="48.2943156" lon="9.0001871"></trkpt><trkpt lat="48.2943069" lon="9.0000191"></trkpt><trkpt lat="48.2942911" lon="8.9996679"></trkpt><trkpt lat="48.2942932" lon="8.9995672"></trkpt><trkpt lat="48.2942934" lon="8.9995027"></trkpt><trkpt lat="48.2943307" lon="8.999488"></trkpt><trkpt lat="48.2942877" lon="8.9992958"></trkpt><trkpt lat="48.2946072" lon="8.9991577"></trkpt><trkpt lat="48.29484552721326" lon="8.999041550586718"></trkpt><trkpt lat="48.2952437" lon="8.9988475"></trkpt><trkpt lat="48.2955776" lon="8.9987369"></trkpt><trkpt lat="48.2961853" lon="8.9986059"></trkpt><trkpt lat="48.2964576" lon="8.9985925"></trkpt><trkpt lat="48.2965356" lon="8.9985106"></trkpt><trkpt lat="48.29658062420857" lon="8.998412781546856"></trkpt><trkpt lat="48.2966428" lon="8.9982777"></trkpt><trkpt lat="48.2967731" lon="8.9980766"></trkpt><trkpt lat="48.2969924" lon="8.9978147"></trkpt><trkpt lat="48.2974398" lon="8.9970529"></trkpt><trkpt lat="48.29776180679632" lon="8.996380849279419"></trkpt><trkpt lat="48.2978613" lon="8.9961732"></trkpt><trkpt lat="48.2982232" lon="8.9955927"></trkpt><trkpt lat="48.2983436" lon="8.9954933"></trkpt><trkpt lat="48.2984922" lon="8.9954854"></trkpt><trkpt lat="48.2987462" lon="8.9955013"></trkpt><trkpt lat="48.2991226" lon="8.995444"></trkpt><trkpt lat="48.29929583892259" lon="8.995411899066411"></trkpt><trkpt lat="48.29929583892259" lon="8.99541189906641"></trkpt><trkpt lat="48.29929583892259" lon="8.995411899066411"></trkpt><trkpt lat="48.2993185" lon="8.9954077"></trkpt><trkpt lat="48.2994221" lon="8.9954519"></trkpt><trkpt lat="48.2994821" lon="8.9955515"></trkpt><trkpt lat="48.2995912" lon="8.9960578"></trkpt><trkpt lat="48.2997043" lon="8.9961446"></trkpt><trkpt lat="48.2998469" lon="8.9960845"></trkpt><trkpt lat="48.3001316" lon="8.9959291"></trkpt><trkpt lat="48.3007031" lon="8.9956528"></trkpt><trkpt lat="48.30075643475193" lon="8.995632285669899"></trkpt><trkpt lat="48.3011287" lon="8.9954891"></trkpt><trkpt lat="48.3014858" lon="8.9954639"></trkpt><trkpt lat="48.3017806" lon="8.996316"></trkpt><trkpt lat="48.3018468" lon="8.9962343"></trkpt><trkpt lat="48.3019724" lon="8.9963403"></trkpt><trkpt lat="48.3020459" lon="8.9963227"></trkpt><trkpt lat="48.3022494" lon="8.9962977"></trkpt><trkpt lat="48.302257747273636" lon="8.996294069809503"></trkpt><trkpt lat="48.302257747273636" lon="8.996294069809501"></trkpt><trkpt lat="48.302257747273636" lon="8.996294069809503"></trkpt><trkpt lat="48.3027893" lon="8.9960629"></trkpt><trkpt lat="48.3032435" lon="8.9959567"></trkpt><trkpt lat="48.3034966" lon="8.9959444"></trkpt><trkpt lat="48.3037151" lon="8.9959532"></trkpt><trkpt lat="48.30402542931159" lon="8.99596512071033"></trkpt><trkpt lat="48.3040327" lon="8.9959654"></trkpt><trkpt lat="48.3042108" lon="8.9959822"></trkpt><trkpt lat="48.3044145" lon="8.9960432"></trkpt><trkpt lat="48.3046169" lon="8.9961115"></trkpt><trkpt lat="48.3045997" lon="8.9958804"></trkpt><trkpt lat="48.3045916" lon="8.9955988"></trkpt><trkpt lat="48.3045916" lon="8.9952397"></trkpt><trkpt lat="48.3045385" lon="8.9949948"></trkpt><trkpt lat="48.304514" lon="8.9948234"></trkpt><trkpt lat="48.3044952" lon="8.9945968"></trkpt><trkpt lat="48.3044316" lon="8.9944783"></trkpt><trkpt lat="48.3044498" lon="8.9943912"></trkpt><trkpt lat="48.30444938551726" lon="8.994354675781066"></trkpt><trkpt lat="48.3044448" lon="8.9939506"></trkpt><trkpt lat="48.3044418" lon="8.9936724"></trkpt><trkpt lat="48.3044262" lon="8.9932986"></trkpt><trkpt lat="48.3043985" lon="8.9930725"></trkpt><trkpt lat="48.3043703" lon="8.9928672"></trkpt><trkpt lat="48.3043394" lon="8.9927414"></trkpt><trkpt lat="48.3042771" lon="8.9924822"></trkpt><trkpt lat="48.3040183" lon="8.9918655"></trkpt><trkpt lat="48.303998712057414" lon="8.99181930392531"></trkpt><trkpt lat="48.303998712057414" lon="8.991819303925311"></trkpt><trkpt lat="48.303998712057414" lon="8.99181930392531"></trkpt><trkpt lat="48.3038241" lon="8.9914075"></trkpt><trkpt lat="48.3037207" lon="8.9911279"></trkpt><trkpt lat="48.3034496" lon="8.9906317"></trkpt><trkpt lat="48.3033134" lon="8.9902294"></trkpt><trkpt lat="48.3030904" lon="8.9896634"></trkpt><trkpt lat="48.303082844120794" lon="8.989644525274004"></trkpt><trkpt lat="48.303082844120794" lon="8.989644525274006"></trkpt><trkpt lat="48.303082844120794" lon="8.989644525274004"></trkpt><trkpt lat="48.302939" lon="8.9892852"></trkpt><trkpt lat="48.3028912" lon="8.9891243"></trkpt><trkpt lat="48.3028852" lon="8.9889917"></trkpt><trkpt lat="48.3029212" lon="8.988858"></trkpt><trkpt lat="48.3029426" lon="8.9888151"></trkpt><trkpt lat="48.3030019" lon="8.9886879"></trkpt><trkpt lat="48.303046" lon="8.9885742"></trkpt><trkpt lat="48.3031005" lon="8.9884083"></trkpt><trkpt lat="48.303162" lon="8.9882734"></trkpt><trkpt lat="48.3032785" lon="8.9881079"></trkpt><trkpt lat="48.303352" lon="8.9880744"></trkpt><trkpt lat="48.3034176" lon="8.9880234"></trkpt><trkpt lat="48.3034753" lon="8.9879319"></trkpt><trkpt lat="48.3035524" lon="8.9879278"></trkpt><trkpt lat="48.3036228" lon="8.9878845"></trkpt><trkpt lat="48.3037503" lon="8.9877777"></trkpt><trkpt lat="48.3037849" lon="8.9877078"></trkpt><trkpt lat="48.3037994" lon="8.9875534"></trkpt><trkpt lat="48.303794" lon="8.9874675"></trkpt><trkpt lat="48.30379456028888" lon="8.987456731948189"></trkpt><trkpt lat="48.303794" lon="8.9874675"></trkpt><trkpt lat="48.3037994" lon="8.9875534"></trkpt><trkpt lat="48.3037265" lon="8.9874848"></trkpt><trkpt lat="48.3036559" lon="8.9874104"></trkpt><trkpt lat="48.3035752" lon="8.9873522"></trkpt><trkpt lat="48.303474" lon="8.9872987"></trkpt><trkpt lat="48.3032494" lon="8.987249"></trkpt><trkpt lat="48.3030499" lon="8.9872465"></trkpt><trkpt lat="48.3026798" lon="8.9872418"></trkpt><trkpt lat="48.3025158" lon="8.9872342"></trkpt><trkpt lat="48.302192" lon="8.9872162"></trkpt><trkpt lat="48.30209173113323" lon="8.98717881552033"></trkpt><trkpt lat="48.3020182" lon="8.9871514"></trkpt><trkpt lat="48.3018194" lon="8.9870679"></trkpt><trkpt lat="48.301587" lon="8.9870192"></trkpt><trkpt lat="48.3013138" lon="8.9869818"></trkpt><trkpt lat="48.30109" lon="8.9869543"></trkpt><trkpt lat="48.3009195" lon="8.9869333"></trkpt><trkpt lat="48.3004111" lon="8.9868895"></trkpt><trkpt lat="48.300395" lon="8.9868879"></trkpt><trkpt lat="48.3003081350846" lon="8.98687931029388"></trkpt><trkpt lat="48.3001078" lon="8.9868595"></trkpt><trkpt lat="48.2999074" lon="8.9868096"></trkpt><trkpt lat="48.299822" lon="8.9867371"></trkpt><trkpt lat="48.2997006" lon="8.9864508"></trkpt><trkpt lat="48.2996266" lon="8.9862295"></trkpt><trkpt lat="48.2995588" lon="8.9860806"></trkpt><trkpt lat="48.2994094" lon="8.9857898"></trkpt><trkpt lat="48.2993575" lon="8.9857069"></trkpt><trkpt lat="48.2992652" lon="8.9855871"></trkpt><trkpt lat="48.29939065515191" lon="8.98545503584286"></trkpt><trkpt lat="48.2992652" lon="8.9855871"></trkpt><trkpt lat="48.2992031" lon="8.9855703"></trkpt><trkpt lat="48.2988301" lon="8.9852955"></trkpt><trkpt lat="48.2987378" lon="8.9851267"></trkpt><trkpt lat="48.2986113" lon="8.984841"></trkpt><trkpt lat="48.2985358" lon="8.98459"></trkpt><trkpt lat="48.2984035" lon="8.9845144"></trkpt><trkpt lat="48.2982392" lon="8.9843774"></trkpt><trkpt lat="48.2981652" lon="8.9842361"></trkpt><trkpt lat="48.2981019" lon="8.9840874"></trkpt><trkpt lat="48.2980619" lon="8.9839026"></trkpt><trkpt lat="48.29804285022543" lon="8.983712277828236"></trkpt><trkpt lat="48.2980402" lon="8.9836858"></trkpt><trkpt lat="48.2980629" lon="8.9833124"></trkpt><trkpt lat="48.2980789" lon="8.9828791"></trkpt><trkpt lat="48.2980887" lon="8.9825986"></trkpt><trkpt lat="48.2980899" lon="8.9824646"></trkpt><trkpt lat="48.2980718" lon="8.9820817"></trkpt><trkpt lat="48.2980217" lon="8.9816422"></trkpt><trkpt lat="48.2978945" lon="8.9812407"></trkpt><trkpt lat="48.29783275610285" lon="8.981093160334654"></trkpt><trkpt lat="48.297665" lon="8.9806923"></trkpt><trkpt lat="48.2974188" lon="8.9802041"></trkpt><trkpt lat="48.2972332" lon="8.9798769"></trkpt><trkpt lat="48.2970063" lon="8.9796631"></trkpt><trkpt lat="48.2967737" lon="8.9795295"></trkpt><trkpt lat="48.2966456" lon="8.9799463"></trkpt><trkpt lat="48.296644715888114" lon="8.979949653076178"></trkpt><trkpt lat="48.296644715888114" lon="8.979949653076176"></trkpt><trkpt lat="48.296644715888114" lon="8.979949653076178"></trkpt><trkpt lat="48.2965646" lon="8.9802535"></trkpt><trkpt lat="48.2964365" lon="8.9801761"></trkpt><trkpt lat="48.2962017" lon="8.9799105"></trkpt><trkpt lat="48.2960272" lon="8.9796769"></trkpt><trkpt lat="48.2957861" lon="8.9793668"></trkpt><trkpt lat="48.2954734" lon="8.979013"></trkpt><trkpt lat="48.29526884064871" lon="8.978760907357788"></trkpt><trkpt lat="48.2951657" lon="8.9786338"></trkpt><trkpt lat="48.2944924" lon="8.9777097"></trkpt><trkpt lat="48.2941726" lon="8.97735"></trkpt><trkpt lat="48.29388693621441" lon="8.977033478353995"></trkpt><trkpt lat="48.29388693621441" lon="8.977033478353997"></trkpt><trkpt lat="48.29388693621441" lon="8.977033478353995"></trkpt><trkpt lat="48.2936727" lon="8.9767961"></trkpt><trkpt lat="48.2929978" lon="8.9760849"></trkpt><trkpt lat="48.2926133" lon="8.975757"></trkpt><trkpt lat="48.292365125699156" lon="8.975612363385178"></trkpt><trkpt lat="48.292365125699156" lon="8.97561236338518"></trkpt><trkpt lat="48.292365125699156" lon="8.975612363385178"></trkpt><trkpt lat="48.2922051" lon="8.9755191"></trkpt><trkpt lat="48.2918542" lon="8.9753852"></trkpt><trkpt lat="48.2916367" lon="8.9753276"></trkpt><trkpt lat="48.2914957" lon="8.9753061"></trkpt><trkpt lat="48.2914333" lon="8.9752482"></trkpt><trkpt lat="48.2913863" lon="8.9753079"></trkpt><trkpt lat="48.2913248" lon="8.9753953"></trkpt><trkpt lat="48.2912102" lon="8.9755449"></trkpt><trkpt lat="48.2911363" lon="8.9755911"></trkpt><trkpt lat="48.2908483" lon="8.9756068"></trkpt><trkpt lat="48.290714598929675" lon="8.975646078620766"></trkpt><trkpt lat="48.290657" lon="8.975663"></trkpt><trkpt lat="48.2904881" lon="8.9758055"></trkpt><trkpt lat="48.2903432" lon="8.9758561"></trkpt><trkpt lat="48.2902237" lon="8.9759291"></trkpt><trkpt lat="48.2900856" lon="8.9760457"></trkpt><trkpt lat="48.2899247" lon="8.9761559"></trkpt><trkpt lat="48.2898351" lon="8.9762168"></trkpt><trkpt lat="48.2897647" lon="8.9762999"></trkpt><trkpt lat="48.2897262" lon="8.9763963"></trkpt><trkpt lat="48.2896378" lon="8.9765335"></trkpt><trkpt lat="48.289363" lon="8.9770405"></trkpt><trkpt lat="48.289291833414204" lon="8.977180599698148"></trkpt><trkpt lat="48.2890826" lon="8.9775925"></trkpt><trkpt lat="48.2887229" lon="8.9783521"></trkpt><trkpt lat="48.2883708" lon="8.9791018"></trkpt><trkpt lat="48.2883479" lon="8.9791464"></trkpt><trkpt lat="48.2883269" lon="8.9791194"></trkpt><trkpt lat="48.28820980746885" lon="8.97898897299104"></trkpt><trkpt lat="48.2878975" lon="8.9786411"></trkpt><trkpt lat="48.2875242" lon="8.9781687"></trkpt><trkpt lat="48.2873852" lon="8.9780427"></trkpt><trkpt lat="48.2871989" lon="8.9777867"></trkpt><trkpt lat="48.2869591" lon="8.9773933"></trkpt><trkpt lat="48.2869407" lon="8.9773634"></trkpt><trkpt lat="48.2868857" lon="8.9772737"></trkpt><trkpt lat="48.286856723381796" lon="8.977218940630847"></trkpt><trkpt lat="48.286856723381796" lon="8.977218940630848"></trkpt><trkpt lat="48.286856723381796" lon="8.977218940630847"></trkpt><trkpt lat="48.2867732" lon="8.9770611"></trkpt><trkpt lat="48.2858502" lon="8.9753907"></trkpt><trkpt lat="48.28604690817628" lon="8.975195087182476"></trkpt><trkpt lat="48.28604690817628" lon="8.975195087182477"></trkpt><trkpt lat="48.28604690817628" lon="8.975195087182476"></trkpt><trkpt lat="48.2860657" lon="8.9751764"></trkpt><trkpt lat="48.2860863" lon="8.9750154"></trkpt><trkpt lat="48.2860728" lon="8.9748611"></trkpt><trkpt lat="48.2860335" lon="8.9747423"></trkpt><trkpt lat="48.2859782" lon="8.9747101"></trkpt><trkpt lat="48.2858843" lon="8.9746726"></trkpt><trkpt lat="48.2857973" lon="8.9745905"></trkpt><trkpt lat="48.2856668" lon="8.974449"></trkpt><trkpt lat="48.2855102" lon="8.9741817"></trkpt><trkpt lat="48.2853877" lon="8.9739602"></trkpt><trkpt lat="48.2853026" lon="8.97373"></trkpt><trkpt lat="48.2852316" lon="8.9734465"></trkpt><trkpt lat="48.285183533550125" lon="8.973272481649053"></trkpt><trkpt lat="48.285183533550125" lon="8.973272481649051"></trkpt><trkpt lat="48.285183533550125" lon="8.973272481649053"></trkpt><trkpt lat="48.2851236" lon="8.9730555"></trkpt><trkpt lat="48.2849946" lon="8.9725255"></trkpt><trkpt lat="48.2849155" lon="8.9721567"></trkpt><trkpt lat="48.2848632" lon="8.9717301"></trkpt><trkpt lat="48.2848327" lon="8.9716711"></trkpt><trkpt lat="48.2847923" lon="8.9716235"></trkpt><trkpt lat="48.2847324" lon="8.971542"></trkpt><trkpt lat="48.28478152789537" lon="8.971504451643229"></trkpt><trkpt lat="48.28478152789537" lon="8.971504451643227"></trkpt></trkseg></trk></gpx>
