<?xml version="1.0" encoding="UTF-8"?>
<gpx version="1.1" creator="Good Shit" xmlns="http://www.topografix.com/GPX/1/1"><trk><name>Frýdlantské cimbuří–Polední kameny–Ořešník — Hejnice–Hajní kostel–Frýdlantské cimbuří–Polední kameny–Ořešník</name><desc>A closed walk from Hejnice through the northern beech forests, visiting Hajní kostel, Frýdlantské cimbuří, Polední kameny, Velký Štolpich waterfall and Ořešník before returning to town.

Route geometry: © OpenStreetMap contributors — OpenStreetMap route and path geometry. Licence: ODbL-1.0 (https://opendatacommons.org/licenses/odbl/1.0/). Source: https://www.openstreetmap.org/copyright. Dataset: https://www.openstreetmap.org/.</desc><trkseg><trkpt lat="50.87722849500974" lon="15.181804679108756"></trkpt><trkpt lat="50.87722849500974" lon="15.181804679108755"></trkpt><trkpt lat="50.8771236" lon="15.1818534"></trkpt><trkpt lat="50.8768381" lon="15.1819676"></trkpt><trkpt lat="50.87681708676058" lon="15.181924951827689"></trkpt><trkpt lat="50.876686" lon="15.1816589"></trkpt><trkpt lat="50.876516" lon="15.1816963"></trkpt><trkpt lat="50.8765098" lon="15.181616"></trkpt><trkpt lat="50.87637267439534" lon="15.181733639783351"></trkpt><trkpt lat="50.87637267439534" lon="15.181733639783353"></trkpt><trkpt lat="50.87637267439534" lon="15.181733639783351"></trkpt><trkpt lat="50.8761882" lon="15.1818919"></trkpt><trkpt lat="50.8760102" lon="15.1820644"></trkpt><trkpt lat="50.87598527266129" lon="15.1820765757298"></trkpt><trkpt lat="50.8759193" lon="15.1821088"></trkpt><trkpt lat="50.8757546" lon="15.1822728"></trkpt><trkpt lat="50.8757171" lon="15.1822592"></trkpt><trkpt lat="50.8756636" lon="15.1822756"></trkpt><trkpt lat="50.8756544" lon="15.1822516"></trkpt><trkpt lat="50.8756255" lon="15.1821744"></trkpt><trkpt lat="50.875590673809896" lon="15.182144583056418"></trkpt><trkpt lat="50.875590673809896" lon="15.182144583056417"></trkpt><trkpt lat="50.875590673809896" lon="15.182144583056418"></trkpt><trkpt lat="50.8755379" lon="15.1820994"></trkpt><trkpt lat="50.8754093" lon="15.1820454"></trkpt><trkpt lat="50.8753044" lon="15.1820286"></trkpt><trkpt lat="50.8751967" lon="15.1820745"></trkpt><trkpt lat="50.8751414875493" lon="15.182124559288633"></trkpt><trkpt lat="50.8751414875493" lon="15.182124559288631"></trkpt><trkpt lat="50.8751414875493" lon="15.182124559288633"></trkpt><trkpt lat="50.8751367" lon="15.1821289"></trkpt><trkpt lat="50.875103" lon="15.1821654"></trkpt><trkpt lat="50.8750418" lon="15.1823074"></trkpt><trkpt lat="50.8750281" lon="15.1825625"></trkpt><trkpt lat="50.875039" lon="15.1827923"></trkpt><trkpt lat="50.8750526027709" lon="15.182841981643378"></trkpt><trkpt lat="50.8750994" lon="15.1830129"></trkpt><trkpt lat="50.8751794" lon="15.1831736"></trkpt><trkpt lat="50.8752261" lon="15.1832243"></trkpt><trkpt lat="50.8753451" lon="15.18334"></trkpt><trkpt lat="50.87527014388225" lon="15.183435592770422"></trkpt><trkpt lat="50.87527014388225" lon="15.18343559277042"></trkpt><trkpt lat="50.87527014388225" lon="15.183435592770422"></trkpt><trkpt lat="50.8752503" lon="15.1834609"></trkpt><trkpt lat="50.8751875" lon="15.1836192"></trkpt><trkpt lat="50.8751468" lon="15.1837885"></trkpt><trkpt lat="50.8751074" lon="15.1840597"></trkpt><trkpt lat="50.8751045775364" lon="15.184099355613574"></trkpt><trkpt lat="50.8750994" lon="15.1841721"></trkpt><trkpt lat="50.8751512" lon="15.1843233"></trkpt><trkpt lat="50.8753255" lon="15.1845834"></trkpt><trkpt lat="50.87537360049958" lon="15.18464189319819"></trkpt><trkpt lat="50.8755185" lon="15.1848181"></trkpt><trkpt lat="50.8755309" lon="15.1848713"></trkpt><trkpt lat="50.8754427" lon="15.1850356"></trkpt><trkpt lat="50.8753894" lon="15.1852059"></trkpt><trkpt lat="50.87545312947383" lon="15.185330835497997"></trkpt><trkpt lat="50.87545312947383" lon="15.185330835497995"></trkpt><trkpt lat="50.87545312947383" lon="15.185330835497997"></trkpt><trkpt lat="50.8755182" lon="15.1854584"></trkpt><trkpt lat="50.875679" lon="15.1857465"></trkpt><trkpt lat="50.87572524552021" lon="15.185826103588736"></trkpt><trkpt lat="50.8757967" lon="15.1859491"></trkpt><trkpt lat="50.8758256" lon="15.1860319"></trkpt><trkpt lat="50.8758256" lon="15.1861093"></trkpt><trkpt lat="50.875812" lon="15.1861839"></trkpt><trkpt lat="50.8757843" lon="15.1862592"></trkpt><trkpt lat="50.87574192345102" lon="15.186431037097167"></trkpt><trkpt lat="50.87574192345102" lon="15.186431037097165"></trkpt><trkpt lat="50.87574192345102" lon="15.186431037097167"></trkpt><trkpt lat="50.8756734" lon="15.1867089"></trkpt><trkpt lat="50.8756467" lon="15.1868729"></trkpt><trkpt lat="50.8756588" lon="15.1869948"></trkpt><trkpt lat="50.8756981" lon="15.1871451"></trkpt><trkpt lat="50.87571618673057" lon="15.187176921249492"></trkpt><trkpt lat="50.87571618673057" lon="15.18717692124949"></trkpt><trkpt lat="50.87571618673057" lon="15.187176921249492"></trkpt><trkpt lat="50.8758822" lon="15.187469"></trkpt><trkpt lat="50.87596622281077" lon="15.18775355374053"></trkpt><trkpt lat="50.87596622281077" lon="15.187753553740528"></trkpt><trkpt lat="50.87596622281077" lon="15.18775355374053"></trkpt><trkpt lat="50.8759779" lon="15.1877931"></trkpt><trkpt lat="50.8759873" lon="15.1878437"></trkpt><trkpt lat="50.87609571120143" lon="15.188424101105065"></trkpt><trkpt lat="50.87609571120143" lon="15.188424101105063"></trkpt><trkpt lat="50.87609571120143" lon="15.188424101105065"></trkpt><trkpt lat="50.8761035" lon="15.1884658"></trkpt><trkpt lat="50.8761124" lon="15.1888401"></trkpt><trkpt lat="50.8760897" lon="15.1890975"></trkpt><trkpt lat="50.87608126862912" lon="15.189136256662215"></trkpt><trkpt lat="50.8760592" lon="15.1892377"></trkpt><trkpt lat="50.8759619" lon="15.1895703"></trkpt><trkpt lat="50.87589076372296" lon="15.189757725870258"></trkpt><trkpt lat="50.87589076372296" lon="15.18975772587026"></trkpt><trkpt lat="50.87589076372296" lon="15.189757725870258"></trkpt><trkpt lat="50.8758272" lon="15.1899252"></trkpt><trkpt lat="50.8757668" lon="15.1900779"></trkpt><trkpt lat="50.8756471" lon="15.1903468"></trkpt><trkpt lat="50.87564384577475" lon="15.190355820261582"></trkpt><trkpt lat="50.87564384577475" lon="15.19035582026158"></trkpt><trkpt lat="50.87564384577475" lon="15.190355820261582"></trkpt><trkpt lat="50.87542083218768" lon="15.1909739830313"></trkpt><trkpt lat="50.8754161" lon="15.1909871"></trkpt><trkpt lat="50.8753243" lon="15.1912259"></trkpt><trkpt lat="50.875243" lon="15.1914122"></trkpt><trkpt lat="50.875139656629706" lon="15.191525753583166"></trkpt><trkpt lat="50.875139656629706" lon="15.191525753583168"></trkpt><trkpt lat="50.875139656629706" lon="15.191525753583166"></trkpt><trkpt lat="50.8749849" lon="15.1916958"></trkpt><trkpt lat="50.8749216" lon="15.1917674"></trkpt><trkpt lat="50.8748631" lon="15.1918369"></trkpt><trkpt lat="50.874803" lon="15.1919198"></trkpt><trkpt lat="50.87478044224722" lon="15.191973090205394"></trkpt><trkpt lat="50.87478044224722" lon="15.191973090205396"></trkpt><trkpt lat="50.87478044224722" lon="15.191973090205394"></trkpt><trkpt lat="50.8747009" lon="15.192161"></trkpt><trkpt lat="50.87455566490406" lon="15.19260465842314"></trkpt><trkpt lat="50.87455566490406" lon="15.192604658423141"></trkpt><trkpt lat="50.87455566490406" lon="15.19260465842314"></trkpt><trkpt lat="50.8745402" lon="15.1926519"></trkpt><trkpt lat="50.8744444" lon="15.1930192"></trkpt><trkpt lat="50.8743852" lon="15.1932625"></trkpt><trkpt lat="50.874383695457965" lon="15.193268688035792"></trkpt><trkpt lat="50.8743604" lon="15.1933645"></trkpt><trkpt lat="50.874302" lon="15.1935307"></trkpt><trkpt lat="50.8742403" lon="15.1936862"></trkpt><trkpt lat="50.87414433564225" lon="15.193853636801974"></trkpt><trkpt lat="50.8740918" lon="15.1939453"></trkpt><trkpt lat="50.8738676" lon="15.1942562"></trkpt><trkpt lat="50.87382728780712" lon="15.194368677876549"></trkpt><trkpt lat="50.87382728780712" lon="15.19436867787655"></trkpt><trkpt lat="50.87382728780712" lon="15.194368677876549"></trkpt><trkpt lat="50.8738147" lon="15.1944038"></trkpt><trkpt lat="50.8738046" lon="15.1944946"></trkpt><trkpt lat="50.8737975" lon="15.1945671"></trkpt><trkpt lat="50.873827" lon="15.1948144"></trkpt><trkpt lat="50.87388677490017" lon="15.195124098790718"></trkpt><trkpt lat="50.87388677490017" lon="15.195124098790716"></trkpt><trkpt lat="50.87388677490017" lon="15.195124098790718"></trkpt><trkpt lat="50.8739137" lon="15.1952636"></trkpt><trkpt lat="50.8739092" lon="15.195361"></trkpt><trkpt lat="50.8738737" lon="15.1955286"></trkpt><trkpt lat="50.87377047283416" lon="15.195768821084588"></trkpt><trkpt lat="50.8737612" lon="15.1957904"></trkpt><trkpt lat="50.8736622" lon="15.1959615"></trkpt><trkpt lat="50.8735779" lon="15.1960869"></trkpt><trkpt lat="50.8735019" lon="15.1962361"></trkpt><trkpt lat="50.87347721350646" lon="15.196325716833222"></trkpt><trkpt lat="50.87347721350646" lon="15.196325716833224"></trkpt><trkpt lat="50.87347721350646" lon="15.196325716833222"></trkpt><trkpt lat="50.8734562" lon="15.196402"></trkpt><trkpt lat="50.87336679292625" lon="15.19703350371852"></trkpt><trkpt lat="50.873355" lon="15.1971168"></trkpt><trkpt lat="50.873259949774734" lon="15.19772359875436"></trkpt><trkpt lat="50.8732339" lon="15.1978899"></trkpt><trkpt lat="50.8731591" lon="15.198241"></trkpt><trkpt lat="50.87313465694814" lon="15.198405177838495"></trkpt><trkpt lat="50.8731185" lon="15.1985137"></trkpt><trkpt lat="50.8731004" lon="15.1988388"></trkpt><trkpt lat="50.87308914241773" lon="15.19912899545392"></trkpt><trkpt lat="50.873086" lon="15.19921"></trkpt><trkpt lat="50.87313938338959" lon="15.199854845225957"></trkpt><trkpt lat="50.8731514" lon="15.2"></trkpt><trkpt lat="50.8731317" lon="15.2001537"></trkpt><trkpt lat="50.8730668" lon="15.2002255"></trkpt><trkpt lat="50.8728078" lon="15.200271"></trkpt><trkpt lat="50.87280608397289" lon="15.200271528603393"></trkpt><trkpt lat="50.87280608397289" lon="15.200271528603391"></trkpt><trkpt lat="50.87280608397289" lon="15.200271528603393"></trkpt><trkpt lat="50.8726747" lon="15.200312"></trkpt><trkpt lat="50.8726387" lon="15.2003926"></trkpt><trkpt lat="50.8726059" lon="15.2004492"></trkpt><trkpt lat="50.8725611" lon="15.2005704"></trkpt><trkpt lat="50.87252481903072" lon="15.20073917236369"></trkpt><trkpt lat="50.8725005" lon="15.2008523"></trkpt><trkpt lat="50.8724566" lon="15.2010178"></trkpt><trkpt lat="50.8724042" lon="15.2011564"></trkpt><trkpt lat="50.8723374" lon="15.2012826"></trkpt><trkpt lat="50.872292847031275" lon="15.201348604398111"></trkpt><trkpt lat="50.8722402" lon="15.2014266"></trkpt><trkpt lat="50.8722258" lon="15.201462"></trkpt><trkpt lat="50.8722283" lon="15.2015156"></trkpt><trkpt lat="50.8722566" lon="15.2016245"></trkpt><trkpt lat="50.8723513" lon="15.2019291"></trkpt><trkpt lat="50.87235677961716" lon="15.202052564791678"></trkpt><trkpt lat="50.8723592" lon="15.2021071"></trkpt><trkpt lat="50.872349" lon="15.2025425"></trkpt><trkpt lat="50.87234262471195" lon="15.202762403771548"></trkpt><trkpt lat="50.8723417" lon="15.2027943"></trkpt><trkpt lat="50.8722367" lon="15.2033131"></trkpt><trkpt lat="50.872132691431155" lon="15.203345522862186"></trkpt><trkpt lat="50.8717969" lon="15.2034502"></trkpt><trkpt lat="50.87169595068468" lon="15.20350736014095"></trkpt><trkpt lat="50.87169595068468" lon="15.203507360140952"></trkpt><trkpt lat="50.87169595068468" lon="15.20350736014095"></trkpt><trkpt lat="50.8714564" lon="15.203643"></trkpt><trkpt lat="50.8713575" lon="15.2037392"></trkpt><trkpt lat="50.8712954316163" lon="15.203831845069036"></trkpt><trkpt lat="50.8712954316163" lon="15.203831845069038"></trkpt><trkpt lat="50.8712954316163" lon="15.203831845069036"></trkpt><trkpt lat="50.8712761" lon="15.2038607"></trkpt><trkpt lat="50.871192" lon="15.2040311"></trkpt><trkpt lat="50.8711197" lon="15.2041316"></trkpt><trkpt lat="50.8709945" lon="15.2042214"></trkpt><trkpt lat="50.870927898023126" lon="15.204260556328398"></trkpt><trkpt lat="50.870927898023126" lon="15.204260556328396"></trkpt><trkpt lat="50.870927898023126" lon="15.204260556328398"></trkpt><trkpt lat="50.870829" lon="15.2043187"></trkpt><trkpt lat="50.8705841" lon="15.2044103"></trkpt><trkpt lat="50.870498317701234" lon="15.20444178786475"></trkpt><trkpt lat="50.870060507911624" lon="15.204602493460659"></trkpt><trkpt lat="50.8699349" lon="15.2046486"></trkpt><trkpt lat="50.8697988" lon="15.2046782"></trkpt><trkpt lat="50.869684" lon="15.2046782"></trkpt><trkpt lat="50.8696306" lon="15.2046824"></trkpt><trkpt lat="50.8696039" lon="15.2047501"></trkpt><trkpt lat="50.86959016238776" lon="15.204847612515488"></trkpt><trkpt lat="50.8695479" lon="15.2051476"></trkpt><trkpt lat="50.8695338" lon="15.2052204"></trkpt><trkpt lat="50.8695185" lon="15.2052999"></trkpt><trkpt lat="50.8694918" lon="15.2054606"></trkpt><trkpt lat="50.869483858833554" lon="15.205517974927583"></trkpt><trkpt lat="50.8694678" lon="15.205634"></trkpt><trkpt lat="50.8694277" lon="15.205744"></trkpt><trkpt lat="50.869353" lon="15.2058878"></trkpt><trkpt lat="50.8692863" lon="15.2059851"></trkpt><trkpt lat="50.86922402009465" lon="15.20607550631422"></trkpt><trkpt lat="50.8691902" lon="15.2061246"></trkpt><trkpt lat="50.8691315" lon="15.2062727"></trkpt><trkpt lat="50.8690674" lon="15.206408"></trkpt><trkpt lat="50.868925974057454" lon="15.206611757403605"></trkpt><trkpt lat="50.868925974057454" lon="15.206611757403607"></trkpt><trkpt lat="50.868925974057454" lon="15.206611757403605"></trkpt><trkpt lat="50.8689206" lon="15.2066195"></trkpt><trkpt lat="50.8688432" lon="15.2067464"></trkpt><trkpt lat="50.8688032" lon="15.2068521"></trkpt><trkpt lat="50.8687204" lon="15.2069578"></trkpt><trkpt lat="50.86860330299282" lon="15.207086286125316"></trkpt><trkpt lat="50.86860330299282" lon="15.207086286125314"></trkpt><trkpt lat="50.86860330299282" lon="15.207086286125316"></trkpt><trkpt lat="50.8685816" lon="15.2071101"></trkpt><trkpt lat="50.8684135" lon="15.2072751"></trkpt><trkpt lat="50.8683254" lon="15.2073258"></trkpt><trkpt lat="50.8681999" lon="15.2073258"></trkpt><trkpt lat="50.8681626298592" lon="15.207331930076686"></trkpt><trkpt lat="50.8679944" lon="15.2073596"></trkpt><trkpt lat="50.8678956" lon="15.2073977"></trkpt><trkpt lat="50.8678342" lon="15.2074696"></trkpt><trkpt lat="50.8678102" lon="15.2075457"></trkpt><trkpt lat="50.8677915" lon="15.2076768"></trkpt><trkpt lat="50.867788098626164" lon="15.207718686401797"></trkpt><trkpt lat="50.8677702" lon="15.2079391"></trkpt><trkpt lat="50.8677114" lon="15.2081675"></trkpt><trkpt lat="50.86762094784586" lon="15.208331949396019"></trkpt><trkpt lat="50.86762094784586" lon="15.20833194939602"></trkpt><trkpt lat="50.86762094784586" lon="15.208331949396019"></trkpt><trkpt lat="50.8676207" lon="15.2083324"></trkpt><trkpt lat="50.8675139" lon="15.2084974"></trkpt><trkpt lat="50.8674312" lon="15.2087257"></trkpt><trkpt lat="50.867384893708746" lon="15.208949142300215"></trkpt><trkpt lat="50.8673751" lon="15.2089964"></trkpt><trkpt lat="50.8673464" lon="15.2092447"></trkpt><trkpt lat="50.8672627" lon="15.2093768"></trkpt><trkpt lat="50.867172560501224" lon="15.209571971610387"></trkpt><trkpt lat="50.8671247" lon="15.2096756"></trkpt><trkpt lat="50.8669694" lon="15.2100455"></trkpt><trkpt lat="50.86690958851429" lon="15.21014127408788"></trkpt><trkpt lat="50.86690958851429" lon="15.210141274087878"></trkpt><trkpt lat="50.86690958851429" lon="15.21014127408788"></trkpt><trkpt lat="50.8668114" lon="15.2102985"></trkpt><trkpt lat="50.8666377" lon="15.2104641"></trkpt><trkpt lat="50.866523814078704" lon="15.21055344247584"></trkpt><trkpt lat="50.866523814078704" lon="15.210553442475838"></trkpt><trkpt lat="50.866523814078704" lon="15.21055344247584"></trkpt><trkpt lat="50.8664275" lon="15.210629"></trkpt><trkpt lat="50.8662246" lon="15.2106924"></trkpt><trkpt lat="50.86609149646743" lon="15.210707014537725"></trkpt><trkpt lat="50.8658776" lon="15.2107305"></trkpt><trkpt lat="50.8657682" lon="15.2108151"></trkpt><trkpt lat="50.865664914498666" lon="15.210944416126063"></trkpt><trkpt lat="50.865664914498666" lon="15.210944416126065"></trkpt><trkpt lat="50.865664914498666" lon="15.210944416126063"></trkpt><trkpt lat="50.8656448" lon="15.2109696"></trkpt><trkpt lat="50.8654508" lon="15.2111485"></trkpt><trkpt lat="50.865269" lon="15.2111661"></trkpt><trkpt lat="50.865218419312164" lon="15.211152761581278"></trkpt><trkpt lat="50.8651249" lon="15.2111281"></trkpt><trkpt lat="50.8650021" lon="15.2110604"></trkpt><trkpt lat="50.8649006" lon="15.2110096"></trkpt><trkpt lat="50.86481249362234" lon="15.210874326592814"></trkpt><trkpt lat="50.86481249362234" lon="15.210874326592812"></trkpt><trkpt lat="50.86481249362234" lon="15.210874326592814"></trkpt><trkpt lat="50.8646417" lon="15.2106121"></trkpt><trkpt lat="50.86447911352538" lon="15.210406915723139"></trkpt><trkpt lat="50.86447911352538" lon="15.210406915723137"></trkpt><trkpt lat="50.86447911352538" lon="15.210406915723139"></trkpt><trkpt lat="50.8644188" lon="15.2103308"></trkpt><trkpt lat="50.8642613" lon="15.2101722"></trkpt><trkpt lat="50.8642226" lon="15.2101067"></trkpt><trkpt lat="50.8641999" lon="15.21002"></trkpt><trkpt lat="50.8641812" lon="15.2098402"></trkpt><trkpt lat="50.8641559" lon="15.2096626"></trkpt><trkpt lat="50.8640969" lon="15.2094561"></trkpt><trkpt lat="50.8640581" lon="15.2093657"></trkpt><trkpt lat="50.8640125" lon="15.2093082"></trkpt><trkpt lat="50.86398599475381" lon="15.209286619045184"></trkpt><trkpt lat="50.86398599475381" lon="15.209286619045182"></trkpt><trkpt lat="50.86398599475381" lon="15.209286619045184"></trkpt><trkpt lat="50.8639323" lon="15.2092429"></trkpt><trkpt lat="50.8638188" lon="15.2092132"></trkpt><trkpt lat="50.8637022" lon="15.2092682"></trkpt><trkpt lat="50.86355118948815" lon="15.20934693708453"></trkpt><trkpt lat="50.86355118948815" lon="15.209346937084527"></trkpt><trkpt lat="50.86355118948815" lon="15.20934693708453"></trkpt><trkpt lat="50.86312509793431" lon="15.209569101795319"></trkpt><trkpt lat="50.86312509793431" lon="15.209569101795317"></trkpt><trkpt lat="50.86312509793431" lon="15.209569101795319"></trkpt><trkpt lat="50.86269984153753" lon="15.209790831054091"></trkpt><trkpt lat="50.86269984153753" lon="15.209790831054093"></trkpt><trkpt lat="50.86269984153753" lon="15.209790831054091"></trkpt><trkpt lat="50.8623378" lon="15.2099796"></trkpt><trkpt lat="50.86227297403408" lon="15.210001463509034"></trkpt><trkpt lat="50.86227297403408" lon="15.210001463509032"></trkpt><trkpt lat="50.86227297403408" lon="15.210001463509034"></trkpt><trkpt lat="50.86183324180575" lon="15.210149769660887"></trkpt><trkpt lat="50.861456" lon="15.210277"></trkpt><trkpt lat="50.86138976704543" lon="15.210285254934941"></trkpt><trkpt lat="50.8609425" lon="15.210341"></trkpt><trkpt lat="50.860936264242504" lon="15.210344098710106"></trkpt><trkpt lat="50.86050879656034" lon="15.21055651852079"></trkpt><trkpt lat="50.86007983796911" lon="15.21076967920297"></trkpt><trkpt lat="50.8599991" lon="15.2108098"></trkpt><trkpt lat="50.859652441011576" lon="15.210985484122773"></trkpt><trkpt lat="50.859652441011576" lon="15.210985484122775"></trkpt><trkpt lat="50.859652441011576" lon="15.210985484122773"></trkpt><trkpt lat="50.8596384" lon="15.2109926"></trkpt><trkpt lat="50.859384" lon="15.2110437"></trkpt><trkpt lat="50.85919271129877" lon="15.210993572429343"></trkpt><trkpt lat="50.85919271129877" lon="15.210993572429345"></trkpt><trkpt lat="50.85919271129877" lon="15.210993572429343"></trkpt><trkpt lat="50.8589795" lon="15.2109377"></trkpt><trkpt lat="50.8588395" lon="15.2109382"></trkpt><trkpt lat="50.8587505" lon="15.210983"></trkpt><trkpt lat="50.8587156" lon="15.2110526"></trkpt><trkpt lat="50.8587397" lon="15.211239"></trkpt><trkpt lat="50.8588433" lon="15.2113501"></trkpt><trkpt lat="50.8592903" lon="15.2115461"></trkpt><trkpt lat="50.85937246869787" lon="15.211602290471994"></trkpt><trkpt lat="50.8594048" lon="15.2116244"></trkpt><trkpt lat="50.85970634379826" lon="15.212041591340538"></trkpt><trkpt lat="50.85970634379826" lon="15.212041591340537"></trkpt><trkpt lat="50.85970634379826" lon="15.212041591340538"></trkpt><trkpt lat="50.86004440102841" lon="15.21250929967956"></trkpt><trkpt lat="50.8602882" lon="15.2128466"></trkpt><trkpt lat="50.860417233097365" lon="15.212956721481987"></trkpt><trkpt lat="50.8608091642968" lon="15.213291209651299"></trkpt><trkpt lat="50.8608091642968" lon="15.2132912096513"></trkpt><trkpt lat="50.8608091642968" lon="15.213291209651299"></trkpt><trkpt lat="50.860847" lon="15.2133235"></trkpt><trkpt lat="50.8610758" lon="15.2134167"></trkpt><trkpt lat="50.8611852" lon="15.2134639"></trkpt><trkpt lat="50.861259424428674" lon="15.21346935151171"></trkpt><trkpt lat="50.8613622" lon="15.2134769"></trkpt><trkpt lat="50.8614725" lon="15.2135518"></trkpt><trkpt lat="50.8615014" lon="15.2137575"></trkpt><trkpt lat="50.8614372" lon="15.2138989"></trkpt><trkpt lat="50.8613678" lon="15.2139345"></trkpt><trkpt lat="50.8611495" lon="15.21391"></trkpt><trkpt lat="50.8608065" lon="15.214031"></trkpt><trkpt lat="50.8608717" lon="15.2142043"></trkpt><trkpt lat="50.86089306735196" lon="15.214221985698725"></trkpt><trkpt lat="50.86089306735196" lon="15.214221985698723"></trkpt><trkpt lat="50.86089306735196" lon="15.214221985698725"></trkpt><trkpt lat="50.861058" lon="15.2143585"></trkpt><trkpt lat="50.86105" lon="15.2144864"></trkpt><trkpt lat="50.8611622" lon="15.2145471"></trkpt><trkpt lat="50.8611958" lon="15.2147156"></trkpt><trkpt lat="50.8611707" lon="15.2147958"></trkpt><trkpt lat="50.8612658" lon="15.2150227"></trkpt><trkpt lat="50.8611973" lon="15.215187"></trkpt><trkpt lat="50.86126370997951" lon="15.215451869699228"></trkpt><trkpt lat="50.86126370997951" lon="15.21545186969923"></trkpt><trkpt lat="50.86126370997951" lon="15.215451869699228"></trkpt><trkpt lat="50.8611973" lon="15.215187"></trkpt><trkpt lat="50.8612658" lon="15.2150227"></trkpt><trkpt lat="50.8611707" lon="15.2147958"></trkpt><trkpt lat="50.8611958" lon="15.2147156"></trkpt><trkpt lat="50.86118516109016" lon="15.214662247133719"></trkpt><trkpt lat="50.86118516109016" lon="15.21466224713372"></trkpt><trkpt lat="50.86118516109016" lon="15.214662247133719"></trkpt><trkpt lat="50.8611622" lon="15.2145471"></trkpt><trkpt lat="50.86105" lon="15.2144864"></trkpt><trkpt lat="50.861058" lon="15.2143585"></trkpt><trkpt lat="50.8608717" lon="15.2142043"></trkpt><trkpt lat="50.860862724779054" lon="15.214180444082979"></trkpt><trkpt lat="50.8608065" lon="15.214031"></trkpt><trkpt lat="50.8606248" lon="15.2141158"></trkpt><trkpt lat="50.86036785659683" lon="15.214178678252166"></trkpt><trkpt lat="50.8602652" lon="15.2142038"></trkpt><trkpt lat="50.859930786985835" lon="15.214309755280626"></trkpt><trkpt lat="50.8598893" lon="15.2143229"></trkpt><trkpt lat="50.8595232" lon="15.2143281"></trkpt><trkpt lat="50.859470858302856" lon="15.21431569532033"></trkpt><trkpt lat="50.859108" lon="15.2142297"></trkpt><trkpt lat="50.85901732491742" lon="15.214181086813204"></trkpt><trkpt lat="50.85859189881288" lon="15.21395300520468"></trkpt><trkpt lat="50.8585516" lon="15.2139314"></trkpt><trkpt lat="50.8581668" lon="15.2136022"></trkpt><trkpt lat="50.8580725" lon="15.2135532"></trkpt><trkpt lat="50.8579598" lon="15.2136458"></trkpt><trkpt lat="50.8579242" lon="15.2138173"></trkpt><trkpt lat="50.8579796" lon="15.2140096"></trkpt><trkpt lat="50.8583373" lon="15.2141333"></trkpt><trkpt lat="50.8584564" lon="15.2142402"></trkpt><trkpt lat="50.8585826" lon="15.2144321"></trkpt><trkpt lat="50.8586017" lon="15.2145649"></trkpt><trkpt lat="50.8585527" lon="15.2146438"></trkpt><trkpt lat="50.8584677" lon="15.2146482"></trkpt><trkpt lat="50.8583529" lon="15.2146013"></trkpt><trkpt lat="50.85799968697169" lon="15.214439136421557"></trkpt><trkpt lat="50.85799968697169" lon="15.214439136421555"></trkpt><trkpt lat="50.85799968697169" lon="15.214439136421557"></trkpt><trkpt lat="50.8578968" lon="15.2143919"></trkpt><trkpt lat="50.857565365200756" lon="15.214449468260398"></trkpt><trkpt lat="50.85711902795272" lon="15.214526994395188"></trkpt><trkpt lat="50.857043" lon="15.2145402"></trkpt><trkpt lat="50.8566819191289" lon="15.21472772681537"></trkpt><trkpt lat="50.85625985595548" lon="15.214946924699094"></trkpt><trkpt lat="50.8562264" lon="15.2149643"></trkpt><trkpt lat="50.8558976" lon="15.2149422"></trkpt><trkpt lat="50.85579789095791" lon="15.215026219894902"></trkpt><trkpt lat="50.85540200463658" lon="15.215359813783829"></trkpt><trkpt lat="50.85500611871716" lon="15.215693407334092"></trkpt><trkpt lat="50.85500611871716" lon="15.215693407334093"></trkpt><trkpt lat="50.85500611871716" lon="15.215693407334092"></trkpt><trkpt lat="50.85461023319962" lon="15.2160270005457"></trkpt><trkpt lat="50.85461023319962" lon="15.216027000545697"></trkpt><trkpt lat="50.85461023319962" lon="15.2160270005457"></trkpt><trkpt lat="50.8545274" lon="15.2160968"></trkpt><trkpt lat="50.854172685185716" lon="15.21622398483844"></trkpt><trkpt lat="50.854172685185716" lon="15.216223984838441"></trkpt><trkpt lat="50.854172685185716" lon="15.21622398483844"></trkpt><trkpt lat="50.8538851" lon="15.2163271"></trkpt><trkpt lat="50.8539544" lon="15.2164913"></trkpt><trkpt lat="50.8539457" lon="15.216571"></trkpt><trkpt lat="50.8539912" lon="15.2167699"></trkpt><trkpt lat="50.853991" lon="15.2168762"></trkpt><trkpt lat="50.8540839" lon="15.2170091"></trkpt><trkpt lat="50.854139" lon="15.2170198"></trkpt><trkpt lat="50.8542053" lon="15.2171385"></trkpt><trkpt lat="50.85420843214451" lon="15.217140765954106"></trkpt><trkpt lat="50.85420843214451" lon="15.217140765954108"></trkpt><trkpt lat="50.85420843214451" lon="15.217140765954106"></trkpt><trkpt lat="50.8542957" lon="15.2172039"></trkpt><trkpt lat="50.8543525" lon="15.2174296"></trkpt><trkpt lat="50.8545891" lon="15.217584"></trkpt><trkpt lat="50.85460023269115" lon="15.217648519005529"></trkpt><trkpt lat="50.8546111" lon="15.2177115"></trkpt><trkpt lat="50.8545847" lon="15.2178221"></trkpt><trkpt lat="50.8545854" lon="15.2178901"></trkpt><trkpt lat="50.8546098" lon="15.2179612"></trkpt><trkpt lat="50.8547929" lon="15.2179557"></trkpt><trkpt lat="50.854903588231345" lon="15.218018979115923"></trkpt><trkpt lat="50.8549582" lon="15.2180502"></trkpt><trkpt lat="50.8550629" lon="15.2181266"></trkpt><trkpt lat="50.8551629" lon="15.2181157"></trkpt><trkpt lat="50.8552953" lon="15.2181127"></trkpt><trkpt lat="50.855343846064336" lon="15.218128001051797"></trkpt><trkpt lat="50.8554" lon="15.2181457"></trkpt><trkpt lat="50.8556477" lon="15.2183028"></trkpt><trkpt lat="50.855712" lon="15.2183711"></trkpt><trkpt lat="50.8557757" lon="15.2181841"></trkpt><trkpt lat="50.8558267" lon="15.2181745"></trkpt><trkpt lat="50.8558907" lon="15.2181443"></trkpt><trkpt lat="50.855939" lon="15.2181056"></trkpt><trkpt lat="50.8559695" lon="15.2180758"></trkpt><trkpt lat="50.8560041" lon="15.218025"></trkpt><trkpt lat="50.8560379" lon="15.2179277"></trkpt><trkpt lat="50.8560595" lon="15.2178756"></trkpt><trkpt lat="50.8561019" lon="15.2178399"></trkpt><trkpt lat="50.85613025567132" lon="15.217797329857794"></trkpt><trkpt lat="50.8561406" lon="15.2177818"></trkpt><trkpt lat="50.8561711" lon="15.2177604"></trkpt><trkpt lat="50.8562049" lon="15.2177385"></trkpt><trkpt lat="50.8562473" lon="15.2176932"></trkpt><trkpt lat="50.8562776" lon="15.2176549"></trkpt><trkpt lat="50.8562837" lon="15.2176082"></trkpt><trkpt lat="50.8562548" lon="15.2174707"></trkpt><trkpt lat="50.8561871" lon="15.2172668"></trkpt><trkpt lat="50.8560991" lon="15.2171595"></trkpt><trkpt lat="50.8560516" lon="15.2170522"></trkpt><trkpt lat="50.8560584" lon="15.2169771"></trkpt><trkpt lat="50.8561058" lon="15.2169771"></trkpt><trkpt lat="50.8562074" lon="15.2171059"></trkpt><trkpt lat="50.8561058" lon="15.2169771"></trkpt><trkpt lat="50.8560584" lon="15.2169771"></trkpt><trkpt lat="50.8560516" lon="15.2170522"></trkpt><trkpt lat="50.8560991" lon="15.2171595"></trkpt><trkpt lat="50.8561871" lon="15.2172668"></trkpt><trkpt lat="50.8562548" lon="15.2174707"></trkpt><trkpt lat="50.8562837" lon="15.2176082"></trkpt><trkpt lat="50.8562776" lon="15.2176549"></trkpt><trkpt lat="50.8562473" lon="15.2176932"></trkpt><trkpt lat="50.8562049" lon="15.2177385"></trkpt><trkpt lat="50.8561711" lon="15.2177604"></trkpt><trkpt lat="50.8561406" lon="15.2177818"></trkpt><trkpt lat="50.8561019" lon="15.2178399"></trkpt><trkpt lat="50.8560595" lon="15.2178756"></trkpt><trkpt lat="50.8560379" lon="15.2179277"></trkpt><trkpt lat="50.8560041" lon="15.218025"></trkpt><trkpt lat="50.855972954358776" lon="15.21807072828249"></trkpt><trkpt lat="50.855972954358776" lon="15.218070728282488"></trkpt><trkpt lat="50.855972954358776" lon="15.21807072828249"></trkpt><trkpt lat="50.8559695" lon="15.2180758"></trkpt><trkpt lat="50.855939" lon="15.2181056"></trkpt><trkpt lat="50.8558907" lon="15.2181443"></trkpt><trkpt lat="50.8558267" lon="15.2181745"></trkpt><trkpt lat="50.8557757" lon="15.2181841"></trkpt><trkpt lat="50.855712" lon="15.2183711"></trkpt><trkpt lat="50.8556756" lon="15.2184891"></trkpt><trkpt lat="50.85565500737283" lon="15.21856054746296"></trkpt><trkpt lat="50.85565500737283" lon="15.218560547462962"></trkpt><trkpt lat="50.85565500737283" lon="15.21856054746296"></trkpt><trkpt lat="50.8556411" lon="15.2186088"></trkpt><trkpt lat="50.8555613" lon="15.2187095"></trkpt><trkpt lat="50.8555359" lon="15.2187311"></trkpt><trkpt lat="50.8555108" lon="15.2187626"></trkpt><trkpt lat="50.8555047" lon="15.2188285"></trkpt><trkpt lat="50.8554935" lon="15.2189409"></trkpt><trkpt lat="50.8554788" lon="15.2190368"></trkpt><trkpt lat="50.8554658" lon="15.2191218"></trkpt><trkpt lat="50.8554704369188" lon="15.219206961981904"></trkpt><trkpt lat="50.855477" lon="15.2193275"></trkpt><trkpt lat="50.8554762" lon="15.2193796"></trkpt><trkpt lat="50.8554632" lon="15.2194769"></trkpt><trkpt lat="50.8554206" lon="15.2197113"></trkpt><trkpt lat="50.8554355" lon="15.2197991"></trkpt><trkpt lat="50.8554398" lon="15.2198553"></trkpt><trkpt lat="50.85544819292349" lon="15.21987302491534"></trkpt><trkpt lat="50.85544819292349" lon="15.219873024915339"></trkpt><trkpt lat="50.85544819292349" lon="15.21987302491534"></trkpt><trkpt lat="50.8554684" lon="15.2199157"></trkpt><trkpt lat="50.8554857" lon="15.2199815"></trkpt><trkpt lat="50.8554796" lon="15.2200692"></trkpt><trkpt lat="50.8554467" lon="15.2202036"></trkpt><trkpt lat="50.8554095" lon="15.2202968"></trkpt><trkpt lat="50.8553405" lon="15.2203897"></trkpt><trkpt lat="50.85529729619327" lon="15.220503023088456"></trkpt><trkpt lat="50.855297" lon="15.2205038"></trkpt><trkpt lat="50.8552892" lon="15.2205683"></trkpt><trkpt lat="50.8552953" lon="15.2206738"></trkpt><trkpt lat="50.855323" lon="15.2207205"></trkpt><trkpt lat="50.8553623" lon="15.2207377"></trkpt><trkpt lat="50.8553697" lon="15.2207753"></trkpt><trkpt lat="50.855365" lon="15.2208143"></trkpt><trkpt lat="50.8553666" lon="15.2209023"></trkpt><trkpt lat="50.8553593" lon="15.2209782"></trkpt><trkpt lat="50.8553584" lon="15.2210385"></trkpt><trkpt lat="50.855342" lon="15.2210893"></trkpt><trkpt lat="50.855325" lon="15.2211539"></trkpt><trkpt lat="50.85528302744226" lon="15.22121610120921"></trkpt><trkpt lat="50.85528302744226" lon="15.221216101209208"></trkpt><trkpt lat="50.85528302744226" lon="15.22121610120921"></trkpt><trkpt lat="50.8552142" lon="15.2213181"></trkpt><trkpt lat="50.8550969" lon="15.2215242"></trkpt><trkpt lat="50.8550116" lon="15.2215563"></trkpt><trkpt lat="50.8549749" lon="15.2216359"></trkpt><trkpt lat="50.854984417309716" lon="15.22172108207518"></trkpt><trkpt lat="50.854997" lon="15.2218337"></trkpt><trkpt lat="50.8549896" lon="15.2218639"></trkpt><trkpt lat="50.8549779" lon="15.2218957"></trkpt><trkpt lat="50.8549354" lon="15.2219491"></trkpt><trkpt lat="50.854909" lon="15.2219933"></trkpt><trkpt lat="50.8548738" lon="15.2220482"></trkpt><trkpt lat="50.854841" lon="15.2220963"></trkpt><trkpt lat="50.8548004" lon="15.2221327"></trkpt><trkpt lat="50.8547765" lon="15.222183"></trkpt><trkpt lat="50.8547403" lon="15.2222155"></trkpt><trkpt lat="50.8547095" lon="15.2222349"></trkpt><trkpt lat="50.854674797941676" lon="15.222263095422388"></trkpt><trkpt lat="50.8546743" lon="15.2222635"></trkpt><trkpt lat="50.8546484" lon="15.2222992"></trkpt><trkpt lat="50.8546264" lon="15.2223449"></trkpt><trkpt lat="50.8545961" lon="15.2223782"></trkpt><trkpt lat="50.8545217" lon="15.2224502"></trkpt><trkpt lat="50.8544078" lon="15.2225129"></trkpt><trkpt lat="50.8543319" lon="15.2225232"></trkpt><trkpt lat="50.8542782321981" lon="15.222577281825446"></trkpt><trkpt lat="50.8542282" lon="15.2226277"></trkpt><trkpt lat="50.8541332" lon="15.2227049"></trkpt><trkpt lat="50.8540013" lon="15.2229287"></trkpt><trkpt lat="50.853940034733" lon="15.2230233642837"></trkpt><trkpt lat="50.8539105" lon="15.223069"></trkpt><trkpt lat="50.8538585" lon="15.2231437"></trkpt><trkpt lat="50.8538261" lon="15.2231966"></trkpt><trkpt lat="50.8537321" lon="15.2234392"></trkpt><trkpt lat="50.8537026" lon="15.223504"></trkpt><trkpt lat="50.8536869" lon="15.2235187"></trkpt><trkpt lat="50.8536696" lon="15.2235324"></trkpt><trkpt lat="50.8536603" lon="15.2235812"></trkpt><trkpt lat="50.853662538164116" lon="15.223631372178929"></trkpt><trkpt lat="50.8536639" lon="15.2236619"></trkpt><trkpt lat="50.8536689" lon="15.2237346"></trkpt><trkpt lat="50.8536575" lon="15.2237971"></trkpt><trkpt lat="50.8536173" lon="15.2239335"></trkpt><trkpt lat="50.8536029" lon="15.2239971"></trkpt><trkpt lat="50.8535025" lon="15.2241448"></trkpt><trkpt lat="50.8534602" lon="15.2242107"></trkpt><trkpt lat="50.85345406445123" lon="15.224227017948857"></trkpt><trkpt lat="50.85345406445123" lon="15.224227017948856"></trkpt><trkpt lat="50.85345406445123" lon="15.224227017948857"></trkpt><trkpt lat="50.8534179" lon="15.2243232"></trkpt><trkpt lat="50.8533953" lon="15.2244108"></trkpt><trkpt lat="50.8533332" lon="15.2244911"></trkpt><trkpt lat="50.85318921445066" lon="15.224806432575502"></trkpt><trkpt lat="50.85318921445066" lon="15.2248064325755"></trkpt><trkpt lat="50.85318921445066" lon="15.224806432575502"></trkpt><trkpt lat="50.8533332" lon="15.2244911"></trkpt><trkpt lat="50.8533953" lon="15.2244108"></trkpt><trkpt lat="50.8534179" lon="15.2243232"></trkpt><trkpt lat="50.8534602" lon="15.2242107"></trkpt><trkpt lat="50.8535025" lon="15.2241448"></trkpt><trkpt lat="50.8536029" lon="15.2239971"></trkpt><trkpt lat="50.853615660598706" lon="15.223940740689073"></trkpt><trkpt lat="50.853615660598706" lon="15.223940740689075"></trkpt><trkpt lat="50.853615660598706" lon="15.223940740689073"></trkpt><trkpt lat="50.8536173" lon="15.2239335"></trkpt><trkpt lat="50.8536575" lon="15.2237971"></trkpt><trkpt lat="50.8536689" lon="15.2237346"></trkpt><trkpt lat="50.8536639" lon="15.2236619"></trkpt><trkpt lat="50.8536603" lon="15.2235812"></trkpt><trkpt lat="50.8536696" lon="15.2235324"></trkpt><trkpt lat="50.8536869" lon="15.2235187"></trkpt><trkpt lat="50.8537026" lon="15.223504"></trkpt><trkpt lat="50.8537321" lon="15.2234392"></trkpt><trkpt lat="50.853786406624145" lon="15.223299042691297"></trkpt><trkpt lat="50.853786406624145" lon="15.223299042691295"></trkpt><trkpt lat="50.853786406624145" lon="15.223299042691297"></trkpt><trkpt lat="50.8538261" lon="15.2231966"></trkpt><trkpt lat="50.8538585" lon="15.2231437"></trkpt><trkpt lat="50.8539105" lon="15.223069"></trkpt><trkpt lat="50.8540013" lon="15.2229287"></trkpt><trkpt lat="50.854093775089275" lon="15.222771793821229"></trkpt><trkpt lat="50.854093775089275" lon="15.222771793821227"></trkpt><trkpt lat="50.854093775089275" lon="15.222771793821229"></trkpt><trkpt lat="50.8541332" lon="15.2227049"></trkpt><trkpt lat="50.8542282" lon="15.2226277"></trkpt><trkpt lat="50.8543319" lon="15.2225232"></trkpt><trkpt lat="50.8544078" lon="15.2225129"></trkpt><trkpt lat="50.85448598851564" lon="15.222469858560748"></trkpt><trkpt lat="50.8545217" lon="15.2224502"></trkpt><trkpt lat="50.8545961" lon="15.2223782"></trkpt><trkpt lat="50.8546264" lon="15.2223449"></trkpt><trkpt lat="50.8546484" lon="15.2222992"></trkpt><trkpt lat="50.8546743" lon="15.2222635"></trkpt><trkpt lat="50.8547095" lon="15.2222349"></trkpt><trkpt lat="50.8547403" lon="15.2222155"></trkpt><trkpt lat="50.8547765" lon="15.222183"></trkpt><trkpt lat="50.8548004" lon="15.2221327"></trkpt><trkpt lat="50.854841" lon="15.2220963"></trkpt><trkpt lat="50.854868556203776" lon="15.222055889835316"></trkpt><trkpt lat="50.8548738" lon="15.2220482"></trkpt><trkpt lat="50.854909" lon="15.2219933"></trkpt><trkpt lat="50.8549354" lon="15.2219491"></trkpt><trkpt lat="50.8549779" lon="15.2218957"></trkpt><trkpt lat="50.8549896" lon="15.2218639"></trkpt><trkpt lat="50.854997" lon="15.2218337"></trkpt><trkpt lat="50.8549749" lon="15.2216359"></trkpt><trkpt lat="50.8550116" lon="15.2215563"></trkpt><trkpt lat="50.8550969" lon="15.2215242"></trkpt><trkpt lat="50.85513088086461" lon="15.221464494491086"></trkpt><trkpt lat="50.8552142" lon="15.2213181"></trkpt><trkpt lat="50.855325" lon="15.2211539"></trkpt><trkpt lat="50.855342" lon="15.2210893"></trkpt><trkpt lat="50.8553584" lon="15.2210385"></trkpt><trkpt lat="50.8553593" lon="15.2209782"></trkpt><trkpt lat="50.8553666" lon="15.2209023"></trkpt><trkpt lat="50.855365" lon="15.2208143"></trkpt><trkpt lat="50.8553697" lon="15.2207753"></trkpt><trkpt lat="50.8553623" lon="15.2207377"></trkpt><trkpt lat="50.855323" lon="15.2207205"></trkpt><trkpt lat="50.8552953" lon="15.2206738"></trkpt><trkpt lat="50.8552892" lon="15.2205683"></trkpt><trkpt lat="50.855297" lon="15.2205038"></trkpt><trkpt lat="50.8553405" lon="15.2203897"></trkpt><trkpt lat="50.8554095" lon="15.2202968"></trkpt><trkpt lat="50.8554467" lon="15.2202036"></trkpt><trkpt lat="50.8554796" lon="15.2200692"></trkpt><trkpt lat="50.8554857" lon="15.2199815"></trkpt><trkpt lat="50.8554684" lon="15.2199157"></trkpt><trkpt lat="50.8554398" lon="15.2198553"></trkpt><trkpt lat="50.8554355" lon="15.2197991"></trkpt><trkpt lat="50.8554206" lon="15.2197113"></trkpt><trkpt lat="50.8554632" lon="15.2194769"></trkpt><trkpt lat="50.8554762" lon="15.2193796"></trkpt><trkpt lat="50.855477" lon="15.2193275"></trkpt><trkpt lat="50.8554658" lon="15.2191218"></trkpt><trkpt lat="50.8554788" lon="15.2190368"></trkpt><trkpt lat="50.8554935" lon="15.2189409"></trkpt><trkpt lat="50.8555047" lon="15.2188285"></trkpt><trkpt lat="50.8555108" lon="15.2187626"></trkpt><trkpt lat="50.8555359" lon="15.2187311"></trkpt><trkpt lat="50.85554162819968" lon="15.218726228775074"></trkpt><trkpt lat="50.85554162819968" lon="15.218726228775076"></trkpt><trkpt lat="50.85554162819968" lon="15.218726228775074"></trkpt><trkpt lat="50.8555613" lon="15.2187095"></trkpt><trkpt lat="50.8556411" lon="15.2186088"></trkpt><trkpt lat="50.8556756" lon="15.2184891"></trkpt><trkpt lat="50.855712" lon="15.2183711"></trkpt><trkpt lat="50.8556477" lon="15.2183028"></trkpt><trkpt lat="50.8554" lon="15.2181457"></trkpt><trkpt lat="50.8552953" lon="15.2181127"></trkpt><trkpt lat="50.855223480427206" lon="15.21811432733171"></trkpt><trkpt lat="50.8551629" lon="15.2181157"></trkpt><trkpt lat="50.8550629" lon="15.2181266"></trkpt><trkpt lat="50.8549582" lon="15.2180502"></trkpt><trkpt lat="50.8547929" lon="15.2179557"></trkpt><trkpt lat="50.85478031163894" lon="15.21795607813209"></trkpt><trkpt lat="50.8546098" lon="15.2179612"></trkpt><trkpt lat="50.8545854" lon="15.2178901"></trkpt><trkpt lat="50.8545847" lon="15.2178221"></trkpt><trkpt lat="50.8546111" lon="15.2177115"></trkpt><trkpt lat="50.8545891" lon="15.217584"></trkpt><trkpt lat="50.85447721744417" lon="15.21751098788411"></trkpt><trkpt lat="50.8543525" lon="15.2174296"></trkpt><trkpt lat="50.8542957" lon="15.2172039"></trkpt><trkpt lat="50.8542053" lon="15.2171385"></trkpt><trkpt lat="50.854160182042094" lon="15.217057723203565"></trkpt><trkpt lat="50.854139" lon="15.2170198"></trkpt><trkpt lat="50.8540839" lon="15.2170091"></trkpt><trkpt lat="50.853991" lon="15.2168762"></trkpt><trkpt lat="50.8539912" lon="15.2167699"></trkpt><trkpt lat="50.8539457" lon="15.216571"></trkpt><trkpt lat="50.85394675249233" lon="15.216561358202457"></trkpt><trkpt lat="50.8539544" lon="15.2164913"></trkpt><trkpt lat="50.8538851" lon="15.2163271"></trkpt><trkpt lat="50.8535964" lon="15.2164151"></trkpt><trkpt lat="50.853431867067535" lon="15.216517613501281"></trkpt><trkpt lat="50.853431867067535" lon="15.21651761350128"></trkpt><trkpt lat="50.853431867067535" lon="15.216517613501281"></trkpt><trkpt lat="50.8533969" lon="15.2165394"></trkpt><trkpt lat="50.8531918" lon="15.2167149"></trkpt><trkpt lat="50.853052344306846" lon="15.216903896766558"></trkpt><trkpt lat="50.8529621" lon="15.2170262"></trkpt><trkpt lat="50.8528215" lon="15.2171401"></trkpt><trkpt lat="50.85266029932943" lon="15.217255629104034"></trkpt><trkpt lat="50.8525469" lon="15.2173369"></trkpt><trkpt lat="50.852354" lon="15.2174767"></trkpt><trkpt lat="50.85225598128278" lon="15.217576374741208"></trkpt><trkpt lat="50.852135" lon="15.2176994"></trkpt><trkpt lat="50.8518996" lon="15.2179687"></trkpt><trkpt lat="50.85188211510831" lon="15.21799541495147"></trkpt><trkpt lat="50.85188211510831" lon="15.217995414951472"></trkpt><trkpt lat="50.85188211510831" lon="15.21799541495147"></trkpt><trkpt lat="50.8516217" lon="15.2183933"></trkpt><trkpt lat="50.851565407152414" lon="15.218490989925726"></trkpt><trkpt lat="50.8515276" lon="15.2185566"></trkpt><trkpt lat="50.8512987" lon="15.2188371"></trkpt><trkpt lat="50.85120377188364" lon="15.218924809491092"></trkpt><trkpt lat="50.85120377188364" lon="15.21892480949109"></trkpt><trkpt lat="50.85120377188364" lon="15.218924809491092"></trkpt><trkpt lat="50.8508529" lon="15.219249"></trkpt><trkpt lat="50.85081560340067" lon="15.21928057315529"></trkpt><trkpt lat="50.85081560340067" lon="15.219280573155288"></trkpt><trkpt lat="50.85081560340067" lon="15.21928057315529"></trkpt><trkpt lat="50.8505362" lon="15.2195171"></trkpt><trkpt lat="50.85041234844392" lon="15.219598825606102"></trkpt><trkpt lat="50.8503401" lon="15.2196465"></trkpt><trkpt lat="50.85000421379966" lon="15.219896028449238"></trkpt><trkpt lat="50.85000421379966" lon="15.21989602844924"></trkpt><trkpt lat="50.85000421379966" lon="15.219896028449238"></trkpt><trkpt lat="50.8499706" lon="15.219921"></trkpt><trkpt lat="50.8497777" lon="15.2201126"></trkpt><trkpt lat="50.849606970460044" lon="15.22023089778573"></trkpt><trkpt lat="50.8494638" lon="15.2203301"></trkpt><trkpt lat="50.8492644" lon="15.2205062"></trkpt><trkpt lat="50.84920354034701" lon="15.220543714120486"></trkpt><trkpt lat="50.84920354034701" lon="15.220543714120488"></trkpt><trkpt lat="50.84920354034701" lon="15.220543714120486"></trkpt><trkpt lat="50.8491059" lon="15.2206039"></trkpt><trkpt lat="50.8488426" lon="15.2207651"></trkpt><trkpt lat="50.848783702226726" lon="15.220797428522468"></trkpt><trkpt lat="50.848783702226726" lon="15.22079742852247"></trkpt><trkpt lat="50.848783702226726" lon="15.220797428522468"></trkpt><trkpt lat="50.8484274" lon="15.220993"></trkpt><trkpt lat="50.84835922513984" lon="15.22103232935904"></trkpt><trkpt lat="50.8479696" lon="15.2212571"></trkpt><trkpt lat="50.8479361586328" lon="15.221274250760274"></trkpt><trkpt lat="50.8479361586328" lon="15.221274250760272"></trkpt><trkpt lat="50.8479361586328" lon="15.221274250760274"></trkpt><trkpt lat="50.84750858250176" lon="15.221493537719377"></trkpt><trkpt lat="50.8473942" lon="15.2215522"></trkpt><trkpt lat="50.847074544805366" lon="15.221678781097372"></trkpt><trkpt lat="50.847074544805366" lon="15.221678781097374"></trkpt><trkpt lat="50.847074544805366" lon="15.221678781097372"></trkpt><trkpt lat="50.8470149" lon="15.2217024"></trkpt><trkpt lat="50.846673" lon="15.2218765"></trkpt><trkpt lat="50.84664774701118" lon="15.22188998057173"></trkpt><trkpt lat="50.84664774701118" lon="15.221889980571728"></trkpt><trkpt lat="50.84664774701118" lon="15.22188998057173"></trkpt><trkpt lat="50.8466183" lon="15.2219057"></trkpt><trkpt lat="50.8464677" lon="15.2219802"></trkpt><trkpt lat="50.846198691514225" lon="15.2220118046541"></trkpt><trkpt lat="50.8460302" lon="15.2220316"></trkpt><trkpt lat="50.8457953" lon="15.2220271"></trkpt><trkpt lat="50.84575118203489" lon="15.222030129737961"></trkpt><trkpt lat="50.845689" lon="15.2220344"></trkpt><trkpt lat="50.8454715" lon="15.2219458"></trkpt><trkpt lat="50.845320074863984" lon="15.221811537646026"></trkpt><trkpt lat="50.8452324" lon="15.2217338"></trkpt><trkpt lat="50.8450114" lon="15.2214636"></trkpt><trkpt lat="50.844956266187936" lon="15.22137306019045"></trkpt><trkpt lat="50.8447677" lon="15.2210634"></trkpt><trkpt lat="50.84462554051512" lon="15.220897671968942"></trkpt><trkpt lat="50.8445397" lon="15.2207976"></trkpt><trkpt lat="50.84425422869055" lon="15.220499546501335"></trkpt><trkpt lat="50.84388043533708" lon="15.220109278151789"></trkpt><trkpt lat="50.8437093" lon="15.2199306"></trkpt><trkpt lat="50.8435259" lon="15.2197801"></trkpt><trkpt lat="50.84348031953425" lon="15.219766232683728"></trkpt><trkpt lat="50.8433277" lon="15.2197198"></trkpt><trkpt lat="50.84303936794868" lon="15.219632231588458"></trkpt><trkpt lat="50.8428529" lon="15.2195756"></trkpt><trkpt lat="50.842658" lon="15.2195128"></trkpt><trkpt lat="50.84261384237352" lon="15.219478430541798"></trkpt><trkpt lat="50.84261384237352" lon="15.2194784305418"></trkpt><trkpt lat="50.84261384237352" lon="15.219478430541798"></trkpt><trkpt lat="50.8425186" lon="15.2194043"></trkpt><trkpt lat="50.842229" lon="15.2192166"></trkpt><trkpt lat="50.84219933462261" lon="15.219196676502529"></trkpt><trkpt lat="50.8419659" lon="15.2190399"></trkpt><trkpt lat="50.8421297" lon="15.2186528"></trkpt><trkpt lat="50.8421991" lon="15.218406"></trkpt><trkpt lat="50.84224587081946" lon="15.218123075433407"></trkpt><trkpt lat="50.8423597510096" lon="15.217434194977336"></trkpt><trkpt lat="50.8423597510096" lon="15.217434194977335"></trkpt><trkpt lat="50.8423597510096" lon="15.217434194977336"></trkpt><trkpt lat="50.84247363120069" lon="15.216745314515578"></trkpt><trkpt lat="50.8424757" lon="15.2167328"></trkpt><trkpt lat="50.8425105" lon="15.2165375"></trkpt><trkpt lat="50.84258745289595" lon="15.216056604134021"></trkpt><trkpt lat="50.84269790161266" lon="15.215366385388904"></trkpt><trkpt lat="50.84269790161266" lon="15.215366385388903"></trkpt><trkpt lat="50.84269790161266" lon="15.215366385388904"></trkpt><trkpt lat="50.842808350332284" lon="15.214676166625633"></trkpt><trkpt lat="50.84291879905481" lon="15.213985947844217"></trkpt><trkpt lat="50.8429936" lon="15.2135185"></trkpt><trkpt lat="50.84302920467194" lon="15.213295728568482"></trkpt><trkpt lat="50.843139527195255" lon="15.21260546223253"></trkpt><trkpt lat="50.84324984972154" lon="15.211915195877971"></trkpt><trkpt lat="50.84336017225079" lon="15.211224929504821"></trkpt><trkpt lat="50.84336017225079" lon="15.21122492950482"></trkpt><trkpt lat="50.84336017225079" lon="15.211224929504821"></trkpt><trkpt lat="50.84347049478302" lon="15.210534663113066"></trkpt><trkpt lat="50.8435154" lon="15.2102537"></trkpt><trkpt lat="50.8435914" lon="15.2098432"></trkpt><trkpt lat="50.84359379814405" lon="15.209834830786418"></trkpt><trkpt lat="50.84359379814405" lon="15.209834830786416"></trkpt><trkpt lat="50.84359379814405" lon="15.209834830786418"></trkpt><trkpt lat="50.8436457" lon="15.2096537"></trkpt><trkpt lat="50.843719" lon="15.2094666"></trkpt><trkpt lat="50.84383819657261" lon="15.209228014010263"></trkpt><trkpt lat="50.844117209107864" lon="15.208669537533853"></trkpt><trkpt lat="50.844117209107864" lon="15.208669537533854"></trkpt><trkpt lat="50.844117209107864" lon="15.208669537533853"></trkpt><trkpt lat="50.84439622164059" lon="15.2081110610625"></trkpt><trkpt lat="50.84439622164059" lon="15.208111061062498"></trkpt><trkpt lat="50.84439622164059" lon="15.2081110610625"></trkpt><trkpt lat="50.84467523417079" lon="15.207552584596193"></trkpt><trkpt lat="50.84467523417079" lon="15.207552584596195"></trkpt><trkpt lat="50.84467523417079" lon="15.207552584596193"></trkpt><trkpt lat="50.844954246698464" lon="15.206994108134952"></trkpt><trkpt lat="50.844954246698464" lon="15.20699410813495"></trkpt><trkpt lat="50.844954246698464" lon="15.206994108134952"></trkpt><trkpt lat="50.84523325922362" lon="15.206435631678756"></trkpt><trkpt lat="50.84523325922362" lon="15.206435631678758"></trkpt><trkpt lat="50.84523325922362" lon="15.206435631678756"></trkpt><trkpt lat="50.845512271746244" lon="15.205877155227617"></trkpt><trkpt lat="50.8456351" lon="15.2056313"></trkpt><trkpt lat="50.8457001" lon="15.2055012"></trkpt><trkpt lat="50.845791289648474" lon="15.205318683023666"></trkpt><trkpt lat="50.8460975" lon="15.2047058"></trkpt><trkpt lat="50.846125699325796" lon="15.204787831985"></trkpt><trkpt lat="50.846125699325796" lon="15.204787831985001"></trkpt><trkpt lat="50.846125699325796" lon="15.204787831985"></trkpt><trkpt lat="50.8460975" lon="15.2047058"></trkpt><trkpt lat="50.846343818659854" lon="15.204196555503529"></trkpt><trkpt lat="50.846343818659854" lon="15.204196555503527"></trkpt><trkpt lat="50.846343818659854" lon="15.204196555503529"></trkpt><trkpt lat="50.8464861" lon="15.2039024"></trkpt><trkpt lat="50.84661092570292" lon="15.203627650895303"></trkpt><trkpt lat="50.84661092570292" lon="15.203627650895301"></trkpt><trkpt lat="50.84661092570292" lon="15.203627650895303"></trkpt><trkpt lat="50.8467686" lon="15.2032806"></trkpt><trkpt lat="50.8468954" lon="15.2030902"></trkpt><trkpt lat="50.84690969682586" lon="15.203070230406516"></trkpt><trkpt lat="50.84690969682586" lon="15.203070230406514"></trkpt><trkpt lat="50.84690969682586" lon="15.203070230406516"></trkpt><trkpt lat="50.8470136" lon="15.2029251"></trkpt><trkpt lat="50.84725441952636" lon="15.202616302547995"></trkpt><trkpt lat="50.84725441952636" lon="15.202616302547993"></trkpt><trkpt lat="50.84725441952636" lon="15.202616302547995"></trkpt><trkpt lat="50.847263" lon="15.2026053"></trkpt><trkpt lat="50.84765014230157" lon="15.2022506524945"></trkpt><trkpt lat="50.84765014230157" lon="15.202250652494499"></trkpt><trkpt lat="50.84765014230157" lon="15.2022506524945"></trkpt><trkpt lat="50.8477062" lon="15.2021993"></trkpt><trkpt lat="50.84806164976209" lon="15.201961378559407"></trkpt><trkpt lat="50.8482025" lon="15.2018671"></trkpt><trkpt lat="50.84848344867434" lon="15.201712162963489"></trkpt><trkpt lat="50.848693" lon="15.2015966"></trkpt><trkpt lat="50.848900281939194" lon="15.201446413684772"></trkpt><trkpt lat="50.848900281939194" lon="15.20144641368477"></trkpt><trkpt lat="50.848900281939194" lon="15.201446413684772"></trkpt><trkpt lat="50.8489769" lon="15.2013909"></trkpt><trkpt lat="50.8490665" lon="15.2012968"></trkpt><trkpt lat="50.8491075" lon="15.2012177"></trkpt><trkpt lat="50.8491313" lon="15.2010933"></trkpt><trkpt lat="50.849137" lon="15.200926"></trkpt><trkpt lat="50.84913602013732" lon="15.200913285684315"></trkpt><trkpt lat="50.8491329" lon="15.2008728"></trkpt><trkpt lat="50.8491268" lon="15.2007922"></trkpt><trkpt lat="50.8490963" lon="15.2006488"></trkpt><trkpt lat="50.8491024" lon="15.2005666"></trkpt><trkpt lat="50.8491499" lon="15.2004525"></trkpt><trkpt lat="50.849278200939" lon="15.200224995202154"></trkpt><trkpt lat="50.84957763846861" lon="15.199694028903894"></trkpt><trkpt lat="50.84957763846861" lon="15.199694028903892"></trkpt><trkpt lat="50.84957763846861" lon="15.199694028903894"></trkpt><trkpt lat="50.8495904" lon="15.1996714"></trkpt><trkpt lat="50.8498119" lon="15.1992219"></trkpt><trkpt lat="50.84984981398687" lon="15.199131164447296"></trkpt><trkpt lat="50.8499706" lon="15.1988421"></trkpt><trkpt lat="50.85005107194428" lon="15.198525029205456"></trkpt><trkpt lat="50.85005107194428" lon="15.198525029205454"></trkpt><trkpt lat="50.85005107194428" lon="15.198525029205456"></trkpt><trkpt lat="50.8500558" lon="15.1985064"></trkpt><trkpt lat="50.8501106" lon="15.1979316"></trkpt><trkpt lat="50.85012814723522" lon="15.197824064952314"></trkpt><trkpt lat="50.85012814723522" lon="15.197824064952313"></trkpt><trkpt lat="50.85012814723522" lon="15.197824064952314"></trkpt><trkpt lat="50.8501558" lon="15.1976546"></trkpt><trkpt lat="50.8501904" lon="15.197479"></trkpt><trkpt lat="50.8502424" lon="15.1973056"></trkpt><trkpt lat="50.85031798291556" lon="15.197159408486193"></trkpt><trkpt lat="50.85031798291556" lon="15.197159408486192"></trkpt><trkpt lat="50.85031798291556" lon="15.197159408486193"></trkpt><trkpt lat="50.8504688" lon="15.1968677"></trkpt><trkpt lat="50.8505783" lon="15.1966127"></trkpt><trkpt lat="50.850582819056186" lon="15.196597461888713"></trkpt><trkpt lat="50.8507267" lon="15.1961123"></trkpt><trkpt lat="50.850771146134605" lon="15.195952557021505"></trkpt><trkpt lat="50.8509159" lon="15.1954323"></trkpt><trkpt lat="50.850943" lon="15.1952736"></trkpt><trkpt lat="50.8509562" lon="15.1952829"></trkpt><trkpt lat="50.85095645783403" lon="15.195282952446556"></trkpt><trkpt lat="50.85095645783403" lon="15.195282952446554"></trkpt><trkpt lat="50.85095645783403" lon="15.195282952446556"></trkpt><trkpt lat="50.8510324" lon="15.1952984"></trkpt><trkpt lat="50.8510707" lon="15.19531"></trkpt><trkpt lat="50.8511247" lon="15.1953367"></trkpt><trkpt lat="50.851203" lon="15.1953219"></trkpt><trkpt lat="50.8512321" lon="15.1951847"></trkpt><trkpt lat="50.8513057" lon="15.1951074"></trkpt><trkpt lat="50.8513559" lon="15.1950057"></trkpt><trkpt lat="50.851361880521445" lon="15.194973542442067"></trkpt><trkpt lat="50.8513803" lon="15.1948745"></trkpt><trkpt lat="50.8514129" lon="15.1947841"></trkpt><trkpt lat="50.8514296" lon="15.1947324"></trkpt><trkpt lat="50.8514323" lon="15.1946805"></trkpt><trkpt lat="50.8513982" lon="15.1946347"></trkpt><trkpt lat="50.8513662" lon="15.1946215"></trkpt><trkpt lat="50.8513377" lon="15.194615"></trkpt><trkpt lat="50.8513333" lon="15.1945845"></trkpt><trkpt lat="50.8513412" lon="15.1945545"></trkpt><trkpt lat="50.8514434" lon="15.1944738"></trkpt><trkpt lat="50.85154823944814" lon="15.194338007120132"></trkpt><trkpt lat="50.85154823944814" lon="15.194338007120134"></trkpt><trkpt lat="50.85154823944814" lon="15.194338007120132"></trkpt><trkpt lat="50.8515633" lon="15.1943185"></trkpt><trkpt lat="50.8515904" lon="15.1942317"></trkpt><trkpt lat="50.8515894" lon="15.1941775"></trkpt><trkpt lat="50.8515928" lon="15.1941162"></trkpt><trkpt lat="50.8515884" lon="15.1940061"></trkpt><trkpt lat="50.851579" lon="15.1938811"></trkpt><trkpt lat="50.8515597" lon="15.193717"></trkpt><trkpt lat="50.8515777" lon="15.1936772"></trkpt><trkpt lat="50.8516474" lon="15.1937113"></trkpt><trkpt lat="50.8517309" lon="15.1938411"></trkpt><trkpt lat="50.851788" lon="15.1940118"></trkpt><trkpt lat="50.8518305" lon="15.1943072"></trkpt><trkpt lat="50.8518396" lon="15.1943631"></trkpt><trkpt lat="50.8518615" lon="15.1943605"></trkpt><trkpt lat="50.8518728" lon="15.1943371"></trkpt><trkpt lat="50.8518946" lon="15.1942447"></trkpt><trkpt lat="50.8519122" lon="15.1941049"></trkpt><trkpt lat="50.85189" lon="15.1939259"></trkpt><trkpt lat="50.8518816" lon="15.1938374"></trkpt><trkpt lat="50.8519068" lon="15.1938101"></trkpt><trkpt lat="50.851937" lon="15.1938142"></trkpt><trkpt lat="50.8519764" lon="15.1938933"></trkpt><trkpt lat="50.8520122" lon="15.1940271"></trkpt><trkpt lat="50.852039" lon="15.1941537"></trkpt><trkpt lat="50.8520382" lon="15.1942844"></trkpt><trkpt lat="50.85200575098713" lon="15.194441743911351"></trkpt><trkpt lat="50.8519806" lon="15.1945637"></trkpt><trkpt lat="50.8518914" lon="15.1947538"></trkpt><trkpt lat="50.8518295" lon="15.1948888"></trkpt><trkpt lat="50.8518361" lon="15.1949415"></trkpt><trkpt lat="50.8518604" lon="15.1949702"></trkpt><trkpt lat="50.851884" lon="15.1949689"></trkpt><trkpt lat="50.8519116" lon="15.1949269"></trkpt><trkpt lat="50.8520304" lon="15.194743"></trkpt><trkpt lat="50.8521173" lon="15.1945823"></trkpt><trkpt lat="50.852138" lon="15.1944854"></trkpt><trkpt lat="50.8521984" lon="15.1942385"></trkpt><trkpt lat="50.8521839" lon="15.1941352"></trkpt><trkpt lat="50.8521379" lon="15.1940173"></trkpt><trkpt lat="50.852144" lon="15.1939356"></trkpt><trkpt lat="50.852193" lon="15.1937513"></trkpt><trkpt lat="50.8521928" lon="15.1936093"></trkpt><trkpt lat="50.8521765" lon="15.1935244"></trkpt><trkpt lat="50.8521172" lon="15.1934238"></trkpt><trkpt lat="50.85207462476107" lon="15.193375296019425"></trkpt><trkpt lat="50.85207462476107" lon="15.193375296019427"></trkpt><trkpt lat="50.85207462476107" lon="15.193375296019425"></trkpt><trkpt lat="50.8520181" lon="15.1933109"></trkpt><trkpt lat="50.8520092" lon="15.193291"></trkpt><trkpt lat="50.8519999" lon="15.1932574"></trkpt><trkpt lat="50.8520112" lon="15.1932161"></trkpt><trkpt lat="50.8520421" lon="15.1931768"></trkpt><trkpt lat="50.8521221" lon="15.1931556"></trkpt><trkpt lat="50.8522361" lon="15.1931115"></trkpt><trkpt lat="50.8523132" lon="15.1930145"></trkpt><trkpt lat="50.852359954580436" lon="15.192949735364344"></trkpt><trkpt lat="50.852359954580436" lon="15.192949735364346"></trkpt><trkpt lat="50.852359954580436" lon="15.192949735364344"></trkpt><trkpt lat="50.8523916" lon="15.1929059"></trkpt><trkpt lat="50.852508" lon="15.1927205"></trkpt><trkpt lat="50.8526063" lon="15.192616"></trkpt><trkpt lat="50.852712586811094" lon="15.1925213131959"></trkpt><trkpt lat="50.8527584" lon="15.1924805"></trkpt><trkpt lat="50.8529811" lon="15.192417"></trkpt><trkpt lat="50.8531036" lon="15.1923209"></trkpt><trkpt lat="50.853141889786066" lon="15.192288161046058"></trkpt><trkpt lat="50.8533133" lon="15.1921416"></trkpt><trkpt lat="50.8534747" lon="15.1920094"></trkpt><trkpt lat="50.85355009099069" lon="15.19199202729345"></trkpt><trkpt lat="50.8535897" lon="15.1919829"></trkpt><trkpt lat="50.8538275" lon="15.1920067"></trkpt><trkpt lat="50.853996353615855" lon="15.192075642964923"></trkpt><trkpt lat="50.853996353615855" lon="15.192075642964925"></trkpt><trkpt lat="50.853996353615855" lon="15.192075642964923"></trkpt><trkpt lat="50.8542299" lon="15.192171"></trkpt><trkpt lat="50.854431831446" lon="15.192252656085403"></trkpt><trkpt lat="50.8546733" lon="15.1923503"></trkpt><trkpt lat="50.8547809" lon="15.1924296"></trkpt><trkpt lat="50.85484251792293" lon="15.19250611813872"></trkpt><trkpt lat="50.85484251792293" lon="15.192506118138718"></trkpt><trkpt lat="50.85484251792293" lon="15.19250611813872"></trkpt><trkpt lat="50.8548756" lon="15.1925472"></trkpt><trkpt lat="50.8549665" lon="15.1927735"></trkpt><trkpt lat="50.85507827014749" lon="15.193128609725717"></trkpt><trkpt lat="50.85507827014749" lon="15.193128609725715"></trkpt><trkpt lat="50.85507827014749" lon="15.193128609725717"></trkpt><trkpt lat="50.855229" lon="15.1936075"></trkpt><trkpt lat="50.855275" lon="15.1937563"></trkpt><trkpt lat="50.85529992614157" lon="15.1937852349637"></trkpt><trkpt lat="50.85529992614157" lon="15.193785234963698"></trkpt><trkpt lat="50.85529992614157" lon="15.1937852349637"></trkpt><trkpt lat="50.8554006" lon="15.1939021"></trkpt><trkpt lat="50.8555008" lon="15.1939874"></trkpt><trkpt lat="50.8556326" lon="15.1940461"></trkpt><trkpt lat="50.85570262873371" lon="15.194056905931944"></trkpt><trkpt lat="50.8557661" lon="15.1940667"></trkpt><trkpt lat="50.8559405" lon="15.1940373"></trkpt><trkpt lat="50.85615176382016" lon="15.193986674568443"></trkpt><trkpt lat="50.85615176382016" lon="15.19398667456844"></trkpt><trkpt lat="50.85615176382016" lon="15.193986674568443"></trkpt><trkpt lat="50.8562226" lon="15.1939697"></trkpt><trkpt lat="50.8564025" lon="15.1939051"></trkpt><trkpt lat="50.8565899" lon="15.1938257"></trkpt><trkpt lat="50.85659492893101" lon="15.193822475010492"></trkpt><trkpt lat="50.85659492893101" lon="15.19382247501049"></trkpt><trkpt lat="50.85659492893101" lon="15.193822475010492"></trkpt><trkpt lat="50.8567173" lon="15.193744"></trkpt><trkpt lat="50.8568387" lon="15.1937673"></trkpt><trkpt lat="50.8569658" lon="15.1938448"></trkpt><trkpt lat="50.85705320203251" lon="15.193703960455382"></trkpt><trkpt lat="50.85705320203251" lon="15.193703960455379"></trkpt><trkpt lat="50.85705320203251" lon="15.193703960455382"></trkpt><trkpt lat="50.8570816" lon="15.1936582"></trkpt><trkpt lat="50.8571335" lon="15.193573"></trkpt><trkpt lat="50.8571929" lon="15.1934995"></trkpt><trkpt lat="50.8573442" lon="15.1933501"></trkpt><trkpt lat="50.85740357930315" lon="15.193287362138976"></trkpt><trkpt lat="50.85740357930315" lon="15.193287362138975"></trkpt><trkpt lat="50.85740357930315" lon="15.193287362138976"></trkpt><trkpt lat="50.8574326" lon="15.1932567"></trkpt><trkpt lat="50.8575447" lon="15.1931633"></trkpt><trkpt lat="50.8576862" lon="15.1930325"></trkpt><trkpt lat="50.8577476" lon="15.1930233"></trkpt><trkpt lat="50.857799897931145" lon="15.19303067641184"></trkpt><trkpt lat="50.8578107" lon="15.1930322"></trkpt><trkpt lat="50.8578868" lon="15.1930762"></trkpt><trkpt lat="50.8579795" lon="15.1931203"></trkpt><trkpt lat="50.8580556" lon="15.1931321"></trkpt><trkpt lat="50.8581521" lon="15.1931115"></trkpt><trkpt lat="50.85824441187386" lon="15.193046328971981"></trkpt><trkpt lat="50.85824441187386" lon="15.193046328971983"></trkpt><trkpt lat="50.85824441187386" lon="15.193046328971981"></trkpt><trkpt lat="50.858264" lon="15.1930325"></trkpt><trkpt lat="50.8583914" lon="15.192944"></trkpt><trkpt lat="50.8585101" lon="15.1928558"></trkpt><trkpt lat="50.8586048" lon="15.1928"></trkpt><trkpt lat="50.858653551299916" lon="15.192772738437997"></trkpt><trkpt lat="50.8586994" lon="15.1927471"></trkpt><trkpt lat="50.8587474" lon="15.1926496"></trkpt><trkpt lat="50.8588021" lon="15.1925415"></trkpt><trkpt lat="50.8588593" lon="15.1923681"></trkpt><trkpt lat="50.85889707403685" lon="15.192190156968554"></trkpt><trkpt lat="50.85889707403685" lon="15.192190156968552"></trkpt><trkpt lat="50.85889707403685" lon="15.192190156968554"></trkpt><trkpt lat="50.8588994" lon="15.1921792"></trkpt><trkpt lat="50.8589469" lon="15.1920732"></trkpt><trkpt lat="50.8590126" lon="15.1919711"></trkpt><trkpt lat="50.859054" lon="15.1918557"></trkpt><trkpt lat="50.8590503" lon="15.1917147"></trkpt><trkpt lat="50.8590381" lon="15.1915644"></trkpt><trkpt lat="50.85905368926632" lon="15.19151348821886"></trkpt><trkpt lat="50.8590776" lon="15.1914354"></trkpt><trkpt lat="50.8591424" lon="15.1912859"></trkpt><trkpt lat="50.8592073" lon="15.1911552"></trkpt><trkpt lat="50.8593134" lon="15.1910431"></trkpt><trkpt lat="50.85936883336436" lon="15.191026527138492"></trkpt><trkpt lat="50.8594201" lon="15.1910112"></trkpt><trkpt lat="50.8595199" lon="15.191017"></trkpt><trkpt lat="50.8595978" lon="15.1910421"></trkpt><trkpt lat="50.8596461" lon="15.1910636"></trkpt><trkpt lat="50.8596833" lon="15.1910475"></trkpt><trkpt lat="50.8597158" lon="15.1909823"></trkpt><trkpt lat="50.8597392" lon="15.1909107"></trkpt><trkpt lat="50.859742783971456" lon="15.190839090844925"></trkpt><trkpt lat="50.8597443" lon="15.1908088"></trkpt><trkpt lat="50.8597409" lon="15.1906639"></trkpt><trkpt lat="50.8597713" lon="15.1905102"></trkpt><trkpt lat="50.8598043" lon="15.1904223"></trkpt><trkpt lat="50.8598584" lon="15.1903761"></trkpt><trkpt lat="50.85995264429262" lon="15.19019867888515"></trkpt><trkpt lat="50.85995264429262" lon="15.190198678885148"></trkpt><trkpt lat="50.85995264429262" lon="15.19019867888515"></trkpt><trkpt lat="50.8601343" lon="15.1898567"></trkpt><trkpt lat="50.8601621" lon="15.1897894"></trkpt><trkpt lat="50.86020812770286" lon="15.18963911491649"></trkpt><trkpt lat="50.86020812770286" lon="15.189639114916492"></trkpt><trkpt lat="50.86020812770286" lon="15.18963911491649"></trkpt><trkpt lat="50.8602217" lon="15.1895948"></trkpt><trkpt lat="50.8602526" lon="15.1894362"></trkpt><trkpt lat="50.8602453" lon="15.1893078"></trkpt><trkpt lat="50.8602244" lon="15.1891943"></trkpt><trkpt lat="50.8602324" lon="15.1890552"></trkpt><trkpt lat="50.8602641" lon="15.1889235"></trkpt><trkpt lat="50.86026893339903" lon="15.188911180138604"></trkpt><trkpt lat="50.86026893339903" lon="15.188911180138602"></trkpt><trkpt lat="50.86026893339903" lon="15.188911180138604"></trkpt><trkpt lat="50.8603142" lon="15.1887958"></trkpt><trkpt lat="50.860393" lon="15.1887269"></trkpt><trkpt lat="50.8604451" lon="15.1887229"></trkpt><trkpt lat="50.860498" lon="15.1887235"></trkpt><trkpt lat="50.8605341" lon="15.1887306"></trkpt><trkpt lat="50.8605767" lon="15.1887284"></trkpt><trkpt lat="50.8606408" lon="15.1886979"></trkpt><trkpt lat="50.860678" lon="15.188655"></trkpt><trkpt lat="50.8606814" lon="15.1886094"></trkpt><trkpt lat="50.8606833" lon="15.1884514"></trkpt><trkpt lat="50.8606568" lon="15.1883366"></trkpt><trkpt lat="50.8606716" lon="15.1883234"></trkpt><trkpt lat="50.8607291" lon="15.1883749"></trkpt><trkpt lat="50.8607754" lon="15.1882879"></trkpt><trkpt lat="50.8608227" lon="15.1882019"></trkpt><trkpt lat="50.860841" lon="15.1881242"></trkpt><trkpt lat="50.8608298" lon="15.1880344"></trkpt><trkpt lat="50.8608074" lon="15.1879861"></trkpt><trkpt lat="50.8608724" lon="15.187861"></trkpt><trkpt lat="50.8608861" lon="15.1878313"></trkpt><trkpt lat="50.8608724" lon="15.187861"></trkpt><trkpt lat="50.8608074" lon="15.1879861"></trkpt><trkpt lat="50.8608298" lon="15.1880344"></trkpt><trkpt lat="50.860841" lon="15.1881242"></trkpt><trkpt lat="50.8608227" lon="15.1882019"></trkpt><trkpt lat="50.8607754" lon="15.1882879"></trkpt><trkpt lat="50.8607291" lon="15.1883749"></trkpt><trkpt lat="50.8606716" lon="15.1883234"></trkpt><trkpt lat="50.8606568" lon="15.1883366"></trkpt><trkpt lat="50.86066540619072" lon="15.188373882667715"></trkpt><trkpt lat="50.8606833" lon="15.1884514"></trkpt><trkpt lat="50.8606814" lon="15.1886094"></trkpt><trkpt lat="50.860678" lon="15.188655"></trkpt><trkpt lat="50.8606408" lon="15.1886979"></trkpt><trkpt lat="50.8605767" lon="15.1887284"></trkpt><trkpt lat="50.8605341" lon="15.1887306"></trkpt><trkpt lat="50.860498" lon="15.1887235"></trkpt><trkpt lat="50.8604451" lon="15.1887229"></trkpt><trkpt lat="50.860393" lon="15.1887269"></trkpt><trkpt lat="50.8603142" lon="15.1887958"></trkpt><trkpt lat="50.8602641" lon="15.1889235"></trkpt><trkpt lat="50.8602324" lon="15.1890552"></trkpt><trkpt lat="50.86022815823902" lon="15.18912895361904"></trkpt><trkpt lat="50.8602244" lon="15.1891943"></trkpt><trkpt lat="50.8602453" lon="15.1893078"></trkpt><trkpt lat="50.8602526" lon="15.1894362"></trkpt><trkpt lat="50.8602217" lon="15.1895948"></trkpt><trkpt lat="50.8601621" lon="15.1897894"></trkpt><trkpt lat="50.86015775602992" lon="15.189799916157778"></trkpt><trkpt lat="50.8601343" lon="15.1898567"></trkpt><trkpt lat="50.859889540369785" lon="15.190317476194034"></trkpt><trkpt lat="50.8598584" lon="15.1903761"></trkpt><trkpt lat="50.8599299" lon="15.1905082"></trkpt><trkpt lat="50.8599822" lon="15.1905391"></trkpt><trkpt lat="50.8600467" lon="15.1905448"></trkpt><trkpt lat="50.8602462" lon="15.1904369"></trkpt><trkpt lat="50.8603046" lon="15.1904292"></trkpt><trkpt lat="50.8603411" lon="15.1904716"></trkpt><trkpt lat="50.8603472" lon="15.1905949"></trkpt><trkpt lat="50.8603338" lon="15.1906682"></trkpt><trkpt lat="50.8602973" lon="15.190778"></trkpt><trkpt lat="50.8602353" lon="15.1909509"></trkpt><trkpt lat="50.860215" lon="15.1910797"></trkpt><trkpt lat="50.8602082" lon="15.1912031"></trkpt><trkpt lat="50.86020221414003" lon="15.191356653060385"></trkpt><trkpt lat="50.8601987" lon="15.1914468"></trkpt><trkpt lat="50.8601805" lon="15.1915952"></trkpt><trkpt lat="50.8601659" lon="15.1917378"></trkpt><trkpt lat="50.8601914" lon="15.1918342"></trkpt><trkpt lat="50.8602328" lon="15.191865"></trkpt><trkpt lat="50.8602961" lon="15.191839"></trkpt><trkpt lat="50.8604214" lon="15.1915163"></trkpt><trkpt lat="50.8604825" lon="15.19142"></trkpt><trkpt lat="50.8605843" lon="15.191326"></trkpt><trkpt lat="50.8606242" lon="15.1913675"></trkpt><trkpt lat="50.8606433" lon="15.191451"></trkpt><trkpt lat="50.8606537" lon="15.1916704"></trkpt><trkpt lat="50.8607015" lon="15.1917286"></trkpt><trkpt lat="50.860762" lon="15.1917359"></trkpt><trkpt lat="50.8608143" lon="15.191734"></trkpt><trkpt lat="50.86082088167863" lon="15.191743113093484"></trkpt><trkpt lat="50.8608338" lon="15.191761"></trkpt><trkpt lat="50.8608472" lon="15.1918323"></trkpt><trkpt lat="50.8608569" lon="15.1919364"></trkpt><trkpt lat="50.8608593" lon="15.1920481"></trkpt><trkpt lat="50.8609203" lon="15.1920772"></trkpt><trkpt lat="50.8610614" lon="15.1920067"></trkpt><trkpt lat="50.861182646380506" lon="15.191918289138872"></trkpt><trkpt lat="50.861182646380506" lon="15.191918289138874"></trkpt><trkpt lat="50.861182646380506" lon="15.191918289138872"></trkpt><trkpt lat="50.8611851" lon="15.1919165"></trkpt><trkpt lat="50.8613919" lon="15.1917022"></trkpt><trkpt lat="50.8614673" lon="15.1916955"></trkpt><trkpt lat="50.8615065" lon="15.1917398"></trkpt><trkpt lat="50.8615089" lon="15.1918284"></trkpt><trkpt lat="50.8615406" lon="15.1918824"></trkpt><trkpt lat="50.86159269600571" lon="15.191919889648968"></trkpt><trkpt lat="50.8615941" lon="15.1919209"></trkpt><trkpt lat="50.861672" lon="15.1919209"></trkpt><trkpt lat="50.861796" lon="15.1918708"></trkpt><trkpt lat="50.8619299" lon="15.1918246"></trkpt><trkpt lat="50.86200617474756" lon="15.191792924688574"></trkpt><trkpt lat="50.86200617474756" lon="15.191792924688572"></trkpt><trkpt lat="50.86200617474756" lon="15.191792924688574"></trkpt><trkpt lat="50.862032" lon="15.1917822"></trkpt><trkpt lat="50.8621221" lon="15.1917359"></trkpt><trkpt lat="50.8622097" lon="15.191655"></trkpt><trkpt lat="50.8623727" lon="15.1914969"></trkpt><trkpt lat="50.86241855091721" lon="15.191449113816804"></trkpt><trkpt lat="50.86241855091721" lon="15.191449113816805"></trkpt><trkpt lat="50.86241855091721" lon="15.191449113816804"></trkpt><trkpt lat="50.8624651" lon="15.1914006"></trkpt><trkpt lat="50.86256" lon="15.1912541"></trkpt><trkpt lat="50.8626622" lon="15.1910652"></trkpt><trkpt lat="50.86270200535502" lon="15.190947927477524"></trkpt><trkpt lat="50.8628349" lon="15.1905564"></trkpt><trkpt lat="50.8628739" lon="15.1903945"></trkpt><trkpt lat="50.8628739" lon="15.190269796410062"></trkpt><trkpt lat="50.8628739" lon="15.1902249"></trkpt><trkpt lat="50.8628568" lon="15.1899936"></trkpt><trkpt lat="50.8628471" lon="15.1897469"></trkpt><trkpt lat="50.862884989974624" lon="15.189554335882374"></trkpt><trkpt lat="50.8629055" lon="15.1894501"></trkpt><trkpt lat="50.862959" lon="15.1891726"></trkpt><trkpt lat="50.8630466" lon="15.1889567"></trkpt><trkpt lat="50.86308187504351" lon="15.188895927234812"></trkpt><trkpt lat="50.86308187504351" lon="15.18889592723481"></trkpt><trkpt lat="50.86308187504351" lon="15.188895927234812"></trkpt><trkpt lat="50.863249" lon="15.188608"></trkpt><trkpt lat="50.863383913411454" lon="15.188375603972975"></trkpt><trkpt lat="50.863383913411454" lon="15.188375603972974"></trkpt><trkpt lat="50.863383913411454" lon="15.188375603972975"></trkpt><trkpt lat="50.8635478" lon="15.1880933"></trkpt><trkpt lat="50.863677955886914" lon="15.187832988226173"></trkpt><trkpt lat="50.8636962" lon="15.1877965"></trkpt><trkpt lat="50.8638774" lon="15.1873493"></trkpt><trkpt lat="50.86392653145149" lon="15.187239171486388"></trkpt><trkpt lat="50.864185191926474" lon="15.186659382109603"></trkpt><trkpt lat="50.8642542" lon="15.1865047"></trkpt><trkpt lat="50.86448890555527" lon="15.186118316258256"></trkpt><trkpt lat="50.86448890555527" lon="15.186118316258257"></trkpt><trkpt lat="50.86448890555527" lon="15.186118316258256"></trkpt><trkpt lat="50.8646754" lon="15.1858113"></trkpt><trkpt lat="50.86483714896422" lon="15.185653197794952"></trkpt><trkpt lat="50.86483714896422" lon="15.185653197794954"></trkpt><trkpt lat="50.86483714896422" lon="15.185653197794952"></trkpt><trkpt lat="50.8648883" lon="15.1856032"></trkpt><trkpt lat="50.8651702" lon="15.1854088"></trkpt><trkpt lat="50.86524594431366" lon="15.185346678764333"></trkpt><trkpt lat="50.8653092" lon="15.1852948"></trkpt><trkpt lat="50.8653732" lon="15.1852125"></trkpt><trkpt lat="50.8654418" lon="15.184971"></trkpt><trkpt lat="50.8654836" lon="15.1849057"></trkpt><trkpt lat="50.865546092894924" lon="15.184943049980934"></trkpt><trkpt lat="50.865546092894924" lon="15.184943049980935"></trkpt><trkpt lat="50.865546092894924" lon="15.184943049980934"></trkpt><trkpt lat="50.8655865" lon="15.1849672"></trkpt><trkpt lat="50.865679" lon="15.1850501"></trkpt><trkpt lat="50.8658291" lon="15.1851719"></trkpt><trkpt lat="50.865935080774854" lon="15.185275806257557"></trkpt><trkpt lat="50.8659466" lon="15.1852871"></trkpt><trkpt lat="50.8660269" lon="15.1853469"></trkpt><trkpt lat="50.8661865" lon="15.1853751"></trkpt><trkpt lat="50.866331" lon="15.1854317"></trkpt><trkpt lat="50.86638056398642" lon="15.185471894888103"></trkpt><trkpt lat="50.86638056398642" lon="15.185471894888101"></trkpt><trkpt lat="50.86638056398642" lon="15.185471894888103"></trkpt><trkpt lat="50.8664331" lon="15.1855145"></trkpt><trkpt lat="50.8665268" lon="15.1856321"></trkpt><trkpt lat="50.8666326" lon="15.1857998"></trkpt><trkpt lat="50.86669805808271" lon="15.185936308597222"></trkpt><trkpt lat="50.86669805808271" lon="15.18593630859722"></trkpt><trkpt lat="50.86669805808271" lon="15.185936308597222"></trkpt><trkpt lat="50.8667555" lon="15.1860561"></trkpt><trkpt lat="50.8668856" lon="15.1862797"></trkpt><trkpt lat="50.8670392" lon="15.1863885"></trkpt><trkpt lat="50.86707200686445" lon="15.18640123499373"></trkpt><trkpt lat="50.8672118" lon="15.1864555"></trkpt><trkpt lat="50.8673162" lon="15.1864743"></trkpt><trkpt lat="50.8673941" lon="15.1865225"></trkpt><trkpt lat="50.8674707" lon="15.1866324"></trkpt><trkpt lat="50.867472191836264" lon="15.18663529561275"></trkpt><trkpt lat="50.867472191836264" lon="15.186635295612747"></trkpt><trkpt lat="50.867472191836264" lon="15.18663529561275"></trkpt><trkpt lat="50.8675571" lon="15.1868001"></trkpt><trkpt lat="50.8676082" lon="15.1869947"></trkpt><trkpt lat="50.8676398" lon="15.1872164"></trkpt><trkpt lat="50.867642845905834" lon="15.18725297173241"></trkpt><trkpt lat="50.8676544" lon="15.1873917"></trkpt><trkpt lat="50.8677152" lon="15.1876365"></trkpt><trkpt lat="50.8677772" lon="15.187756"></trkpt><trkpt lat="50.8678806" lon="15.1877888"></trkpt><trkpt lat="50.86790880611413" lon="15.187812565604979"></trkpt><trkpt lat="50.86790880611413" lon="15.187812565604977"></trkpt><trkpt lat="50.86790880611413" lon="15.187812565604979"></trkpt><trkpt lat="50.86796" lon="15.1878557"></trkpt><trkpt lat="50.8679937" lon="15.187943"></trkpt><trkpt lat="50.86804" lon="15.1880682"></trkpt><trkpt lat="50.8681081" lon="15.1881338"></trkpt><trkpt lat="50.868192" lon="15.1881415"></trkpt><trkpt lat="50.86831735106138" lon="15.188153090680332"></trkpt><trkpt lat="50.868338" lon="15.188155"></trkpt><trkpt lat="50.8684426" lon="15.1881723"></trkpt><trkpt lat="50.8685618" lon="15.1882378"></trkpt><trkpt lat="50.868752618061315" lon="15.18828222274907"></trkpt><trkpt lat="50.8687624" lon="15.1882845"></trkpt><trkpt lat="50.8688488" lon="15.1882937"></trkpt><trkpt lat="50.8689218" lon="15.1883226"></trkpt><trkpt lat="50.8690422" lon="15.188394"></trkpt><trkpt lat="50.86919387086802" lon="15.188395807871075"></trkpt><trkpt lat="50.8692016" lon="15.1883959"></trkpt><trkpt lat="50.8693378" lon="15.1883805"></trkpt><trkpt lat="50.8695142" lon="15.1882937"></trkpt><trkpt lat="50.869638835316195" lon="15.188195870528359"></trkpt><trkpt lat="50.8697769" lon="15.1880875"></trkpt><trkpt lat="50.8699167" lon="15.1879989"></trkpt><trkpt lat="50.87006629282678" lon="15.187970601291738"></trkpt><trkpt lat="50.87007" lon="15.1879699"></trkpt><trkpt lat="50.8702403" lon="15.1879295"></trkpt><trkpt lat="50.8703716" lon="15.187916"></trkpt><trkpt lat="50.8704616" lon="15.1879333"></trkpt><trkpt lat="50.87051231465974" lon="15.18793106925208"></trkpt><trkpt lat="50.8706071" lon="15.1879269"></trkpt><trkpt lat="50.8706864" lon="15.1879172"></trkpt><trkpt lat="50.8707913" lon="15.1879102"></trkpt><trkpt lat="50.8709622" lon="15.1879171"></trkpt><trkpt lat="50.87095402975592" lon="15.187937856836307"></trkpt><trkpt lat="50.87095402975592" lon="15.187937856836305"></trkpt><trkpt lat="50.87095402975592" lon="15.187937856836307"></trkpt><trkpt lat="50.8709622" lon="15.1879171"></trkpt><trkpt lat="50.8710856" lon="15.187859"></trkpt><trkpt lat="50.87137739681174" lon="15.18768719138122"></trkpt><trkpt lat="50.87137739681174" lon="15.187687191381219"></trkpt><trkpt lat="50.87137739681174" lon="15.18768719138122"></trkpt><trkpt lat="50.8715372" lon="15.1875931"></trkpt><trkpt lat="50.8715344" lon="15.1873359"></trkpt><trkpt lat="50.8715344" lon="15.1871489"></trkpt><trkpt lat="50.87155474641165" lon="15.18703769937358"></trkpt><trkpt lat="50.8715806" lon="15.1868964"></trkpt><trkpt lat="50.8716511" lon="15.186575"></trkpt><trkpt lat="50.871745808088896" lon="15.186391623042907"></trkpt><trkpt lat="50.871745808088896" lon="15.186391623042908"></trkpt><trkpt lat="50.871745808088896" lon="15.186391623042907"></trkpt><trkpt lat="50.8718534" lon="15.1861833"></trkpt><trkpt lat="50.8719167" lon="15.1861122"></trkpt><trkpt lat="50.8719995" lon="15.1860427"></trkpt><trkpt lat="50.8721194" lon="15.1860118"></trkpt><trkpt lat="50.872133827877725" lon="15.185993995946138"></trkpt><trkpt lat="50.872133827877725" lon="15.18599399594614"></trkpt><trkpt lat="50.872133827877725" lon="15.185993995946138"></trkpt><trkpt lat="50.8721741" lon="15.1859443"></trkpt><trkpt lat="50.8722277" lon="15.1858248"></trkpt><trkpt lat="50.8723079" lon="15.1857111"></trkpt><trkpt lat="50.8724295" lon="15.1856726"></trkpt><trkpt lat="50.8725125247009" lon="15.185637175427871"></trkpt><trkpt lat="50.8725877" lon="15.1856051"></trkpt><trkpt lat="50.8728418" lon="15.1854683"></trkpt><trkpt lat="50.8729373830876" lon="15.185415527794117"></trkpt><trkpt lat="50.8732189" lon="15.1852601"></trkpt><trkpt lat="50.8733802" lon="15.1852119"></trkpt><trkpt lat="50.87338803767302" lon="15.185213219885908"></trkpt><trkpt lat="50.8734378" lon="15.1852216"></trkpt><trkpt lat="50.8734889" lon="15.1852235"></trkpt><trkpt lat="50.8736774" lon="15.1851291"></trkpt><trkpt lat="50.8737029" lon="15.1850713"></trkpt><trkpt lat="50.8736903" lon="15.1848661"></trkpt><trkpt lat="50.873698931689034" lon="15.184842769777633"></trkpt><trkpt lat="50.8737078" lon="15.1848188"></trkpt><trkpt lat="50.8737625" lon="15.184759"></trkpt><trkpt lat="50.8737917" lon="15.1846819"></trkpt><trkpt lat="50.8737954" lon="15.1845991"></trkpt><trkpt lat="50.8737321" lon="15.1843177"></trkpt><trkpt lat="50.8737236" lon="15.1842001"></trkpt><trkpt lat="50.87372705398066" lon="15.18417913954202"></trkpt><trkpt lat="50.8737382" lon="15.1841115"></trkpt><trkpt lat="50.8737893" lon="15.1840286"></trkpt><trkpt lat="50.8738525" lon="15.1839245"></trkpt><trkpt lat="50.8739547" lon="15.1836662"></trkpt><trkpt lat="50.87399048548842" lon="15.183620352940732"></trkpt><trkpt lat="50.87399048548842" lon="15.18362035294073"></trkpt><trkpt lat="50.87399048548842" lon="15.183620352940732"></trkpt><trkpt lat="50.8740269" lon="15.1835737"></trkpt><trkpt lat="50.8740799" lon="15.1834654"></trkpt><trkpt lat="50.8741274" lon="15.1830668"></trkpt><trkpt lat="50.8741779" lon="15.1829425"></trkpt><trkpt lat="50.874165808175405" lon="15.182929873957155"></trkpt><trkpt lat="50.874165808175405" lon="15.182929873957152"></trkpt><trkpt lat="50.874165808175405" lon="15.182929873957155"></trkpt><trkpt lat="50.8741779" lon="15.1829425"></trkpt><trkpt lat="50.8742612" lon="15.1827122"></trkpt><trkpt lat="50.8743414" lon="15.1824732"></trkpt><trkpt lat="50.8743871222" lon="15.182302998256572"></trkpt><trkpt lat="50.8744351" lon="15.1821244"></trkpt><trkpt lat="50.874463" lon="15.1820107"></trkpt><trkpt lat="50.874686541755814" lon="15.181862084718558"></trkpt><trkpt lat="50.8746978" lon="15.1818546"></trkpt><trkpt lat="50.8747525" lon="15.1817967"></trkpt><trkpt lat="50.8748352" lon="15.1816214"></trkpt><trkpt lat="50.8748972" lon="15.181402"></trkpt><trkpt lat="50.8749191" lon="15.1813631"></trkpt><trkpt lat="50.8749605" lon="15.1813361"></trkpt><trkpt lat="50.87505102169861" lon="15.18135532103753"></trkpt><trkpt lat="50.8751437" lon="15.181375"></trkpt><trkpt lat="50.875211" lon="15.1814132"></trkpt><trkpt lat="50.8753111" lon="15.181423"></trkpt><trkpt lat="50.87548927698546" lon="15.181367443701637"></trkpt><trkpt lat="50.87548927698546" lon="15.181367443701639"></trkpt><trkpt lat="50.87548927698546" lon="15.181367443701637"></trkpt><trkpt lat="50.8754907" lon="15.181367"></trkpt><trkpt lat="50.8756731" lon="15.1812822"></trkpt><trkpt lat="50.8757893" lon="15.1810624"></trkpt><trkpt lat="50.87583388570448" lon="15.180945778119067"></trkpt><trkpt lat="50.8758416" lon="15.1809256"></trkpt><trkpt lat="50.8759614" lon="15.1805382"></trkpt><trkpt lat="50.8759991" lon="15.1804669"></trkpt><trkpt lat="50.8760489" lon="15.1804168"></trkpt><trkpt lat="50.876119253025955" lon="15.180413907541546"></trkpt><trkpt lat="50.8762824" lon="15.1804072"></trkpt><trkpt lat="50.8763208" lon="15.180374"></trkpt><trkpt lat="50.8764403" lon="15.180703"></trkpt><trkpt lat="50.87644203049869" lon="15.180711823406895"></trkpt><trkpt lat="50.8764565" lon="15.1807856"></trkpt><trkpt lat="50.8764681" lon="15.1808445"></trkpt><trkpt lat="50.8764977" lon="15.1809955"></trkpt><trkpt lat="50.8765132" lon="15.1810741"></trkpt><trkpt lat="50.87652" lon="15.1811455"></trkpt><trkpt lat="50.876521" lon="15.1812099"></trkpt><trkpt lat="50.876513413217154" lon="15.181397410255968"></trkpt><trkpt lat="50.876508" lon="15.1815312"></trkpt><trkpt lat="50.8765098" lon="15.181616"></trkpt><trkpt lat="50.876516" lon="15.1816963"></trkpt><trkpt lat="50.876686" lon="15.1816589"></trkpt><trkpt lat="50.87678317461539" lon="15.1818561242194"></trkpt><trkpt lat="50.8768381" lon="15.1819676"></trkpt><trkpt lat="50.8771236" lon="15.1818534"></trkpt><trkpt lat="50.87722849500974" lon="15.181804679108755"></trkpt><trkpt lat="50.87722849500974" lon="15.181804679108756"></trkpt></trkseg></trk></gpx>
