<?xml version="1.0" encoding="UTF-8"?>
<gpx version="1.1" creator="Good Shit" xmlns="http://www.topografix.com/GPX/1/1"><trk><name>Lavaux vineyard terraces: St-Saphorin–Lutry — St-Saphorin–Lutry route 113</name><trkseg><trkpt lat="46.47256" lon="6.79684"></trkpt><trkpt lat="46.47254" lon="6.79693"></trkpt><trkpt lat="46.47255" lon="6.79693"></trkpt><trkpt lat="46.47259" lon="6.79695"></trkpt><trkpt lat="46.47261" lon="6.79697"></trkpt><trkpt lat="46.47263" lon="6.79702"></trkpt><trkpt lat="46.47266" lon="6.79707"></trkpt><trkpt lat="46.47267" lon="6.79704"></trkpt><trkpt lat="46.47268" lon="6.797"></trkpt><trkpt lat="46.47268" lon="6.79698"></trkpt><trkpt lat="46.47271" lon="6.79698"></trkpt><trkpt lat="46.47274" lon="6.79696"></trkpt><trkpt lat="46.47275" lon="6.79696"></trkpt><trkpt lat="46.47281" lon="6.79693"></trkpt><trkpt lat="46.47282" lon="6.79684"></trkpt><trkpt lat="46.47282" lon="6.79683"></trkpt><trkpt lat="46.47275" lon="6.79683"></trkpt><trkpt lat="46.47275" lon="6.79669"></trkpt><trkpt lat="46.47282" lon="6.7967"></trkpt><trkpt lat="46.47287" lon="6.79668"></trkpt><trkpt lat="46.47291" lon="6.79663"></trkpt><trkpt lat="46.47293" lon="6.79655"></trkpt><trkpt lat="46.47293" lon="6.79649"></trkpt><trkpt lat="46.47294" lon="6.79642"></trkpt><trkpt lat="46.47297" lon="6.79628"></trkpt><trkpt lat="46.47298" lon="6.79621"></trkpt><trkpt lat="46.47299" lon="6.79617"></trkpt><trkpt lat="46.47303" lon="6.79603"></trkpt><trkpt lat="46.47307" lon="6.79596"></trkpt><trkpt lat="46.47307" lon="6.79595"></trkpt><trkpt lat="46.47311" lon="6.79585"></trkpt><trkpt lat="46.47316" lon="6.79584"></trkpt><trkpt lat="46.47319" lon="6.79584"></trkpt><trkpt lat="46.47328" lon="6.79589"></trkpt><trkpt lat="46.47332" lon="6.79593"></trkpt><trkpt lat="46.47337" lon="6.79592"></trkpt><trkpt lat="46.47341" lon="6.79592"></trkpt><trkpt lat="46.47342" lon="6.79592"></trkpt><trkpt lat="46.47346" lon="6.79593"></trkpt><trkpt lat="46.47348" lon="6.79593"></trkpt><trkpt lat="46.4735" lon="6.79592"></trkpt><trkpt lat="46.47353" lon="6.79591"></trkpt><trkpt lat="46.47355" lon="6.79589"></trkpt><trkpt lat="46.47357" lon="6.79584"></trkpt><trkpt lat="46.4736" lon="6.79576"></trkpt><trkpt lat="46.47363" lon="6.79567"></trkpt><trkpt lat="46.47363" lon="6.79566"></trkpt><trkpt lat="46.47366" lon="6.79559"></trkpt><trkpt lat="46.47369" lon="6.79551"></trkpt><trkpt lat="46.47372" lon="6.79546"></trkpt><trkpt lat="46.47379" lon="6.79537"></trkpt><trkpt lat="46.47384" lon="6.79528"></trkpt><trkpt lat="46.47388" lon="6.79523"></trkpt><trkpt lat="46.47391" lon="6.79516"></trkpt><trkpt lat="46.47394" lon="6.79504"></trkpt><trkpt lat="46.47399" lon="6.79488"></trkpt><trkpt lat="46.47402" lon="6.79482"></trkpt><trkpt lat="46.4741" lon="6.79463"></trkpt><trkpt lat="46.47413" lon="6.79455"></trkpt><trkpt lat="46.47417" lon="6.79443"></trkpt><trkpt lat="46.47422" lon="6.79428"></trkpt><trkpt lat="46.47425" lon="6.79419"></trkpt><trkpt lat="46.47431" lon="6.79406"></trkpt><trkpt lat="46.47429" lon="6.79404"></trkpt><trkpt lat="46.47427" lon="6.79402"></trkpt><trkpt lat="46.47425" lon="6.79398"></trkpt><trkpt lat="46.47424" lon="6.79394"></trkpt><trkpt lat="46.47425" lon="6.79388"></trkpt><trkpt lat="46.47427" lon="6.79377"></trkpt><trkpt lat="46.47431" lon="6.79359"></trkpt><trkpt lat="46.47433" lon="6.7935"></trkpt><trkpt lat="46.47434" lon="6.79343"></trkpt><trkpt lat="46.47435" lon="6.79334"></trkpt><trkpt lat="46.47435" lon="6.79322"></trkpt><trkpt lat="46.47436" lon="6.79312"></trkpt><trkpt lat="46.47437" lon="6.79304"></trkpt><trkpt lat="46.4744" lon="6.79288"></trkpt><trkpt lat="46.47445" lon="6.79266"></trkpt><trkpt lat="46.47452" lon="6.79238"></trkpt><trkpt lat="46.47454" lon="6.79227"></trkpt><trkpt lat="46.47459" lon="6.79207"></trkpt><trkpt lat="46.47461" lon="6.79196"></trkpt><trkpt lat="46.47462" lon="6.79184"></trkpt><trkpt lat="46.47462" lon="6.79174"></trkpt><trkpt lat="46.47463" lon="6.79164"></trkpt><trkpt lat="46.47466" lon="6.79147"></trkpt><trkpt lat="46.47468" lon="6.79133"></trkpt><trkpt lat="46.4747" lon="6.79125"></trkpt><trkpt lat="46.47475" lon="6.79111"></trkpt><trkpt lat="46.47477" lon="6.79103"></trkpt><trkpt lat="46.4748" lon="6.79091"></trkpt><trkpt lat="46.47483" lon="6.79078"></trkpt><trkpt lat="46.47486" lon="6.79069"></trkpt><trkpt lat="46.4749" lon="6.7906"></trkpt><trkpt lat="46.47492" lon="6.79054"></trkpt><trkpt lat="46.47494" lon="6.79041"></trkpt><trkpt lat="46.47496" lon="6.79033"></trkpt><trkpt lat="46.47499" lon="6.79027"></trkpt><trkpt lat="46.47502" lon="6.79022"></trkpt><trkpt lat="46.47509" lon="6.79009"></trkpt><trkpt lat="46.47516" lon="6.78995"></trkpt><trkpt lat="46.47524" lon="6.78979"></trkpt><trkpt lat="46.4753" lon="6.78966"></trkpt><trkpt lat="46.47533" lon="6.78959"></trkpt><trkpt lat="46.47536" lon="6.78951"></trkpt><trkpt lat="46.4754" lon="6.78935"></trkpt><trkpt lat="46.47542" lon="6.78928"></trkpt><trkpt lat="46.47543" lon="6.7892"></trkpt><trkpt lat="46.47544" lon="6.78911"></trkpt><trkpt lat="46.47546" lon="6.78904"></trkpt><trkpt lat="46.47548" lon="6.78898"></trkpt><trkpt lat="46.47553" lon="6.78889"></trkpt><trkpt lat="46.47555" lon="6.78885"></trkpt><trkpt lat="46.47555" lon="6.7888"></trkpt><trkpt lat="46.47555" lon="6.78868"></trkpt><trkpt lat="46.47555" lon="6.78856"></trkpt><trkpt lat="46.47556" lon="6.7884"></trkpt><trkpt lat="46.47558" lon="6.78814"></trkpt><trkpt lat="46.47559" lon="6.78798"></trkpt><trkpt lat="46.4756" lon="6.78788"></trkpt><trkpt lat="46.47563" lon="6.78777"></trkpt><trkpt lat="46.47566" lon="6.78764"></trkpt><trkpt lat="46.4757" lon="6.78747"></trkpt><trkpt lat="46.47574" lon="6.78732"></trkpt><trkpt lat="46.47576" lon="6.78721"></trkpt><trkpt lat="46.47577" lon="6.78713"></trkpt><trkpt lat="46.47577" lon="6.78703"></trkpt><trkpt lat="46.47576" lon="6.78691"></trkpt><trkpt lat="46.47576" lon="6.78682"></trkpt><trkpt lat="46.47577" lon="6.78658"></trkpt><trkpt lat="46.47578" lon="6.78631"></trkpt><trkpt lat="46.47581" lon="6.78603"></trkpt><trkpt lat="46.47581" lon="6.7859"></trkpt><trkpt lat="46.4758" lon="6.78582"></trkpt><trkpt lat="46.47579" lon="6.78575"></trkpt><trkpt lat="46.47576" lon="6.7857"></trkpt><trkpt lat="46.47573" lon="6.78566"></trkpt><trkpt lat="46.47569" lon="6.78561"></trkpt><trkpt lat="46.47561" lon="6.78554"></trkpt><trkpt lat="46.47552" lon="6.78545"></trkpt><trkpt lat="46.4754" lon="6.78535"></trkpt><trkpt lat="46.47534" lon="6.78529"></trkpt><trkpt lat="46.47531" lon="6.78526"></trkpt><trkpt lat="46.47529" lon="6.78522"></trkpt><trkpt lat="46.47528" lon="6.78517"></trkpt><trkpt lat="46.47527" lon="6.78511"></trkpt><trkpt lat="46.47529" lon="6.78504"></trkpt><trkpt lat="46.47531" lon="6.78499"></trkpt><trkpt lat="46.47535" lon="6.78491"></trkpt><trkpt lat="46.4754" lon="6.78481"></trkpt><trkpt lat="46.47543" lon="6.78473"></trkpt><trkpt lat="46.47544" lon="6.78471"></trkpt><trkpt lat="46.47549" lon="6.7846"></trkpt><trkpt lat="46.47553" lon="6.78452"></trkpt><trkpt lat="46.47555" lon="6.78444"></trkpt><trkpt lat="46.4756" lon="6.78427"></trkpt><trkpt lat="46.47564" lon="6.78412"></trkpt><trkpt lat="46.47568" lon="6.78401"></trkpt><trkpt lat="46.47572" lon="6.78391"></trkpt><trkpt lat="46.47573" lon="6.78385"></trkpt><trkpt lat="46.47573" lon="6.78379"></trkpt><trkpt lat="46.47573" lon="6.78373"></trkpt><trkpt lat="46.47572" lon="6.78368"></trkpt><trkpt lat="46.47572" lon="6.78361"></trkpt><trkpt lat="46.47573" lon="6.78354"></trkpt><trkpt lat="46.47575" lon="6.78345"></trkpt><trkpt lat="46.47579" lon="6.78336"></trkpt><trkpt lat="46.47587" lon="6.78322"></trkpt><trkpt lat="46.47596" lon="6.78307"></trkpt><trkpt lat="46.47604" lon="6.78293"></trkpt><trkpt lat="46.47608" lon="6.78287"></trkpt><trkpt lat="46.47613" lon="6.78281"></trkpt><trkpt lat="46.47617" lon="6.78273"></trkpt><trkpt lat="46.47622" lon="6.78264"></trkpt><trkpt lat="46.47625" lon="6.78257"></trkpt><trkpt lat="46.47629" lon="6.78249"></trkpt><trkpt lat="46.47635" lon="6.78237"></trkpt><trkpt lat="46.47641" lon="6.78226"></trkpt><trkpt lat="46.47646" lon="6.78219"></trkpt><trkpt lat="46.47655" lon="6.78206"></trkpt><trkpt lat="46.47659" lon="6.782"></trkpt><trkpt lat="46.47665" lon="6.78194"></trkpt><trkpt lat="46.47671" lon="6.78187"></trkpt><trkpt lat="46.47676" lon="6.7818"></trkpt><trkpt lat="46.47686" lon="6.78164"></trkpt><trkpt lat="46.47691" lon="6.78153"></trkpt><trkpt lat="46.47695" lon="6.78143"></trkpt><trkpt lat="46.47702" lon="6.78125"></trkpt><trkpt lat="46.47707" lon="6.78107"></trkpt><trkpt lat="46.47711" lon="6.78096"></trkpt><trkpt lat="46.47713" lon="6.78088"></trkpt><trkpt lat="46.47714" lon="6.78081"></trkpt><trkpt lat="46.47714" lon="6.78072"></trkpt><trkpt lat="46.47716" lon="6.78055"></trkpt><trkpt lat="46.47716" lon="6.7805"></trkpt><trkpt lat="46.47717" lon="6.78034"></trkpt><trkpt lat="46.47716" lon="6.78022"></trkpt><trkpt lat="46.47714" lon="6.78004"></trkpt><trkpt lat="46.47711" lon="6.77978"></trkpt><trkpt lat="46.4771" lon="6.77972"></trkpt><trkpt lat="46.47707" lon="6.77946"></trkpt><trkpt lat="46.47704" lon="6.77934"></trkpt><trkpt lat="46.47702" lon="6.77927"></trkpt><trkpt lat="46.47696" lon="6.77916"></trkpt><trkpt lat="46.47691" lon="6.77902"></trkpt><trkpt lat="46.47689" lon="6.77894"></trkpt><trkpt lat="46.47688" lon="6.77886"></trkpt><trkpt lat="46.47689" lon="6.77868"></trkpt><trkpt lat="46.47682" lon="6.77867"></trkpt><trkpt lat="46.47678" lon="6.77865"></trkpt><trkpt lat="46.47671" lon="6.77863"></trkpt><trkpt lat="46.47662" lon="6.77861"></trkpt><trkpt lat="46.47654" lon="6.77861"></trkpt><trkpt lat="46.47641" lon="6.77863"></trkpt><trkpt lat="46.47632" lon="6.77832"></trkpt><trkpt lat="46.47627" lon="6.77819"></trkpt><trkpt lat="46.47617" lon="6.77803"></trkpt><trkpt lat="46.47616" lon="6.77801"></trkpt><trkpt lat="46.47606" lon="6.77787"></trkpt><trkpt lat="46.47599" lon="6.77778"></trkpt><trkpt lat="46.47599" lon="6.77777"></trkpt><trkpt lat="46.47601" lon="6.77769"></trkpt><trkpt lat="46.47605" lon="6.77763"></trkpt><trkpt lat="46.47612" lon="6.77752"></trkpt><trkpt lat="46.47619" lon="6.77743"></trkpt><trkpt lat="46.47621" lon="6.77741"></trkpt><trkpt lat="46.47626" lon="6.7774"></trkpt><trkpt lat="46.47628" lon="6.77735"></trkpt><trkpt lat="46.4763" lon="6.77721"></trkpt><trkpt lat="46.47631" lon="6.77716"></trkpt><trkpt lat="46.47627" lon="6.77713"></trkpt><trkpt lat="46.47623" lon="6.77711"></trkpt><trkpt lat="46.47614" lon="6.77707"></trkpt><trkpt lat="46.47605" lon="6.77703"></trkpt><trkpt lat="46.47602" lon="6.77701"></trkpt><trkpt lat="46.47599" lon="6.77698"></trkpt><trkpt lat="46.47596" lon="6.7769"></trkpt><trkpt lat="46.47594" lon="6.77677"></trkpt><trkpt lat="46.47594" lon="6.77671"></trkpt><trkpt lat="46.47598" lon="6.77654"></trkpt><trkpt lat="46.47604" lon="6.77632"></trkpt><trkpt lat="46.47606" lon="6.77618"></trkpt><trkpt lat="46.47608" lon="6.776"></trkpt><trkpt lat="46.47609" lon="6.77588"></trkpt><trkpt lat="46.47611" lon="6.77576"></trkpt><trkpt lat="46.4762" lon="6.77529"></trkpt><trkpt lat="46.47624" lon="6.7751"></trkpt><trkpt lat="46.4763" lon="6.77494"></trkpt><trkpt lat="46.47635" lon="6.77484"></trkpt><trkpt lat="46.47641" lon="6.77475"></trkpt><trkpt lat="46.47647" lon="6.7747"></trkpt><trkpt lat="46.47651" lon="6.77457"></trkpt><trkpt lat="46.47653" lon="6.77447"></trkpt><trkpt lat="46.47659" lon="6.77429"></trkpt><trkpt lat="46.47665" lon="6.77409"></trkpt><trkpt lat="46.4767" lon="6.7739"></trkpt><trkpt lat="46.47676" lon="6.77375"></trkpt><trkpt lat="46.47681" lon="6.77364"></trkpt><trkpt lat="46.47688" lon="6.7735"></trkpt><trkpt lat="46.47695" lon="6.77334"></trkpt><trkpt lat="46.477" lon="6.77323"></trkpt><trkpt lat="46.47703" lon="6.77315"></trkpt><trkpt lat="46.47705" lon="6.77307"></trkpt><trkpt lat="46.47707" lon="6.77296"></trkpt><trkpt lat="46.4771" lon="6.7728"></trkpt><trkpt lat="46.47713" lon="6.77264"></trkpt><trkpt lat="46.47717" lon="6.7725"></trkpt><trkpt lat="46.47721" lon="6.77236"></trkpt><trkpt lat="46.47725" lon="6.77222"></trkpt><trkpt lat="46.47727" lon="6.77211"></trkpt><trkpt lat="46.47732" lon="6.77192"></trkpt><trkpt lat="46.47736" lon="6.77172"></trkpt><trkpt lat="46.47739" lon="6.77163"></trkpt><trkpt lat="46.47741" lon="6.77159"></trkpt><trkpt lat="46.47743" lon="6.77155"></trkpt><trkpt lat="46.47744" lon="6.77153"></trkpt><trkpt lat="46.47746" lon="6.77151"></trkpt><trkpt lat="46.47748" lon="6.77148"></trkpt><trkpt lat="46.47754" lon="6.77141"></trkpt><trkpt lat="46.47759" lon="6.77134"></trkpt><trkpt lat="46.47764" lon="6.77127"></trkpt><trkpt lat="46.47768" lon="6.77118"></trkpt><trkpt lat="46.47772" lon="6.77109"></trkpt><trkpt lat="46.47775" lon="6.77101"></trkpt><trkpt lat="46.47778" lon="6.7709"></trkpt><trkpt lat="46.47781" lon="6.7708"></trkpt><trkpt lat="46.47784" lon="6.7707"></trkpt><trkpt lat="46.47786" lon="6.77061"></trkpt><trkpt lat="46.47789" lon="6.77052"></trkpt><trkpt lat="46.47793" lon="6.77044"></trkpt><trkpt lat="46.47797" lon="6.77031"></trkpt><trkpt lat="46.47799" lon="6.7702"></trkpt><trkpt lat="46.478" lon="6.7701"></trkpt><trkpt lat="46.47802" lon="6.77002"></trkpt><trkpt lat="46.47805" lon="6.76995"></trkpt><trkpt lat="46.47808" lon="6.76989"></trkpt><trkpt lat="46.47814" lon="6.76976"></trkpt><trkpt lat="46.47819" lon="6.76963"></trkpt><trkpt lat="46.47824" lon="6.7695"></trkpt><trkpt lat="46.47826" lon="6.76943"></trkpt><trkpt lat="46.47829" lon="6.76926"></trkpt><trkpt lat="46.47832" lon="6.76912"></trkpt><trkpt lat="46.47836" lon="6.76894"></trkpt><trkpt lat="46.47841" lon="6.76873"></trkpt><trkpt lat="46.47845" lon="6.76853"></trkpt><trkpt lat="46.47848" lon="6.76839"></trkpt><trkpt lat="46.4785" lon="6.76826"></trkpt><trkpt lat="46.47854" lon="6.76811"></trkpt><trkpt lat="46.47857" lon="6.76795"></trkpt><trkpt lat="46.47862" lon="6.76782"></trkpt><trkpt lat="46.47868" lon="6.7676"></trkpt><trkpt lat="46.47873" lon="6.76746"></trkpt><trkpt lat="46.47876" lon="6.76734"></trkpt><trkpt lat="46.47883" lon="6.76716"></trkpt><trkpt lat="46.47893" lon="6.76695"></trkpt><trkpt lat="46.47902" lon="6.76674"></trkpt><trkpt lat="46.47907" lon="6.76663"></trkpt><trkpt lat="46.47913" lon="6.76651"></trkpt><trkpt lat="46.47917" lon="6.76641"></trkpt><trkpt lat="46.47923" lon="6.76626"></trkpt><trkpt lat="46.4793" lon="6.76605"></trkpt><trkpt lat="46.47938" lon="6.76583"></trkpt><trkpt lat="46.47941" lon="6.76573"></trkpt><trkpt lat="46.47949" lon="6.76555"></trkpt><trkpt lat="46.47953" lon="6.76545"></trkpt><trkpt lat="46.47954" lon="6.7654"></trkpt><trkpt lat="46.47958" lon="6.76526"></trkpt><trkpt lat="46.47961" lon="6.76516"></trkpt><trkpt lat="46.47963" lon="6.76505"></trkpt><trkpt lat="46.47965" lon="6.76494"></trkpt><trkpt lat="46.47968" lon="6.76481"></trkpt><trkpt lat="46.47972" lon="6.76468"></trkpt><trkpt lat="46.47976" lon="6.76455"></trkpt><trkpt lat="46.47982" lon="6.7644"></trkpt><trkpt lat="46.47987" lon="6.76428"></trkpt><trkpt lat="46.47991" lon="6.7642"></trkpt><trkpt lat="46.47996" lon="6.7641"></trkpt><trkpt lat="46.48001" lon="6.76397"></trkpt><trkpt lat="46.48003" lon="6.76393"></trkpt><trkpt lat="46.48009" lon="6.76384"></trkpt><trkpt lat="46.48012" lon="6.76379"></trkpt><trkpt lat="46.48023" lon="6.76366"></trkpt><trkpt lat="46.48029" lon="6.76359"></trkpt><trkpt lat="46.48036" lon="6.76351"></trkpt><trkpt lat="46.48041" lon="6.76342"></trkpt><trkpt lat="46.48046" lon="6.76334"></trkpt><trkpt lat="46.48049" lon="6.76328"></trkpt><trkpt lat="46.48052" lon="6.76322"></trkpt><trkpt lat="46.48055" lon="6.76315"></trkpt><trkpt lat="46.48064" lon="6.76295"></trkpt><trkpt lat="46.48075" lon="6.76268"></trkpt><trkpt lat="46.48083" lon="6.76251"></trkpt><trkpt lat="46.48089" lon="6.76237"></trkpt><trkpt lat="46.48099" lon="6.7622"></trkpt><trkpt lat="46.48107" lon="6.76205"></trkpt><trkpt lat="46.48114" lon="6.76193"></trkpt><trkpt lat="46.48121" lon="6.76182"></trkpt><trkpt lat="46.48128" lon="6.7617"></trkpt><trkpt lat="46.48139" lon="6.76152"></trkpt><trkpt lat="46.48149" lon="6.76133"></trkpt><trkpt lat="46.48155" lon="6.7612"></trkpt><trkpt lat="46.48162" lon="6.76107"></trkpt><trkpt lat="46.48166" lon="6.76093"></trkpt><trkpt lat="46.48171" lon="6.76082"></trkpt><trkpt lat="46.48175" lon="6.76073"></trkpt><trkpt lat="46.48181" lon="6.76064"></trkpt><trkpt lat="46.48191" lon="6.76051"></trkpt><trkpt lat="46.48201" lon="6.76038"></trkpt><trkpt lat="46.48205" lon="6.7603"></trkpt><trkpt lat="46.4821" lon="6.76025"></trkpt><trkpt lat="46.48211" lon="6.76025"></trkpt><trkpt lat="46.48215" lon="6.76022"></trkpt><trkpt lat="46.48219" lon="6.76019"></trkpt><trkpt lat="46.48226" lon="6.76013"></trkpt><trkpt lat="46.48232" lon="6.76006"></trkpt><trkpt lat="46.48248" lon="6.75988"></trkpt><trkpt lat="46.48261" lon="6.75974"></trkpt><trkpt lat="46.48267" lon="6.75967"></trkpt><trkpt lat="46.48277" lon="6.75953"></trkpt><trkpt lat="46.48287" lon="6.7594"></trkpt><trkpt lat="46.48299" lon="6.75927"></trkpt><trkpt lat="46.48321" lon="6.75901"></trkpt><trkpt lat="46.48335" lon="6.75886"></trkpt><trkpt lat="46.48349" lon="6.7587"></trkpt><trkpt lat="46.48359" lon="6.75858"></trkpt><trkpt lat="46.48366" lon="6.7585"></trkpt><trkpt lat="46.48371" lon="6.75842"></trkpt><trkpt lat="46.48375" lon="6.75834"></trkpt><trkpt lat="46.48378" lon="6.75827"></trkpt><trkpt lat="46.48383" lon="6.7582"></trkpt><trkpt lat="46.48389" lon="6.75813"></trkpt><trkpt lat="46.48394" lon="6.75808"></trkpt><trkpt lat="46.48401" lon="6.75803"></trkpt><trkpt lat="46.48407" lon="6.758"></trkpt><trkpt lat="46.48414" lon="6.75795"></trkpt><trkpt lat="46.48421" lon="6.75787"></trkpt><trkpt lat="46.48441" lon="6.7576"></trkpt><trkpt lat="46.48447" lon="6.75751"></trkpt><trkpt lat="46.48459" lon="6.75735"></trkpt><trkpt lat="46.48463" lon="6.7573"></trkpt><trkpt lat="46.48469" lon="6.75721"></trkpt><trkpt lat="46.48474" lon="6.75713"></trkpt><trkpt lat="46.48478" lon="6.75707"></trkpt><trkpt lat="46.48481" lon="6.75701"></trkpt><trkpt lat="46.48483" lon="6.75694"></trkpt><trkpt lat="46.48486" lon="6.75687"></trkpt><trkpt lat="46.48489" lon="6.75681"></trkpt><trkpt lat="46.48493" lon="6.75675"></trkpt><trkpt lat="46.485" lon="6.75667"></trkpt><trkpt lat="46.48506" lon="6.7566"></trkpt><trkpt lat="46.48514" lon="6.75651"></trkpt><trkpt lat="46.48521" lon="6.75641"></trkpt><trkpt lat="46.48525" lon="6.75635"></trkpt><trkpt lat="46.4853" lon="6.75625"></trkpt><trkpt lat="46.48536" lon="6.75611"></trkpt><trkpt lat="46.4854" lon="6.75602"></trkpt><trkpt lat="46.48545" lon="6.75591"></trkpt><trkpt lat="46.48546" lon="6.75588"></trkpt><trkpt lat="46.48549" lon="6.75581"></trkpt><trkpt lat="46.48556" lon="6.75567"></trkpt><trkpt lat="46.48559" lon="6.75559"></trkpt><trkpt lat="46.48562" lon="6.75553"></trkpt><trkpt lat="46.48571" lon="6.75535"></trkpt><trkpt lat="46.48576" lon="6.75525"></trkpt><trkpt lat="46.48583" lon="6.75512"></trkpt><trkpt lat="46.48588" lon="6.75504"></trkpt><trkpt lat="46.48593" lon="6.75498"></trkpt><trkpt lat="46.48603" lon="6.75489"></trkpt><trkpt lat="46.48616" lon="6.75476"></trkpt><trkpt lat="46.48636" lon="6.75459"></trkpt><trkpt lat="46.48651" lon="6.75445"></trkpt><trkpt lat="46.48658" lon="6.75437"></trkpt><trkpt lat="46.48665" lon="6.7543"></trkpt><trkpt lat="46.48672" lon="6.75422"></trkpt><trkpt lat="46.48676" lon="6.75418"></trkpt><trkpt lat="46.48678" lon="6.75416"></trkpt><trkpt lat="46.48681" lon="6.75411"></trkpt><trkpt lat="46.48685" lon="6.75406"></trkpt><trkpt lat="46.48689" lon="6.75399"></trkpt><trkpt lat="46.48691" lon="6.75396"></trkpt><trkpt lat="46.48696" lon="6.75385"></trkpt><trkpt lat="46.48702" lon="6.75372"></trkpt><trkpt lat="46.48708" lon="6.75362"></trkpt><trkpt lat="46.48713" lon="6.75354"></trkpt><trkpt lat="46.4872" lon="6.75342"></trkpt><trkpt lat="46.48726" lon="6.75331"></trkpt><trkpt lat="46.48733" lon="6.7532"></trkpt><trkpt lat="46.48739" lon="6.75308"></trkpt><trkpt lat="46.48747" lon="6.75293"></trkpt><trkpt lat="46.48755" lon="6.75275"></trkpt><trkpt lat="46.48763" lon="6.7526"></trkpt><trkpt lat="46.48766" lon="6.75254"></trkpt><trkpt lat="46.48771" lon="6.75249"></trkpt><trkpt lat="46.48775" lon="6.75243"></trkpt><trkpt lat="46.48778" lon="6.75238"></trkpt><trkpt lat="46.48785" lon="6.75226"></trkpt><trkpt lat="46.48792" lon="6.75212"></trkpt><trkpt lat="46.48794" lon="6.75202"></trkpt><trkpt lat="46.48795" lon="6.75196"></trkpt><trkpt lat="46.48798" lon="6.75186"></trkpt><trkpt lat="46.48801" lon="6.7518"></trkpt><trkpt lat="46.48806" lon="6.7517"></trkpt><trkpt lat="46.48808" lon="6.75167"></trkpt><trkpt lat="46.48811" lon="6.75162"></trkpt><trkpt lat="46.48817" lon="6.75154"></trkpt><trkpt lat="46.48821" lon="6.75149"></trkpt><trkpt lat="46.48824" lon="6.75143"></trkpt><trkpt lat="46.48827" lon="6.75136"></trkpt><trkpt lat="46.48828" lon="6.75132"></trkpt><trkpt lat="46.4883" lon="6.75127"></trkpt><trkpt lat="46.48831" lon="6.75121"></trkpt><trkpt lat="46.48832" lon="6.75114"></trkpt><trkpt lat="46.48833" lon="6.75109"></trkpt><trkpt lat="46.48834" lon="6.75103"></trkpt><trkpt lat="46.48835" lon="6.7509"></trkpt><trkpt lat="46.48838" lon="6.75076"></trkpt><trkpt lat="46.48841" lon="6.75063"></trkpt><trkpt lat="46.48843" lon="6.75054"></trkpt><trkpt lat="46.48847" lon="6.75046"></trkpt><trkpt lat="46.48852" lon="6.75037"></trkpt><trkpt lat="46.4886" lon="6.75027"></trkpt><trkpt lat="46.48866" lon="6.75018"></trkpt><trkpt lat="46.48872" lon="6.75009"></trkpt><trkpt lat="46.48877" lon="6.75004"></trkpt><trkpt lat="46.48883" lon="6.75"></trkpt><trkpt lat="46.4889" lon="6.74995"></trkpt><trkpt lat="46.48898" lon="6.74991"></trkpt><trkpt lat="46.48905" lon="6.74987"></trkpt><trkpt lat="46.48908" lon="6.74985"></trkpt><trkpt lat="46.48914" lon="6.7498"></trkpt><trkpt lat="46.48918" lon="6.74975"></trkpt><trkpt lat="46.48923" lon="6.74969"></trkpt><trkpt lat="46.48927" lon="6.7496"></trkpt><trkpt lat="46.4893" lon="6.74953"></trkpt><trkpt lat="46.48935" lon="6.74941"></trkpt><trkpt lat="46.48935" lon="6.74939"></trkpt><trkpt lat="46.48937" lon="6.74933"></trkpt><trkpt lat="46.48939" lon="6.74926"></trkpt><trkpt lat="46.48941" lon="6.74914"></trkpt><trkpt lat="46.48944" lon="6.74894"></trkpt><trkpt lat="46.48947" lon="6.74871"></trkpt><trkpt lat="46.4895" lon="6.7485"></trkpt><trkpt lat="46.48953" lon="6.74831"></trkpt><trkpt lat="46.48956" lon="6.7482"></trkpt><trkpt lat="46.4896" lon="6.74808"></trkpt><trkpt lat="46.48965" lon="6.74794"></trkpt><trkpt lat="46.48969" lon="6.74782"></trkpt><trkpt lat="46.4898" lon="6.74755"></trkpt><trkpt lat="46.48983" lon="6.74745"></trkpt><trkpt lat="46.48985" lon="6.74741"></trkpt><trkpt lat="46.48992" lon="6.74721"></trkpt><trkpt lat="46.48999" lon="6.74705"></trkpt><trkpt lat="46.49006" lon="6.74692"></trkpt><trkpt lat="46.49015" lon="6.74676"></trkpt><trkpt lat="46.49016" lon="6.74675"></trkpt><trkpt lat="46.49026" lon="6.74657"></trkpt><trkpt lat="46.49035" lon="6.74641"></trkpt><trkpt lat="46.49036" lon="6.7464"></trkpt><trkpt lat="46.49042" lon="6.74628"></trkpt><trkpt lat="46.49057" lon="6.74605"></trkpt><trkpt lat="46.49058" lon="6.74603"></trkpt><trkpt lat="46.49065" lon="6.7459"></trkpt><trkpt lat="46.49069" lon="6.74579"></trkpt><trkpt lat="46.49071" lon="6.7457"></trkpt><trkpt lat="46.49073" lon="6.74559"></trkpt><trkpt lat="46.49074" lon="6.74543"></trkpt><trkpt lat="46.49075" lon="6.74533"></trkpt><trkpt lat="46.49076" lon="6.74521"></trkpt><trkpt lat="46.49079" lon="6.74507"></trkpt><trkpt lat="46.49082" lon="6.74489"></trkpt><trkpt lat="46.49086" lon="6.74481"></trkpt><trkpt lat="46.49089" lon="6.74477"></trkpt><trkpt lat="46.49096" lon="6.74471"></trkpt><trkpt lat="46.49101" lon="6.74468"></trkpt><trkpt lat="46.49094" lon="6.74455"></trkpt><trkpt lat="46.49086" lon="6.74438"></trkpt><trkpt lat="46.49073" lon="6.74412"></trkpt><trkpt lat="46.49074" lon="6.74409"></trkpt><trkpt lat="46.49076" lon="6.74405"></trkpt><trkpt lat="46.49076" lon="6.74403"></trkpt><trkpt lat="46.49069" lon="6.74399"></trkpt><trkpt lat="46.49068" lon="6.74398"></trkpt><trkpt lat="46.49069" lon="6.74393"></trkpt><trkpt lat="46.49068" lon="6.74377"></trkpt><trkpt lat="46.49069" lon="6.74362"></trkpt><trkpt lat="46.49068" lon="6.74357"></trkpt><trkpt lat="46.49066" lon="6.7435"></trkpt><trkpt lat="46.49063" lon="6.74335"></trkpt><trkpt lat="46.49061" lon="6.74327"></trkpt><trkpt lat="46.49058" lon="6.74319"></trkpt><trkpt lat="46.49056" lon="6.74314"></trkpt><trkpt lat="46.49054" lon="6.74311"></trkpt><trkpt lat="46.49057" lon="6.74303"></trkpt><trkpt lat="46.49058" lon="6.74292"></trkpt><trkpt lat="46.49058" lon="6.74279"></trkpt><trkpt lat="46.49059" lon="6.74253"></trkpt><trkpt lat="46.49059" lon="6.74235"></trkpt><trkpt lat="46.4906" lon="6.74215"></trkpt><trkpt lat="46.49061" lon="6.74196"></trkpt><trkpt lat="46.49061" lon="6.74178"></trkpt><trkpt lat="46.49063" lon="6.74164"></trkpt><trkpt lat="46.49064" lon="6.74147"></trkpt><trkpt lat="46.49067" lon="6.74121"></trkpt><trkpt lat="46.4907" lon="6.74096"></trkpt><trkpt lat="46.49075" lon="6.74073"></trkpt><trkpt lat="46.4908" lon="6.74047"></trkpt><trkpt lat="46.49086" lon="6.74023"></trkpt><trkpt lat="46.49088" lon="6.74011"></trkpt><trkpt lat="46.4909" lon="6.74001"></trkpt><trkpt lat="46.4909" lon="6.73992"></trkpt><trkpt lat="46.49091" lon="6.7397"></trkpt><trkpt lat="46.49091" lon="6.73964"></trkpt><trkpt lat="46.49094" lon="6.73953"></trkpt><trkpt lat="46.49097" lon="6.73939"></trkpt><trkpt lat="46.49101" lon="6.73924"></trkpt><trkpt lat="46.49104" lon="6.73917"></trkpt><trkpt lat="46.49107" lon="6.73913"></trkpt><trkpt lat="46.49106" lon="6.73905"></trkpt><trkpt lat="46.49106" lon="6.73899"></trkpt><trkpt lat="46.49106" lon="6.73894"></trkpt><trkpt lat="46.49107" lon="6.73886"></trkpt><trkpt lat="46.4911" lon="6.73877"></trkpt><trkpt lat="46.49113" lon="6.73864"></trkpt><trkpt lat="46.49115" lon="6.73852"></trkpt><trkpt lat="46.49119" lon="6.73832"></trkpt><trkpt lat="46.49122" lon="6.73805"></trkpt><trkpt lat="46.49127" lon="6.73777"></trkpt><trkpt lat="46.4913" lon="6.73755"></trkpt><trkpt lat="46.49131" lon="6.73743"></trkpt><trkpt lat="46.49132" lon="6.73714"></trkpt><trkpt lat="46.49131" lon="6.73669"></trkpt><trkpt lat="46.4913" lon="6.7365"></trkpt><trkpt lat="46.49146" lon="6.7365"></trkpt><trkpt lat="46.4916" lon="6.73646"></trkpt><trkpt lat="46.49169" lon="6.73641"></trkpt><trkpt lat="46.49184" lon="6.73631"></trkpt><trkpt lat="46.49189" lon="6.73624"></trkpt><trkpt lat="46.49202" lon="6.73616"></trkpt><trkpt lat="46.4921" lon="6.7361"></trkpt><trkpt lat="46.49216" lon="6.73605"></trkpt><trkpt lat="46.49221" lon="6.73603"></trkpt><trkpt lat="46.49224" lon="6.73603"></trkpt><trkpt lat="46.49225" lon="6.73603"></trkpt><trkpt lat="46.49236" lon="6.73606"></trkpt><trkpt lat="46.49253" lon="6.73609"></trkpt><trkpt lat="46.49271" lon="6.73613"></trkpt><trkpt lat="46.49281" lon="6.73616"></trkpt><trkpt lat="46.49288" lon="6.73619"></trkpt><trkpt lat="46.49293" lon="6.73621"></trkpt><trkpt lat="46.49298" lon="6.73622"></trkpt><trkpt lat="46.493" lon="6.73623"></trkpt><trkpt lat="46.49305" lon="6.73623"></trkpt><trkpt lat="46.49307" lon="6.73623"></trkpt><trkpt lat="46.49308" lon="6.73622"></trkpt><trkpt lat="46.49311" lon="6.73621"></trkpt><trkpt lat="46.49313" lon="6.7362"></trkpt><trkpt lat="46.49315" lon="6.73618"></trkpt><trkpt lat="46.49318" lon="6.73609"></trkpt><trkpt lat="46.49323" lon="6.73596"></trkpt><trkpt lat="46.49325" lon="6.73591"></trkpt><trkpt lat="46.49326" lon="6.7359"></trkpt><trkpt lat="46.49328" lon="6.73589"></trkpt><trkpt lat="46.49331" lon="6.73587"></trkpt><trkpt lat="46.49334" lon="6.73586"></trkpt><trkpt lat="46.49336" lon="6.73586"></trkpt><trkpt lat="46.49338" lon="6.73586"></trkpt><trkpt lat="46.49338" lon="6.73566"></trkpt><trkpt lat="46.49338" lon="6.73562"></trkpt><trkpt lat="46.49338" lon="6.73551"></trkpt><trkpt lat="46.49337" lon="6.73535"></trkpt><trkpt lat="46.49336" lon="6.73521"></trkpt><trkpt lat="46.49335" lon="6.73519"></trkpt><trkpt lat="46.49335" lon="6.7351"></trkpt><trkpt lat="46.49335" lon="6.73506"></trkpt><trkpt lat="46.49338" lon="6.73489"></trkpt><trkpt lat="46.4934" lon="6.7348"></trkpt><trkpt lat="46.49346" lon="6.73467"></trkpt><trkpt lat="46.49352" lon="6.73457"></trkpt><trkpt lat="46.49361" lon="6.73443"></trkpt><trkpt lat="46.49364" lon="6.73433"></trkpt><trkpt lat="46.49366" lon="6.73426"></trkpt><trkpt lat="46.49366" lon="6.73426"></trkpt><trkpt lat="46.49367" lon="6.73426"></trkpt><trkpt lat="46.49367" lon="6.73425"></trkpt><trkpt lat="46.49371" lon="6.7343"></trkpt><trkpt lat="46.49374" lon="6.73434"></trkpt><trkpt lat="46.4938" lon="6.73439"></trkpt><trkpt lat="46.49391" lon="6.73449"></trkpt><trkpt lat="46.49401" lon="6.73457"></trkpt><trkpt lat="46.49408" lon="6.73463"></trkpt><trkpt lat="46.49413" lon="6.73468"></trkpt><trkpt lat="46.49416" lon="6.7347"></trkpt><trkpt lat="46.4942" lon="6.73471"></trkpt><trkpt lat="46.49425" lon="6.73472"></trkpt><trkpt lat="46.49441" lon="6.73474"></trkpt><trkpt lat="46.49453" lon="6.73476"></trkpt><trkpt lat="46.49456" lon="6.73476"></trkpt><trkpt lat="46.4946" lon="6.73476"></trkpt><trkpt lat="46.49464" lon="6.73475"></trkpt><trkpt lat="46.49469" lon="6.73473"></trkpt><trkpt lat="46.49475" lon="6.7347"></trkpt><trkpt lat="46.49486" lon="6.73466"></trkpt><trkpt lat="46.49496" lon="6.73462"></trkpt><trkpt lat="46.49509" lon="6.73456"></trkpt><trkpt lat="46.49514" lon="6.73453"></trkpt><trkpt lat="46.4952" lon="6.73452"></trkpt><trkpt lat="46.49539" lon="6.73448"></trkpt><trkpt lat="46.49568" lon="6.73442"></trkpt><trkpt lat="46.49574" lon="6.73441"></trkpt><trkpt lat="46.49588" lon="6.73439"></trkpt><trkpt lat="46.496" lon="6.7344"></trkpt><trkpt lat="46.49618" lon="6.73444"></trkpt><trkpt lat="46.49653" lon="6.73454"></trkpt><trkpt lat="46.49664" lon="6.73457"></trkpt><trkpt lat="46.49668" lon="6.73458"></trkpt><trkpt lat="46.4967" lon="6.73456"></trkpt><trkpt lat="46.49671" lon="6.73454"></trkpt><trkpt lat="46.49672" lon="6.7345"></trkpt><trkpt lat="46.49672" lon="6.73447"></trkpt><trkpt lat="46.49672" lon="6.73443"></trkpt><trkpt lat="46.4967" lon="6.7344"></trkpt><trkpt lat="46.49665" lon="6.73431"></trkpt><trkpt lat="46.4966" lon="6.73424"></trkpt><trkpt lat="46.49649" lon="6.73406"></trkpt><trkpt lat="46.49634" lon="6.73385"></trkpt><trkpt lat="46.49625" lon="6.73372"></trkpt><trkpt lat="46.49614" lon="6.73356"></trkpt><trkpt lat="46.49609" lon="6.73348"></trkpt><trkpt lat="46.49605" lon="6.73345"></trkpt><trkpt lat="46.49601" lon="6.73343"></trkpt><trkpt lat="46.49596" lon="6.73341"></trkpt><trkpt lat="46.49589" lon="6.7334"></trkpt><trkpt lat="46.49581" lon="6.73339"></trkpt><trkpt lat="46.49573" lon="6.73338"></trkpt><trkpt lat="46.49569" lon="6.73337"></trkpt><trkpt lat="46.49564" lon="6.73334"></trkpt><trkpt lat="46.49558" lon="6.73329"></trkpt><trkpt lat="46.49551" lon="6.73323"></trkpt><trkpt lat="46.49545" lon="6.73316"></trkpt><trkpt lat="46.49536" lon="6.73303"></trkpt><trkpt lat="46.49532" lon="6.73296"></trkpt><trkpt lat="46.49531" lon="6.73292"></trkpt><trkpt lat="46.49529" lon="6.73286"></trkpt><trkpt lat="46.49527" lon="6.7328"></trkpt><trkpt lat="46.49524" lon="6.73274"></trkpt><trkpt lat="46.49521" lon="6.73267"></trkpt><trkpt lat="46.49518" lon="6.73261"></trkpt><trkpt lat="46.49515" lon="6.73255"></trkpt><trkpt lat="46.4951" lon="6.73248"></trkpt><trkpt lat="46.49504" lon="6.73238"></trkpt><trkpt lat="46.49497" lon="6.73229"></trkpt><trkpt lat="46.4949" lon="6.73219"></trkpt><trkpt lat="46.4947" lon="6.73191"></trkpt><trkpt lat="46.49447" lon="6.73157"></trkpt><trkpt lat="46.49434" lon="6.73139"></trkpt><trkpt lat="46.49437" lon="6.73135"></trkpt><trkpt lat="46.49443" lon="6.73129"></trkpt><trkpt lat="46.49448" lon="6.73124"></trkpt><trkpt lat="46.49454" lon="6.7312"></trkpt><trkpt lat="46.49456" lon="6.73116"></trkpt><trkpt lat="46.49465" lon="6.73104"></trkpt><trkpt lat="46.4947" lon="6.73097"></trkpt><trkpt lat="46.49474" lon="6.73091"></trkpt><trkpt lat="46.49481" lon="6.73088"></trkpt><trkpt lat="46.49484" lon="6.73086"></trkpt><trkpt lat="46.49492" lon="6.73085"></trkpt><trkpt lat="46.49498" lon="6.73081"></trkpt><trkpt lat="46.49504" lon="6.73077"></trkpt><trkpt lat="46.49509" lon="6.73075"></trkpt><trkpt lat="46.4952" lon="6.73074"></trkpt><trkpt lat="46.49527" lon="6.73073"></trkpt><trkpt lat="46.49525" lon="6.73063"></trkpt><trkpt lat="46.49524" lon="6.73053"></trkpt><trkpt lat="46.49523" lon="6.73043"></trkpt><trkpt lat="46.4952" lon="6.73026"></trkpt><trkpt lat="46.49516" lon="6.73005"></trkpt><trkpt lat="46.49515" lon="6.72995"></trkpt><trkpt lat="46.49515" lon="6.72988"></trkpt><trkpt lat="46.49515" lon="6.72979"></trkpt><trkpt lat="46.49517" lon="6.7297"></trkpt><trkpt lat="46.4952" lon="6.72964"></trkpt><trkpt lat="46.49521" lon="6.72961"></trkpt><trkpt lat="46.49522" lon="6.7296"></trkpt><trkpt lat="46.49512" lon="6.72943"></trkpt><trkpt lat="46.49506" lon="6.7293"></trkpt><trkpt lat="46.49499" lon="6.72918"></trkpt><trkpt lat="46.49499" lon="6.72918"></trkpt><trkpt lat="46.49489" lon="6.72897"></trkpt><trkpt lat="46.49485" lon="6.72892"></trkpt><trkpt lat="46.49483" lon="6.72889"></trkpt><trkpt lat="46.4948" lon="6.72886"></trkpt><trkpt lat="46.49478" lon="6.72881"></trkpt><trkpt lat="46.49478" lon="6.72878"></trkpt><trkpt lat="46.49477" lon="6.72873"></trkpt><trkpt lat="46.49476" lon="6.72864"></trkpt><trkpt lat="46.49475" lon="6.72854"></trkpt><trkpt lat="46.49475" lon="6.72846"></trkpt><trkpt lat="46.49474" lon="6.72838"></trkpt><trkpt lat="46.49473" lon="6.72833"></trkpt><trkpt lat="46.4947" lon="6.72825"></trkpt><trkpt lat="46.49467" lon="6.72817"></trkpt><trkpt lat="46.49465" lon="6.7281"></trkpt><trkpt lat="46.49463" lon="6.72803"></trkpt><trkpt lat="46.49461" lon="6.72798"></trkpt><trkpt lat="46.4946" lon="6.72792"></trkpt><trkpt lat="46.4946" lon="6.72792"></trkpt><trkpt lat="46.49459" lon="6.72787"></trkpt><trkpt lat="46.49458" lon="6.72783"></trkpt><trkpt lat="46.49458" lon="6.72778"></trkpt><trkpt lat="46.4946" lon="6.72774"></trkpt><trkpt lat="46.49463" lon="6.72771"></trkpt><trkpt lat="46.49476" lon="6.72763"></trkpt><trkpt lat="46.49487" lon="6.72756"></trkpt><trkpt lat="46.49499" lon="6.72748"></trkpt><trkpt lat="46.49511" lon="6.7274"></trkpt><trkpt lat="46.49524" lon="6.7273"></trkpt><trkpt lat="46.49535" lon="6.72721"></trkpt><trkpt lat="46.49546" lon="6.72711"></trkpt><trkpt lat="46.49551" lon="6.72706"></trkpt><trkpt lat="46.49554" lon="6.72695"></trkpt><trkpt lat="46.49557" lon="6.72679"></trkpt><trkpt lat="46.49561" lon="6.72656"></trkpt><trkpt lat="46.49566" lon="6.72622"></trkpt><trkpt lat="46.49568" lon="6.72602"></trkpt><trkpt lat="46.49571" lon="6.72582"></trkpt><trkpt lat="46.49571" lon="6.72572"></trkpt><trkpt lat="46.49569" lon="6.72563"></trkpt><trkpt lat="46.49567" lon="6.7255"></trkpt><trkpt lat="46.49564" lon="6.72528"></trkpt><trkpt lat="46.4956" lon="6.72507"></trkpt><trkpt lat="46.49557" lon="6.72497"></trkpt><trkpt lat="46.49552" lon="6.72484"></trkpt><trkpt lat="46.49543" lon="6.72467"></trkpt><trkpt lat="46.49535" lon="6.72452"></trkpt><trkpt lat="46.49531" lon="6.72441"></trkpt><trkpt lat="46.49527" lon="6.72423"></trkpt><trkpt lat="46.49525" lon="6.72408"></trkpt><trkpt lat="46.49521" lon="6.72384"></trkpt><trkpt lat="46.4952" lon="6.72361"></trkpt><trkpt lat="46.49521" lon="6.72338"></trkpt><trkpt lat="46.49521" lon="6.72309"></trkpt><trkpt lat="46.49523" lon="6.72289"></trkpt><trkpt lat="46.49524" lon="6.72278"></trkpt><trkpt lat="46.49519" lon="6.72246"></trkpt><trkpt lat="46.49517" lon="6.72235"></trkpt><trkpt lat="46.49516" lon="6.72208"></trkpt><trkpt lat="46.49513" lon="6.7218"></trkpt><trkpt lat="46.49511" lon="6.72162"></trkpt><trkpt lat="46.49511" lon="6.72155"></trkpt><trkpt lat="46.49513" lon="6.72141"></trkpt><trkpt lat="46.49512" lon="6.72137"></trkpt><trkpt lat="46.49512" lon="6.72132"></trkpt><trkpt lat="46.49511" lon="6.72123"></trkpt><trkpt lat="46.49508" lon="6.72116"></trkpt><trkpt lat="46.49503" lon="6.72103"></trkpt><trkpt lat="46.49499" lon="6.72092"></trkpt><trkpt lat="46.49496" lon="6.72076"></trkpt><trkpt lat="46.49494" lon="6.72067"></trkpt><trkpt lat="46.49493" lon="6.72061"></trkpt><trkpt lat="46.49492" lon="6.72057"></trkpt><trkpt lat="46.49492" lon="6.72052"></trkpt><trkpt lat="46.49495" lon="6.72037"></trkpt><trkpt lat="46.49497" lon="6.72016"></trkpt><trkpt lat="46.49498" lon="6.72003"></trkpt><trkpt lat="46.49498" lon="6.71994"></trkpt><trkpt lat="46.49498" lon="6.71985"></trkpt><trkpt lat="46.49497" lon="6.71975"></trkpt><trkpt lat="46.49496" lon="6.71969"></trkpt><trkpt lat="46.49495" lon="6.71966"></trkpt><trkpt lat="46.49494" lon="6.71963"></trkpt><trkpt lat="46.49488" lon="6.71954"></trkpt><trkpt lat="46.49483" lon="6.71944"></trkpt><trkpt lat="46.4948" lon="6.71937"></trkpt><trkpt lat="46.49476" lon="6.71922"></trkpt><trkpt lat="46.49474" lon="6.71909"></trkpt><trkpt lat="46.49471" lon="6.71892"></trkpt><trkpt lat="46.49469" lon="6.71868"></trkpt><trkpt lat="46.49467" lon="6.7185"></trkpt><trkpt lat="46.49465" lon="6.71832"></trkpt><trkpt lat="46.49465" lon="6.71824"></trkpt><trkpt lat="46.49462" lon="6.71818"></trkpt><trkpt lat="46.49461" lon="6.71812"></trkpt><trkpt lat="46.49461" lon="6.7179"></trkpt><trkpt lat="46.49461" lon="6.71782"></trkpt><trkpt lat="46.49459" lon="6.71776"></trkpt><trkpt lat="46.49455" lon="6.71771"></trkpt><trkpt lat="46.49446" lon="6.71761"></trkpt><trkpt lat="46.49442" lon="6.71756"></trkpt><trkpt lat="46.49439" lon="6.71752"></trkpt><trkpt lat="46.49436" lon="6.71745"></trkpt><trkpt lat="46.49434" lon="6.71735"></trkpt><trkpt lat="46.49431" lon="6.71722"></trkpt><trkpt lat="46.4943" lon="6.71718"></trkpt><trkpt lat="46.4943" lon="6.71715"></trkpt><trkpt lat="46.49432" lon="6.71711"></trkpt><trkpt lat="46.49433" lon="6.71705"></trkpt><trkpt lat="46.49431" lon="6.71701"></trkpt><trkpt lat="46.49424" lon="6.71716"></trkpt><trkpt lat="46.49422" lon="6.71714"></trkpt><trkpt lat="46.49422" lon="6.7171"></trkpt><trkpt lat="46.49423" lon="6.71706"></trkpt><trkpt lat="46.49424" lon="6.71703"></trkpt><trkpt lat="46.49426" lon="6.71697"></trkpt><trkpt lat="46.49431" lon="6.71688"></trkpt><trkpt lat="46.49433" lon="6.71683"></trkpt><trkpt lat="46.49433" lon="6.71682"></trkpt><trkpt lat="46.49435" lon="6.71677"></trkpt><trkpt lat="46.49436" lon="6.71665"></trkpt><trkpt lat="46.49437" lon="6.7165"></trkpt><trkpt lat="46.49437" lon="6.71643"></trkpt><trkpt lat="46.49435" lon="6.71634"></trkpt><trkpt lat="46.4943" lon="6.71635"></trkpt><trkpt lat="46.49416" lon="6.71633"></trkpt><trkpt lat="46.4941" lon="6.71632"></trkpt><trkpt lat="46.49406" lon="6.71633"></trkpt><trkpt lat="46.49404" lon="6.71633"></trkpt><trkpt lat="46.49403" lon="6.71634"></trkpt><trkpt lat="46.49396" lon="6.71646"></trkpt><trkpt lat="46.49391" lon="6.71641"></trkpt><trkpt lat="46.49382" lon="6.71632"></trkpt><trkpt lat="46.49365" lon="6.71616"></trkpt><trkpt lat="46.49374" lon="6.71606"></trkpt><trkpt lat="46.49383" lon="6.71596"></trkpt><trkpt lat="46.49393" lon="6.71588"></trkpt><trkpt lat="46.49402" lon="6.71583"></trkpt><trkpt lat="46.49408" lon="6.71582"></trkpt><trkpt lat="46.49414" lon="6.71584"></trkpt><trkpt lat="46.49421" lon="6.71585"></trkpt><trkpt lat="46.49423" lon="6.71583"></trkpt><trkpt lat="46.49427" lon="6.7158"></trkpt><trkpt lat="46.49439" lon="6.71562"></trkpt><trkpt lat="46.49444" lon="6.71553"></trkpt><trkpt lat="46.49468" lon="6.71519"></trkpt><trkpt lat="46.49474" lon="6.71512"></trkpt><trkpt lat="46.49518" lon="6.71479"></trkpt><trkpt lat="46.49517" lon="6.71474"></trkpt><trkpt lat="46.49515" lon="6.71466"></trkpt><trkpt lat="46.49514" lon="6.71453"></trkpt><trkpt lat="46.49513" lon="6.71428"></trkpt><trkpt lat="46.49512" lon="6.71402"></trkpt><trkpt lat="46.49511" lon="6.71381"></trkpt><trkpt lat="46.4951" lon="6.71359"></trkpt><trkpt lat="46.49509" lon="6.71332"></trkpt><trkpt lat="46.49508" lon="6.71312"></trkpt><trkpt lat="46.49509" lon="6.71298"></trkpt><trkpt lat="46.49511" lon="6.71283"></trkpt><trkpt lat="46.49509" lon="6.71279"></trkpt><trkpt lat="46.49508" lon="6.71275"></trkpt><trkpt lat="46.49509" lon="6.71269"></trkpt><trkpt lat="46.49513" lon="6.71259"></trkpt><trkpt lat="46.49523" lon="6.71245"></trkpt><trkpt lat="46.49534" lon="6.71231"></trkpt><trkpt lat="46.49545" lon="6.71217"></trkpt><trkpt lat="46.49552" lon="6.71209"></trkpt><trkpt lat="46.49561" lon="6.71201"></trkpt><trkpt lat="46.49568" lon="6.71197"></trkpt><trkpt lat="46.49584" lon="6.71191"></trkpt><trkpt lat="46.49606" lon="6.71182"></trkpt><trkpt lat="46.49616" lon="6.71179"></trkpt><trkpt lat="46.49624" lon="6.7118"></trkpt><trkpt lat="46.4963" lon="6.71179"></trkpt><trkpt lat="46.49634" lon="6.71177"></trkpt><trkpt lat="46.49639" lon="6.71173"></trkpt><trkpt lat="46.4964" lon="6.71172"></trkpt><trkpt lat="46.49657" lon="6.7116"></trkpt><trkpt lat="46.49658" lon="6.71145"></trkpt><trkpt lat="46.49659" lon="6.71129"></trkpt><trkpt lat="46.4966" lon="6.71115"></trkpt><trkpt lat="46.4966" lon="6.71106"></trkpt><trkpt lat="46.49659" lon="6.71095"></trkpt><trkpt lat="46.49657" lon="6.71086"></trkpt><trkpt lat="46.49653" lon="6.71074"></trkpt><trkpt lat="46.49648" lon="6.71058"></trkpt><trkpt lat="46.49647" lon="6.71043"></trkpt><trkpt lat="46.49647" lon="6.7102"></trkpt><trkpt lat="46.49647" lon="6.71008"></trkpt><trkpt lat="46.49649" lon="6.71001"></trkpt><trkpt lat="46.49655" lon="6.7099"></trkpt><trkpt lat="46.49659" lon="6.70981"></trkpt><trkpt lat="46.49661" lon="6.70971"></trkpt><trkpt lat="46.49665" lon="6.70965"></trkpt><trkpt lat="46.49671" lon="6.7096"></trkpt><trkpt lat="46.49678" lon="6.70955"></trkpt><trkpt lat="46.49684" lon="6.7095"></trkpt><trkpt lat="46.4969" lon="6.70945"></trkpt><trkpt lat="46.49698" lon="6.7094"></trkpt><trkpt lat="46.49705" lon="6.70937"></trkpt><trkpt lat="46.49712" lon="6.70934"></trkpt><trkpt lat="46.49718" lon="6.70932"></trkpt><trkpt lat="46.49725" lon="6.70929"></trkpt><trkpt lat="46.49732" lon="6.70926"></trkpt><trkpt lat="46.49741" lon="6.70923"></trkpt><trkpt lat="46.49746" lon="6.70922"></trkpt><trkpt lat="46.49751" lon="6.70923"></trkpt><trkpt lat="46.49753" lon="6.70925"></trkpt><trkpt lat="46.49756" lon="6.70927"></trkpt><trkpt lat="46.4976" lon="6.70936"></trkpt><trkpt lat="46.49764" lon="6.70948"></trkpt><trkpt lat="46.49767" lon="6.70964"></trkpt><trkpt lat="46.4977" lon="6.70972"></trkpt><trkpt lat="46.49772" lon="6.70977"></trkpt><trkpt lat="46.49777" lon="6.70979"></trkpt><trkpt lat="46.49777" lon="6.7099"></trkpt><trkpt lat="46.49778" lon="6.70994"></trkpt><trkpt lat="46.49779" lon="6.70998"></trkpt><trkpt lat="46.49782" lon="6.71006"></trkpt><trkpt lat="46.49791" lon="6.71024"></trkpt><trkpt lat="46.49795" lon="6.71035"></trkpt><trkpt lat="46.49796" lon="6.71038"></trkpt><trkpt lat="46.49828" lon="6.71002"></trkpt><trkpt lat="46.49835" lon="6.70994"></trkpt><trkpt lat="46.49841" lon="6.70984"></trkpt><trkpt lat="46.49846" lon="6.70975"></trkpt><trkpt lat="46.49851" lon="6.70963"></trkpt><trkpt lat="46.49855" lon="6.70949"></trkpt><trkpt lat="46.49863" lon="6.70923"></trkpt><trkpt lat="46.49871" lon="6.70899"></trkpt><trkpt lat="46.49873" lon="6.70892"></trkpt><trkpt lat="46.49878" lon="6.70873"></trkpt><trkpt lat="46.4988" lon="6.70858"></trkpt><trkpt lat="46.49881" lon="6.7084"></trkpt><trkpt lat="46.49881" lon="6.70836"></trkpt><trkpt lat="46.4988" lon="6.70827"></trkpt><trkpt lat="46.49877" lon="6.70803"></trkpt><trkpt lat="46.49872" lon="6.70779"></trkpt><trkpt lat="46.49868" lon="6.70762"></trkpt><trkpt lat="46.49865" lon="6.70752"></trkpt><trkpt lat="46.49865" lon="6.7075"></trkpt><trkpt lat="46.49862" lon="6.70742"></trkpt><trkpt lat="46.49859" lon="6.70736"></trkpt><trkpt lat="46.49856" lon="6.70732"></trkpt><trkpt lat="46.49857" lon="6.70729"></trkpt><trkpt lat="46.49858" lon="6.70726"></trkpt><trkpt lat="46.49859" lon="6.70723"></trkpt><trkpt lat="46.49859" lon="6.7072"></trkpt><trkpt lat="46.49858" lon="6.70715"></trkpt><trkpt lat="46.49856" lon="6.7071"></trkpt><trkpt lat="46.49854" lon="6.70701"></trkpt><trkpt lat="46.49852" lon="6.70692"></trkpt><trkpt lat="46.49851" lon="6.70683"></trkpt><trkpt lat="46.49851" lon="6.70677"></trkpt><trkpt lat="46.49853" lon="6.7067"></trkpt><trkpt lat="46.49854" lon="6.70666"></trkpt><trkpt lat="46.49862" lon="6.70655"></trkpt><trkpt lat="46.4987" lon="6.70642"></trkpt><trkpt lat="46.49875" lon="6.70631"></trkpt><trkpt lat="46.49879" lon="6.70622"></trkpt><trkpt lat="46.4988" lon="6.70619"></trkpt><trkpt lat="46.49882" lon="6.70614"></trkpt><trkpt lat="46.49888" lon="6.70603"></trkpt><trkpt lat="46.49896" lon="6.70587"></trkpt><trkpt lat="46.49907" lon="6.70567"></trkpt><trkpt lat="46.49913" lon="6.70553"></trkpt><trkpt lat="46.49927" lon="6.70532"></trkpt><trkpt lat="46.49934" lon="6.70519"></trkpt><trkpt lat="46.49936" lon="6.70511"></trkpt><trkpt lat="46.4994" lon="6.70495"></trkpt><trkpt lat="46.49942" lon="6.70489"></trkpt><trkpt lat="46.49944" lon="6.70483"></trkpt><trkpt lat="46.49947" lon="6.70478"></trkpt><trkpt lat="46.49952" lon="6.70473"></trkpt><trkpt lat="46.49958" lon="6.70466"></trkpt><trkpt lat="46.49962" lon="6.70462"></trkpt><trkpt lat="46.49973" lon="6.70448"></trkpt><trkpt lat="46.4998" lon="6.70438"></trkpt><trkpt lat="46.49983" lon="6.70427"></trkpt><trkpt lat="46.49986" lon="6.70416"></trkpt><trkpt lat="46.49989" lon="6.70409"></trkpt><trkpt lat="46.4999" lon="6.70403"></trkpt><trkpt lat="46.4999" lon="6.70396"></trkpt><trkpt lat="46.49988" lon="6.70384"></trkpt><trkpt lat="46.49984" lon="6.7036"></trkpt><trkpt lat="46.49983" lon="6.70344"></trkpt><trkpt lat="46.49985" lon="6.7033"></trkpt><trkpt lat="46.49989" lon="6.70322"></trkpt><trkpt lat="46.49995" lon="6.70313"></trkpt><trkpt lat="46.50001" lon="6.70308"></trkpt><trkpt lat="46.50003" lon="6.70309"></trkpt><trkpt lat="46.50006" lon="6.70312"></trkpt><trkpt lat="46.50012" lon="6.70318"></trkpt><trkpt lat="46.50015" lon="6.70322"></trkpt><trkpt lat="46.50019" lon="6.70324"></trkpt><trkpt lat="46.50022" lon="6.70324"></trkpt><trkpt lat="46.50026" lon="6.70322"></trkpt><trkpt lat="46.50031" lon="6.70317"></trkpt><trkpt lat="46.50034" lon="6.70311"></trkpt><trkpt lat="46.50037" lon="6.70305"></trkpt><trkpt lat="46.50042" lon="6.70296"></trkpt><trkpt lat="46.50047" lon="6.70286"></trkpt><trkpt lat="46.50051" lon="6.70279"></trkpt><trkpt lat="46.50058" lon="6.70273"></trkpt><trkpt lat="46.50076" lon="6.70256"></trkpt><trkpt lat="46.50091" lon="6.7024"></trkpt><trkpt lat="46.50099" lon="6.70233"></trkpt><trkpt lat="46.50106" lon="6.7023"></trkpt><trkpt lat="46.50116" lon="6.70241"></trkpt><trkpt lat="46.50125" lon="6.70233"></trkpt><trkpt lat="46.50131" lon="6.70222"></trkpt><trkpt lat="46.50137" lon="6.70213"></trkpt><trkpt lat="46.50145" lon="6.70202"></trkpt><trkpt lat="46.50149" lon="6.70197"></trkpt><trkpt lat="46.50152" lon="6.70196"></trkpt><trkpt lat="46.50159" lon="6.70187"></trkpt><trkpt lat="46.50163" lon="6.70182"></trkpt><trkpt lat="46.50169" lon="6.70176"></trkpt><trkpt lat="46.50173" lon="6.70171"></trkpt><trkpt lat="46.50176" lon="6.70165"></trkpt><trkpt lat="46.5018" lon="6.70158"></trkpt><trkpt lat="46.50183" lon="6.7015"></trkpt><trkpt lat="46.50186" lon="6.7014"></trkpt><trkpt lat="46.50189" lon="6.70132"></trkpt><trkpt lat="46.50192" lon="6.70126"></trkpt><trkpt lat="46.50197" lon="6.70118"></trkpt><trkpt lat="46.50205" lon="6.70107"></trkpt><trkpt lat="46.50215" lon="6.70094"></trkpt><trkpt lat="46.50223" lon="6.70084"></trkpt><trkpt lat="46.50228" lon="6.70078"></trkpt><trkpt lat="46.50236" lon="6.70071"></trkpt><trkpt lat="46.50245" lon="6.70063"></trkpt><trkpt lat="46.5025" lon="6.70058"></trkpt><trkpt lat="46.50253" lon="6.70054"></trkpt><trkpt lat="46.50257" lon="6.70044"></trkpt><trkpt lat="46.50261" lon="6.70036"></trkpt><trkpt lat="46.50265" lon="6.70028"></trkpt><trkpt lat="46.50269" lon="6.70021"></trkpt><trkpt lat="46.50272" lon="6.70016"></trkpt><trkpt lat="46.50277" lon="6.7001"></trkpt><trkpt lat="46.5028" lon="6.70006"></trkpt><trkpt lat="46.50283" lon="6.70002"></trkpt><trkpt lat="46.50285" lon="6.69999"></trkpt><trkpt lat="46.50288" lon="6.69999"></trkpt><trkpt lat="46.50291" lon="6.69999"></trkpt><trkpt lat="46.50294" lon="6.7"></trkpt><trkpt lat="46.50298" lon="6.70004"></trkpt><trkpt lat="46.50303" lon="6.70009"></trkpt><trkpt lat="46.50308" lon="6.70012"></trkpt><trkpt lat="46.50311" lon="6.70013"></trkpt><trkpt lat="46.50313" lon="6.70014"></trkpt><trkpt lat="46.50315" lon="6.70013"></trkpt><trkpt lat="46.50316" lon="6.70012"></trkpt><trkpt lat="46.50317" lon="6.70012"></trkpt><trkpt lat="46.50318" lon="6.70009"></trkpt><trkpt lat="46.50319" lon="6.70006"></trkpt><trkpt lat="46.5032" lon="6.70003"></trkpt><trkpt lat="46.50322" lon="6.69994"></trkpt><trkpt lat="46.50322" lon="6.69989"></trkpt><trkpt lat="46.50321" lon="6.69986"></trkpt><trkpt lat="46.50319" lon="6.69983"></trkpt><trkpt lat="46.50318" lon="6.69976"></trkpt><trkpt lat="46.50315" lon="6.69965"></trkpt><trkpt lat="46.50313" lon="6.69955"></trkpt><trkpt lat="46.50312" lon="6.69949"></trkpt><trkpt lat="46.50312" lon="6.69942"></trkpt><trkpt lat="46.50313" lon="6.69935"></trkpt><trkpt lat="46.50314" lon="6.69927"></trkpt><trkpt lat="46.50313" lon="6.69919"></trkpt><trkpt lat="46.50312" lon="6.6991"></trkpt><trkpt lat="46.50308" lon="6.6991"></trkpt><trkpt lat="46.50304" lon="6.6991"></trkpt><trkpt lat="46.503" lon="6.69908"></trkpt><trkpt lat="46.50297" lon="6.69905"></trkpt><trkpt lat="46.50285" lon="6.69897"></trkpt><trkpt lat="46.50281" lon="6.69895"></trkpt><trkpt lat="46.50273" lon="6.69891"></trkpt><trkpt lat="46.50262" lon="6.69887"></trkpt><trkpt lat="46.50249" lon="6.69882"></trkpt><trkpt lat="46.50239" lon="6.69879"></trkpt><trkpt lat="46.50225" lon="6.69877"></trkpt><trkpt lat="46.50218" lon="6.69876"></trkpt><trkpt lat="46.5021" lon="6.69875"></trkpt><trkpt lat="46.50206" lon="6.69873"></trkpt><trkpt lat="46.50202" lon="6.69869"></trkpt><trkpt lat="46.50197" lon="6.69864"></trkpt><trkpt lat="46.50192" lon="6.69859"></trkpt><trkpt lat="46.50189" lon="6.69854"></trkpt><trkpt lat="46.50185" lon="6.69838"></trkpt><trkpt lat="46.50182" lon="6.69817"></trkpt><trkpt lat="46.50181" lon="6.69805"></trkpt><trkpt lat="46.50182" lon="6.69796"></trkpt><trkpt lat="46.50186" lon="6.69783"></trkpt><trkpt lat="46.5019" lon="6.69775"></trkpt><trkpt lat="46.50195" lon="6.69766"></trkpt><trkpt lat="46.50204" lon="6.69752"></trkpt><trkpt lat="46.50206" lon="6.69748"></trkpt><trkpt lat="46.50206" lon="6.69744"></trkpt><trkpt lat="46.50208" lon="6.69724"></trkpt><trkpt lat="46.50212" lon="6.69687"></trkpt><trkpt lat="46.50212" lon="6.69664"></trkpt><trkpt lat="46.50211" lon="6.69654"></trkpt><trkpt lat="46.50211" lon="6.69646"></trkpt><trkpt lat="46.50213" lon="6.69638"></trkpt><trkpt lat="46.50219" lon="6.69618"></trkpt><trkpt lat="46.50228" lon="6.69589"></trkpt><trkpt lat="46.50235" lon="6.69566"></trkpt><trkpt lat="46.50241" lon="6.69547"></trkpt><trkpt lat="46.50248" lon="6.69521"></trkpt><trkpt lat="46.50254" lon="6.695"></trkpt><trkpt lat="46.50261" lon="6.69477"></trkpt><trkpt lat="46.50266" lon="6.69461"></trkpt><trkpt lat="46.5027" lon="6.69448"></trkpt><trkpt lat="46.5027" lon="6.69443"></trkpt><trkpt lat="46.50272" lon="6.69438"></trkpt><trkpt lat="46.50275" lon="6.69427"></trkpt><trkpt lat="46.50278" lon="6.69413"></trkpt><trkpt lat="46.50282" lon="6.69401"></trkpt><trkpt lat="46.50285" lon="6.69391"></trkpt><trkpt lat="46.50288" lon="6.69381"></trkpt><trkpt lat="46.50292" lon="6.69369"></trkpt><trkpt lat="46.50297" lon="6.6937"></trkpt><trkpt lat="46.50309" lon="6.6937"></trkpt><trkpt lat="46.50313" lon="6.69369"></trkpt><trkpt lat="46.50343" lon="6.6937"></trkpt><trkpt lat="46.50346" lon="6.69359"></trkpt><trkpt lat="46.5035" lon="6.69346"></trkpt><trkpt lat="46.50357" lon="6.69332"></trkpt><trkpt lat="46.50365" lon="6.69318"></trkpt><trkpt lat="46.50366" lon="6.69316"></trkpt><trkpt lat="46.50372" lon="6.69304"></trkpt><trkpt lat="46.50377" lon="6.69294"></trkpt><trkpt lat="46.50379" lon="6.69291"></trkpt><trkpt lat="46.50344" lon="6.69256"></trkpt><trkpt lat="46.5032" lon="6.69233"></trkpt><trkpt lat="46.50316" lon="6.6923"></trkpt><trkpt lat="46.50312" lon="6.69227"></trkpt><trkpt lat="46.50313" lon="6.69219"></trkpt><trkpt lat="46.50316" lon="6.69211"></trkpt><trkpt lat="46.50319" lon="6.69201"></trkpt><trkpt lat="46.50325" lon="6.69191"></trkpt><trkpt lat="46.50332" lon="6.69183"></trkpt><trkpt lat="46.50341" lon="6.69174"></trkpt><trkpt lat="46.50349" lon="6.69168"></trkpt><trkpt lat="46.50373" lon="6.69152"></trkpt><trkpt lat="46.50376" lon="6.69149"></trkpt><trkpt lat="46.5038" lon="6.69147"></trkpt><trkpt lat="46.50383" lon="6.69145"></trkpt><trkpt lat="46.50386" lon="6.69144"></trkpt><trkpt lat="46.50391" lon="6.69144"></trkpt><trkpt lat="46.50397" lon="6.69143"></trkpt><trkpt lat="46.50399" lon="6.69143"></trkpt><trkpt lat="46.504" lon="6.69141"></trkpt><trkpt lat="46.504" lon="6.69139"></trkpt><trkpt lat="46.50392" lon="6.69138"></trkpt><trkpt lat="46.50386" lon="6.69137"></trkpt><trkpt lat="46.50383" lon="6.69137"></trkpt><trkpt lat="46.50377" lon="6.69135"></trkpt><trkpt lat="46.5037" lon="6.6913"></trkpt><trkpt lat="46.50357" lon="6.69122"></trkpt><trkpt lat="46.50345" lon="6.69113"></trkpt><trkpt lat="46.50338" lon="6.69108"></trkpt><trkpt lat="46.5034" lon="6.69104"></trkpt><trkpt lat="46.50346" lon="6.69094"></trkpt><trkpt lat="46.50349" lon="6.69086"></trkpt><trkpt lat="46.50353" lon="6.69078"></trkpt><trkpt lat="46.50359" lon="6.69063"></trkpt><trkpt lat="46.50376" lon="6.69022"></trkpt></trkseg></trk></gpx>
