<?xml version="1.0" encoding="UTF-8"?>
<gpx version="1.1" creator="Good Shit" xmlns="http://www.topografix.com/GPX/1/1"><trk><name>Kjøttvikvarden from Akkarfjord — Akkarfjord boat landing–Kjøttvikvarden snow-free return [planning only — not navigation-grade]</name><desc>From the Akkarfjord boat landing on Sørøya, follow the waterfront service road and the road toward Gamvik, then Petterveien and the marked/local mountain path to the ordinary standing and viewing ground beside Kjøttvikvarden. Return by the same complete course to the boat landing. Stay well back from the sea cliffs; this hike does not continue along the cliff edge or coast. The cairn is protected heritage: do not climb, damage or tamper with it.

Allow about seven hours for this demanding, remote outing, with additional time for rests and conditions. The complete mapped return is approximately 15.9 km. The retained 525 m ascent and descent are approximate legacy planning estimates, not surveyed heights or an elevation profile. Rough and boggy ground, wind, fog, cold and limited infrastructure require suitable footwear, map and compass, food, drink and enough daylight. Choose dry, snow-free conditions; turn back if visibility, weather, ground or navigation becomes uncertain. Verify current local signs, access restrictions, closures and markings, walk considerately and avoid disturbing wildlife or property access.

Waymarking is partial and must be checked locally. The current guide describes a T-marked approach, while the mapped upper path contains resurvey and marking-check notes and includes tracing from Strava heatmaps. The coarse guide and mapped path differ locally by about 112 m on the upper approach. This descriptive map is not a current field survey, marking confirmation or safety guarantee.

Arrange and confirm current boat access and the return before departure. The official B380 timetable valid October 2026–May 2027 marks Akkarfjord calls as requiring advance request. Check current operator arrangements and disruptions; this map promises no departure, availability or boat service.

Route geometry: © OpenStreetMap contributors — https://www.openstreetmap.org/copyright. Open Database License 1.0: https://opendatacommons.org/licenses/odbl/1.0/. Complete original source: https://www.openstreetmap.org/api/0.6/map?bbox=23.34,70.789,23.43,70.852. Changes: original OSM road and path vertices ordered at literal shared nodes, stopped at the qualified cairn walking ground and exactly retraced for the return; canonical display simplified using the existing source-vertex helper. No coordinate snapping, added connectors, elevation assignment or operator map/track donation. Descriptive planning geometry; not navigation-grade.

Route geometry: © OpenStreetMap contributors — OpenStreetMap route and path geometry. Licence: ODbL-1.0 (https://opendatacommons.org/licenses/odbl/1.0/). Source: https://www.openstreetmap.org/api/0.6/map?bbox=23.34,70.789,23.43,70.852. Dataset: https://www.openstreetmap.org/.</desc><trkseg><trkpt lat="70.7918154" lon="23.4137788"></trkpt><trkpt lat="70.7919272" lon="23.4139453"></trkpt><trkpt lat="70.7919934" lon="23.4143463"></trkpt><trkpt lat="70.7920419" lon="23.4143101"></trkpt><trkpt lat="70.792075" lon="23.4142967"></trkpt><trkpt lat="70.7921226" lon="23.4142993"></trkpt><trkpt lat="70.7921769" lon="23.4143315"></trkpt><trkpt lat="70.792255" lon="23.4144031"></trkpt><trkpt lat="70.7924442" lon="23.4146344"></trkpt><trkpt lat="70.7926441" lon="23.4149088"></trkpt><trkpt lat="70.7928621" lon="23.4151633"></trkpt><trkpt lat="70.7930509" lon="23.4153066"></trkpt><trkpt lat="70.7931744" lon="23.4153535"></trkpt><trkpt lat="70.7932305" lon="23.4153526"></trkpt><trkpt lat="70.793313" lon="23.4153491"></trkpt><trkpt lat="70.7933764" lon="23.4153277"></trkpt><trkpt lat="70.7935435" lon="23.4152712"></trkpt><trkpt lat="70.7936893" lon="23.4151682"></trkpt><trkpt lat="70.7938438" lon="23.4149948"></trkpt><trkpt lat="70.7939841" lon="23.4147701"></trkpt><trkpt lat="70.7940211" lon="23.4147762"></trkpt><trkpt lat="70.7940438" lon="23.4147748"></trkpt><trkpt lat="70.7943639" lon="23.4145313"></trkpt><trkpt lat="70.7944768" lon="23.4144334"></trkpt><trkpt lat="70.7945955" lon="23.4143181"></trkpt><trkpt lat="70.7946824" lon="23.4142202"></trkpt><trkpt lat="70.7948434" lon="23.4139989"></trkpt><trkpt lat="70.7949043" lon="23.4138782"></trkpt><trkpt lat="70.7949537" lon="23.4137334"></trkpt><trkpt lat="70.7950088" lon="23.4135526"></trkpt><trkpt lat="70.7950593" lon="23.4133405"></trkpt><trkpt lat="70.795147" lon="23.4128952"></trkpt><trkpt lat="70.7952586" lon="23.4123869"></trkpt><trkpt lat="70.7953503" lon="23.4119739"></trkpt><trkpt lat="70.7954253" lon="23.411644"></trkpt><trkpt lat="70.7954694" lon="23.4113932"></trkpt><trkpt lat="70.7955406" lon="23.4107976"></trkpt><trkpt lat="70.7955729" lon="23.4105501"></trkpt><trkpt lat="70.7956078" lon="23.4103206"></trkpt><trkpt lat="70.7956353" lon="23.4101754"></trkpt><trkpt lat="70.7956878" lon="23.4099755"></trkpt><trkpt lat="70.7957332" lon="23.4098469"></trkpt><trkpt lat="70.7957663" lon="23.4097838"></trkpt><trkpt lat="70.7958091" lon="23.4097409"></trkpt><trkpt lat="70.7958596" lon="23.4097366"></trkpt><trkpt lat="70.7959013" lon="23.4097543"></trkpt><trkpt lat="70.7959375" lon="23.4098066"></trkpt><trkpt lat="70.7959719" lon="23.4098831"></trkpt><trkpt lat="70.7960023" lon="23.4099904"></trkpt><trkpt lat="70.7960275" lon="23.4101325"></trkpt><trkpt lat="70.7960425" lon="23.4102653"></trkpt><trkpt lat="70.7960562" lon="23.4104504"></trkpt><trkpt lat="70.7960663" lon="23.4107843"></trkpt><trkpt lat="70.7960712" lon="23.4110953"></trkpt><trkpt lat="70.7960813" lon="23.411314"></trkpt><trkpt lat="70.7960959" lon="23.4114535"></trkpt><trkpt lat="70.7961236" lon="23.4116091"></trkpt><trkpt lat="70.7961611" lon="23.4117419"></trkpt><trkpt lat="70.7962167" lon="23.4118746"></trkpt><trkpt lat="70.7962772" lon="23.4119846"></trkpt><trkpt lat="70.7963491" lon="23.4120892"></trkpt><trkpt lat="70.7963932" lon="23.4121241"></trkpt><trkpt lat="70.7964545" lon="23.4121415"></trkpt><trkpt lat="70.7964911" lon="23.4121053"></trkpt><trkpt lat="70.796537" lon="23.4120154"></trkpt><trkpt lat="70.7965798" lon="23.4118706"></trkpt><trkpt lat="70.7966314" lon="23.4116413"></trkpt><trkpt lat="70.7966821" lon="23.4113838"></trkpt><trkpt lat="70.7967183" lon="23.4111598"></trkpt><trkpt lat="70.7967448" lon="23.41096"></trkpt><trkpt lat="70.7968222" lon="23.4102231"></trkpt><trkpt lat="70.7968766" lon="23.4096281"></trkpt><trkpt lat="70.7969396" lon="23.4090449"></trkpt><trkpt lat="70.7970469" lon="23.4080672"></trkpt><trkpt lat="70.7970915" lon="23.4076582"></trkpt><trkpt lat="70.7971334" lon="23.4073269"></trkpt><trkpt lat="70.7971925" lon="23.4068991"></trkpt><trkpt lat="70.7972657" lon="23.4064096"></trkpt><trkpt lat="70.7973314" lon="23.4059778"></trkpt><trkpt lat="70.7973698" lon="23.4057699"></trkpt><trkpt lat="70.7974002" lon="23.4056479"></trkpt><trkpt lat="70.7974413" lon="23.4055004"></trkpt><trkpt lat="70.7974792" lon="23.4053864"></trkpt><trkpt lat="70.7975304" lon="23.4052737"></trkpt><trkpt lat="70.7976261" lon="23.4051128"></trkpt><trkpt lat="70.7977778" lon="23.4049304"></trkpt><trkpt lat="70.7979181" lon="23.4047775"></trkpt><trkpt lat="70.7980741" lon="23.4046439"></trkpt><trkpt lat="70.7982573" lon="23.404524"></trkpt><trkpt lat="70.798454" lon="23.4043939"></trkpt><trkpt lat="70.7985696" lon="23.4043081"></trkpt><trkpt lat="70.7986551" lon="23.4042545"></trkpt><trkpt lat="70.7987275" lon="23.4042343"></trkpt><trkpt lat="70.7987838" lon="23.4042332"></trkpt><trkpt lat="70.7988342" lon="23.4042518"></trkpt><trkpt lat="70.7989251" lon="23.404296"></trkpt><trkpt lat="70.7990137" lon="23.4043604"></trkpt><trkpt lat="70.7990852" lon="23.4044328"></trkpt><trkpt lat="70.7991588" lon="23.4045227"></trkpt><trkpt lat="70.79932" lon="23.4047462"></trkpt><trkpt lat="70.7996116" lon="23.4053479"></trkpt><trkpt lat="70.7996627" lon="23.4054768"></trkpt><trkpt lat="70.7997285" lon="23.4056778"></trkpt><trkpt lat="70.7998358" lon="23.4059403"></trkpt><trkpt lat="70.7999279" lon="23.4061003"></trkpt><trkpt lat="70.8000713" lon="23.4062655"></trkpt><trkpt lat="70.8001508" lon="23.4062882"></trkpt><trkpt lat="70.8004483" lon="23.4062495"></trkpt><trkpt lat="70.8005788" lon="23.4061839"></trkpt><trkpt lat="70.8006889" lon="23.4061675"></trkpt><trkpt lat="70.8008663" lon="23.4062235"></trkpt><trkpt lat="70.8010586" lon="23.4063105"></trkpt><trkpt lat="70.8012245" lon="23.4064001"></trkpt><trkpt lat="70.8013599" lon="23.4064438"></trkpt><trkpt lat="70.8014802" lon="23.4065223"></trkpt><trkpt lat="70.8015945" lon="23.4065542"></trkpt><trkpt lat="70.8017812" lon="23.4065647"></trkpt><trkpt lat="70.8019578" lon="23.4065572"></trkpt><trkpt lat="70.8020265" lon="23.4065204"></trkpt><trkpt lat="70.8021217" lon="23.4063959"></trkpt><trkpt lat="70.8022643" lon="23.4061651"></trkpt><trkpt lat="70.8023461" lon="23.4059799"></trkpt><trkpt lat="70.802403" lon="23.4058034"></trkpt><trkpt lat="70.8024887" lon="23.4054138"></trkpt><trkpt lat="70.8025873" lon="23.4050187"></trkpt><trkpt lat="70.8026788" lon="23.4047195"></trkpt><trkpt lat="70.8027736" lon="23.4044684"></trkpt><trkpt lat="70.8029042" lon="23.404183"></trkpt><trkpt lat="70.8030109" lon="23.4039864"></trkpt><trkpt lat="70.8031762" lon="23.4037735"></trkpt><trkpt lat="70.8033271" lon="23.4035214"></trkpt><trkpt lat="70.8034715" lon="23.4032501"></trkpt><trkpt lat="70.8035798" lon="23.4029992"></trkpt><trkpt lat="70.803821" lon="23.4023952"></trkpt><trkpt lat="70.8039485" lon="23.4021964"></trkpt><trkpt lat="70.8040607" lon="23.4020571"></trkpt><trkpt lat="70.8042691" lon="23.4018514"></trkpt><trkpt lat="70.804456" lon="23.401642"></trkpt><trkpt lat="70.8046592" lon="23.4014506"></trkpt><trkpt lat="70.8048583" lon="23.4012107"></trkpt><trkpt lat="70.8050606" lon="23.40092"></trkpt><trkpt lat="70.805249" lon="23.4005985"></trkpt><trkpt lat="70.8054277" lon="23.4002703"></trkpt><trkpt lat="70.8056985" lon="23.3996512"></trkpt><trkpt lat="70.8058495" lon="23.3993359"></trkpt><trkpt lat="70.8061682" lon="23.398696"></trkpt><trkpt lat="70.8063124" lon="23.3983723"></trkpt><trkpt lat="70.8064006" lon="23.3981431"></trkpt><trkpt lat="70.8064948" lon="23.3978449"></trkpt><trkpt lat="70.8066811" lon="23.3971928"></trkpt><trkpt lat="70.8067859" lon="23.3967809"></trkpt><trkpt lat="70.8069285" lon="23.3962943"></trkpt><trkpt lat="70.8070441" lon="23.3959228"></trkpt><trkpt lat="70.8071723" lon="23.3955538"></trkpt><trkpt lat="70.8072636" lon="23.3951994"></trkpt><trkpt lat="70.8073702" lon="23.3948268"></trkpt><trkpt lat="70.8074796" lon="23.3945103"></trkpt><trkpt lat="70.8075152" lon="23.3943852"></trkpt><trkpt lat="70.8075995" lon="23.3941433"></trkpt><trkpt lat="70.8076912" lon="23.3938413"></trkpt><trkpt lat="70.8077617" lon="23.3935249"></trkpt><trkpt lat="70.807828" lon="23.3930857"></trkpt><trkpt lat="70.8078783" lon="23.3926589"></trkpt><trkpt lat="70.8079157" lon="23.3922185"></trkpt><trkpt lat="70.8079911" lon="23.390986"></trkpt><trkpt lat="70.8080268" lon="23.3902672"></trkpt><trkpt lat="70.8080678" lon="23.3896496"></trkpt><trkpt lat="70.8081009" lon="23.3889552"></trkpt><trkpt lat="70.8081385" lon="23.3883144"></trkpt><trkpt lat="70.8081703" lon="23.3878869"></trkpt><trkpt lat="70.8081917" lon="23.3875521"></trkpt><trkpt lat="70.8082136" lon="23.3872567"></trkpt><trkpt lat="70.8082795" lon="23.3867047"></trkpt><trkpt lat="70.8083609" lon="23.3861124"></trkpt><trkpt lat="70.8084694" lon="23.3855399"></trkpt><trkpt lat="70.8086262" lon="23.3844077"></trkpt><trkpt lat="70.8087184" lon="23.3836771"></trkpt><trkpt lat="70.8088051" lon="23.3828891"></trkpt><trkpt lat="70.8088956" lon="23.382177"></trkpt><trkpt lat="70.8089863" lon="23.3815777"></trkpt><trkpt lat="70.8090493" lon="23.3812085"></trkpt><trkpt lat="70.8091524" lon="23.380892"></trkpt><trkpt lat="70.8092422" lon="23.3806881"></trkpt><trkpt lat="70.8094225" lon="23.3804235"></trkpt><trkpt lat="70.8096205" lon="23.3802076"></trkpt><trkpt lat="70.8099386" lon="23.3797374"></trkpt><trkpt lat="70.8101435" lon="23.3793512"></trkpt><trkpt lat="70.8103282" lon="23.3788905"></trkpt><trkpt lat="70.8104067" lon="23.3786513"></trkpt><trkpt lat="70.8105619" lon="23.3792978"></trkpt><trkpt lat="70.8106536" lon="23.3797055"></trkpt><trkpt lat="70.8107146" lon="23.3798135"></trkpt><trkpt lat="70.8108528" lon="23.3798987"></trkpt><trkpt lat="70.8111385" lon="23.3799308"></trkpt><trkpt lat="70.8121541" lon="23.379963"></trkpt><trkpt lat="70.8127147" lon="23.3799899"></trkpt><trkpt lat="70.8132038" lon="23.3799771"></trkpt><trkpt lat="70.8133529" lon="23.3800328"></trkpt><trkpt lat="70.8134569" lon="23.3802366"></trkpt><trkpt lat="70.8136844" lon="23.3807623"></trkpt><trkpt lat="70.8139478" lon="23.3812801"></trkpt><trkpt lat="70.8140176" lon="23.3814919"></trkpt><trkpt lat="70.8140511" lon="23.3817494"></trkpt><trkpt lat="70.8140481" lon="23.3819069"></trkpt><trkpt lat="70.8142732" lon="23.3823127"></trkpt><trkpt lat="70.8145464" lon="23.3829939"></trkpt><trkpt lat="70.8148082" lon="23.3838356"></trkpt><trkpt lat="70.8151441" lon="23.3845121"></trkpt><trkpt lat="70.8160018" lon="23.385941"></trkpt><trkpt lat="70.8162387" lon="23.3860463"></trkpt><trkpt lat="70.8166953" lon="23.3856976"></trkpt><trkpt lat="70.8170954" lon="23.3855474"></trkpt><trkpt lat="70.8178075" lon="23.3849251"></trkpt><trkpt lat="70.8181565" lon="23.3846569"></trkpt><trkpt lat="70.8183786" lon="23.3846247"></trkpt><trkpt lat="70.8188792" lon="23.384732"></trkpt><trkpt lat="70.819496" lon="23.3848607"></trkpt><trkpt lat="70.8198943" lon="23.3854294"></trkpt><trkpt lat="70.8202785" lon="23.3858263"></trkpt><trkpt lat="70.8210011" lon="23.3860087"></trkpt><trkpt lat="70.8213747" lon="23.3861053"></trkpt><trkpt lat="70.8220127" lon="23.3859014"></trkpt><trkpt lat="70.8224708" lon="23.3856547"></trkpt><trkpt lat="70.8226189" lon="23.3853865"></trkpt><trkpt lat="70.823003" lon="23.3841526"></trkpt><trkpt lat="70.823359" lon="23.3828545"></trkpt><trkpt lat="70.8234823" lon="23.3822536"></trkpt><trkpt lat="70.8236233" lon="23.3809447"></trkpt><trkpt lat="70.8238831" lon="23.3784683"></trkpt><trkpt lat="70.8238752" lon="23.3769965"></trkpt><trkpt lat="70.8238982" lon="23.3759987"></trkpt><trkpt lat="70.8240448" lon="23.3747462"></trkpt><trkpt lat="70.8244285" lon="23.3724958"></trkpt><trkpt lat="70.8244532" lon="23.3715516"></trkpt><trkpt lat="70.8245272" lon="23.3709562"></trkpt><trkpt lat="70.8245836" lon="23.3701354"></trkpt><trkpt lat="70.8247122" lon="23.3695883"></trkpt><trkpt lat="70.824795" lon="23.3684188"></trkpt><trkpt lat="70.8248479" lon="23.3678126"></trkpt><trkpt lat="70.8248496" lon="23.3675337"></trkpt><trkpt lat="70.8249395" lon="23.3670616"></trkpt><trkpt lat="70.8249783" lon="23.3663481"></trkpt><trkpt lat="70.8250223" lon="23.3658761"></trkpt><trkpt lat="70.8251368" lon="23.3657849"></trkpt><trkpt lat="70.8253236" lon="23.3655381"></trkpt><trkpt lat="70.8254699" lon="23.3651411"></trkpt><trkpt lat="70.8255421" lon="23.3645081"></trkpt><trkpt lat="70.8256883" lon="23.3636659"></trkpt><trkpt lat="70.8258134" lon="23.3629256"></trkpt><trkpt lat="70.8258328" lon="23.3624858"></trkpt><trkpt lat="70.825831" lon="23.3621478"></trkpt><trkpt lat="70.8258839" lon="23.3620298"></trkpt><trkpt lat="70.8258962" lon="23.3618528"></trkpt><trkpt lat="70.8259244" lon="23.3616114"></trkpt><trkpt lat="70.8260037" lon="23.3616489"></trkpt><trkpt lat="70.8260548" lon="23.3616543"></trkpt><trkpt lat="70.8261253" lon="23.3614826"></trkpt><trkpt lat="70.826238" lon="23.361429"></trkpt><trkpt lat="70.8263068" lon="23.3613002"></trkpt><trkpt lat="70.8264037" lon="23.3612519"></trkpt><trkpt lat="70.8265058" lon="23.3608979"></trkpt><trkpt lat="70.8265795" lon="23.3606774"></trkpt><trkpt lat="70.8267772" lon="23.3605063"></trkpt><trkpt lat="70.8269022" lon="23.3606029"></trkpt><trkpt lat="70.8269657" lon="23.3607638"></trkpt><trkpt lat="70.8270855" lon="23.3607638"></trkpt><trkpt lat="70.8272405" lon="23.3605975"></trkpt><trkpt lat="70.8273832" lon="23.3603561"></trkpt><trkpt lat="70.8275453" lon="23.3601469"></trkpt><trkpt lat="70.8278236" lon="23.3602327"></trkpt><trkpt lat="70.8280491" lon="23.3602434"></trkpt><trkpt lat="70.8282817" lon="23.3601952"></trkpt><trkpt lat="70.828405" lon="23.3599913"></trkpt><trkpt lat="70.8286252" lon="23.3598787"></trkpt><trkpt lat="70.8289863" lon="23.3592188"></trkpt><trkpt lat="70.8292858" lon="23.3586878"></trkpt><trkpt lat="70.8295448" lon="23.3581245"></trkpt><trkpt lat="70.8296998" lon="23.3578455"></trkpt><trkpt lat="70.8298108" lon="23.3577597"></trkpt><trkpt lat="70.8299482" lon="23.3576524"></trkpt><trkpt lat="70.8301384" lon="23.3572823"></trkpt><trkpt lat="70.8303146" lon="23.3570033"></trkpt><trkpt lat="70.8303833" lon="23.3564347"></trkpt><trkpt lat="70.8305568" lon="23.3556595"></trkpt><trkpt lat="70.8307532" lon="23.3550748"></trkpt><trkpt lat="70.8308192" lon="23.3550534"></trkpt><trkpt lat="70.8309672" lon="23.3547047"></trkpt><trkpt lat="70.8312166" lon="23.354174"></trkpt><trkpt lat="70.8321147" lon="23.3518588"></trkpt><trkpt lat="70.8326431" lon="23.3520895"></trkpt><trkpt lat="70.8329672" lon="23.3528513"></trkpt><trkpt lat="70.8336021" lon="23.3539805"></trkpt><trkpt lat="70.8337458" lon="23.3539181"></trkpt><trkpt lat="70.8337741" lon="23.3538924"></trkpt><trkpt lat="70.8338199" lon="23.3538593"></trkpt><trkpt lat="70.8338663" lon="23.3537265"></trkpt><trkpt lat="70.8339351" lon="23.3534515"></trkpt><trkpt lat="70.8339914" lon="23.3532467"></trkpt><trkpt lat="70.8340456" lon="23.3531822"></trkpt><trkpt lat="70.8341219" lon="23.3531774"></trkpt><trkpt lat="70.8342564" lon="23.3531243"></trkpt><trkpt lat="70.8343" lon="23.3531395"></trkpt><trkpt lat="70.8343295" lon="23.3531272"></trkpt><trkpt lat="70.8343871" lon="23.3530921"></trkpt><trkpt lat="70.8346032" lon="23.3529754"></trkpt><trkpt lat="70.8347691" lon="23.3529214"></trkpt><trkpt lat="70.8348538" lon="23.3528996"></trkpt><trkpt lat="70.8348669" lon="23.3529451"></trkpt><trkpt lat="70.8348753" lon="23.353021"></trkpt><trkpt lat="70.8348768" lon="23.3531177"></trkpt><trkpt lat="70.8348927" lon="23.3531898"></trkpt><trkpt lat="70.834922" lon="23.3533491"></trkpt><trkpt lat="70.8349553" lon="23.3534524"></trkpt><trkpt lat="70.8349727" lon="23.3535397"></trkpt><trkpt lat="70.83503" lon="23.3537625"></trkpt><trkpt lat="70.8351175" lon="23.3541494"></trkpt><trkpt lat="70.8352143" lon="23.3544197"></trkpt><trkpt lat="70.8352841" lon="23.3545705"></trkpt><trkpt lat="70.8353326" lon="23.3546027"></trkpt><trkpt lat="70.8354076" lon="23.354689"></trkpt><trkpt lat="70.8354895" lon="23.3547459"></trkpt><trkpt lat="70.8355147" lon="23.3547326"></trkpt><trkpt lat="70.8355403" lon="23.3546056"></trkpt><trkpt lat="70.8355593" lon="23.3544776"></trkpt><trkpt lat="70.8355761" lon="23.3544662"></trkpt><trkpt lat="70.8356414" lon="23.3544586"></trkpt><trkpt lat="70.8357544" lon="23.3544785"></trkpt><trkpt lat="70.8357818" lon="23.3544586"></trkpt><trkpt lat="70.8358061" lon="23.354442"></trkpt><trkpt lat="70.8358229" lon="23.3544216"></trkpt><trkpt lat="70.8358746" lon="23.3543381"></trkpt><trkpt lat="70.8359095" lon="23.3543021"></trkpt><trkpt lat="70.8359555" lon="23.3542604"></trkpt><trkpt lat="70.8360458" lon="23.3542025"></trkpt><trkpt lat="70.8360747" lon="23.3542112"></trkpt><trkpt lat="70.8361231" lon="23.3541723"></trkpt><trkpt lat="70.8361473" lon="23.3541602"></trkpt><trkpt lat="70.8362319" lon="23.354065"></trkpt><trkpt lat="70.8362966" lon="23.3540127"></trkpt><trkpt lat="70.8363626" lon="23.3540408"></trkpt><trkpt lat="70.8369295" lon="23.3541627"></trkpt><trkpt lat="70.8374613" lon="23.3536747"></trkpt><trkpt lat="70.8381392" lon="23.3530978"></trkpt><trkpt lat="70.8391518" lon="23.3531731"></trkpt><trkpt lat="70.8396219" lon="23.3535218"></trkpt><trkpt lat="70.8398191" lon="23.3536023"></trkpt><trkpt lat="70.8399762" lon="23.3538563"></trkpt><trkpt lat="70.8402927" lon="23.3537042"></trkpt><trkpt lat="70.8405621" lon="23.35401"></trkpt><trkpt lat="70.840958" lon="23.3540664"></trkpt><trkpt lat="70.8411272" lon="23.3542004"></trkpt><trkpt lat="70.8413202" lon="23.354697"></trkpt><trkpt lat="70.8417918" lon="23.3551875"></trkpt><trkpt lat="70.8420462" lon="23.3555067"></trkpt><trkpt lat="70.8421941" lon="23.3555871"></trkpt><trkpt lat="70.8423103" lon="23.3557641"></trkpt><trkpt lat="70.8425409" lon="23.3561557"></trkpt><trkpt lat="70.8427169" lon="23.3565849"></trkpt><trkpt lat="70.8428718" lon="23.3567512"></trkpt><trkpt lat="70.8435989" lon="23.3578724"></trkpt><trkpt lat="70.8438171" lon="23.3581138"></trkpt><trkpt lat="70.8440706" lon="23.3582103"></trkpt><trkpt lat="70.8445512" lon="23.3583766"></trkpt><trkpt lat="70.8448689" lon="23.3587065"></trkpt><trkpt lat="70.845052" lon="23.3588058"></trkpt><trkpt lat="70.8451585" lon="23.3589855"></trkpt><trkpt lat="70.8452201" lon="23.3590606"></trkpt><trkpt lat="70.8453398" lon="23.3591598"></trkpt><trkpt lat="70.8455783" lon="23.3596426"></trkpt><trkpt lat="70.845668" lon="23.3598438"></trkpt><trkpt lat="70.8457833" lon="23.3600074"></trkpt><trkpt lat="70.8461943" lon="23.3596775"></trkpt><trkpt lat="70.8457833" lon="23.3600074"></trkpt><trkpt lat="70.845668" lon="23.3598438"></trkpt><trkpt lat="70.8455783" lon="23.3596426"></trkpt><trkpt lat="70.8453398" lon="23.3591598"></trkpt><trkpt lat="70.8452201" lon="23.3590606"></trkpt><trkpt lat="70.8451585" lon="23.3589855"></trkpt><trkpt lat="70.845052" lon="23.3588058"></trkpt><trkpt lat="70.8448689" lon="23.3587065"></trkpt><trkpt lat="70.8445512" lon="23.3583766"></trkpt><trkpt lat="70.8440706" lon="23.3582103"></trkpt><trkpt lat="70.8438171" lon="23.3581138"></trkpt><trkpt lat="70.8435989" lon="23.3578724"></trkpt><trkpt lat="70.8428718" lon="23.3567512"></trkpt><trkpt lat="70.8427169" lon="23.3565849"></trkpt><trkpt lat="70.8425409" lon="23.3561557"></trkpt><trkpt lat="70.8423103" lon="23.3557641"></trkpt><trkpt lat="70.8421941" lon="23.3555871"></trkpt><trkpt lat="70.8420462" lon="23.3555067"></trkpt><trkpt lat="70.8417918" lon="23.3551875"></trkpt><trkpt lat="70.8413202" lon="23.354697"></trkpt><trkpt lat="70.8411272" lon="23.3542004"></trkpt><trkpt lat="70.840958" lon="23.3540664"></trkpt><trkpt lat="70.8405621" lon="23.35401"></trkpt><trkpt lat="70.8402927" lon="23.3537042"></trkpt><trkpt lat="70.8399762" lon="23.3538563"></trkpt><trkpt lat="70.8398191" lon="23.3536023"></trkpt><trkpt lat="70.8396219" lon="23.3535218"></trkpt><trkpt lat="70.8391518" lon="23.3531731"></trkpt><trkpt lat="70.8381392" lon="23.3530978"></trkpt><trkpt lat="70.8374613" lon="23.3536747"></trkpt><trkpt lat="70.8369295" lon="23.3541627"></trkpt><trkpt lat="70.8363626" lon="23.3540408"></trkpt><trkpt lat="70.8362966" lon="23.3540127"></trkpt><trkpt lat="70.8362319" lon="23.354065"></trkpt><trkpt lat="70.8361473" lon="23.3541602"></trkpt><trkpt lat="70.8361231" lon="23.3541723"></trkpt><trkpt lat="70.8360747" lon="23.3542112"></trkpt><trkpt lat="70.8360458" lon="23.3542025"></trkpt><trkpt lat="70.8359555" lon="23.3542604"></trkpt><trkpt lat="70.8359095" lon="23.3543021"></trkpt><trkpt lat="70.8358746" lon="23.3543381"></trkpt><trkpt lat="70.8358229" lon="23.3544216"></trkpt><trkpt lat="70.8358061" lon="23.354442"></trkpt><trkpt lat="70.8357818" lon="23.3544586"></trkpt><trkpt lat="70.8357544" lon="23.3544785"></trkpt><trkpt lat="70.8356414" lon="23.3544586"></trkpt><trkpt lat="70.8355761" lon="23.3544662"></trkpt><trkpt lat="70.8355593" lon="23.3544776"></trkpt><trkpt lat="70.8355403" lon="23.3546056"></trkpt><trkpt lat="70.8355147" lon="23.3547326"></trkpt><trkpt lat="70.8354895" lon="23.3547459"></trkpt><trkpt lat="70.8354076" lon="23.354689"></trkpt><trkpt lat="70.8353326" lon="23.3546027"></trkpt><trkpt lat="70.8352841" lon="23.3545705"></trkpt><trkpt lat="70.8352143" lon="23.3544197"></trkpt><trkpt lat="70.8351175" lon="23.3541494"></trkpt><trkpt lat="70.83503" lon="23.3537625"></trkpt><trkpt lat="70.8349727" lon="23.3535397"></trkpt><trkpt lat="70.8349553" lon="23.3534524"></trkpt><trkpt lat="70.834922" lon="23.3533491"></trkpt><trkpt lat="70.8348927" lon="23.3531898"></trkpt><trkpt lat="70.8348768" lon="23.3531177"></trkpt><trkpt lat="70.8348753" lon="23.353021"></trkpt><trkpt lat="70.8348669" lon="23.3529451"></trkpt><trkpt lat="70.8348538" lon="23.3528996"></trkpt><trkpt lat="70.8347691" lon="23.3529214"></trkpt><trkpt lat="70.8346032" lon="23.3529754"></trkpt><trkpt lat="70.8343871" lon="23.3530921"></trkpt><trkpt lat="70.8343295" lon="23.3531272"></trkpt><trkpt lat="70.8343" lon="23.3531395"></trkpt><trkpt lat="70.8342564" lon="23.3531243"></trkpt><trkpt lat="70.8341219" lon="23.3531774"></trkpt><trkpt lat="70.8340456" lon="23.3531822"></trkpt><trkpt lat="70.8339914" lon="23.3532467"></trkpt><trkpt lat="70.8339351" lon="23.3534515"></trkpt><trkpt lat="70.8338663" lon="23.3537265"></trkpt><trkpt lat="70.8338199" lon="23.3538593"></trkpt><trkpt lat="70.8337741" lon="23.3538924"></trkpt><trkpt lat="70.8337458" lon="23.3539181"></trkpt><trkpt lat="70.8336021" lon="23.3539805"></trkpt><trkpt lat="70.8329672" lon="23.3528513"></trkpt><trkpt lat="70.8326431" lon="23.3520895"></trkpt><trkpt lat="70.8321147" lon="23.3518588"></trkpt><trkpt lat="70.8312166" lon="23.354174"></trkpt><trkpt lat="70.8309672" lon="23.3547047"></trkpt><trkpt lat="70.8308192" lon="23.3550534"></trkpt><trkpt lat="70.8307532" lon="23.3550748"></trkpt><trkpt lat="70.8305568" lon="23.3556595"></trkpt><trkpt lat="70.8303833" lon="23.3564347"></trkpt><trkpt lat="70.8303146" lon="23.3570033"></trkpt><trkpt lat="70.8301384" lon="23.3572823"></trkpt><trkpt lat="70.8299482" lon="23.3576524"></trkpt><trkpt lat="70.8298108" lon="23.3577597"></trkpt><trkpt lat="70.8296998" lon="23.3578455"></trkpt><trkpt lat="70.8295448" lon="23.3581245"></trkpt><trkpt lat="70.8292858" lon="23.3586878"></trkpt><trkpt lat="70.8289863" lon="23.3592188"></trkpt><trkpt lat="70.8286252" lon="23.3598787"></trkpt><trkpt lat="70.828405" lon="23.3599913"></trkpt><trkpt lat="70.8282817" lon="23.3601952"></trkpt><trkpt lat="70.8280491" lon="23.3602434"></trkpt><trkpt lat="70.8278236" lon="23.3602327"></trkpt><trkpt lat="70.8275453" lon="23.3601469"></trkpt><trkpt lat="70.8273832" lon="23.3603561"></trkpt><trkpt lat="70.8272405" lon="23.3605975"></trkpt><trkpt lat="70.8270855" lon="23.3607638"></trkpt><trkpt lat="70.8269657" lon="23.3607638"></trkpt><trkpt lat="70.8269022" lon="23.3606029"></trkpt><trkpt lat="70.8267772" lon="23.3605063"></trkpt><trkpt lat="70.8265795" lon="23.3606774"></trkpt><trkpt lat="70.8265058" lon="23.3608979"></trkpt><trkpt lat="70.8264037" lon="23.3612519"></trkpt><trkpt lat="70.8263068" lon="23.3613002"></trkpt><trkpt lat="70.826238" lon="23.361429"></trkpt><trkpt lat="70.8261253" lon="23.3614826"></trkpt><trkpt lat="70.8260548" lon="23.3616543"></trkpt><trkpt lat="70.8260037" lon="23.3616489"></trkpt><trkpt lat="70.8259244" lon="23.3616114"></trkpt><trkpt lat="70.8258962" lon="23.3618528"></trkpt><trkpt lat="70.8258839" lon="23.3620298"></trkpt><trkpt lat="70.825831" lon="23.3621478"></trkpt><trkpt lat="70.8258328" lon="23.3624858"></trkpt><trkpt lat="70.8258134" lon="23.3629256"></trkpt><trkpt lat="70.8256883" lon="23.3636659"></trkpt><trkpt lat="70.8255421" lon="23.3645081"></trkpt><trkpt lat="70.8254699" lon="23.3651411"></trkpt><trkpt lat="70.8253236" lon="23.3655381"></trkpt><trkpt lat="70.8251368" lon="23.3657849"></trkpt><trkpt lat="70.8250223" lon="23.3658761"></trkpt><trkpt lat="70.8249783" lon="23.3663481"></trkpt><trkpt lat="70.8249395" lon="23.3670616"></trkpt><trkpt lat="70.8248496" lon="23.3675337"></trkpt><trkpt lat="70.8248479" lon="23.3678126"></trkpt><trkpt lat="70.824795" lon="23.3684188"></trkpt><trkpt lat="70.8247122" lon="23.3695883"></trkpt><trkpt lat="70.8245836" lon="23.3701354"></trkpt><trkpt lat="70.8245272" lon="23.3709562"></trkpt><trkpt lat="70.8244532" lon="23.3715516"></trkpt><trkpt lat="70.8244285" lon="23.3724958"></trkpt><trkpt lat="70.8240448" lon="23.3747462"></trkpt><trkpt lat="70.8238982" lon="23.3759987"></trkpt><trkpt lat="70.8238752" lon="23.3769965"></trkpt><trkpt lat="70.8238831" lon="23.3784683"></trkpt><trkpt lat="70.8236233" lon="23.3809447"></trkpt><trkpt lat="70.8234823" lon="23.3822536"></trkpt><trkpt lat="70.823359" lon="23.3828545"></trkpt><trkpt lat="70.823003" lon="23.3841526"></trkpt><trkpt lat="70.8226189" lon="23.3853865"></trkpt><trkpt lat="70.8224708" lon="23.3856547"></trkpt><trkpt lat="70.8220127" lon="23.3859014"></trkpt><trkpt lat="70.8213747" lon="23.3861053"></trkpt><trkpt lat="70.8210011" lon="23.3860087"></trkpt><trkpt lat="70.8202785" lon="23.3858263"></trkpt><trkpt lat="70.8198943" lon="23.3854294"></trkpt><trkpt lat="70.819496" lon="23.3848607"></trkpt><trkpt lat="70.8188792" lon="23.384732"></trkpt><trkpt lat="70.8183786" lon="23.3846247"></trkpt><trkpt lat="70.8181565" lon="23.3846569"></trkpt><trkpt lat="70.8178075" lon="23.3849251"></trkpt><trkpt lat="70.8170954" lon="23.3855474"></trkpt><trkpt lat="70.8166953" lon="23.3856976"></trkpt><trkpt lat="70.8162387" lon="23.3860463"></trkpt><trkpt lat="70.8160018" lon="23.385941"></trkpt><trkpt lat="70.8151441" lon="23.3845121"></trkpt><trkpt lat="70.8148082" lon="23.3838356"></trkpt><trkpt lat="70.8145464" lon="23.3829939"></trkpt><trkpt lat="70.8142732" lon="23.3823127"></trkpt><trkpt lat="70.8140481" lon="23.3819069"></trkpt><trkpt lat="70.8140511" lon="23.3817494"></trkpt><trkpt lat="70.8140176" lon="23.3814919"></trkpt><trkpt lat="70.8139478" lon="23.3812801"></trkpt><trkpt lat="70.8136844" lon="23.3807623"></trkpt><trkpt lat="70.8134569" lon="23.3802366"></trkpt><trkpt lat="70.8133529" lon="23.3800328"></trkpt><trkpt lat="70.8132038" lon="23.3799771"></trkpt><trkpt lat="70.8127147" lon="23.3799899"></trkpt><trkpt lat="70.8121541" lon="23.379963"></trkpt><trkpt lat="70.8111385" lon="23.3799308"></trkpt><trkpt lat="70.8108528" lon="23.3798987"></trkpt><trkpt lat="70.8107146" lon="23.3798135"></trkpt><trkpt lat="70.8106536" lon="23.3797055"></trkpt><trkpt lat="70.8105619" lon="23.3792978"></trkpt><trkpt lat="70.8104067" lon="23.3786513"></trkpt><trkpt lat="70.8103282" lon="23.3788905"></trkpt><trkpt lat="70.8101435" lon="23.3793512"></trkpt><trkpt lat="70.8099386" lon="23.3797374"></trkpt><trkpt lat="70.8096205" lon="23.3802076"></trkpt><trkpt lat="70.8094225" lon="23.3804235"></trkpt><trkpt lat="70.8092422" lon="23.3806881"></trkpt><trkpt lat="70.8091524" lon="23.380892"></trkpt><trkpt lat="70.8090493" lon="23.3812085"></trkpt><trkpt lat="70.8089863" lon="23.3815777"></trkpt><trkpt lat="70.8088956" lon="23.382177"></trkpt><trkpt lat="70.8088051" lon="23.3828891"></trkpt><trkpt lat="70.8087184" lon="23.3836771"></trkpt><trkpt lat="70.8086262" lon="23.3844077"></trkpt><trkpt lat="70.8084694" lon="23.3855399"></trkpt><trkpt lat="70.8083609" lon="23.3861124"></trkpt><trkpt lat="70.8082795" lon="23.3867047"></trkpt><trkpt lat="70.8082136" lon="23.3872567"></trkpt><trkpt lat="70.8081917" lon="23.3875521"></trkpt><trkpt lat="70.8081703" lon="23.3878869"></trkpt><trkpt lat="70.8081385" lon="23.3883144"></trkpt><trkpt lat="70.8081009" lon="23.3889552"></trkpt><trkpt lat="70.8080678" lon="23.3896496"></trkpt><trkpt lat="70.8080268" lon="23.3902672"></trkpt><trkpt lat="70.8079911" lon="23.390986"></trkpt><trkpt lat="70.8079157" lon="23.3922185"></trkpt><trkpt lat="70.8078783" lon="23.3926589"></trkpt><trkpt lat="70.807828" lon="23.3930857"></trkpt><trkpt lat="70.8077617" lon="23.3935249"></trkpt><trkpt lat="70.8076912" lon="23.3938413"></trkpt><trkpt lat="70.8075995" lon="23.3941433"></trkpt><trkpt lat="70.8075152" lon="23.3943852"></trkpt><trkpt lat="70.8074796" lon="23.3945103"></trkpt><trkpt lat="70.8073702" lon="23.3948268"></trkpt><trkpt lat="70.8072636" lon="23.3951994"></trkpt><trkpt lat="70.8071723" lon="23.3955538"></trkpt><trkpt lat="70.8070441" lon="23.3959228"></trkpt><trkpt lat="70.8069285" lon="23.3962943"></trkpt><trkpt lat="70.8067859" lon="23.3967809"></trkpt><trkpt lat="70.8066811" lon="23.3971928"></trkpt><trkpt lat="70.8064948" lon="23.3978449"></trkpt><trkpt lat="70.8064006" lon="23.3981431"></trkpt><trkpt lat="70.8063124" lon="23.3983723"></trkpt><trkpt lat="70.8061682" lon="23.398696"></trkpt><trkpt lat="70.8058495" lon="23.3993359"></trkpt><trkpt lat="70.8056985" lon="23.3996512"></trkpt><trkpt lat="70.8054277" lon="23.4002703"></trkpt><trkpt lat="70.805249" lon="23.4005985"></trkpt><trkpt lat="70.8050606" lon="23.40092"></trkpt><trkpt lat="70.8048583" lon="23.4012107"></trkpt><trkpt lat="70.8046592" lon="23.4014506"></trkpt><trkpt lat="70.804456" lon="23.401642"></trkpt><trkpt lat="70.8042691" lon="23.4018514"></trkpt><trkpt lat="70.8040607" lon="23.4020571"></trkpt><trkpt lat="70.8039485" lon="23.4021964"></trkpt><trkpt lat="70.803821" lon="23.4023952"></trkpt><trkpt lat="70.8035798" lon="23.4029992"></trkpt><trkpt lat="70.8034715" lon="23.4032501"></trkpt><trkpt lat="70.8033271" lon="23.4035214"></trkpt><trkpt lat="70.8031762" lon="23.4037735"></trkpt><trkpt lat="70.8030109" lon="23.4039864"></trkpt><trkpt lat="70.8029042" lon="23.404183"></trkpt><trkpt lat="70.8027736" lon="23.4044684"></trkpt><trkpt lat="70.8026788" lon="23.4047195"></trkpt><trkpt lat="70.8025873" lon="23.4050187"></trkpt><trkpt lat="70.8024887" lon="23.4054138"></trkpt><trkpt lat="70.802403" lon="23.4058034"></trkpt><trkpt lat="70.8023461" lon="23.4059799"></trkpt><trkpt lat="70.8022643" lon="23.4061651"></trkpt><trkpt lat="70.8021217" lon="23.4063959"></trkpt><trkpt lat="70.8020265" lon="23.4065204"></trkpt><trkpt lat="70.8019578" lon="23.4065572"></trkpt><trkpt lat="70.8017812" lon="23.4065647"></trkpt><trkpt lat="70.8015945" lon="23.4065542"></trkpt><trkpt lat="70.8014802" lon="23.4065223"></trkpt><trkpt lat="70.8013599" lon="23.4064438"></trkpt><trkpt lat="70.8012245" lon="23.4064001"></trkpt><trkpt lat="70.8010586" lon="23.4063105"></trkpt><trkpt lat="70.8008663" lon="23.4062235"></trkpt><trkpt lat="70.8006889" lon="23.4061675"></trkpt><trkpt lat="70.8005788" lon="23.4061839"></trkpt><trkpt lat="70.8004483" lon="23.4062495"></trkpt><trkpt lat="70.8001508" lon="23.4062882"></trkpt><trkpt lat="70.8000713" lon="23.4062655"></trkpt><trkpt lat="70.7999279" lon="23.4061003"></trkpt><trkpt lat="70.7998358" lon="23.4059403"></trkpt><trkpt lat="70.7997285" lon="23.4056778"></trkpt><trkpt lat="70.7996627" lon="23.4054768"></trkpt><trkpt lat="70.7996116" lon="23.4053479"></trkpt><trkpt lat="70.79932" lon="23.4047462"></trkpt><trkpt lat="70.7991588" lon="23.4045227"></trkpt><trkpt lat="70.7990852" lon="23.4044328"></trkpt><trkpt lat="70.7990137" lon="23.4043604"></trkpt><trkpt lat="70.7989251" lon="23.404296"></trkpt><trkpt lat="70.7988342" lon="23.4042518"></trkpt><trkpt lat="70.7987838" lon="23.4042332"></trkpt><trkpt lat="70.7987275" lon="23.4042343"></trkpt><trkpt lat="70.7986551" lon="23.4042545"></trkpt><trkpt lat="70.7985696" lon="23.4043081"></trkpt><trkpt lat="70.798454" lon="23.4043939"></trkpt><trkpt lat="70.7982573" lon="23.404524"></trkpt><trkpt lat="70.7980741" lon="23.4046439"></trkpt><trkpt lat="70.7979181" lon="23.4047775"></trkpt><trkpt lat="70.7977778" lon="23.4049304"></trkpt><trkpt lat="70.7976261" lon="23.4051128"></trkpt><trkpt lat="70.7975304" lon="23.4052737"></trkpt><trkpt lat="70.7974792" lon="23.4053864"></trkpt><trkpt lat="70.7974413" lon="23.4055004"></trkpt><trkpt lat="70.7974002" lon="23.4056479"></trkpt><trkpt lat="70.7973698" lon="23.4057699"></trkpt><trkpt lat="70.7973314" lon="23.4059778"></trkpt><trkpt lat="70.7972657" lon="23.4064096"></trkpt><trkpt lat="70.7971925" lon="23.4068991"></trkpt><trkpt lat="70.7971334" lon="23.4073269"></trkpt><trkpt lat="70.7970915" lon="23.4076582"></trkpt><trkpt lat="70.7970469" lon="23.4080672"></trkpt><trkpt lat="70.7969396" lon="23.4090449"></trkpt><trkpt lat="70.7968766" lon="23.4096281"></trkpt><trkpt lat="70.7968222" lon="23.4102231"></trkpt><trkpt lat="70.7967448" lon="23.41096"></trkpt><trkpt lat="70.7967183" lon="23.4111598"></trkpt><trkpt lat="70.7966821" lon="23.4113838"></trkpt><trkpt lat="70.7966314" lon="23.4116413"></trkpt><trkpt lat="70.7965798" lon="23.4118706"></trkpt><trkpt lat="70.796537" lon="23.4120154"></trkpt><trkpt lat="70.7964911" lon="23.4121053"></trkpt><trkpt lat="70.7964545" lon="23.4121415"></trkpt><trkpt lat="70.7963932" lon="23.4121241"></trkpt><trkpt lat="70.7963491" lon="23.4120892"></trkpt><trkpt lat="70.7962772" lon="23.4119846"></trkpt><trkpt lat="70.7962167" lon="23.4118746"></trkpt><trkpt lat="70.7961611" lon="23.4117419"></trkpt><trkpt lat="70.7961236" lon="23.4116091"></trkpt><trkpt lat="70.7960959" lon="23.4114535"></trkpt><trkpt lat="70.7960813" lon="23.411314"></trkpt><trkpt lat="70.7960712" lon="23.4110953"></trkpt><trkpt lat="70.7960663" lon="23.4107843"></trkpt><trkpt lat="70.7960562" lon="23.4104504"></trkpt><trkpt lat="70.7960425" lon="23.4102653"></trkpt><trkpt lat="70.7960275" lon="23.4101325"></trkpt><trkpt lat="70.7960023" lon="23.4099904"></trkpt><trkpt lat="70.7959719" lon="23.4098831"></trkpt><trkpt lat="70.7959375" lon="23.4098066"></trkpt><trkpt lat="70.7959013" lon="23.4097543"></trkpt><trkpt lat="70.7958596" lon="23.4097366"></trkpt><trkpt lat="70.7958091" lon="23.4097409"></trkpt><trkpt lat="70.7957663" lon="23.4097838"></trkpt><trkpt lat="70.7957332" lon="23.4098469"></trkpt><trkpt lat="70.7956878" lon="23.4099755"></trkpt><trkpt lat="70.7956353" lon="23.4101754"></trkpt><trkpt lat="70.7956078" lon="23.4103206"></trkpt><trkpt lat="70.7955729" lon="23.4105501"></trkpt><trkpt lat="70.7955406" lon="23.4107976"></trkpt><trkpt lat="70.7954694" lon="23.4113932"></trkpt><trkpt lat="70.7954253" lon="23.411644"></trkpt><trkpt lat="70.7953503" lon="23.4119739"></trkpt><trkpt lat="70.7952586" lon="23.4123869"></trkpt><trkpt lat="70.795147" lon="23.4128952"></trkpt><trkpt lat="70.7950593" lon="23.4133405"></trkpt><trkpt lat="70.7950088" lon="23.4135526"></trkpt><trkpt lat="70.7949537" lon="23.4137334"></trkpt><trkpt lat="70.7949043" lon="23.4138782"></trkpt><trkpt lat="70.7948434" lon="23.4139989"></trkpt><trkpt lat="70.7946824" lon="23.4142202"></trkpt><trkpt lat="70.7945955" lon="23.4143181"></trkpt><trkpt lat="70.7944768" lon="23.4144334"></trkpt><trkpt lat="70.7943639" lon="23.4145313"></trkpt><trkpt lat="70.7940438" lon="23.4147748"></trkpt><trkpt lat="70.7940211" lon="23.4147762"></trkpt><trkpt lat="70.7939841" lon="23.4147701"></trkpt><trkpt lat="70.7938438" lon="23.4149948"></trkpt><trkpt lat="70.7936893" lon="23.4151682"></trkpt><trkpt lat="70.7935435" lon="23.4152712"></trkpt><trkpt lat="70.7933764" lon="23.4153277"></trkpt><trkpt lat="70.793313" lon="23.4153491"></trkpt><trkpt lat="70.7932305" lon="23.4153526"></trkpt><trkpt lat="70.7931744" lon="23.4153535"></trkpt><trkpt lat="70.7930509" lon="23.4153066"></trkpt><trkpt lat="70.7928621" lon="23.4151633"></trkpt><trkpt lat="70.7926441" lon="23.4149088"></trkpt><trkpt lat="70.7924442" lon="23.4146344"></trkpt><trkpt lat="70.792255" lon="23.4144031"></trkpt><trkpt lat="70.7921769" lon="23.4143315"></trkpt><trkpt lat="70.7921226" lon="23.4142993"></trkpt><trkpt lat="70.792075" lon="23.4142967"></trkpt><trkpt lat="70.7920419" lon="23.4143101"></trkpt><trkpt lat="70.7919934" lon="23.4143463"></trkpt><trkpt lat="70.7919272" lon="23.4139453"></trkpt><trkpt lat="70.7918154" lon="23.4137788"></trkpt></trkseg></trk></gpx>
