<?xml version="1.0" encoding="UTF-8"?>
<gpx version="1.1" creator="Good Shit" xmlns="http://www.topografix.com/GPX/1/1"><trk><name>Torghatten tunnel traverse — Torghatten tunnel and coastal circuit</name><trkseg><trkpt lat="65.3958602" lon="12.0971561"></trkpt><trkpt lat="65.3959505" lon="12.0972076"></trkpt><trkpt lat="65.3960069" lon="12.0972114"></trkpt><trkpt lat="65.3960398" lon="12.0972025"></trkpt><trkpt lat="65.3961435" lon="12.0971414"></trkpt><trkpt lat="65.3963319" lon="12.0971605"></trkpt><trkpt lat="65.3964844" lon="12.0971006"></trkpt><trkpt lat="65.396695" lon="12.0969968"></trkpt><trkpt lat="65.3968384" lon="12.096974"></trkpt><trkpt lat="65.3969761" lon="12.0969589"></trkpt><trkpt lat="65.3970848" lon="12.0969471"></trkpt><trkpt lat="65.3972279" lon="12.0969359"></trkpt><trkpt lat="65.3973476" lon="12.096912"></trkpt><trkpt lat="65.3974413" lon="12.0968645"></trkpt><trkpt lat="65.3975311" lon="12.0967961"></trkpt><trkpt lat="65.3976869" lon="12.0965754"></trkpt><trkpt lat="65.3978407" lon="12.0964238"></trkpt><trkpt lat="65.3980231" lon="12.0962406"></trkpt><trkpt lat="65.3981242" lon="12.096228"></trkpt><trkpt lat="65.3982275" lon="12.0961886"></trkpt><trkpt lat="65.3983289" lon="12.0961855"></trkpt><trkpt lat="65.3984237" lon="12.0961042"></trkpt><trkpt lat="65.3986228" lon="12.0959697"></trkpt><trkpt lat="65.3988246" lon="12.0957464"></trkpt><trkpt lat="65.3990529" lon="12.0956059"></trkpt><trkpt lat="65.3990982" lon="12.095578"></trkpt><trkpt lat="65.3991678" lon="12.0954388"></trkpt><trkpt lat="65.3992153" lon="12.0953279"></trkpt><trkpt lat="65.3992135" lon="12.0951854"></trkpt><trkpt lat="65.3991374" lon="12.0951088"></trkpt><trkpt lat="65.399117" lon="12.0950535"></trkpt><trkpt lat="65.399026" lon="12.0949898"></trkpt><trkpt lat="65.3990182" lon="12.0948551"></trkpt><trkpt lat="65.3988665" lon="12.0946892"></trkpt><trkpt lat="65.3987541" lon="12.0944583"></trkpt><trkpt lat="65.3986648" lon="12.0944843"></trkpt><trkpt lat="65.3985971" lon="12.0942534"></trkpt><trkpt lat="65.3986241" lon="12.0940783"></trkpt><trkpt lat="65.3985301" lon="12.0939353"></trkpt><trkpt lat="65.3985609" lon="12.0936877"></trkpt><trkpt lat="65.3985249" lon="12.0934639"></trkpt><trkpt lat="65.3984508" lon="12.0933133"></trkpt><trkpt lat="65.3983326" lon="12.0932492"></trkpt><trkpt lat="65.3982878" lon="12.093088"></trkpt><trkpt lat="65.3981556" lon="12.0926451"></trkpt><trkpt lat="65.398218" lon="12.0923507"></trkpt><trkpt lat="65.3982155" lon="12.0922747"></trkpt><trkpt lat="65.3981913" lon="12.0921537"></trkpt><trkpt lat="65.3981409" lon="12.0920527"></trkpt><trkpt lat="65.3980618" lon="12.0917903"></trkpt><trkpt lat="65.3980078" lon="12.0916004"></trkpt><trkpt lat="65.3979141" lon="12.0912711"></trkpt><trkpt lat="65.3976143" lon="12.0905563"></trkpt><trkpt lat="65.3973387" lon="12.0901293"></trkpt><trkpt lat="65.3969989" lon="12.089487"></trkpt><trkpt lat="65.3968281" lon="12.0888126"></trkpt><trkpt lat="65.3967346" lon="12.0885144"></trkpt><trkpt lat="65.3962983" lon="12.0881163"></trkpt><trkpt lat="65.3958839" lon="12.0878445"></trkpt><trkpt lat="65.3954588" lon="12.0872591"></trkpt><trkpt lat="65.395215" lon="12.0867556"></trkpt><trkpt lat="65.3949978" lon="12.0861033"></trkpt><trkpt lat="65.3947957" lon="12.0855993"></trkpt><trkpt lat="65.394651" lon="12.0851315"></trkpt><trkpt lat="65.3945746" lon="12.0849475"></trkpt><trkpt lat="65.3945522" lon="12.0846578"></trkpt><trkpt lat="65.3944383" lon="12.0843253"></trkpt><trkpt lat="65.3943914" lon="12.0840543"></trkpt><trkpt lat="65.3942454" lon="12.083637"></trkpt><trkpt lat="65.3940287" lon="12.0833217"></trkpt><trkpt lat="65.3938419" lon="12.0830002"></trkpt><trkpt lat="65.3934606" lon="12.0824411"></trkpt><trkpt lat="65.3930317" lon="12.0816283"></trkpt><trkpt lat="65.3927434" lon="12.0813832"></trkpt><trkpt lat="65.3921947" lon="12.0817722"></trkpt><trkpt lat="65.3920401" lon="12.0816696"></trkpt><trkpt lat="65.3918613" lon="12.081455"></trkpt><trkpt lat="65.3915287" lon="12.0810274"></trkpt><trkpt lat="65.3914611" lon="12.0810564"></trkpt><trkpt lat="65.3911486" lon="12.0811021"></trkpt><trkpt lat="65.3907396" lon="12.0811511"></trkpt><trkpt lat="65.390674" lon="12.0811763"></trkpt><trkpt lat="65.3906047" lon="12.0812895"></trkpt><trkpt lat="65.3905142" lon="12.0813441"></trkpt><trkpt lat="65.3903635" lon="12.0812177"></trkpt><trkpt lat="65.3902375" lon="12.0811623"></trkpt><trkpt lat="65.390187" lon="12.0811965"></trkpt><trkpt lat="65.3901494" lon="12.0812679"></trkpt><trkpt lat="65.390126" lon="12.0814087"></trkpt><trkpt lat="65.390115" lon="12.0817577"></trkpt><trkpt lat="65.3900985" lon="12.0819576"></trkpt><trkpt lat="65.3900781" lon="12.0821286"></trkpt><trkpt lat="65.3900511" lon="12.0822999"></trkpt><trkpt lat="65.3900285" lon="12.0827505"></trkpt><trkpt lat="65.3900321" lon="12.0829491"></trkpt><trkpt lat="65.3900498" lon="12.0831547"></trkpt><trkpt lat="65.3901365" lon="12.0836081"></trkpt><trkpt lat="65.3902107" lon="12.083838"></trkpt><trkpt lat="65.3902469" lon="12.0840919"></trkpt><trkpt lat="65.3902684" lon="12.0843519"></trkpt><trkpt lat="65.3903025" lon="12.0845182"></trkpt><trkpt lat="65.3904436" lon="12.0849015"></trkpt><trkpt lat="65.390565" lon="12.0853007"></trkpt><trkpt lat="65.3906926" lon="12.0856076"></trkpt><trkpt lat="65.3908324" lon="12.08607"></trkpt><trkpt lat="65.391195" lon="12.0872484"></trkpt><trkpt lat="65.391262" lon="12.0875457"></trkpt><trkpt lat="65.3913182" lon="12.0878266"></trkpt><trkpt lat="65.3913755" lon="12.0880185"></trkpt><trkpt lat="65.3914904" lon="12.0882962"></trkpt><trkpt lat="65.3916571" lon="12.088819"></trkpt><trkpt lat="65.3919068" lon="12.0896051"></trkpt><trkpt lat="65.392055" lon="12.0900518"></trkpt><trkpt lat="65.3921121" lon="12.090265"></trkpt><trkpt lat="65.3922671" lon="12.0903985"></trkpt><trkpt lat="65.3924191" lon="12.0906311"></trkpt><trkpt lat="65.392545" lon="12.0908576"></trkpt><trkpt lat="65.3925978" lon="12.0910254"></trkpt><trkpt lat="65.3926222" lon="12.0911969"></trkpt><trkpt lat="65.3926413" lon="12.0914733"></trkpt><trkpt lat="65.3926642" lon="12.0916973"></trkpt><trkpt lat="65.3927111" lon="12.0918478"></trkpt><trkpt lat="65.392789" lon="12.0920065"></trkpt><trkpt lat="65.392813" lon="12.0920644"></trkpt><trkpt lat="65.3928385" lon="12.0921661"></trkpt><trkpt lat="65.3928958" lon="12.0922585"></trkpt><trkpt lat="65.3930198" lon="12.0926587"></trkpt><trkpt lat="65.3931051" lon="12.0928269"></trkpt><trkpt lat="65.3931922" lon="12.0929243"></trkpt><trkpt lat="65.3932481" lon="12.093103"></trkpt><trkpt lat="65.3933146" lon="12.0932015"></trkpt><trkpt lat="65.3933684" lon="12.0933218"></trkpt><trkpt lat="65.393465" lon="12.0935598"></trkpt><trkpt lat="65.3935333" lon="12.0937234"></trkpt><trkpt lat="65.3936377" lon="12.0940537"></trkpt><trkpt lat="65.3938378" lon="12.0944845"></trkpt><trkpt lat="65.3940604" lon="12.0949208"></trkpt><trkpt lat="65.3941311" lon="12.0951245"></trkpt><trkpt lat="65.3943658" lon="12.0954448"></trkpt><trkpt lat="65.3946222" lon="12.095735"></trkpt><trkpt lat="65.3947889" lon="12.0960291"></trkpt><trkpt lat="65.3951692" lon="12.0966361"></trkpt><trkpt lat="65.3952547" lon="12.0967664"></trkpt><trkpt lat="65.3953675" lon="12.0968531"></trkpt><trkpt lat="65.395477" lon="12.0968843"></trkpt><trkpt lat="65.3956615" lon="12.0970712"></trkpt><trkpt lat="65.3958602" lon="12.0971561"></trkpt></trkseg></trk></gpx>
