<?xml version="1.0" encoding="UTF-8"?>
<gpx version="1.1" creator="Good Shit" xmlns="http://www.topografix.com/GPX/1/1"><trk><name>Mols Bjerge-Stien: Bjergetapen — Mols Bjerge-Stien: Bjergetapen</name><trkseg><trkpt lat="56.23858779239751" lon="10.57963563039189"></trkpt><trkpt lat="56.23858779239751" lon="10.579635630391893"></trkpt><trkpt lat="56.2386656" lon="10.5794961"></trkpt><trkpt lat="56.2385992" lon="10.5793738"></trkpt><trkpt lat="56.2385795" lon="10.5793376"></trkpt><trkpt lat="56.2385132" lon="10.5792137"></trkpt><trkpt lat="56.238467" lon="10.5790871"></trkpt><trkpt lat="56.2383761" lon="10.5789825"></trkpt><trkpt lat="56.2383463" lon="10.5788979"></trkpt><trkpt lat="56.2383599" lon="10.578765"></trkpt><trkpt lat="56.2383727" lon="10.5785237"></trkpt><trkpt lat="56.238416" lon="10.5782218"></trkpt><trkpt lat="56.2384577" lon="10.5780378"></trkpt><trkpt lat="56.2385012" lon="10.5779662"></trkpt><trkpt lat="56.238528" lon="10.577817"></trkpt><trkpt lat="56.23853" lon="10.577628"></trkpt><trkpt lat="56.23852243615535" lon="10.577577538858028"></trkpt><trkpt lat="56.23852243615535" lon="10.57757753885803"></trkpt><trkpt lat="56.23852243615535" lon="10.577577538858028"></trkpt><trkpt lat="56.2385087" lon="10.5774859"></trkpt><trkpt lat="56.238466" lon="10.577364"></trkpt><trkpt lat="56.2384029" lon="10.5771742"></trkpt><trkpt lat="56.2383731" lon="10.5771423"></trkpt><trkpt lat="56.2383365" lon="10.5771287"></trkpt><trkpt lat="56.2382479" lon="10.5771511"></trkpt><trkpt lat="56.2381871" lon="10.5771175"></trkpt><trkpt lat="56.2381306" lon="10.577057"></trkpt><trkpt lat="56.238007" lon="10.576834"></trkpt><trkpt lat="56.237748" lon="10.576499"></trkpt><trkpt lat="56.2377171" lon="10.5763676"></trkpt><trkpt lat="56.2376683" lon="10.5763001"></trkpt><trkpt lat="56.2376548" lon="10.5762185"></trkpt><trkpt lat="56.2376613" lon="10.5760818"></trkpt><trkpt lat="56.23765431250412" lon="10.575993776961603"></trkpt><trkpt lat="56.2376541" lon="10.5759911"></trkpt><trkpt lat="56.2376425" lon="10.5759035"></trkpt><trkpt lat="56.2376133" lon="10.5758442"></trkpt><trkpt lat="56.2375367" lon="10.5757696"></trkpt><trkpt lat="56.2374818" lon="10.5756668"></trkpt><trkpt lat="56.2373994" lon="10.5754681"></trkpt><trkpt lat="56.2372923" lon="10.5753812"></trkpt><trkpt lat="56.237201" lon="10.575259"></trkpt><trkpt lat="56.237143" lon="10.575098"></trkpt><trkpt lat="56.23705" lon="10.574597"></trkpt><trkpt lat="56.2369297" lon="10.5741921"></trkpt><trkpt lat="56.236903405681865" lon="10.574079844523098"></trkpt><trkpt lat="56.236832" lon="10.573775"></trkpt><trkpt lat="56.2367783" lon="10.5736099"></trkpt><trkpt lat="56.236711" lon="10.5734691"></trkpt><trkpt lat="56.2365042" lon="10.5730861"></trkpt><trkpt lat="56.2364483" lon="10.5729377"></trkpt><trkpt lat="56.2363026" lon="10.5726889"></trkpt><trkpt lat="56.23621" lon="10.572603"></trkpt><trkpt lat="56.2360842" lon="10.5725116"></trkpt><trkpt lat="56.2359828" lon="10.5725022"></trkpt><trkpt lat="56.23596777625014" lon="10.572487674580909"></trkpt><trkpt lat="56.2359014" lon="10.5724235"></trkpt><trkpt lat="56.235824" lon="10.572453"></trkpt><trkpt lat="56.235687" lon="10.572382"></trkpt><trkpt lat="56.235623" lon="10.5723213"></trkpt><trkpt lat="56.2354947" lon="10.5719752"></trkpt><trkpt lat="56.2354324" lon="10.5717774"></trkpt><trkpt lat="56.2353244" lon="10.571672"></trkpt><trkpt lat="56.2352199" lon="10.5715122"></trkpt><trkpt lat="56.2351891" lon="10.5714391"></trkpt><trkpt lat="56.235084" lon="10.57119"></trkpt><trkpt lat="56.23498788851186" lon="10.571007404916694"></trkpt><trkpt lat="56.2349692" lon="10.5709719"></trkpt><trkpt lat="56.2347719" lon="10.5708736"></trkpt><trkpt lat="56.2346195" lon="10.5708321"></trkpt><trkpt lat="56.2344948" lon="10.5708072"></trkpt><trkpt lat="56.2341133" lon="10.5706683"></trkpt><trkpt lat="56.2336655582902" lon="10.570615139886092"></trkpt><trkpt lat="56.233597" lon="10.570607"></trkpt><trkpt lat="56.2335583" lon="10.5705605"></trkpt><trkpt lat="56.233491" lon="10.570553"></trkpt><trkpt lat="56.232325608906464" lon="10.570565168298081"></trkpt><trkpt lat="56.231384" lon="10.570575"></trkpt><trkpt lat="56.231027" lon="10.570607"></trkpt><trkpt lat="56.23097604301531" lon="10.570602337269376"></trkpt><trkpt lat="56.230874" lon="10.570593"></trkpt><trkpt lat="56.2308108" lon="10.5705454"></trkpt><trkpt lat="56.230773" lon="10.570487"></trkpt><trkpt lat="56.230311" lon="10.569499"></trkpt><trkpt lat="56.230033" lon="10.569018"></trkpt><trkpt lat="56.230022347602834" lon="10.56899367702647"></trkpt><trkpt lat="56.229973" lon="10.568881"></trkpt><trkpt lat="56.22989" lon="10.568384"></trkpt><trkpt lat="56.2298034" lon="10.5682053"></trkpt><trkpt lat="56.2297803" lon="10.5681154"></trkpt><trkpt lat="56.2297698" lon="10.5679437"></trkpt><trkpt lat="56.22982511047939" lon="10.566723448186647"></trkpt><trkpt lat="56.2298377" lon="10.5664457"></trkpt><trkpt lat="56.2298556" lon="10.5662473"></trkpt><trkpt lat="56.2298973" lon="10.5660354"></trkpt><trkpt lat="56.230046" lon="10.565658"></trkpt><trkpt lat="56.2301411" lon="10.56522"></trkpt><trkpt lat="56.2302186" lon="10.5650349"></trkpt><trkpt lat="56.23047594599664" lon="10.564720850648175"></trkpt><trkpt lat="56.23047594599664" lon="10.564720850648177"></trkpt><trkpt lat="56.23047594599664" lon="10.564720850648175"></trkpt><trkpt lat="56.23049" lon="10.5647037"></trkpt><trkpt lat="56.2305417" lon="10.564617"></trkpt><trkpt lat="56.2305855" lon="10.5645574"></trkpt><trkpt lat="56.2310118" lon="10.5639733"></trkpt><trkpt lat="56.2311676" lon="10.5638696"></trkpt><trkpt lat="56.2312374" lon="10.5638121"></trkpt><trkpt lat="56.23112134866886" lon="10.563070376854416"></trkpt><trkpt lat="56.2311035" lon="10.5629563"></trkpt><trkpt lat="56.230836" lon="10.5619835"></trkpt><trkpt lat="56.2307326" lon="10.5609282"></trkpt><trkpt lat="56.23070842422482" lon="10.560783424514922"></trkpt><trkpt lat="56.2306893" lon="10.5606689"></trkpt><trkpt lat="56.2305975" lon="10.5604388"></trkpt><trkpt lat="56.2304768" lon="10.5602476"></trkpt><trkpt lat="56.2303615" lon="10.5600045"></trkpt><trkpt lat="56.2303217" lon="10.5597604"></trkpt><trkpt lat="56.2303128" lon="10.5592883"></trkpt><trkpt lat="56.2303128" lon="10.5587989"></trkpt><trkpt lat="56.23039931946596" lon="10.558671183720714"></trkpt><trkpt lat="56.23039931946596" lon="10.558671183720715"></trkpt><trkpt lat="56.23039931946596" lon="10.558671183720714"></trkpt><trkpt lat="56.2304533" lon="10.5585915"></trkpt><trkpt lat="56.2306245" lon="10.5583905"></trkpt><trkpt lat="56.2307542" lon="10.5581539"></trkpt><trkpt lat="56.2308623" lon="10.5579692"></trkpt><trkpt lat="56.2309691" lon="10.5578018"></trkpt><trkpt lat="56.2310759" lon="10.5576494"></trkpt><trkpt lat="56.23147635811768" lon="10.557227557309167"></trkpt><trkpt lat="56.2315141" lon="10.5571878"></trkpt><trkpt lat="56.2317244" lon="10.5569546"></trkpt><trkpt lat="56.2319154" lon="10.5567069"></trkpt><trkpt lat="56.2319316" lon="10.5566548"></trkpt><trkpt lat="56.2320174" lon="10.556446"></trkpt><trkpt lat="56.2316291" lon="10.5556401"></trkpt><trkpt lat="56.23160150295412" lon="10.555558179084544"></trkpt><trkpt lat="56.2313532" lon="10.5548211"></trkpt><trkpt lat="56.2309745" lon="10.5541329"></trkpt><trkpt lat="56.2308413" lon="10.55393"></trkpt><trkpt lat="56.23071389771299" lon="10.553763504174794"></trkpt><trkpt lat="56.23071389771299" lon="10.553763504174796"></trkpt><trkpt lat="56.23071389771299" lon="10.553763504174794"></trkpt><trkpt lat="56.2303932" lon="10.5533444"></trkpt><trkpt lat="56.2302116" lon="10.5530134"></trkpt><trkpt lat="56.2301007" lon="10.5527079"></trkpt><trkpt lat="56.230040312087844" lon="10.551830445337066"></trkpt><trkpt lat="56.2300347" lon="10.5517489"></trkpt><trkpt lat="56.2298824" lon="10.5512777"></trkpt><trkpt lat="56.2299055" lon="10.5512251"></trkpt><trkpt lat="56.2299152" lon="10.5511542"></trkpt><trkpt lat="56.2298226" lon="10.5508977"></trkpt><trkpt lat="56.2298075" lon="10.5507469"></trkpt><trkpt lat="56.2298209" lon="10.5506732"></trkpt><trkpt lat="56.2302193" lon="10.5502948"></trkpt><trkpt lat="56.23038474456159" lon="10.550192114543382"></trkpt><trkpt lat="56.23038474456159" lon="10.550192114543384"></trkpt><trkpt lat="56.23038474456159" lon="10.550192114543382"></trkpt><trkpt lat="56.23062" lon="10.5500461"></trkpt><trkpt lat="56.2306765" lon="10.5499812"></trkpt><trkpt lat="56.2307335" lon="10.5498443"></trkpt><trkpt lat="56.2308375" lon="10.5493704"></trkpt><trkpt lat="56.2309119" lon="10.5489733"></trkpt><trkpt lat="56.2310946" lon="10.5487658"></trkpt><trkpt lat="56.231270390849396" lon="10.548572462409888"></trkpt><trkpt lat="56.231270390849396" lon="10.548572462409886"></trkpt><trkpt lat="56.231270390849396" lon="10.548572462409888"></trkpt><trkpt lat="56.231312" lon="10.5485267"></trkpt><trkpt lat="56.2314648" lon="10.5481798"></trkpt><trkpt lat="56.2315624" lon="10.5479131"></trkpt><trkpt lat="56.2316145" lon="10.5477044"></trkpt><trkpt lat="56.2316221" lon="10.5474967"></trkpt><trkpt lat="56.2315846" lon="10.5467232"></trkpt><trkpt lat="56.2316087" lon="10.5464679"></trkpt><trkpt lat="56.23163222493528" lon="10.546370360940852"></trkpt><trkpt lat="56.2316771" lon="10.5461843"></trkpt><trkpt lat="56.231698" lon="10.546053"></trkpt><trkpt lat="56.2317098" lon="10.5458921"></trkpt><trkpt lat="56.2319818" lon="10.5453523"></trkpt><trkpt lat="56.2321514" lon="10.544938"></trkpt><trkpt lat="56.232227" lon="10.544703"></trkpt><trkpt lat="56.2322688" lon="10.5444679"></trkpt><trkpt lat="56.232296687673724" lon="10.544310869517926"></trkpt><trkpt lat="56.232296687673724" lon="10.544310869517927"></trkpt><trkpt lat="56.232296687673724" lon="10.544310869517926"></trkpt><trkpt lat="56.232359" lon="10.54396"></trkpt><trkpt lat="56.232715" lon="10.54249"></trkpt><trkpt lat="56.232728" lon="10.54235"></trkpt><trkpt lat="56.23271" lon="10.542201"></trkpt><trkpt lat="56.23266805921169" lon="10.542055175105263"></trkpt><trkpt lat="56.23266805921169" lon="10.542055175105261"></trkpt><trkpt lat="56.23266805921169" lon="10.542055175105263"></trkpt><trkpt lat="56.232645" lon="10.541975"></trkpt><trkpt lat="56.232573" lon="10.541632"></trkpt><trkpt lat="56.2323342" lon="10.5408977"></trkpt><trkpt lat="56.2323118" lon="10.5407877"></trkpt><trkpt lat="56.2323159" lon="10.5406174"></trkpt><trkpt lat="56.232233" lon="10.540367"></trkpt><trkpt lat="56.23209169952712" lon="10.539890179099226"></trkpt><trkpt lat="56.231974" lon="10.539493"></trkpt><trkpt lat="56.231598" lon="10.538455"></trkpt><trkpt lat="56.2314924" lon="10.5382301"></trkpt><trkpt lat="56.2313461" lon="10.5379372"></trkpt><trkpt lat="56.231326662038505" lon="10.537901613934611"></trkpt><trkpt lat="56.231326662038505" lon="10.537901613934613"></trkpt><trkpt lat="56.231326662038505" lon="10.537901613934611"></trkpt><trkpt lat="56.2311783" lon="10.53763"></trkpt><trkpt lat="56.231044" lon="10.537402"></trkpt><trkpt lat="56.230907" lon="10.537292"></trkpt><trkpt lat="56.230657" lon="10.537185"></trkpt><trkpt lat="56.230543" lon="10.537167"></trkpt><trkpt lat="56.230487" lon="10.5371951"></trkpt><trkpt lat="56.2303123" lon="10.5372829"></trkpt><trkpt lat="56.23023322228801" lon="10.536969229708303"></trkpt><trkpt lat="56.23023322228801" lon="10.536969229708301"></trkpt><trkpt lat="56.23023322228801" lon="10.536969229708303"></trkpt><trkpt lat="56.2301985" lon="10.5368315"></trkpt><trkpt lat="56.2301463" lon="10.5367564"></trkpt><trkpt lat="56.229916" lon="10.5365358"></trkpt><trkpt lat="56.2298826" lon="10.5365156"></trkpt><trkpt lat="56.2298466" lon="10.5364493"></trkpt><trkpt lat="56.229692" lon="10.536304"></trkpt><trkpt lat="56.229591" lon="10.536173"></trkpt><trkpt lat="56.22920684734006" lon="10.535451568847597"></trkpt><trkpt lat="56.22920684734006" lon="10.535451568847595"></trkpt><trkpt lat="56.22920684734006" lon="10.535451568847597"></trkpt><trkpt lat="56.228878" lon="10.534834"></trkpt><trkpt lat="56.2288398" lon="10.5347067"></trkpt><trkpt lat="56.228777" lon="10.534258"></trkpt><trkpt lat="56.228768" lon="10.534066"></trkpt><trkpt lat="56.228814" lon="10.533576"></trkpt><trkpt lat="56.228803" lon="10.533323"></trkpt><trkpt lat="56.2287999127143" lon="10.53330102079174"></trkpt><trkpt lat="56.228694" lon="10.532547"></trkpt><trkpt lat="56.228689" lon="10.532374"></trkpt><trkpt lat="56.228706" lon="10.532072"></trkpt><trkpt lat="56.228682" lon="10.531939"></trkpt><trkpt lat="56.2286133" lon="10.5317706"></trkpt><trkpt lat="56.2285093" lon="10.5315791"></trkpt><trkpt lat="56.2284626" lon="10.5314602"></trkpt><trkpt lat="56.2283751" lon="10.5316378"></trkpt><trkpt lat="56.22833828151312" lon="10.531799903615848"></trkpt><trkpt lat="56.22833828151312" lon="10.531799903615847"></trkpt><trkpt lat="56.22833828151312" lon="10.531799903615848"></trkpt><trkpt lat="56.2283319" lon="10.531828"></trkpt><trkpt lat="56.2283225" lon="10.5320788"></trkpt><trkpt lat="56.2283211" lon="10.5322341"></trkpt><trkpt lat="56.2283242" lon="10.5324412"></trkpt><trkpt lat="56.2283229" lon="10.5325942"></trkpt><trkpt lat="56.2283332" lon="10.5329157"></trkpt><trkpt lat="56.228338" lon="10.5332695"></trkpt><trkpt lat="56.2282584" lon="10.5332896"></trkpt><trkpt lat="56.2282866" lon="10.533681"></trkpt><trkpt lat="56.2282906" lon="10.5338622"></trkpt><trkpt lat="56.22827499763039" lon="10.534213398679842"></trkpt><trkpt lat="56.2282745" lon="10.5342246"></trkpt><trkpt lat="56.2282382" lon="10.5344927"></trkpt><trkpt lat="56.2282124" lon="10.5349864"></trkpt><trkpt lat="56.2282333" lon="10.5355258"></trkpt><trkpt lat="56.2282342" lon="10.5355944"></trkpt><trkpt lat="56.228207" lon="10.5358687"></trkpt><trkpt lat="56.2281688" lon="10.5360304"></trkpt><trkpt lat="56.2280857" lon="10.5362853"></trkpt><trkpt lat="56.2280169" lon="10.5364144"></trkpt><trkpt lat="56.228000395060306" lon="10.536439494544188"></trkpt><trkpt lat="56.2279606" lon="10.5365"></trkpt><trkpt lat="56.2278712" lon="10.5365995"></trkpt><trkpt lat="56.2276987" lon="10.5367517"></trkpt><trkpt lat="56.2274591" lon="10.5369372"></trkpt><trkpt lat="56.2272956" lon="10.5371161"></trkpt><trkpt lat="56.2271662" lon="10.5372828"></trkpt><trkpt lat="56.2270258" lon="10.5375303"></trkpt><trkpt lat="56.226916656723986" lon="10.537838674562911"></trkpt><trkpt lat="56.226916656723986" lon="10.537838674562915"></trkpt><trkpt lat="56.226916656723986" lon="10.537838674562911"></trkpt><trkpt lat="56.2269101" lon="10.5378572"></trkpt><trkpt lat="56.2267976" lon="10.5382917"></trkpt><trkpt lat="56.2266947" lon="10.5388322"></trkpt><trkpt lat="56.2265642" lon="10.5397159"></trkpt><trkpt lat="56.2264886" lon="10.5400712"></trkpt><trkpt lat="56.2264732803775" lon="10.540127659975703"></trkpt><trkpt lat="56.2264732803775" lon="10.5401276599757"></trkpt><trkpt lat="56.2264732803775" lon="10.540127659975703"></trkpt><trkpt lat="56.2263379" lon="10.5406266"></trkpt><trkpt lat="56.2262501" lon="10.5410993"></trkpt><trkpt lat="56.2262194" lon="10.5416173"></trkpt><trkpt lat="56.2262269" lon="10.5421694"></trkpt><trkpt lat="56.22622478348232" lon="10.542469069709659"></trkpt><trkpt lat="56.2262211" lon="10.5429906"></trkpt><trkpt lat="56.2262604" lon="10.5438027"></trkpt><trkpt lat="56.2261757" lon="10.5440053"></trkpt><trkpt lat="56.2260409" lon="10.5440516"></trkpt><trkpt lat="56.2259903" lon="10.5440466"></trkpt><trkpt lat="56.2257674258106" lon="10.543747287446454"></trkpt><trkpt lat="56.2257674258106" lon="10.543747287446458"></trkpt><trkpt lat="56.2257674258106" lon="10.543747287446454"></trkpt><trkpt lat="56.225755" lon="10.5437306"></trkpt><trkpt lat="56.2256424" lon="10.5435592"></trkpt><trkpt lat="56.2255347" lon="10.5434306"></trkpt><trkpt lat="56.2253593" lon="10.5434187"></trkpt><trkpt lat="56.2252611" lon="10.5435446"></trkpt><trkpt lat="56.2252062" lon="10.5436305"></trkpt><trkpt lat="56.2251495" lon="10.5437053"></trkpt><trkpt lat="56.2250703" lon="10.5437767"></trkpt><trkpt lat="56.2249445" lon="10.5435174"></trkpt><trkpt lat="56.2248482" lon="10.5433753"></trkpt><trkpt lat="56.224661684246634" lon="10.543180203286322"></trkpt><trkpt lat="56.224661684246634" lon="10.543180203286319"></trkpt><trkpt lat="56.224661684246634" lon="10.543180203286322"></trkpt><trkpt lat="56.2245765" lon="10.5430911"></trkpt><trkpt lat="56.2243472" lon="10.542779"></trkpt><trkpt lat="56.2242341" lon="10.5425671"></trkpt><trkpt lat="56.2241869" lon="10.5424751"></trkpt><trkpt lat="56.224121" lon="10.5423775"></trkpt><trkpt lat="56.2239807" lon="10.5422976"></trkpt><trkpt lat="56.2238317" lon="10.5422622"></trkpt><trkpt lat="56.223687" lon="10.5422548"></trkpt><trkpt lat="56.2236163" lon="10.5422315"></trkpt><trkpt lat="56.2235424" lon="10.5422167"></trkpt><trkpt lat="56.223494644793924" lon="10.542159790061476"></trkpt><trkpt lat="56.223494644793924" lon="10.542159790061477"></trkpt><trkpt lat="56.223494644793924" lon="10.542159790061476"></trkpt><trkpt lat="56.2234219" lon="10.5420731"></trkpt><trkpt lat="56.2232839" lon="10.5418915"></trkpt><trkpt lat="56.2231634" lon="10.5416545"></trkpt><trkpt lat="56.2230253" lon="10.541544"></trkpt><trkpt lat="56.2229425" lon="10.5415583"></trkpt><trkpt lat="56.2228566" lon="10.5415503"></trkpt><trkpt lat="56.2227003" lon="10.5414282"></trkpt><trkpt lat="56.2224105" lon="10.5411543"></trkpt><trkpt lat="56.22233701038252" lon="10.541045680730205"></trkpt><trkpt lat="56.22233701038252" lon="10.541045680730209"></trkpt><trkpt lat="56.22233701038252" lon="10.541045680730205"></trkpt><trkpt lat="56.2222831" lon="10.540966"></trkpt><trkpt lat="56.2221821" lon="10.540746"></trkpt><trkpt lat="56.2220373" lon="10.5402349"></trkpt><trkpt lat="56.2219655" lon="10.5401586"></trkpt><trkpt lat="56.2218497" lon="10.540114"></trkpt><trkpt lat="56.2216752" lon="10.5400642"></trkpt><trkpt lat="56.22126265733833" lon="10.539890457944901"></trkpt><trkpt lat="56.220913" lon="10.5397432"></trkpt><trkpt lat="56.2207862" lon="10.5394616"></trkpt><trkpt lat="56.2206154" lon="10.5392274"></trkpt><trkpt lat="56.2202343" lon="10.5390279"></trkpt><trkpt lat="56.2201214" lon="10.5388871"></trkpt><trkpt lat="56.22008210501295" lon="10.538882790810469"></trkpt><trkpt lat="56.22008210501295" lon="10.53888279081047"></trkpt><trkpt lat="56.22008210501295" lon="10.538882790810469"></trkpt><trkpt lat="56.219991" lon="10.5388728"></trkpt><trkpt lat="56.2198496" lon="10.5388466"></trkpt><trkpt lat="56.2197081" lon="10.5387888"></trkpt><trkpt lat="56.2196238" lon="10.5387527"></trkpt><trkpt lat="56.2195395" lon="10.5386851"></trkpt><trkpt lat="56.2194226" lon="10.5385507"></trkpt><trkpt lat="56.2193622" lon="10.5384706"></trkpt><trkpt lat="56.2192198" lon="10.5386685"></trkpt><trkpt lat="56.2191802" lon="10.5385901"></trkpt><trkpt lat="56.2191457" lon="10.5384873"></trkpt><trkpt lat="56.2191064" lon="10.5381462"></trkpt><trkpt lat="56.21908358340029" lon="10.538006589518588"></trkpt><trkpt lat="56.21908358340029" lon="10.538006589518586"></trkpt><trkpt lat="56.21908358340029" lon="10.538006589518588"></trkpt><trkpt lat="56.2190256" lon="10.5376518"></trkpt><trkpt lat="56.2189877" lon="10.5374261"></trkpt><trkpt lat="56.2189412" lon="10.5372065"></trkpt><trkpt lat="56.2189097" lon="10.5371473"></trkpt><trkpt lat="56.2188727" lon="10.5371088"></trkpt><trkpt lat="56.2188251" lon="10.5370591"></trkpt><trkpt lat="56.2188418" lon="10.5368684"></trkpt><trkpt lat="56.2188507" lon="10.5365597"></trkpt><trkpt lat="56.2188349" lon="10.5361775"></trkpt><trkpt lat="56.2187962" lon="10.5359253"></trkpt><trkpt lat="56.21876125703259" lon="10.535751740302342"></trkpt><trkpt lat="56.21876125703259" lon="10.53575174030234"></trkpt><trkpt lat="56.21876125703259" lon="10.535751740302342"></trkpt><trkpt lat="56.2187357" lon="10.5356248"></trkpt><trkpt lat="56.2186859" lon="10.5353913"></trkpt><trkpt lat="56.2187136" lon="10.5351205"></trkpt><trkpt lat="56.2187794" lon="10.5349018"></trkpt><trkpt lat="56.2187877" lon="10.534864"></trkpt><trkpt lat="56.2188237" lon="10.5346472"></trkpt><trkpt lat="56.2188603" lon="10.5343707"></trkpt><trkpt lat="56.2188822" lon="10.5342249"></trkpt><trkpt lat="56.2189403" lon="10.5340488"></trkpt><trkpt lat="56.2190598" lon="10.5336362"></trkpt><trkpt lat="56.2189854669643" lon="10.533579907960458"></trkpt><trkpt lat="56.2189854669643" lon="10.533579907960457"></trkpt><trkpt lat="56.2189854669643" lon="10.533579907960458"></trkpt><trkpt lat="56.2188439" lon="10.5334727"></trkpt><trkpt lat="56.2184807" lon="10.5331696"></trkpt><trkpt lat="56.2182257" lon="10.5328719"></trkpt><trkpt lat="56.21785473517992" lon="10.53229345369334"></trkpt><trkpt lat="56.21785473517992" lon="10.532293453693342"></trkpt><trkpt lat="56.21785473517992" lon="10.53229345369334"></trkpt><trkpt lat="56.2177097" lon="10.5320673"></trkpt><trkpt lat="56.2176324" lon="10.5319364"></trkpt><trkpt lat="56.2168674257949" lon="10.530640505370997"></trkpt><trkpt lat="56.2168674257949" lon="10.530640505370995"></trkpt><trkpt lat="56.2168674257949" lon="10.530640505370997"></trkpt><trkpt lat="56.2168006" lon="10.5305273"></trkpt><trkpt lat="56.216577" lon="10.5301907"></trkpt><trkpt lat="56.2165374" lon="10.5300457"></trkpt><trkpt lat="56.2163525" lon="10.5296844"></trkpt><trkpt lat="56.2162757" lon="10.5294712"></trkpt><trkpt lat="56.2162233" lon="10.5292081"></trkpt><trkpt lat="56.2161855" lon="10.5289803"></trkpt><trkpt lat="56.21616042521106" lon="10.528670856141641"></trkpt><trkpt lat="56.2161544" lon="10.5285965"></trkpt><trkpt lat="56.2161004" lon="10.5282086"></trkpt><trkpt lat="56.216112" lon="10.527867"></trkpt><trkpt lat="56.2160495" lon="10.5264215"></trkpt><trkpt lat="56.21601073290058" lon="10.526277109487875"></trkpt><trkpt lat="56.2159522" lon="10.5260591"></trkpt><trkpt lat="56.2160657" lon="10.5254092"></trkpt><trkpt lat="56.2160703" lon="10.5247136"></trkpt><trkpt lat="56.2160865" lon="10.524147"></trkpt><trkpt lat="56.216044847351114" lon="10.523919824828637"></trkpt><trkpt lat="56.216044847351114" lon="10.523919824828639"></trkpt><trkpt lat="56.216044847351114" lon="10.523919824828637"></trkpt><trkpt lat="56.2160147" lon="10.5237554"></trkpt><trkpt lat="56.2159614" lon="10.5233597"></trkpt><trkpt lat="56.2158456" lon="10.5223432"></trkpt><trkpt lat="56.215720829142086" lon="10.521566722290533"></trkpt><trkpt lat="56.215614" lon="10.5209019"></trkpt><trkpt lat="56.2156762" lon="10.5204882"></trkpt><trkpt lat="56.2159707" lon="10.5197734"></trkpt><trkpt lat="56.21597903930228" lon="10.519358317954058"></trkpt><trkpt lat="56.2159831" lon="10.5191562"></trkpt><trkpt lat="56.2157882" lon="10.5184115"></trkpt><trkpt lat="56.2156904" lon="10.518215"></trkpt><trkpt lat="56.2154926" lon="10.5180302"></trkpt><trkpt lat="56.2151292385972" lon="10.517690906693797"></trkpt><trkpt lat="56.2148404" lon="10.5174212"></trkpt><trkpt lat="56.214699" lon="10.5172041"></trkpt><trkpt lat="56.2146155" lon="10.5170371"></trkpt><trkpt lat="56.2145349" lon="10.5167816"></trkpt><trkpt lat="56.2145337" lon="10.5167338"></trkpt><trkpt lat="56.2145008" lon="10.5162257"></trkpt><trkpt lat="56.214526" lon="10.5159104"></trkpt><trkpt lat="56.21453827858132" lon="10.515801847839848"></trkpt><trkpt lat="56.21453827858132" lon="10.51580184783985"></trkpt><trkpt lat="56.21453827858132" lon="10.515801847839848"></trkpt><trkpt lat="56.2145932" lon="10.5153163"></trkpt><trkpt lat="56.2146082" lon="10.5150303"></trkpt><trkpt lat="56.2145879" lon="10.5146751"></trkpt><trkpt lat="56.2144879" lon="10.5141005"></trkpt><trkpt lat="56.214335036501154" lon="10.51347428634789"></trkpt><trkpt lat="56.214335036501154" lon="10.513474286347892"></trkpt><trkpt lat="56.214335036501154" lon="10.51347428634789"></trkpt><trkpt lat="56.2142383" lon="10.513078"></trkpt><trkpt lat="56.2142919" lon="10.5129725"></trkpt><trkpt lat="56.2143978" lon="10.5119539"></trkpt><trkpt lat="56.2144766" lon="10.5115873"></trkpt><trkpt lat="56.214596298267494" lon="10.511226377136325"></trkpt><trkpt lat="56.214596298267494" lon="10.511226377136323"></trkpt><trkpt lat="56.214596298267494" lon="10.511226377136325"></trkpt><trkpt lat="56.2146272" lon="10.5111332"></trkpt><trkpt lat="56.2152549" lon="10.5100918"></trkpt><trkpt lat="56.215468" lon="10.5096044"></trkpt><trkpt lat="56.215551406801985" lon="10.509545206381715"></trkpt><trkpt lat="56.215551406801985" lon="10.509545206381713"></trkpt><trkpt lat="56.215551406801985" lon="10.509545206381715"></trkpt><trkpt lat="56.2157856" lon="10.509379"></trkpt><trkpt lat="56.2157049" lon="10.5088363"></trkpt><trkpt lat="56.2155716" lon="10.5081398"></trkpt><trkpt lat="56.2155284" lon="10.5077353"></trkpt><trkpt lat="56.2155069" lon="10.5075083"></trkpt><trkpt lat="56.21550510801833" lon="10.507475804792513"></trkpt><trkpt lat="56.2154478" lon="10.5064366"></trkpt><trkpt lat="56.215435" lon="10.5055579"></trkpt><trkpt lat="56.21543581331727" lon="10.505055269926858"></trkpt><trkpt lat="56.2154359" lon="10.5050017"></trkpt><trkpt lat="56.2154747" lon="10.5043512"></trkpt><trkpt lat="56.2154222" lon="10.5042938"></trkpt><trkpt lat="56.2154152" lon="10.5042659"></trkpt><trkpt lat="56.2154021" lon="10.5042048"></trkpt><trkpt lat="56.215393" lon="10.5039838"></trkpt><trkpt lat="56.2153154" lon="10.5036217"></trkpt><trkpt lat="56.2152202" lon="10.5033715"></trkpt><trkpt lat="56.2151155" lon="10.502986"></trkpt><trkpt lat="56.21509191065367" lon="10.502819018006738"></trkpt><trkpt lat="56.2150723" lon="10.5026802"></trkpt><trkpt lat="56.2149873" lon="10.5023718"></trkpt><trkpt lat="56.2148115" lon="10.5021166"></trkpt><trkpt lat="56.2145816" lon="10.5016127"></trkpt><trkpt lat="56.2145365" lon="10.5010785"></trkpt><trkpt lat="56.2144796" lon="10.501023"></trkpt><trkpt lat="56.2143713" lon="10.5009293"></trkpt><trkpt lat="56.21436874650399" lon="10.50092298169121"></trkpt><trkpt lat="56.21436874650399" lon="10.500922981691208"></trkpt><trkpt lat="56.21436874650399" lon="10.50092298169121"></trkpt><trkpt lat="56.2142952" lon="10.500741"></trkpt><trkpt lat="56.2142574" lon="10.5005898"></trkpt><trkpt lat="56.2142518" lon="10.5003597"></trkpt><trkpt lat="56.2141934" lon="10.5002829"></trkpt><trkpt lat="56.2140282" lon="10.5004272"></trkpt><trkpt lat="56.2134748" lon="10.5009556"></trkpt><trkpt lat="56.2134525" lon="10.5011004"></trkpt><trkpt lat="56.21346943588034" lon="10.50116135517264"></trkpt><trkpt lat="56.21346943588034" lon="10.501161355172641"></trkpt><trkpt lat="56.21346943588034" lon="10.50116135517264"></trkpt><trkpt lat="56.2135493" lon="10.5014488"></trkpt><trkpt lat="56.2134271" lon="10.5022591"></trkpt><trkpt lat="56.2134003" lon="10.502589"></trkpt><trkpt lat="56.212924743072186" lon="10.502960267763243"></trkpt><trkpt lat="56.2122562" lon="10.5034822"></trkpt><trkpt lat="56.2120405" lon="10.5034796"></trkpt><trkpt lat="56.2120707" lon="10.5036184"></trkpt><trkpt lat="56.2121013" lon="10.5038098"></trkpt><trkpt lat="56.2121278" lon="10.5040314"></trkpt><trkpt lat="56.21213576729028" lon="10.504185788380447"></trkpt><trkpt lat="56.2121368" lon="10.5042058"></trkpt><trkpt lat="56.2121862" lon="10.5048754"></trkpt><trkpt lat="56.2122219" lon="10.5052042"></trkpt><trkpt lat="56.2122711" lon="10.5055287"></trkpt><trkpt lat="56.2124216" lon="10.5064345"></trkpt><trkpt lat="56.2124384489157" lon="10.506545157992914"></trkpt><trkpt lat="56.2124785" lon="10.5068082"></trkpt><trkpt lat="56.2125038" lon="10.5070388"></trkpt><trkpt lat="56.2125277" lon="10.5074653"></trkpt><trkpt lat="56.2125426" lon="10.508227"></trkpt><trkpt lat="56.21261966386769" lon="10.50894183712481"></trkpt><trkpt lat="56.2126227" lon="10.50897"></trkpt><trkpt lat="56.2126854" lon="10.509294"></trkpt><trkpt lat="56.2127631" lon="10.5095826"></trkpt><trkpt lat="56.2127875" lon="10.5096232"></trkpt><trkpt lat="56.2128691" lon="10.5097593"></trkpt><trkpt lat="56.2131497" lon="10.5100831"></trkpt><trkpt lat="56.2132481" lon="10.5101784"></trkpt><trkpt lat="56.2135039" lon="10.5103755"></trkpt><trkpt lat="56.213583259823885" lon="10.510479106443446"></trkpt><trkpt lat="56.213583259823885" lon="10.510479106443444"></trkpt><trkpt lat="56.213583259823885" lon="10.510479106443446"></trkpt><trkpt lat="56.2136034" lon="10.5105054"></trkpt><trkpt lat="56.2137011" lon="10.5107245"></trkpt><trkpt lat="56.2137596" lon="10.5111953"></trkpt><trkpt lat="56.2138715" lon="10.5116524"></trkpt><trkpt lat="56.2138639" lon="10.5118731"></trkpt><trkpt lat="56.2137549" lon="10.5121492"></trkpt><trkpt lat="56.2135523" lon="10.5125318"></trkpt><trkpt lat="56.2135432678327" lon="10.512557161527514"></trkpt><trkpt lat="56.2135432678327" lon="10.512557161527516"></trkpt><trkpt lat="56.2135432678327" lon="10.512557161527514"></trkpt><trkpt lat="56.2132717" lon="10.5133197"></trkpt><trkpt lat="56.2132656" lon="10.5135929"></trkpt><trkpt lat="56.213307" lon="10.5140258"></trkpt><trkpt lat="56.2132917" lon="10.5146039"></trkpt><trkpt lat="56.213222493238106" lon="10.514796161732054"></trkpt><trkpt lat="56.213222493238106" lon="10.514796161732056"></trkpt><trkpt lat="56.213222493238106" lon="10.514796161732054"></trkpt><trkpt lat="56.2131804" lon="10.5149131"></trkpt><trkpt lat="56.2128175" lon="10.5162104"></trkpt><trkpt lat="56.2127412" lon="10.5163224"></trkpt><trkpt lat="56.2126805" lon="10.5165568"></trkpt><trkpt lat="56.2126904" lon="10.5167543"></trkpt><trkpt lat="56.21275852642266" lon="10.516911911779486"></trkpt><trkpt lat="56.2131749" lon="10.5178752"></trkpt><trkpt lat="56.2132151" lon="10.5179469"></trkpt><trkpt lat="56.2132218" lon="10.5182667"></trkpt><trkpt lat="56.2132755" lon="10.5185261"></trkpt><trkpt lat="56.2133963" lon="10.5187071"></trkpt><trkpt lat="56.2134835" lon="10.5187734"></trkpt><trkpt lat="56.21351339999248" lon="10.518784159241827"></trkpt><trkpt lat="56.2135841" lon="10.5188096"></trkpt><trkpt lat="56.2137933" lon="10.5188084"></trkpt><trkpt lat="56.2137728" lon="10.5189062"></trkpt><trkpt lat="56.2137587" lon="10.5190078"></trkpt><trkpt lat="56.2137627" lon="10.51916"></trkpt><trkpt lat="56.2137853" lon="10.5192823"></trkpt><trkpt lat="56.2138451" lon="10.5195381"></trkpt><trkpt lat="56.2138839" lon="10.5196727"></trkpt><trkpt lat="56.2139523" lon="10.5198309"></trkpt><trkpt lat="56.2139762" lon="10.5198846"></trkpt><trkpt lat="56.2139861" lon="10.5199484"></trkpt><trkpt lat="56.21385729293172" lon="10.52057813242351"></trkpt><trkpt lat="56.21385729293172" lon="10.520578132423509"></trkpt><trkpt lat="56.21385729293172" lon="10.52057813242351"></trkpt><trkpt lat="56.2138267" lon="10.5207277"></trkpt><trkpt lat="56.2138315" lon="10.5209166"></trkpt><trkpt lat="56.2138639" lon="10.521121"></trkpt><trkpt lat="56.2138908" lon="10.521421"></trkpt><trkpt lat="56.2139657" lon="10.5218005"></trkpt><trkpt lat="56.2140911" lon="10.5220104"></trkpt><trkpt lat="56.2142696" lon="10.5221914"></trkpt><trkpt lat="56.214495750437464" lon="10.52245682254348"></trkpt><trkpt lat="56.2145558" lon="10.5225273"></trkpt><trkpt lat="56.2147393" lon="10.5227891"></trkpt><trkpt lat="56.2145773" lon="10.5242084"></trkpt><trkpt lat="56.214543276883965" lon="10.52463115047745"></trkpt><trkpt lat="56.2145324" lon="10.5247663"></trkpt><trkpt lat="56.2144478" lon="10.5258193"></trkpt><trkpt lat="56.2144459" lon="10.5258422"></trkpt><trkpt lat="56.21434495985208" lon="10.527030619939099"></trkpt><trkpt lat="56.2143183" lon="10.5273445"></trkpt><trkpt lat="56.2142658" lon="10.5284996"></trkpt><trkpt lat="56.2142535" lon="10.5286213"></trkpt><trkpt lat="56.214155" lon="10.528605"></trkpt><trkpt lat="56.2141427" lon="10.528603"></trkpt><trkpt lat="56.2138796" lon="10.5285354"></trkpt><trkpt lat="56.21379812837763" lon="10.528506436228717"></trkpt><trkpt lat="56.2133249" lon="10.5283382"></trkpt><trkpt lat="56.2132798" lon="10.528304"></trkpt><trkpt lat="56.2132089" lon="10.5283164"></trkpt><trkpt lat="56.2128074" lon="10.5281541"></trkpt><trkpt lat="56.2127363" lon="10.5281203"></trkpt><trkpt lat="56.2127249" lon="10.5281146"></trkpt><trkpt lat="56.2124836467097" lon="10.527993588636642"></trkpt><trkpt lat="56.2124836467097" lon="10.527993588636644"></trkpt><trkpt lat="56.2124836467097" lon="10.527993588636642"></trkpt><trkpt lat="56.21238" lon="10.5279416"></trkpt><trkpt lat="56.2119513" lon="10.5277478"></trkpt><trkpt lat="56.2115554" lon="10.5275663"></trkpt><trkpt lat="56.211215" lon="10.5274102"></trkpt><trkpt lat="56.211176832425636" lon="10.527391048056435"></trkpt><trkpt lat="56.211103" lon="10.527354"></trkpt><trkpt lat="56.210868" lon="10.527236"></trkpt><trkpt lat="56.2106369" lon="10.5271203"></trkpt><trkpt lat="56.2104412" lon="10.5270224"></trkpt><trkpt lat="56.2103899" lon="10.5269967"></trkpt><trkpt lat="56.2099802" lon="10.5268111"></trkpt><trkpt lat="56.20987387046774" lon="10.526762917459878"></trkpt><trkpt lat="56.2095587" lon="10.5266201"></trkpt><trkpt lat="56.209392" lon="10.5264491"></trkpt><trkpt lat="56.2092319" lon="10.5263953"></trkpt><trkpt lat="56.2090817" lon="10.526331"></trkpt><trkpt lat="56.208864" lon="10.526238"></trkpt><trkpt lat="56.208580656371" lon="10.526116796792282"></trkpt><trkpt lat="56.2077718" lon="10.5257708"></trkpt><trkpt lat="56.2075933" lon="10.5257063"></trkpt><trkpt lat="56.2074846" lon="10.5256671"></trkpt><trkpt lat="56.20727026838361" lon="10.525544614865575"></trkpt><trkpt lat="56.20727026838361" lon="10.525544614865574"></trkpt><trkpt lat="56.20727026838361" lon="10.525544614865575"></trkpt><trkpt lat="56.2068676" lon="10.5253145"></trkpt><trkpt lat="56.2066517" lon="10.5251965"></trkpt><trkpt lat="56.2064633" lon="10.5250601"></trkpt><trkpt lat="56.2061774" lon="10.5244249"></trkpt><trkpt lat="56.206159100362555" lon="10.52438435736889"></trkpt><trkpt lat="56.206159100362555" lon="10.524384357368888"></trkpt><trkpt lat="56.206159100362555" lon="10.52438435736889"></trkpt><trkpt lat="56.2060883" lon="10.5242275"></trkpt><trkpt lat="56.206027" lon="10.5240032"></trkpt><trkpt lat="56.2057676" lon="10.5232751"></trkpt><trkpt lat="56.2057114" lon="10.5232278"></trkpt><trkpt lat="56.2056216" lon="10.5230562"></trkpt><trkpt lat="56.2055255" lon="10.5227805"></trkpt><trkpt lat="56.2054391" lon="10.5227313"></trkpt><trkpt lat="56.205412" lon="10.5226073"></trkpt><trkpt lat="56.2054039" lon="10.522551"></trkpt><trkpt lat="56.205401" lon="10.5224365"></trkpt><trkpt lat="56.205398032967565" lon="10.522424235551847"></trkpt><trkpt lat="56.2053733" lon="10.522322"></trkpt><trkpt lat="56.2053357" lon="10.5222285"></trkpt><trkpt lat="56.2052213" lon="10.5221258"></trkpt><trkpt lat="56.2051611" lon="10.5219318"></trkpt><trkpt lat="56.2051086" lon="10.5218916"></trkpt><trkpt lat="56.2050376" lon="10.5218524"></trkpt><trkpt lat="56.2049203" lon="10.5217833"></trkpt><trkpt lat="56.2048313" lon="10.521647"></trkpt><trkpt lat="56.2047493" lon="10.5215767"></trkpt><trkpt lat="56.2046884" lon="10.5215642"></trkpt><trkpt lat="56.2045827" lon="10.5215425"></trkpt><trkpt lat="56.2042972" lon="10.5216375"></trkpt><trkpt lat="56.20422412501521" lon="10.521661511625748"></trkpt><trkpt lat="56.20422412501521" lon="10.521661511625746"></trkpt><trkpt lat="56.20422412501521" lon="10.521661511625748"></trkpt><trkpt lat="56.2040513" lon="10.5217183"></trkpt><trkpt lat="56.2039508" lon="10.5217088"></trkpt><trkpt lat="56.2038415" lon="10.5218041"></trkpt><trkpt lat="56.2037704" lon="10.5220302"></trkpt><trkpt lat="56.2037266" lon="10.5222335"></trkpt><trkpt lat="56.2036623" lon="10.5223869"></trkpt><trkpt lat="56.2035568" lon="10.522593"></trkpt><trkpt lat="56.2034114" lon="10.522902"></trkpt><trkpt lat="56.20334" lon="10.5230969"></trkpt><trkpt lat="56.2032930730699" lon="10.52319009819451"></trkpt><trkpt lat="56.2032930730699" lon="10.523190098194508"></trkpt><trkpt lat="56.2032930730699" lon="10.52319009819451"></trkpt><trkpt lat="56.2032899" lon="10.5231964"></trkpt><trkpt lat="56.2032145" lon="10.5232279"></trkpt><trkpt lat="56.2030958" lon="10.5232063"></trkpt><trkpt lat="56.2029158" lon="10.523321"></trkpt><trkpt lat="56.2028524" lon="10.5233971"></trkpt><trkpt lat="56.2027837" lon="10.5234254"></trkpt><trkpt lat="56.2027451" lon="10.5235156"></trkpt><trkpt lat="56.2027255" lon="10.5236477"></trkpt><trkpt lat="56.2026943" lon="10.5240233"></trkpt><trkpt lat="56.2027559" lon="10.5245589"></trkpt><trkpt lat="56.2027474" lon="10.5248171"></trkpt><trkpt lat="56.20274563940337" lon="10.524842344460362"></trkpt><trkpt lat="56.2027347" lon="10.5249992"></trkpt><trkpt lat="56.2027957" lon="10.5253524"></trkpt><trkpt lat="56.2030344" lon="10.5262965"></trkpt><trkpt lat="56.20322108894472" lon="10.527088954609466"></trkpt><trkpt lat="56.20322108894472" lon="10.527088954609464"></trkpt><trkpt lat="56.20322108894472" lon="10.527088954609466"></trkpt><trkpt lat="56.2033077" lon="10.5274566"></trkpt><trkpt lat="56.2033245" lon="10.5275062"></trkpt><trkpt lat="56.2034899" lon="10.5280202"></trkpt><trkpt lat="56.2035483" lon="10.5280593"></trkpt><trkpt lat="56.2035688" lon="10.5281189"></trkpt><trkpt lat="56.2035751" lon="10.5281674"></trkpt><trkpt lat="56.2035696" lon="10.5283237"></trkpt><trkpt lat="56.2036115" lon="10.5283839"></trkpt><trkpt lat="56.20371" lon="10.5285443"></trkpt><trkpt lat="56.2037182" lon="10.5286094"></trkpt><trkpt lat="56.2037442" lon="10.5286535"></trkpt><trkpt lat="56.2038153" lon="10.5286789"></trkpt><trkpt lat="56.2039014" lon="10.5288706"></trkpt><trkpt lat="56.203941219267186" lon="10.529002881868665"></trkpt><trkpt lat="56.203941219267186" lon="10.529002881868667"></trkpt><trkpt lat="56.203941219267186" lon="10.529002881868665"></trkpt><trkpt lat="56.2039753" lon="10.5291161"></trkpt><trkpt lat="56.2040753" lon="10.5292931"></trkpt><trkpt lat="56.2041303" lon="10.5294647"></trkpt><trkpt lat="56.2042379" lon="10.5296834"></trkpt><trkpt lat="56.204286" lon="10.5298728"></trkpt><trkpt lat="56.2043793" lon="10.5300127"></trkpt><trkpt lat="56.2045793" lon="10.5302389"></trkpt><trkpt lat="56.2047024" lon="10.5305027"></trkpt><trkpt lat="56.2047988" lon="10.5307474"></trkpt><trkpt lat="56.20481220291279" lon="10.53080460818567"></trkpt><trkpt lat="56.20481220291279" lon="10.530804608185669"></trkpt><trkpt lat="56.20481220291279" lon="10.53080460818567"></trkpt><trkpt lat="56.2048506" lon="10.5309685"></trkpt><trkpt lat="56.2048103" lon="10.5312127"></trkpt><trkpt lat="56.2048151" lon="10.5313764"></trkpt><trkpt lat="56.2047987" lon="10.5314434"></trkpt><trkpt lat="56.2047896" lon="10.5316479"></trkpt><trkpt lat="56.2047741" lon="10.5318714"></trkpt><trkpt lat="56.2047601" lon="10.5320885"></trkpt><trkpt lat="56.2047688" lon="10.532233"></trkpt><trkpt lat="56.2046928" lon="10.5322773"></trkpt><trkpt lat="56.2046591" lon="10.5323005"></trkpt><trkpt lat="56.2046785" lon="10.5325785"></trkpt><trkpt lat="56.2046682" lon="10.5326562"></trkpt><trkpt lat="56.20466813300114" lon="10.532656676097968"></trkpt><trkpt lat="56.20466813300114" lon="10.53265667609797"></trkpt><trkpt lat="56.20466813300114" lon="10.532656676097968"></trkpt><trkpt lat="56.204655" lon="10.53275"></trkpt><trkpt lat="56.2045748" lon="10.5331869"></trkpt><trkpt lat="56.2045526" lon="10.5333633"></trkpt><trkpt lat="56.2045669" lon="10.5335282"></trkpt><trkpt lat="56.2046201" lon="10.5339909"></trkpt><trkpt lat="56.20466298268549" lon="10.535037822705418"></trkpt><trkpt lat="56.204667" lon="10.5351359"></trkpt><trkpt lat="56.2046147" lon="10.5354261"></trkpt><trkpt lat="56.204442" lon="10.5358725"></trkpt><trkpt lat="56.2043073" lon="10.5362209"></trkpt><trkpt lat="56.2042978" lon="10.5366302"></trkpt><trkpt lat="56.20434929904953" lon="10.537267282857387"></trkpt><trkpt lat="56.2043628" lon="10.5374343"></trkpt><trkpt lat="56.2045842" lon="10.5383897"></trkpt><trkpt lat="56.204804" lon="10.5389412"></trkpt><trkpt lat="56.2050389357401" lon="10.539282509620598"></trkpt><trkpt lat="56.2050389357401" lon="10.5392825096206"></trkpt><trkpt lat="56.2050389357401" lon="10.539282509620598"></trkpt><trkpt lat="56.2051333" lon="10.5394196"></trkpt><trkpt lat="56.2052568" lon="10.5397488"></trkpt><trkpt lat="56.2052997" lon="10.5401012"></trkpt><trkpt lat="56.2053472" lon="10.5405473"></trkpt><trkpt lat="56.2056448" lon="10.5411298"></trkpt><trkpt lat="56.20572277506403" lon="10.541278392852107"></trkpt><trkpt lat="56.20572277506403" lon="10.541278392852105"></trkpt><trkpt lat="56.20572277506403" lon="10.541278392852107"></trkpt><trkpt lat="56.2059034" lon="10.5416226"></trkpt><trkpt lat="56.2061376" lon="10.5419177"></trkpt><trkpt lat="56.2062899" lon="10.5424245"></trkpt><trkpt lat="56.20648213747316" lon="10.543213680509343"></trkpt><trkpt lat="56.2064961" lon="10.543271"></trkpt><trkpt lat="56.20652" lon="10.543317"></trkpt><trkpt lat="56.2065655" lon="10.5434928"></trkpt><trkpt lat="56.2066503" lon="10.5436054"></trkpt><trkpt lat="56.2067658" lon="10.5437923"></trkpt><trkpt lat="56.2072231" lon="10.5441928"></trkpt><trkpt lat="56.2073455" lon="10.5443001"></trkpt><trkpt lat="56.207455" lon="10.5445134"></trkpt><trkpt lat="56.20754919996674" lon="10.544597401894963"></trkpt><trkpt lat="56.2075797" lon="10.5446246"></trkpt><trkpt lat="56.2076766" lon="10.5446675"></trkpt><trkpt lat="56.2082271" lon="10.5447346"></trkpt><trkpt lat="56.2085705" lon="10.5447626"></trkpt><trkpt lat="56.2087836" lon="10.5448042"></trkpt><trkpt lat="56.20888382779637" lon="10.544734883096991"></trkpt><trkpt lat="56.20888382779637" lon="10.544734883096993"></trkpt><trkpt lat="56.20888382779637" lon="10.544734883096991"></trkpt><trkpt lat="56.2089775" lon="10.5446701"></trkpt><trkpt lat="56.2091267" lon="10.544638"></trkpt><trkpt lat="56.2092505" lon="10.5446917"></trkpt><trkpt lat="56.2094077" lon="10.5449198"></trkpt><trkpt lat="56.2095599" lon="10.5451129"></trkpt><trkpt lat="56.209792" lon="10.5451958"></trkpt><trkpt lat="56.2099591" lon="10.545228"></trkpt><trkpt lat="56.21013058999797" lon="10.545317755939687"></trkpt><trkpt lat="56.21013058999797" lon="10.545317755939688"></trkpt><trkpt lat="56.21013058999797" lon="10.545317755939687"></trkpt><trkpt lat="56.2101515" lon="10.5453287"></trkpt><trkpt lat="56.2102529" lon="10.5453287"></trkpt><trkpt lat="56.2104035" lon="10.5452749"></trkpt><trkpt lat="56.2104087" lon="10.5451881"></trkpt><trkpt lat="56.2104215" lon="10.5450806"></trkpt><trkpt lat="56.2104628" lon="10.5449704"></trkpt><trkpt lat="56.2104999" lon="10.5448885"></trkpt><trkpt lat="56.2105053" lon="10.5447506"></trkpt><trkpt lat="56.2105334" lon="10.5446654"></trkpt><trkpt lat="56.2105591" lon="10.5446415"></trkpt><trkpt lat="56.2105916" lon="10.5447505"></trkpt><trkpt lat="56.2106512" lon="10.5448149"></trkpt><trkpt lat="56.2108989" lon="10.5449919"></trkpt><trkpt lat="56.21115926675186" lon="10.545109981822673"></trkpt><trkpt lat="56.2112539" lon="10.5451529"></trkpt><trkpt lat="56.2115658" lon="10.5452569"></trkpt><trkpt lat="56.2116377" lon="10.5450999"></trkpt><trkpt lat="56.2118958" lon="10.5447217"></trkpt><trkpt lat="56.2120375" lon="10.5445849"></trkpt><trkpt lat="56.212351425499996" lon="10.544415263239133"></trkpt><trkpt lat="56.2126976" lon="10.5442282"></trkpt><trkpt lat="56.2128079" lon="10.5441209"></trkpt><trkpt lat="56.2128728" lon="10.5439707"></trkpt><trkpt lat="56.2129101" lon="10.5436783"></trkpt><trkpt lat="56.213019" lon="10.5428911"></trkpt><trkpt lat="56.2130867374999" lon="10.542674392240036"></trkpt><trkpt lat="56.2130867374999" lon="10.542674392240034"></trkpt><trkpt lat="56.2130867374999" lon="10.542674392240036"></trkpt><trkpt lat="56.2130968" lon="10.5426422"></trkpt><trkpt lat="56.2133963" lon="10.5427722"></trkpt><trkpt lat="56.2138968" lon="10.5430191"></trkpt><trkpt lat="56.2140214" lon="10.5430788"></trkpt><trkpt lat="56.2142454" lon="10.5431699"></trkpt><trkpt lat="56.21438517037648" lon="10.54322173427469"></trkpt><trkpt lat="56.21438517037648" lon="10.543221734274692"></trkpt><trkpt lat="56.21438517037648" lon="10.54322173427469"></trkpt><trkpt lat="56.2144986" lon="10.5432638"></trkpt><trkpt lat="56.214594" lon="10.5433268"></trkpt><trkpt lat="56.2146153" lon="10.5433509"></trkpt><trkpt lat="56.2147529" lon="10.5435065"></trkpt><trkpt lat="56.2148612" lon="10.5436188"></trkpt><trkpt lat="56.21513" lon="10.5439848"></trkpt><trkpt lat="56.2154992" lon="10.5443955"></trkpt><trkpt lat="56.215537470897715" lon="10.544450939557114"></trkpt><trkpt lat="56.215537470897715" lon="10.544450939557112"></trkpt><trkpt lat="56.215537470897715" lon="10.544450939557114"></trkpt><trkpt lat="56.2156753" lon="10.5446506"></trkpt><trkpt lat="56.2158506" lon="10.5440892"></trkpt><trkpt lat="56.2159028" lon="10.543994"></trkpt><trkpt lat="56.2159513" lon="10.5439403"></trkpt><trkpt lat="56.2160281" lon="10.5438961"></trkpt><trkpt lat="56.2162362" lon="10.5438451"></trkpt><trkpt lat="56.216622077086136" lon="10.543706017772722"></trkpt><trkpt lat="56.216622077086136" lon="10.54370601777272"></trkpt><trkpt lat="56.216622077086136" lon="10.543706017772722"></trkpt><trkpt lat="56.2168574" lon="10.5436212"></trkpt><trkpt lat="56.2171372" lon="10.5434909"></trkpt><trkpt lat="56.2173244" lon="10.543365"></trkpt><trkpt lat="56.2174736" lon="10.5432259"></trkpt><trkpt lat="56.2178606" lon="10.5430676"></trkpt><trkpt lat="56.21791651752769" lon="10.543056335795685"></trkpt><trkpt lat="56.2180269" lon="10.5430341"></trkpt><trkpt lat="56.2181827" lon="10.5430609"></trkpt><trkpt lat="56.2183043" lon="10.543136"></trkpt><trkpt lat="56.2184027" lon="10.5432393"></trkpt><trkpt lat="56.2185077" lon="10.5434125"></trkpt><trkpt lat="56.2186235" lon="10.5437538"></trkpt><trkpt lat="56.2187435" lon="10.5439487"></trkpt><trkpt lat="56.2188949" lon="10.5441123"></trkpt><trkpt lat="56.21902768524401" lon="10.544171366018665"></trkpt><trkpt lat="56.21902768524401" lon="10.544171366018663"></trkpt><trkpt lat="56.21902768524401" lon="10.544171366018665"></trkpt><trkpt lat="56.2191586" lon="10.5442296"></trkpt><trkpt lat="56.2191968" lon="10.5443045"></trkpt><trkpt lat="56.21935" lon="10.545035"></trkpt><trkpt lat="56.2195093" lon="10.5452352"></trkpt><trkpt lat="56.2196241" lon="10.5454451"></trkpt><trkpt lat="56.2197195" lon="10.5456221"></trkpt><trkpt lat="56.21983" lon="10.5458133"></trkpt><trkpt lat="56.21988157477031" lon="10.545911514323372"></trkpt><trkpt lat="56.21988157477031" lon="10.545911514323368"></trkpt><trkpt lat="56.21988157477031" lon="10.545911514323372"></trkpt><trkpt lat="56.2201247" lon="10.5463745"></trkpt><trkpt lat="56.2202855" lon="10.5467674"></trkpt><trkpt lat="56.2204046" lon="10.5471551"></trkpt><trkpt lat="56.22059536948974" lon="10.547941923339312"></trkpt><trkpt lat="56.22059536948974" lon="10.54794192333931"></trkpt><trkpt lat="56.22059536948974" lon="10.547941923339312"></trkpt><trkpt lat="56.2206175" lon="10.5480332"></trkpt><trkpt lat="56.2206839" lon="10.5483294"></trkpt><trkpt lat="56.2208071" lon="10.548698"></trkpt><trkpt lat="56.2208948" lon="10.5490283"></trkpt><trkpt lat="56.2212901" lon="10.5492365"></trkpt><trkpt lat="56.22153059788911" lon="10.549424586177125"></trkpt><trkpt lat="56.2217017" lon="10.5495584"></trkpt><trkpt lat="56.2218051" lon="10.5496864"></trkpt><trkpt lat="56.2220263" lon="10.5499602"></trkpt><trkpt lat="56.2223877" lon="10.5504167"></trkpt><trkpt lat="56.222685966279435" lon="10.550656418810485"></trkpt><trkpt lat="56.222685966279435" lon="10.550656418810483"></trkpt><trkpt lat="56.222685966279435" lon="10.550656418810485"></trkpt><trkpt lat="56.2226898" lon="10.5506595"></trkpt><trkpt lat="56.2228451" lon="10.5509136"></trkpt><trkpt lat="56.2230077" lon="10.5512398"></trkpt><trkpt lat="56.2227454" lon="10.5513623"></trkpt><trkpt lat="56.2225905" lon="10.5516076"></trkpt><trkpt lat="56.2223591" lon="10.5520409"></trkpt><trkpt lat="56.222316300856804" lon="10.552162859194011"></trkpt><trkpt lat="56.222161" lon="10.5526054"></trkpt><trkpt lat="56.2219371" lon="10.553492"></trkpt><trkpt lat="56.2218111" lon="10.5540432"></trkpt><trkpt lat="56.221750825882665" lon="10.55435847329341"></trkpt><trkpt lat="56.2216728" lon="10.5547666"></trkpt><trkpt lat="56.2215073" lon="10.5555588"></trkpt><trkpt lat="56.2214725" lon="10.5559237"></trkpt><trkpt lat="56.22153612785816" lon="10.556693302850771"></trkpt><trkpt lat="56.22153612785816" lon="10.55669330285077"></trkpt><trkpt lat="56.22153612785816" lon="10.556693302850771"></trkpt><trkpt lat="56.2215417" lon="10.5567607"></trkpt><trkpt lat="56.2216581" lon="10.557022"></trkpt><trkpt lat="56.2217435" lon="10.5572081"></trkpt><trkpt lat="56.2220238" lon="10.5576587"></trkpt><trkpt lat="56.2222565" lon="10.5579483"></trkpt><trkpt lat="56.2223996" lon="10.5580556"></trkpt><trkpt lat="56.2225309" lon="10.5580878"></trkpt><trkpt lat="56.222575406346365" lon="10.558085159793011"></trkpt><trkpt lat="56.2230737" lon="10.5580556"></trkpt><trkpt lat="56.2231989" lon="10.5581093"></trkpt><trkpt lat="56.2232884" lon="10.558238"></trkpt><trkpt lat="56.2233659" lon="10.5584204"></trkpt><trkpt lat="56.2235687" lon="10.559032"></trkpt><trkpt lat="56.223623384926285" lon="10.5591474282409"></trkpt><trkpt lat="56.223623384926285" lon="10.559147428240896"></trkpt><trkpt lat="56.223623384926285" lon="10.5591474282409"></trkpt><trkpt lat="56.2237059" lon="10.5593216"></trkpt><trkpt lat="56.2242308" lon="10.560255"></trkpt><trkpt lat="56.224557890484064" lon="10.560895823687408"></trkpt><trkpt lat="56.224557890484064" lon="10.56089582368741"></trkpt><trkpt lat="56.224557890484064" lon="10.560895823687408"></trkpt><trkpt lat="56.2248332" lon="10.5614352"></trkpt><trkpt lat="56.2252329" lon="10.5622828"></trkpt><trkpt lat="56.2253522" lon="10.5626047"></trkpt><trkpt lat="56.22539645108091" lon="10.562783806610662"></trkpt><trkpt lat="56.22539645108091" lon="10.56278380661066"></trkpt><trkpt lat="56.22539645108091" lon="10.562783806610662"></trkpt><trkpt lat="56.2255669" lon="10.5634737"></trkpt><trkpt lat="56.2257351" lon="10.5641001"></trkpt><trkpt lat="56.22607608737167" lon="10.564859477392014"></trkpt><trkpt lat="56.2260796" lon="10.5648673"></trkpt><trkpt lat="56.2261514" lon="10.5651152"></trkpt><trkpt lat="56.2262048" lon="10.5654171"></trkpt><trkpt lat="56.2261623" lon="10.5655955"></trkpt><trkpt lat="56.2260588" lon="10.5655134"></trkpt><trkpt lat="56.226048" lon="10.5657287"></trkpt><trkpt lat="56.2261594" lon="10.566075"></trkpt><trkpt lat="56.2262574" lon="10.5663848"></trkpt><trkpt lat="56.2263148" lon="10.5664698"></trkpt><trkpt lat="56.2263384" lon="10.5665913"></trkpt><trkpt lat="56.2263418" lon="10.5667431"></trkpt><trkpt lat="56.22635487081551" lon="10.566772156377336"></trkpt><trkpt lat="56.22635487081551" lon="10.566772156377334"></trkpt><trkpt lat="56.22635487081551" lon="10.566772156377336"></trkpt><trkpt lat="56.2263992" lon="10.5668707"></trkpt><trkpt lat="56.2264633" lon="10.5670347"></trkpt><trkpt lat="56.2264937" lon="10.5672351"></trkpt><trkpt lat="56.2264926" lon="10.5676353"></trkpt><trkpt lat="56.2264206" lon="10.568881"></trkpt><trkpt lat="56.22640005800725" lon="10.56911740818961"></trkpt><trkpt lat="56.2263913" lon="10.5692182"></trkpt><trkpt lat="56.2263934" lon="10.5692815"></trkpt><trkpt lat="56.2264119" lon="10.5693172"></trkpt><trkpt lat="56.227077" lon="10.569901"></trkpt><trkpt lat="56.2270999" lon="10.5700093"></trkpt><trkpt lat="56.227028601451615" lon="10.570767059998897"></trkpt><trkpt lat="56.2269827" lon="10.5712549"></trkpt><trkpt lat="56.2269336" lon="10.5713802"></trkpt><trkpt lat="56.2268986" lon="10.5718458"></trkpt><trkpt lat="56.2269832" lon="10.5718611"></trkpt><trkpt lat="56.2269638" lon="10.5721971"></trkpt><trkpt lat="56.2269526" lon="10.5724043"></trkpt><trkpt lat="56.2269683" lon="10.5725706"></trkpt><trkpt lat="56.2270294" lon="10.5729447"></trkpt><trkpt lat="56.227035509674835" lon="10.572997083638189"></trkpt><trkpt lat="56.2270585" lon="10.5731942"></trkpt><trkpt lat="56.2270611" lon="10.5733759"></trkpt><trkpt lat="56.2272025" lon="10.5734564"></trkpt><trkpt lat="56.22726" lon="10.573487"></trkpt><trkpt lat="56.227329" lon="10.57347"></trkpt><trkpt lat="56.227599" lon="10.57335"></trkpt><trkpt lat="56.22774" lon="10.573249"></trkpt><trkpt lat="56.227868" lon="10.573053"></trkpt><trkpt lat="56.227992" lon="10.572795"></trkpt><trkpt lat="56.22804825631225" lon="10.572712624685638"></trkpt><trkpt lat="56.22804825631225" lon="10.57271262468564"></trkpt><trkpt lat="56.22804825631225" lon="10.572712624685638"></trkpt><trkpt lat="56.228076" lon="10.572672"></trkpt><trkpt lat="56.2281043" lon="10.572635"></trkpt><trkpt lat="56.228203" lon="10.5724786"></trkpt><trkpt lat="56.2281619" lon="10.5723586"></trkpt><trkpt lat="56.2280954" lon="10.5721494"></trkpt><trkpt lat="56.2278931" lon="10.5717603"></trkpt><trkpt lat="56.2276939" lon="10.5713376"></trkpt><trkpt lat="56.2277759" lon="10.5711934"></trkpt><trkpt lat="56.2279163" lon="10.5710428"></trkpt><trkpt lat="56.2279631710373" lon="10.571001259062605"></trkpt><trkpt lat="56.2279631710373" lon="10.571001259062603"></trkpt><trkpt lat="56.2279631710373" lon="10.571001259062605"></trkpt><trkpt lat="56.2280271" lon="10.5709446"></trkpt><trkpt lat="56.2281858" lon="10.5708209"></trkpt><trkpt lat="56.2281981" lon="10.5708105"></trkpt><trkpt lat="56.2286993" lon="10.5704436"></trkpt><trkpt lat="56.229208694914476" lon="10.570069588434245"></trkpt><trkpt lat="56.229208694914476" lon="10.570069588434247"></trkpt><trkpt lat="56.229208694914476" lon="10.570069588434245"></trkpt><trkpt lat="56.2293333" lon="10.5699781"></trkpt><trkpt lat="56.2294539" lon="10.5698804"></trkpt><trkpt lat="56.2297302" lon="10.5696837"></trkpt><trkpt lat="56.2297651" lon="10.5696872"></trkpt><trkpt lat="56.2297882" lon="10.5697154"></trkpt><trkpt lat="56.2299219" lon="10.5702692"></trkpt><trkpt lat="56.2300009" lon="10.5708566"></trkpt><trkpt lat="56.23001291836819" lon="10.570949397702847"></trkpt><trkpt lat="56.23001291836819" lon="10.570949397702845"></trkpt><trkpt lat="56.23001291836819" lon="10.570949397702847"></trkpt><trkpt lat="56.230143" lon="10.5719538"></trkpt><trkpt lat="56.2301769" lon="10.5721924"></trkpt><trkpt lat="56.2301851" lon="10.5726631"></trkpt><trkpt lat="56.2301933" lon="10.5728482"></trkpt><trkpt lat="56.2302104" lon="10.572989"></trkpt><trkpt lat="56.2302279" lon="10.5730745"></trkpt><trkpt lat="56.230281857147126" lon="10.573314740616356"></trkpt><trkpt lat="56.230281857147126" lon="10.573314740616357"></trkpt><trkpt lat="56.230281857147126" lon="10.573314740616356"></trkpt><trkpt lat="56.2304087" lon="10.5738795"></trkpt><trkpt lat="56.2304574" lon="10.5740048"></trkpt><trkpt lat="56.230746" lon="10.574101"></trkpt><trkpt lat="56.231193" lon="10.574136"></trkpt><trkpt lat="56.231297" lon="10.574106"></trkpt><trkpt lat="56.23137" lon="10.574052"></trkpt><trkpt lat="56.23137048834334" lon="10.57405150549071"></trkpt><trkpt lat="56.2314888" lon="10.5739317"></trkpt><trkpt lat="56.2320221" lon="10.5736655"></trkpt><trkpt lat="56.2322224" lon="10.5733056"></trkpt><trkpt lat="56.232324" lon="10.573049"></trkpt><trkpt lat="56.2324103040802" lon="10.572721651872575"></trkpt><trkpt lat="56.2324103040802" lon="10.572721651872577"></trkpt><trkpt lat="56.2324103040802" lon="10.572721651872575"></trkpt><trkpt lat="56.2324462" lon="10.5725855"></trkpt><trkpt lat="56.23246" lon="10.572533"></trkpt><trkpt lat="56.2324856" lon="10.5724288"></trkpt><trkpt lat="56.2325221" lon="10.5723746"></trkpt><trkpt lat="56.2325511" lon="10.5723315"></trkpt><trkpt lat="56.2325771" lon="10.572293"></trkpt><trkpt lat="56.2326773" lon="10.5722159"></trkpt><trkpt lat="56.2327983" lon="10.5721586"></trkpt><trkpt lat="56.2328389" lon="10.5721411"></trkpt><trkpt lat="56.2328649" lon="10.5721379"></trkpt><trkpt lat="56.2328965" lon="10.572159"></trkpt><trkpt lat="56.2329559" lon="10.5723416"></trkpt><trkpt lat="56.2329802" lon="10.5723995"></trkpt><trkpt lat="56.2330397" lon="10.5724449"></trkpt><trkpt lat="56.2331301" lon="10.5724645"></trkpt><trkpt lat="56.2331881" lon="10.5724475"></trkpt><trkpt lat="56.2332565" lon="10.572422"></trkpt><trkpt lat="56.233312" lon="10.5723812"></trkpt><trkpt lat="56.2333768" lon="10.5723123"></trkpt><trkpt lat="56.2333939" lon="10.572227"></trkpt><trkpt lat="56.233396" lon="10.5721282"></trkpt><trkpt lat="56.23339125082615" lon="10.572059627744997"></trkpt><trkpt lat="56.2333862" lon="10.5719867"></trkpt><trkpt lat="56.233393" lon="10.5719544"></trkpt><trkpt lat="56.2337346" lon="10.5718533"></trkpt><trkpt lat="56.2339764" lon="10.5718763"></trkpt><trkpt lat="56.2340989" lon="10.5718084"></trkpt><trkpt lat="56.2343356" lon="10.5716827"></trkpt><trkpt lat="56.2343708" lon="10.5716716"></trkpt><trkpt lat="56.2343898" lon="10.5716798"></trkpt><trkpt lat="56.2344344" lon="10.5717181"></trkpt><trkpt lat="56.23462779227092" lon="10.571923892593883"></trkpt><trkpt lat="56.23462779227092" lon="10.571923892593881"></trkpt><trkpt lat="56.23462779227092" lon="10.571923892593883"></trkpt><trkpt lat="56.2346543" lon="10.5719521"></trkpt><trkpt lat="56.2348741" lon="10.5720609"></trkpt><trkpt lat="56.235086" lon="10.572381"></trkpt><trkpt lat="56.235222" lon="10.572499"></trkpt><trkpt lat="56.235281" lon="10.57257"></trkpt><trkpt lat="56.235342" lon="10.572686"></trkpt><trkpt lat="56.2354304" lon="10.5729194"></trkpt><trkpt lat="56.2353968" lon="10.5730493"></trkpt><trkpt lat="56.2353133" lon="10.5732156"></trkpt><trkpt lat="56.23520832017696" lon="10.573391633239861"></trkpt><trkpt lat="56.2353133" lon="10.5732156"></trkpt><trkpt lat="56.2353968" lon="10.5730493"></trkpt><trkpt lat="56.2354304" lon="10.5729194"></trkpt><trkpt lat="56.2354147" lon="10.5732674"></trkpt><trkpt lat="56.2353968" lon="10.5732931"></trkpt><trkpt lat="56.2352787" lon="10.5738027"></trkpt><trkpt lat="56.2352673" lon="10.57416"></trkpt><trkpt lat="56.2353407" lon="10.5743177"></trkpt><trkpt lat="56.2354273" lon="10.574465"></trkpt><trkpt lat="56.23545814037557" lon="10.574514162113488"></trkpt><trkpt lat="56.2355118" lon="10.5745997"></trkpt><trkpt lat="56.2356213" lon="10.5749054"></trkpt><trkpt lat="56.2356936" lon="10.5750047"></trkpt><trkpt lat="56.2357592" lon="10.5752058"></trkpt><trkpt lat="56.2358129" lon="10.5752957"></trkpt><trkpt lat="56.2359571" lon="10.5754026"></trkpt><trkpt lat="56.2359792" lon="10.5754363"></trkpt><trkpt lat="56.236073" lon="10.5757919"></trkpt><trkpt lat="56.2362199" lon="10.5761483"></trkpt><trkpt lat="56.2362434" lon="10.5762145"></trkpt><trkpt lat="56.2362513" lon="10.5762666"></trkpt><trkpt lat="56.236253526752996" lon="10.576372945413114"></trkpt><trkpt lat="56.2362575" lon="10.5765627"></trkpt><trkpt lat="56.236269" lon="10.5766112"></trkpt><trkpt lat="56.2363449" lon="10.576765"></trkpt><trkpt lat="56.2366056" lon="10.577223"></trkpt><trkpt lat="56.2366332" lon="10.577251"></trkpt><trkpt lat="56.2366646" lon="10.5772697"></trkpt><trkpt lat="56.2370492" lon="10.5773147"></trkpt><trkpt lat="56.2372505" lon="10.577294"></trkpt><trkpt lat="56.237335871442376" lon="10.577284137595104"></trkpt><trkpt lat="56.237389" lon="10.577278"></trkpt><trkpt lat="56.2374599" lon="10.5772974"></trkpt><trkpt lat="56.2374945" lon="10.5773354"></trkpt><trkpt lat="56.2375455" lon="10.577539"></trkpt><trkpt lat="56.2375999" lon="10.5776772"></trkpt><trkpt lat="56.2376582" lon="10.5777921"></trkpt><trkpt lat="56.2379434" lon="10.5783123"></trkpt><trkpt lat="56.2380502" lon="10.5784172"></trkpt><trkpt lat="56.23831228098173" lon="10.57884267223207"></trkpt><trkpt lat="56.23831228098173" lon="10.578842672232069"></trkpt><trkpt lat="56.23831228098173" lon="10.57884267223207"></trkpt><trkpt lat="56.2383463" lon="10.5788979"></trkpt><trkpt lat="56.2383761" lon="10.5789825"></trkpt><trkpt lat="56.238467" lon="10.5790871"></trkpt><trkpt lat="56.2385132" lon="10.5792137"></trkpt><trkpt lat="56.2385795" lon="10.5793376"></trkpt><trkpt lat="56.2385992" lon="10.5793738"></trkpt><trkpt lat="56.2386656" lon="10.5794961"></trkpt><trkpt lat="56.23858779239751" lon="10.579635630391893"></trkpt><trkpt lat="56.23858779239751" lon="10.57963563039189"></trkpt></trkseg></trk></gpx>
