<?xml version="1.0" encoding="UTF-8"?>
<gpx version="1.1" creator="Good Shit" xmlns="http://www.topografix.com/GPX/1/1"><trk><name>Oblík–Srdov–Brník volcanic-steppe loop — Oblík–Srdov–Brník volcanic-steppe loop</name><trkseg><trkpt lat="50.41930505166266" lon="13.808416329130628"></trkpt><trkpt lat="50.4189944" lon="13.8085114"></trkpt><trkpt lat="50.4189684" lon="13.8085446"></trkpt><trkpt lat="50.4189684" lon="13.8086617"></trkpt><trkpt lat="50.4189749" lon="13.8089927"></trkpt><trkpt lat="50.4189408" lon="13.8092143"></trkpt><trkpt lat="50.41888760556666" lon="13.809381315946872"></trkpt><trkpt lat="50.4188678" lon="13.8094435"></trkpt><trkpt lat="50.4187769" lon="13.809609"></trkpt><trkpt lat="50.418626" lon="13.8097898"></trkpt><trkpt lat="50.4183898" lon="13.8099137"></trkpt><trkpt lat="50.418124764074484" lon="13.810020423345078"></trkpt><trkpt lat="50.4180384" lon="13.8100552"></trkpt><trkpt lat="50.4176589" lon="13.810305"></trkpt><trkpt lat="50.4173752" lon="13.8104314"></trkpt><trkpt lat="50.417275699402445" lon="13.810509259217586"></trkpt><trkpt lat="50.4171352" lon="13.8106192"></trkpt><trkpt lat="50.4168522" lon="13.8108593"></trkpt><trkpt lat="50.4165624" lon="13.811195"></trkpt><trkpt lat="50.41652582806987" lon="13.811274571654032"></trkpt><trkpt lat="50.41652582806987" lon="13.811274571654033"></trkpt><trkpt lat="50.41652582806987" lon="13.811274571654032"></trkpt><trkpt lat="50.4164634" lon="13.8114104"></trkpt><trkpt lat="50.4163499" lon="13.8117622"></trkpt><trkpt lat="50.4162551" lon="13.8119274"></trkpt><trkpt lat="50.4161328" lon="13.8120405"></trkpt><trkpt lat="50.415894701493734" lon="13.812242311604226"></trkpt><trkpt lat="50.415894701493734" lon="13.812242311604225"></trkpt><trkpt lat="50.415894701493734" lon="13.812242311604226"></trkpt><trkpt lat="50.415829" lon="13.812298"></trkpt><trkpt lat="50.4155627" lon="13.8124344"></trkpt><trkpt lat="50.4153744" lon="13.812511"></trkpt><trkpt lat="50.4150802" lon="13.8124903"></trkpt><trkpt lat="50.41501093660575" lon="13.812509241924664"></trkpt><trkpt lat="50.4148012" lon="13.8125666"></trkpt><trkpt lat="50.4143333" lon="13.8129181"></trkpt><trkpt lat="50.4143526" lon="13.8131713"></trkpt><trkpt lat="50.414360141885666" lon="13.813203414574645"></trkpt><trkpt lat="50.4144843" lon="13.8137321"></trkpt><trkpt lat="50.4145444156696" lon="13.814578683053561"></trkpt><trkpt lat="50.4145497" lon="13.8146531"></trkpt><trkpt lat="50.414613" lon="13.8149971"></trkpt><trkpt lat="50.4146397" lon="13.815264"></trkpt><trkpt lat="50.4147368" lon="13.8158886"></trkpt><trkpt lat="50.41474751552553" lon="13.8159529563095"></trkpt><trkpt lat="50.4147877" lon="13.8161943"></trkpt><trkpt lat="50.4147555" lon="13.8163973"></trkpt><trkpt lat="50.414717" lon="13.8165671"></trkpt><trkpt lat="50.4146929" lon="13.8168301"></trkpt><trkpt lat="50.4147675" lon="13.8169453"></trkpt><trkpt lat="50.4149854" lon="13.8170796"></trkpt><trkpt lat="50.414990882634754" lon="13.817085459348558"></trkpt><trkpt lat="50.4151746" lon="13.8172818"></trkpt><trkpt lat="50.415396" lon="13.8174335"></trkpt><trkpt lat="50.4154901" lon="13.8175695"></trkpt><trkpt lat="50.4155528" lon="13.8179145"></trkpt><trkpt lat="50.41570605427285" lon="13.817949387151545"></trkpt><trkpt lat="50.4157619" lon="13.8179621"></trkpt><trkpt lat="50.4158092" lon="13.8180526"></trkpt><trkpt lat="50.4158214" lon="13.8181751"></trkpt><trkpt lat="50.4158987" lon="13.8182783"></trkpt><trkpt lat="50.4159195" lon="13.8183727"></trkpt><trkpt lat="50.416057" lon="13.8185527"></trkpt><trkpt lat="50.4160654" lon="13.8187145"></trkpt><trkpt lat="50.4160854" lon="13.8187917"></trkpt><trkpt lat="50.4161182" lon="13.8187936"></trkpt><trkpt lat="50.4161528" lon="13.8187917"></trkpt><trkpt lat="50.4162274" lon="13.8189021"></trkpt><trkpt lat="50.416255614824394" lon="13.818972512216627"></trkpt><trkpt lat="50.4162839" lon="13.8190431"></trkpt><trkpt lat="50.4163051" lon="13.8190688"></trkpt><trkpt lat="50.4163312" lon="13.8191755"></trkpt><trkpt lat="50.4163464" lon="13.8192545"></trkpt><trkpt lat="50.4163737" lon="13.8192936"></trkpt><trkpt lat="50.4164095" lon="13.819326"></trkpt><trkpt lat="50.4164283" lon="13.8194155"></trkpt><trkpt lat="50.4164769" lon="13.8194831"></trkpt><trkpt lat="50.4165321" lon="13.8195622"></trkpt><trkpt lat="50.4165594" lon="13.8196127"></trkpt><trkpt lat="50.4166492" lon="13.8199251"></trkpt><trkpt lat="50.4167317" lon="13.8201184"></trkpt><trkpt lat="50.41675211896998" lon="13.820146133745306"></trkpt><trkpt lat="50.41675211896998" lon="13.820146133745304"></trkpt><trkpt lat="50.41675211896998" lon="13.820146133745306"></trkpt><trkpt lat="50.4168495" lon="13.8202784"></trkpt><trkpt lat="50.4170036" lon="13.8204765"></trkpt><trkpt lat="50.4171111" lon="13.8205965"></trkpt><trkpt lat="50.4172318" lon="13.8207061"></trkpt><trkpt lat="50.4172883" lon="13.8208127"></trkpt><trkpt lat="50.4173289" lon="13.8208775"></trkpt><trkpt lat="50.4174054" lon="13.8209642"></trkpt><trkpt lat="50.4174400218246" lon="13.821042221013192"></trkpt><trkpt lat="50.4174764" lon="13.8211242"></trkpt><trkpt lat="50.4176105" lon="13.8213737"></trkpt><trkpt lat="50.4176828" lon="13.8214299"></trkpt><trkpt lat="50.4177835" lon="13.8215538"></trkpt><trkpt lat="50.4178581" lon="13.8216871"></trkpt><trkpt lat="50.4179122" lon="13.8217366"></trkpt><trkpt lat="50.4179698" lon="13.8218157"></trkpt><trkpt lat="50.4180493" lon="13.8219385"></trkpt><trkpt lat="50.418081654489924" lon="13.822015854721663"></trkpt><trkpt lat="50.4181258" lon="13.8221214"></trkpt><trkpt lat="50.4181731" lon="13.8222757"></trkpt><trkpt lat="50.4182617" lon="13.8223871"></trkpt><trkpt lat="50.4183352" lon="13.8224224"></trkpt><trkpt lat="50.4184365" lon="13.8224738"></trkpt><trkpt lat="50.4186137" lon="13.822591"></trkpt><trkpt lat="50.41876548669742" lon="13.822822407305678"></trkpt><trkpt lat="50.41876548669742" lon="13.82282240730568"></trkpt><trkpt lat="50.41876548669742" lon="13.822822407305678"></trkpt><trkpt lat="50.4188051" lon="13.8228828"></trkpt><trkpt lat="50.4188215" lon="13.8230579"></trkpt><trkpt lat="50.4188439" lon="13.8231544"></trkpt><trkpt lat="50.4188819" lon="13.8231939"></trkpt><trkpt lat="50.4189202" lon="13.8232786"></trkpt><trkpt lat="50.4189906" lon="13.8233529"></trkpt><trkpt lat="50.4190604" lon="13.8234482"></trkpt><trkpt lat="50.4191059" lon="13.8234358"></trkpt><trkpt lat="50.4191447" lon="13.823392"></trkpt><trkpt lat="50.4191763" lon="13.8234225"></trkpt><trkpt lat="50.4192588" lon="13.8234448"></trkpt><trkpt lat="50.4192726" lon="13.8235567"></trkpt><trkpt lat="50.4193335" lon="13.8236872"></trkpt><trkpt lat="50.4193608" lon="13.8237253"></trkpt><trkpt lat="50.4194008" lon="13.8237196"></trkpt><trkpt lat="50.4194597" lon="13.8237987"></trkpt><trkpt lat="50.4194973" lon="13.8238682"></trkpt><trkpt lat="50.4195598" lon="13.823953"></trkpt><trkpt lat="50.4195726" lon="13.8239869"></trkpt><trkpt lat="50.4195598" lon="13.823953"></trkpt><trkpt lat="50.4194973" lon="13.8238682"></trkpt><trkpt lat="50.4194597" lon="13.8237987"></trkpt><trkpt lat="50.4194008" lon="13.8237196"></trkpt><trkpt lat="50.4193608" lon="13.8237253"></trkpt><trkpt lat="50.4193335" lon="13.8236872"></trkpt><trkpt lat="50.4192726" lon="13.8235567"></trkpt><trkpt lat="50.4192588" lon="13.8234448"></trkpt><trkpt lat="50.4191763" lon="13.8234225"></trkpt><trkpt lat="50.4191447" lon="13.823392"></trkpt><trkpt lat="50.4191059" lon="13.8234358"></trkpt><trkpt lat="50.4190604" lon="13.8234482"></trkpt><trkpt lat="50.4189906" lon="13.8233529"></trkpt><trkpt lat="50.41894820913219" lon="13.823308160774452"></trkpt><trkpt lat="50.4189202" lon="13.8232786"></trkpt><trkpt lat="50.4188819" lon="13.8231939"></trkpt><trkpt lat="50.4188439" lon="13.8231544"></trkpt><trkpt lat="50.4188215" lon="13.8230579"></trkpt><trkpt lat="50.4188051" lon="13.8228828"></trkpt><trkpt lat="50.4186137" lon="13.822591"></trkpt><trkpt lat="50.4184365" lon="13.8224738"></trkpt><trkpt lat="50.41835848496299" lon="13.822434214877566"></trkpt><trkpt lat="50.4183352" lon="13.8224224"></trkpt><trkpt lat="50.4182617" lon="13.8223871"></trkpt><trkpt lat="50.4181731" lon="13.8222757"></trkpt><trkpt lat="50.4181258" lon="13.8221214"></trkpt><trkpt lat="50.4180493" lon="13.8219385"></trkpt><trkpt lat="50.4179698" lon="13.8218157"></trkpt><trkpt lat="50.4179122" lon="13.8217366"></trkpt><trkpt lat="50.4178581" lon="13.8216871"></trkpt><trkpt lat="50.4177835" lon="13.8215538"></trkpt><trkpt lat="50.41772511348041" lon="13.821481961968447"></trkpt><trkpt lat="50.4176828" lon="13.8214299"></trkpt><trkpt lat="50.4176105" lon="13.8213737"></trkpt><trkpt lat="50.4174764" lon="13.8211242"></trkpt><trkpt lat="50.4174054" lon="13.8209642"></trkpt><trkpt lat="50.4173289" lon="13.8208775"></trkpt><trkpt lat="50.4172883" lon="13.8208127"></trkpt><trkpt lat="50.41725288069788" lon="13.820745873493692"></trkpt><trkpt lat="50.41725288069788" lon="13.82074587349369"></trkpt><trkpt lat="50.41725288069788" lon="13.820745873493692"></trkpt><trkpt lat="50.4172318" lon="13.8207061"></trkpt><trkpt lat="50.4171111" lon="13.8205965"></trkpt><trkpt lat="50.4170036" lon="13.8204765"></trkpt><trkpt lat="50.4168495" lon="13.8202784"></trkpt><trkpt lat="50.4167317" lon="13.8201184"></trkpt><trkpt lat="50.4166492" lon="13.8199251"></trkpt><trkpt lat="50.4165594" lon="13.8196127"></trkpt><trkpt lat="50.4165321" lon="13.8195622"></trkpt><trkpt lat="50.4164828369648" lon="13.81949160749848"></trkpt><trkpt lat="50.4164769" lon="13.8194831"></trkpt><trkpt lat="50.4164283" lon="13.8194155"></trkpt><trkpt lat="50.4164095" lon="13.819326"></trkpt><trkpt lat="50.4163737" lon="13.8192936"></trkpt><trkpt lat="50.4163464" lon="13.8192545"></trkpt><trkpt lat="50.4163312" lon="13.8191755"></trkpt><trkpt lat="50.4163051" lon="13.8190688"></trkpt><trkpt lat="50.4162839" lon="13.8190431"></trkpt><trkpt lat="50.4162274" lon="13.8189021"></trkpt><trkpt lat="50.4161528" lon="13.8187917"></trkpt><trkpt lat="50.4161182" lon="13.8187936"></trkpt><trkpt lat="50.4160854" lon="13.8187917"></trkpt><trkpt lat="50.4160654" lon="13.8187145"></trkpt><trkpt lat="50.416057" lon="13.8185527"></trkpt><trkpt lat="50.41594623137765" lon="13.818407693803472"></trkpt><trkpt lat="50.41594623137765" lon="13.818407693803474"></trkpt><trkpt lat="50.41594623137765" lon="13.818407693803472"></trkpt><trkpt lat="50.4159195" lon="13.8183727"></trkpt><trkpt lat="50.4158987" lon="13.8182783"></trkpt><trkpt lat="50.4158214" lon="13.8181751"></trkpt><trkpt lat="50.4158092" lon="13.8180526"></trkpt><trkpt lat="50.4157619" lon="13.8179621"></trkpt><trkpt lat="50.4155528" lon="13.8179145"></trkpt><trkpt lat="50.4154901" lon="13.8175695"></trkpt><trkpt lat="50.415396" lon="13.8174335"></trkpt><trkpt lat="50.415345224427966" lon="13.817398709330272"></trkpt><trkpt lat="50.415345224427966" lon="13.81739870933027"></trkpt><trkpt lat="50.415345224427966" lon="13.817398709330272"></trkpt><trkpt lat="50.4151746" lon="13.8172818"></trkpt><trkpt lat="50.4149854" lon="13.8170796"></trkpt><trkpt lat="50.4147675" lon="13.8169453"></trkpt><trkpt lat="50.4146929" lon="13.8168301"></trkpt><trkpt lat="50.41471660923921" lon="13.816571364319085"></trkpt><trkpt lat="50.414717" lon="13.8165671"></trkpt><trkpt lat="50.4147555" lon="13.8163973"></trkpt><trkpt lat="50.4147877" lon="13.8161943"></trkpt><trkpt lat="50.4147368" lon="13.8158886"></trkpt><trkpt lat="50.4146397" lon="13.815264"></trkpt><trkpt lat="50.41463393825307" lon="13.815206404110217"></trkpt><trkpt lat="50.414613" lon="13.8149971"></trkpt><trkpt lat="50.4145497" lon="13.8146531"></trkpt><trkpt lat="50.414490302500965" lon="13.813816630632836"></trkpt><trkpt lat="50.4144843" lon="13.8137321"></trkpt><trkpt lat="50.4143526" lon="13.8131713"></trkpt><trkpt lat="50.4143333" lon="13.8129181"></trkpt><trkpt lat="50.41407292370166" lon="13.81308857655339"></trkpt><trkpt lat="50.41407292370166" lon="13.813088576553392"></trkpt><trkpt lat="50.41407292370166" lon="13.81308857655339"></trkpt><trkpt lat="50.4140596" lon="13.8130973"></trkpt><trkpt lat="50.4138816" lon="13.8132626"></trkpt><trkpt lat="50.4138184" lon="13.8131868"></trkpt><trkpt lat="50.4137035" lon="13.8130348"></trkpt><trkpt lat="50.4135124" lon="13.8128792"></trkpt><trkpt lat="50.41338151080295" lon="13.812820973555723"></trkpt><trkpt lat="50.4133492" lon="13.8128066"></trkpt><trkpt lat="50.4131529" lon="13.8126489"></trkpt><trkpt lat="50.4130688" lon="13.8125134"></trkpt><trkpt lat="50.4129897" lon="13.8123639"></trkpt><trkpt lat="50.4129126" lon="13.8121053"></trkpt><trkpt lat="50.41287174021399" lon="13.811749621862702"></trkpt><trkpt lat="50.4128672" lon="13.8117101"></trkpt><trkpt lat="50.4127638" lon="13.8115102"></trkpt><trkpt lat="50.4126971" lon="13.8113517"></trkpt><trkpt lat="50.4127133" lon="13.8111972"></trkpt><trkpt lat="50.4127313" lon="13.8110621"></trkpt><trkpt lat="50.412665" lon="13.8105336"></trkpt><trkpt lat="50.412644806955946" lon="13.810419353448747"></trkpt><trkpt lat="50.4126203" lon="13.8102807"></trkpt><trkpt lat="50.4126827" lon="13.8100737"></trkpt><trkpt lat="50.4125979" lon="13.8096041"></trkpt><trkpt lat="50.4125931" lon="13.8092003"></trkpt><trkpt lat="50.41255333992875" lon="13.809015185175523"></trkpt><trkpt lat="50.4125379" lon="13.8089433"></trkpt><trkpt lat="50.4122199" lon="13.8083511"></trkpt><trkpt lat="50.4121488" lon="13.8081276"></trkpt><trkpt lat="50.4120523" lon="13.8079413"></trkpt><trkpt lat="50.41198968627413" lon="13.807886954678112"></trkpt><trkpt lat="50.4118751" lon="13.8077875"></trkpt><trkpt lat="50.4116593" lon="13.8074637"></trkpt><trkpt lat="50.4115649" lon="13.8072451"></trkpt><trkpt lat="50.41131499929881" lon="13.806980996309319"></trkpt><trkpt lat="50.41131499929881" lon="13.80698099630932"></trkpt><trkpt lat="50.41131499929881" lon="13.806980996309319"></trkpt><trkpt lat="50.4112869" lon="13.8069513"></trkpt><trkpt lat="50.4110591" lon="13.8066803"></trkpt><trkpt lat="50.4109907" lon="13.8066525"></trkpt><trkpt lat="50.4109375" lon="13.8066455"></trkpt><trkpt lat="50.4108739" lon="13.8066579"></trkpt><trkpt lat="50.4108286" lon="13.8066803"></trkpt><trkpt lat="50.4107966" lon="13.8067328"></trkpt><trkpt lat="50.4107707" lon="13.8067882"></trkpt><trkpt lat="50.4107747" lon="13.8068748"></trkpt><trkpt lat="50.4107573" lon="13.8069906"></trkpt><trkpt lat="50.41079425485685" lon="13.807078174621939"></trkpt><trkpt lat="50.41079425485685" lon="13.807078174621937"></trkpt><trkpt lat="50.41079425485685" lon="13.807078174621939"></trkpt><trkpt lat="50.4109247" lon="13.8073873"></trkpt><trkpt lat="50.411041" lon="13.8077981"></trkpt><trkpt lat="50.4112136" lon="13.8081747"></trkpt><trkpt lat="50.4112704" lon="13.8082268"></trkpt><trkpt lat="50.4113013" lon="13.8083227"></trkpt><trkpt lat="50.4113414" lon="13.8084635"></trkpt><trkpt lat="50.4113013" lon="13.8083227"></trkpt><trkpt lat="50.4112704" lon="13.8082268"></trkpt><trkpt lat="50.4112136" lon="13.8081747"></trkpt><trkpt lat="50.411041" lon="13.8077981"></trkpt><trkpt lat="50.4109302850469" lon="13.8074070277495"></trkpt><trkpt lat="50.4109247" lon="13.8073873"></trkpt><trkpt lat="50.4107573" lon="13.8069906"></trkpt><trkpt lat="50.4107747" lon="13.8068748"></trkpt><trkpt lat="50.4107707" lon="13.8067882"></trkpt><trkpt lat="50.4107966" lon="13.8067328"></trkpt><trkpt lat="50.4108286" lon="13.8066803"></trkpt><trkpt lat="50.4108739" lon="13.8066579"></trkpt><trkpt lat="50.4109375" lon="13.8066455"></trkpt><trkpt lat="50.4109907" lon="13.8066525"></trkpt><trkpt lat="50.4110591" lon="13.8066803"></trkpt><trkpt lat="50.411103120065945" lon="13.806732668032796"></trkpt><trkpt lat="50.411103120065945" lon="13.806732668032797"></trkpt><trkpt lat="50.411103120065945" lon="13.806732668032796"></trkpt><trkpt lat="50.4112869" lon="13.8069513"></trkpt><trkpt lat="50.4115649" lon="13.8072451"></trkpt><trkpt lat="50.4116593" lon="13.8074637"></trkpt><trkpt lat="50.411780721739824" lon="13.807645888875602"></trkpt><trkpt lat="50.4118751" lon="13.8077875"></trkpt><trkpt lat="50.4120523" lon="13.8079413"></trkpt><trkpt lat="50.4121488" lon="13.8081276"></trkpt><trkpt lat="50.4122199" lon="13.8083511"></trkpt><trkpt lat="50.412393247252346" lon="13.808673918373715"></trkpt><trkpt lat="50.412393247252346" lon="13.808673918373717"></trkpt><trkpt lat="50.412393247252346" lon="13.808673918373715"></trkpt><trkpt lat="50.4125379" lon="13.8089433"></trkpt><trkpt lat="50.4125931" lon="13.8092003"></trkpt><trkpt lat="50.4125979" lon="13.8096041"></trkpt><trkpt lat="50.412667614329955" lon="13.809990159544206"></trkpt><trkpt lat="50.412667614329955" lon="13.809990159544208"></trkpt><trkpt lat="50.412667614329955" lon="13.809990159544206"></trkpt><trkpt lat="50.4126827" lon="13.8100737"></trkpt><trkpt lat="50.4126203" lon="13.8102807"></trkpt><trkpt lat="50.412665" lon="13.8105336"></trkpt><trkpt lat="50.4127313" lon="13.8110621"></trkpt><trkpt lat="50.4127133" lon="13.8111972"></trkpt><trkpt lat="50.4126971" lon="13.8113517"></trkpt><trkpt lat="50.41271740509141" lon="13.811399951229218"></trkpt><trkpt lat="50.4127638" lon="13.8115102"></trkpt><trkpt lat="50.4128672" lon="13.8117101"></trkpt><trkpt lat="50.4129126" lon="13.8121053"></trkpt><trkpt lat="50.4129897" lon="13.8123639"></trkpt><trkpt lat="50.4130688" lon="13.8125134"></trkpt><trkpt lat="50.41313459906365" lon="13.812619413949166"></trkpt><trkpt lat="50.4131529" lon="13.8126489"></trkpt><trkpt lat="50.4133492" lon="13.8128066"></trkpt><trkpt lat="50.4135124" lon="13.8128792"></trkpt><trkpt lat="50.4137035" lon="13.8130348"></trkpt><trkpt lat="50.4138184" lon="13.8131868"></trkpt><trkpt lat="50.4138816" lon="13.8132626"></trkpt><trkpt lat="50.4138791699587" lon="13.813313138707128"></trkpt><trkpt lat="50.4138816" lon="13.8132626"></trkpt><trkpt lat="50.4140596" lon="13.8130973"></trkpt><trkpt lat="50.4143333" lon="13.8129181"></trkpt><trkpt lat="50.41464870518925" lon="13.812681158508182"></trkpt><trkpt lat="50.41464870518925" lon="13.81268115850818"></trkpt><trkpt lat="50.41464870518925" lon="13.812681158508182"></trkpt><trkpt lat="50.4148012" lon="13.8125666"></trkpt><trkpt lat="50.4150802" lon="13.8124903"></trkpt><trkpt lat="50.4153744" lon="13.812511"></trkpt><trkpt lat="50.41553040983831" lon="13.812447535562324"></trkpt><trkpt lat="50.4155627" lon="13.8124344"></trkpt><trkpt lat="50.415829" lon="13.812298"></trkpt><trkpt lat="50.4161328" lon="13.8120405"></trkpt><trkpt lat="50.4162551" lon="13.8119274"></trkpt><trkpt lat="50.416332558207884" lon="13.811792420084993"></trkpt><trkpt lat="50.416332558207884" lon="13.81179242008499"></trkpt><trkpt lat="50.416332558207884" lon="13.811792420084993"></trkpt><trkpt lat="50.4163499" lon="13.8117622"></trkpt><trkpt lat="50.4164634" lon="13.8114104"></trkpt><trkpt lat="50.4165624" lon="13.811195"></trkpt><trkpt lat="50.4168522" lon="13.8108593"></trkpt><trkpt lat="50.41693986229701" lon="13.810784926439883"></trkpt><trkpt lat="50.41693986229701" lon="13.810784926439881"></trkpt><trkpt lat="50.41693986229701" lon="13.810784926439883"></trkpt><trkpt lat="50.4171352" lon="13.8106192"></trkpt><trkpt lat="50.4173752" lon="13.8104314"></trkpt><trkpt lat="50.4176589" lon="13.810305"></trkpt><trkpt lat="50.41776577217079" lon="13.810234653048054"></trkpt><trkpt lat="50.4180384" lon="13.8100552"></trkpt><trkpt lat="50.4183898" lon="13.8099137"></trkpt><trkpt lat="50.41862015453165" lon="13.80979286627235"></trkpt><trkpt lat="50.41862015453165" lon="13.809792866272348"></trkpt><trkpt lat="50.41862015453165" lon="13.80979286627235"></trkpt><trkpt lat="50.418626" lon="13.8097898"></trkpt><trkpt lat="50.4187769" lon="13.809609"></trkpt><trkpt lat="50.4188678" lon="13.8094435"></trkpt><trkpt lat="50.4189408" lon="13.8092143"></trkpt><trkpt lat="50.4189749" lon="13.8089927"></trkpt><trkpt lat="50.4189684" lon="13.8086617"></trkpt><trkpt lat="50.4189684" lon="13.808586936964359"></trkpt><trkpt lat="50.4189684" lon="13.8085446"></trkpt><trkpt lat="50.4189944" lon="13.8085114"></trkpt><trkpt lat="50.41930505166266" lon="13.808416329130628"></trkpt></trkseg></trk></gpx>
