<?xml version="1.0" encoding="UTF-8"?>
<gpx version="1.1" creator="Good Shit" xmlns="http://www.topografix.com/GPX/1/1"><trk><name>Galdhøpiggen from Spiterstulen — Galdhøpiggen from Spiterstulen</name><trkseg><trkpt lat="61.6251287" lon="8.4045517"></trkpt><trkpt lat="61.6250172" lon="8.4046844"></trkpt><trkpt lat="61.624866" lon="8.4047965"></trkpt><trkpt lat="61.6247532" lon="8.4047845"></trkpt><trkpt lat="61.6246377" lon="8.404691"></trkpt><trkpt lat="61.6246603" lon="8.404335"></trkpt><trkpt lat="61.6246616" lon="8.4040705"></trkpt><trkpt lat="61.6246559" lon="8.4039507"></trkpt><trkpt lat="61.6246454" lon="8.4037309"></trkpt><trkpt lat="61.6246401" lon="8.4036198"></trkpt><trkpt lat="61.6245844" lon="8.4031985"></trkpt><trkpt lat="61.6245696" lon="8.4030962"></trkpt><trkpt lat="61.6245578" lon="8.4030148"></trkpt><trkpt lat="61.624599" lon="8.4021216"></trkpt><trkpt lat="61.6246085" lon="8.4019572"></trkpt><trkpt lat="61.6248782" lon="8.4019608"></trkpt><trkpt lat="61.6250532" lon="8.4018963"></trkpt><trkpt lat="61.6252561" lon="8.4018594"></trkpt><trkpt lat="61.6253831" lon="8.4017047"></trkpt><trkpt lat="61.6255028" lon="8.4015921"></trkpt><trkpt lat="61.6257241" lon="8.4015438"></trkpt><trkpt lat="61.6258949" lon="8.4014341"></trkpt><trkpt lat="61.6261199" lon="8.4011943"></trkpt><trkpt lat="61.6262686" lon="8.4009033"></trkpt><trkpt lat="61.626385" lon="8.4007952"></trkpt><trkpt lat="61.626397" lon="8.4005804"></trkpt><trkpt lat="61.6264179" lon="8.400403"></trkpt><trkpt lat="61.6263697" lon="8.4000918"></trkpt><trkpt lat="61.6263813" lon="8.3999026"></trkpt><trkpt lat="61.6264972" lon="8.3995931"></trkpt><trkpt lat="61.6265389" lon="8.3994418"></trkpt><trkpt lat="61.6265266" lon="8.3991238"></trkpt><trkpt lat="61.6264849" lon="8.3989684"></trkpt><trkpt lat="61.626281" lon="8.398748"></trkpt><trkpt lat="61.6261008" lon="8.3986225"></trkpt><trkpt lat="61.6260675" lon="8.3985203"></trkpt><trkpt lat="61.6259492" lon="8.398345"></trkpt><trkpt lat="61.6258413" lon="8.39795"></trkpt><trkpt lat="61.6258203" lon="8.3977867"></trkpt><trkpt lat="61.6258566" lon="8.3976428"></trkpt><trkpt lat="61.6259282" lon="8.3974868"></trkpt><trkpt lat="61.6261506" lon="8.3973105"></trkpt><trkpt lat="61.6262282" lon="8.3972912"></trkpt><trkpt lat="61.6263078" lon="8.3973571"></trkpt><trkpt lat="61.6263815" lon="8.3973701"></trkpt><trkpt lat="61.6264958" lon="8.3972507"></trkpt><trkpt lat="61.6265946" lon="8.3970906"></trkpt><trkpt lat="61.6266551" lon="8.3968844"></trkpt><trkpt lat="61.6267535" lon="8.3968104"></trkpt><trkpt lat="61.6269156" lon="8.3965575"></trkpt><trkpt lat="61.6269238" lon="8.3964357"></trkpt><trkpt lat="61.6268933" lon="8.3963668"></trkpt><trkpt lat="61.6268026" lon="8.3962612"></trkpt><trkpt lat="61.6267854" lon="8.3961909"></trkpt><trkpt lat="61.6267991" lon="8.3961124"></trkpt><trkpt lat="61.6269393" lon="8.3958076"></trkpt><trkpt lat="61.6270872" lon="8.3954134"></trkpt><trkpt lat="61.6271549" lon="8.3951819"></trkpt><trkpt lat="61.6272055" lon="8.3951579"></trkpt><trkpt lat="61.6273314" lon="8.3951986"></trkpt><trkpt lat="61.6273897" lon="8.3951701"></trkpt><trkpt lat="61.6274292" lon="8.3951089"></trkpt><trkpt lat="61.6274532" lon="8.3949663"></trkpt><trkpt lat="61.6274936" lon="8.3946975"></trkpt><trkpt lat="61.6275366" lon="8.3944871"></trkpt><trkpt lat="61.6276464" lon="8.3941444"></trkpt><trkpt lat="61.6277357" lon="8.3940505"></trkpt><trkpt lat="61.6278112" lon="8.394142"></trkpt><trkpt lat="61.6278868" lon="8.3943149"></trkpt><trkpt lat="61.6280455" lon="8.3944491"></trkpt><trkpt lat="61.628116" lon="8.3944009"></trkpt><trkpt lat="61.6281653" lon="8.3942713"></trkpt><trkpt lat="61.6281787" lon="8.3941097"></trkpt><trkpt lat="61.6281666" lon="8.39392"></trkpt><trkpt lat="61.6281158" lon="8.3935879"></trkpt><trkpt lat="61.6281159" lon="8.3932519"></trkpt><trkpt lat="61.6280514" lon="8.3931023"></trkpt><trkpt lat="61.6278555" lon="8.3927819"></trkpt><trkpt lat="61.6276216" lon="8.3924292"></trkpt><trkpt lat="61.6273452" lon="8.3921741"></trkpt><trkpt lat="61.627171" lon="8.3920054"></trkpt><trkpt lat="61.6268494" lon="8.391852"></trkpt><trkpt lat="61.6267211" lon="8.3917293"></trkpt><trkpt lat="61.6265158" lon="8.3913986"></trkpt><trkpt lat="61.6263222" lon="8.3910185"></trkpt><trkpt lat="61.6261399" lon="8.3908844"></trkpt><trkpt lat="61.6259469" lon="8.3906604"></trkpt><trkpt lat="61.6258699" lon="8.39019"></trkpt><trkpt lat="61.6258866" lon="8.3896333"></trkpt><trkpt lat="61.6259584" lon="8.3892921"></trkpt><trkpt lat="61.6258531" lon="8.3887075"></trkpt><trkpt lat="61.6259032" lon="8.3885182"></trkpt><trkpt lat="61.6259832" lon="8.3883818"></trkpt><trkpt lat="61.626027" lon="8.3881067"></trkpt><trkpt lat="61.6260535" lon="8.3878991"></trkpt><trkpt lat="61.626077" lon="8.3878253"></trkpt><trkpt lat="61.6262566" lon="8.3879171"></trkpt><trkpt lat="61.626305" lon="8.3878815"></trkpt><trkpt lat="61.6263689" lon="8.3877577"></trkpt><trkpt lat="61.6264398" lon="8.3875309"></trkpt><trkpt lat="61.6265153" lon="8.3872032"></trkpt><trkpt lat="61.6264738" lon="8.3867526"></trkpt><trkpt lat="61.6265005" lon="8.3865599"></trkpt><trkpt lat="61.6266836" lon="8.3858445"></trkpt><trkpt lat="61.6267739" lon="8.3852633"></trkpt><trkpt lat="61.6268829" lon="8.3848851"></trkpt><trkpt lat="61.6269244" lon="8.3842922"></trkpt><trkpt lat="61.6270251" lon="8.3838179"></trkpt><trkpt lat="61.6270803" lon="8.3837401"></trkpt><trkpt lat="61.6271177" lon="8.3836249"></trkpt><trkpt lat="61.6270963" lon="8.3833767"></trkpt><trkpt lat="61.6272059" lon="8.3832685"></trkpt><trkpt lat="61.6272022" lon="8.3831414"></trkpt><trkpt lat="61.6271541" lon="8.3827433"></trkpt><trkpt lat="61.6271831" lon="8.3825846"></trkpt><trkpt lat="61.6271793" lon="8.3824336"></trkpt><trkpt lat="61.6272809" lon="8.3822984"></trkpt><trkpt lat="61.6273868" lon="8.382283"></trkpt><trkpt lat="61.6274512" lon="8.3822868"></trkpt><trkpt lat="61.627498" lon="8.3822384"></trkpt><trkpt lat="61.6275102" lon="8.382131"></trkpt><trkpt lat="61.6275047" lon="8.3819208"></trkpt><trkpt lat="61.6274816" lon="8.3817815"></trkpt><trkpt lat="61.6274994" lon="8.381491"></trkpt><trkpt lat="61.6275913" lon="8.3811053"></trkpt><trkpt lat="61.6277306" lon="8.3810048"></trkpt><trkpt lat="61.6278611" lon="8.3807973"></trkpt><trkpt lat="61.627992" lon="8.3807048"></trkpt><trkpt lat="61.6281279" lon="8.380575"></trkpt><trkpt lat="61.628182" lon="8.3804119"></trkpt><trkpt lat="61.6282286" lon="8.3796037"></trkpt><trkpt lat="61.6284251" lon="8.3792523"></trkpt><trkpt lat="61.6284384" lon="8.3790886"></trkpt><trkpt lat="61.6285451" lon="8.3788467"></trkpt><trkpt lat="61.6286673" lon="8.3786813"></trkpt><trkpt lat="61.6286962" lon="8.3785533"></trkpt><trkpt lat="61.6286651" lon="8.3778982"></trkpt><trkpt lat="61.6286925" lon="8.3776999"></trkpt><trkpt lat="61.62868" lon="8.3774735"></trkpt><trkpt lat="61.6288897" lon="8.3772254"></trkpt><trkpt lat="61.6289282" lon="8.3770179"></trkpt><trkpt lat="61.6289164" lon="8.3765169"></trkpt><trkpt lat="61.6289697" lon="8.3763628"></trkpt><trkpt lat="61.628946" lon="8.3761671"></trkpt><trkpt lat="61.6290053" lon="8.3758025"></trkpt><trkpt lat="61.6290036" lon="8.3752628"></trkpt><trkpt lat="61.6290515" lon="8.3748202"></trkpt><trkpt lat="61.6290817" lon="8.3744149"></trkpt><trkpt lat="61.6290756" lon="8.3736838"></trkpt><trkpt lat="61.6291368" lon="8.373094"></trkpt><trkpt lat="61.6291626" lon="8.3725043"></trkpt><trkpt lat="61.6291626" lon="8.3720107"></trkpt><trkpt lat="61.6290961" lon="8.371405"></trkpt><trkpt lat="61.6290873" lon="8.370119"></trkpt><trkpt lat="61.629232" lon="8.3689842"></trkpt><trkpt lat="61.629243" lon="8.3685793"></trkpt><trkpt lat="61.6292597" lon="8.3673536"></trkpt><trkpt lat="61.6293247" lon="8.3666973"></trkpt><trkpt lat="61.629481" lon="8.3663442"></trkpt><trkpt lat="61.629591" lon="8.3657594"></trkpt><trkpt lat="61.6296872" lon="8.3656463"></trkpt><trkpt lat="61.6297833" lon="8.3654771"></trkpt><trkpt lat="61.6299987" lon="8.3652654"></trkpt><trkpt lat="61.6300644" lon="8.3649026"></trkpt><trkpt lat="61.6301323" lon="8.3646004"></trkpt><trkpt lat="61.630253" lon="8.3638066"></trkpt><trkpt lat="61.6305142" lon="8.3631625"></trkpt><trkpt lat="61.6307124" lon="8.3624438"></trkpt><trkpt lat="61.6308354" lon="8.3617142"></trkpt><trkpt lat="61.6310462" lon="8.3609581"></trkpt><trkpt lat="61.6311533" lon="8.3605102"></trkpt><trkpt lat="61.6314169" lon="8.3592085"></trkpt><trkpt lat="61.6315009" lon="8.3586348"></trkpt><trkpt lat="61.6315663" lon="8.3581699"></trkpt><trkpt lat="61.6315563" lon="8.3577657"></trkpt><trkpt lat="61.6316039" lon="8.3575793"></trkpt><trkpt lat="61.6317224" lon="8.3572788"></trkpt><trkpt lat="61.6320681" lon="8.3561274"></trkpt><trkpt lat="61.6321517" lon="8.3555687"></trkpt><trkpt lat="61.6322641" lon="8.3553136"></trkpt><trkpt lat="61.6323181" lon="8.3550566"></trkpt><trkpt lat="61.6325437" lon="8.3546059"></trkpt><trkpt lat="61.6327383" lon="8.3543513"></trkpt><trkpt lat="61.6329789" lon="8.353819"></trkpt><trkpt lat="61.6331575" lon="8.3536836"></trkpt><trkpt lat="61.6334375" lon="8.3533271"></trkpt><trkpt lat="61.6335784" lon="8.3530227"></trkpt><trkpt lat="61.6337043" lon="8.3528565"></trkpt><trkpt lat="61.6338006" lon="8.3528387"></trkpt><trkpt lat="61.6338391" lon="8.352765"></trkpt><trkpt lat="61.6338704" lon="8.3522955"></trkpt><trkpt lat="61.633907" lon="8.35213"></trkpt><trkpt lat="61.6339702" lon="8.3520299"></trkpt><trkpt lat="61.6340869" lon="8.3518471"></trkpt><trkpt lat="61.6341089" lon="8.3517441"></trkpt><trkpt lat="61.6341087" lon="8.3514029"></trkpt><trkpt lat="61.6342115" lon="8.3511661"></trkpt><trkpt lat="61.634261" lon="8.3509292"></trkpt><trkpt lat="61.6342537" lon="8.3504947"></trkpt><trkpt lat="61.6342287" lon="8.3502004"></trkpt><trkpt lat="61.6342496" lon="8.3500039"></trkpt><trkpt lat="61.6341857" lon="8.349131"></trkpt><trkpt lat="61.6341986" lon="8.3485882"></trkpt><trkpt lat="61.6341848" lon="8.3480828"></trkpt><trkpt lat="61.6342616" lon="8.347637"></trkpt><trkpt lat="61.6343857" lon="8.3474276"></trkpt><trkpt lat="61.6344432" lon="8.3470361"></trkpt><trkpt lat="61.634437" lon="8.3466111"></trkpt><trkpt lat="61.6343859" lon="8.3462081"></trkpt><trkpt lat="61.634308" lon="8.3458517"></trkpt><trkpt lat="61.6344087" lon="8.3453232"></trkpt><trkpt lat="61.6343534" lon="8.3450924"></trkpt><trkpt lat="61.6342337" lon="8.3448055"></trkpt><trkpt lat="61.6342342" lon="8.344623"></trkpt><trkpt lat="61.6343235" lon="8.344333"></trkpt><trkpt lat="61.6343643" lon="8.344079"></trkpt><trkpt lat="61.634373" lon="8.3437169"></trkpt><trkpt lat="61.6344127" lon="8.3434015"></trkpt><trkpt lat="61.6344103" lon="8.3429275"></trkpt><trkpt lat="61.6343725" lon="8.3424722"></trkpt><trkpt lat="61.6343083" lon="8.3422133"></trkpt><trkpt lat="61.6343506" lon="8.341875"></trkpt><trkpt lat="61.6343663" lon="8.3416582"></trkpt><trkpt lat="61.6343174" lon="8.3411981"></trkpt><trkpt lat="61.6343554" lon="8.3407118"></trkpt><trkpt lat="61.634334" lon="8.340453"></trkpt><trkpt lat="61.6339965" lon="8.3395533"></trkpt><trkpt lat="61.6340605" lon="8.3393155"></trkpt><trkpt lat="61.6341259" lon="8.3389572"></trkpt><trkpt lat="61.634167" lon="8.3377478"></trkpt><trkpt lat="61.6342093" lon="8.3368576"></trkpt><trkpt lat="61.6342104" lon="8.3354117"></trkpt><trkpt lat="61.6341692" lon="8.3348335"></trkpt><trkpt lat="61.6342073" lon="8.3341258"></trkpt><trkpt lat="61.6343745" lon="8.3329361"></trkpt><trkpt lat="61.6345102" lon="8.3315863"></trkpt><trkpt lat="61.6349516" lon="8.3303733"></trkpt><trkpt lat="61.6350008" lon="8.3299368"></trkpt><trkpt lat="61.635145" lon="8.3292214"></trkpt><trkpt lat="61.6352495" lon="8.3285402"></trkpt><trkpt lat="61.6353281" lon="8.3281867"></trkpt><trkpt lat="61.6353159" lon="8.3278578"></trkpt><trkpt lat="61.6352986" lon="8.3271401"></trkpt><trkpt lat="61.635252" lon="8.3267797"></trkpt><trkpt lat="61.6352378" lon="8.3264031"></trkpt><trkpt lat="61.6351046" lon="8.3254925"></trkpt><trkpt lat="61.6349777" lon="8.3248924"></trkpt><trkpt lat="61.6348828" lon="8.3241953"></trkpt><trkpt lat="61.6348264" lon="8.3235382"></trkpt><trkpt lat="61.6348151" lon="8.3227366"></trkpt><trkpt lat="61.6348887" lon="8.3215607"></trkpt><trkpt lat="61.6350464" lon="8.3203423"></trkpt><trkpt lat="61.6349993" lon="8.319686"></trkpt><trkpt lat="61.6349524" lon="8.3193913"></trkpt><trkpt lat="61.6348855" lon="8.319235"></trkpt><trkpt lat="61.6348695" lon="8.31911"></trkpt><trkpt lat="61.6351379" lon="8.3185774"></trkpt><trkpt lat="61.6351426" lon="8.3181459"></trkpt><trkpt lat="61.6351282" lon="8.3178751"></trkpt><trkpt lat="61.6350487" lon="8.31737"></trkpt><trkpt lat="61.6349595" lon="8.3169276"></trkpt><trkpt lat="61.6347378" lon="8.3163622"></trkpt><trkpt lat="61.6346698" lon="8.3161462"></trkpt><trkpt lat="61.6346826" lon="8.3156895"></trkpt><trkpt lat="61.6347623" lon="8.3153833"></trkpt><trkpt lat="61.6347955" lon="8.3151381"></trkpt><trkpt lat="61.6348687" lon="8.3148691"></trkpt><trkpt lat="61.6349882" lon="8.3144291"></trkpt><trkpt lat="61.6351546" lon="8.3139138"></trkpt><trkpt lat="61.6353385" lon="8.3135587"></trkpt><trkpt lat="61.6355702" lon="8.3132398"></trkpt><trkpt lat="61.6358461" lon="8.3131238"></trkpt><trkpt lat="61.6361666" lon="8.3128767"></trkpt><trkpt lat="61.6362533" lon="8.3128816"></trkpt><trkpt lat="61.6363215" lon="8.3127872"></trkpt><trkpt lat="61.6364468" lon="8.3125871"></trkpt><trkpt lat="61.6364721" lon="8.3124426"></trkpt><trkpt lat="61.6364468" lon="8.3125871"></trkpt><trkpt lat="61.6363215" lon="8.3127872"></trkpt><trkpt lat="61.6362533" lon="8.3128816"></trkpt><trkpt lat="61.6361666" lon="8.3128767"></trkpt><trkpt lat="61.6358461" lon="8.3131238"></trkpt><trkpt lat="61.6355702" lon="8.3132398"></trkpt><trkpt lat="61.6353385" lon="8.3135587"></trkpt><trkpt lat="61.6351546" lon="8.3139138"></trkpt><trkpt lat="61.6349882" lon="8.3144291"></trkpt><trkpt lat="61.6348687" lon="8.3148691"></trkpt><trkpt lat="61.6347955" lon="8.3151381"></trkpt><trkpt lat="61.6347623" lon="8.3153833"></trkpt><trkpt lat="61.6346826" lon="8.3156895"></trkpt><trkpt lat="61.6346698" lon="8.3161462"></trkpt><trkpt lat="61.6347378" lon="8.3163622"></trkpt><trkpt lat="61.6349595" lon="8.3169276"></trkpt><trkpt lat="61.6350487" lon="8.31737"></trkpt><trkpt lat="61.6351282" lon="8.3178751"></trkpt><trkpt lat="61.6351426" lon="8.3181459"></trkpt><trkpt lat="61.6351379" lon="8.3185774"></trkpt><trkpt lat="61.6348695" lon="8.31911"></trkpt><trkpt lat="61.6348855" lon="8.319235"></trkpt><trkpt lat="61.6349524" lon="8.3193913"></trkpt><trkpt lat="61.6349993" lon="8.319686"></trkpt><trkpt lat="61.6350464" lon="8.3203423"></trkpt><trkpt lat="61.6348887" lon="8.3215607"></trkpt><trkpt lat="61.6348151" lon="8.3227366"></trkpt><trkpt lat="61.6348264" lon="8.3235382"></trkpt><trkpt lat="61.6348828" lon="8.3241953"></trkpt><trkpt lat="61.6349777" lon="8.3248924"></trkpt><trkpt lat="61.6351046" lon="8.3254925"></trkpt><trkpt lat="61.6352378" lon="8.3264031"></trkpt><trkpt lat="61.635252" lon="8.3267797"></trkpt><trkpt lat="61.6352986" lon="8.3271401"></trkpt><trkpt lat="61.6353159" lon="8.3278578"></trkpt><trkpt lat="61.6353281" lon="8.3281867"></trkpt><trkpt lat="61.6352495" lon="8.3285402"></trkpt><trkpt lat="61.635145" lon="8.3292214"></trkpt><trkpt lat="61.6350008" lon="8.3299368"></trkpt><trkpt lat="61.6349516" lon="8.3303733"></trkpt><trkpt lat="61.6345102" lon="8.3315863"></trkpt><trkpt lat="61.6343745" lon="8.3329361"></trkpt><trkpt lat="61.6342073" lon="8.3341258"></trkpt><trkpt lat="61.6341692" lon="8.3348335"></trkpt><trkpt lat="61.6342104" lon="8.3354117"></trkpt><trkpt lat="61.6342093" lon="8.3368576"></trkpt><trkpt lat="61.634167" lon="8.3377478"></trkpt><trkpt lat="61.6341259" lon="8.3389572"></trkpt><trkpt lat="61.6340605" lon="8.3393155"></trkpt><trkpt lat="61.6339965" lon="8.3395533"></trkpt><trkpt lat="61.634334" lon="8.340453"></trkpt><trkpt lat="61.6343554" lon="8.3407118"></trkpt><trkpt lat="61.6343174" lon="8.3411981"></trkpt><trkpt lat="61.6343663" lon="8.3416582"></trkpt><trkpt lat="61.6343506" lon="8.341875"></trkpt><trkpt lat="61.6343083" lon="8.3422133"></trkpt><trkpt lat="61.6343725" lon="8.3424722"></trkpt><trkpt lat="61.6344103" lon="8.3429275"></trkpt><trkpt lat="61.6344127" lon="8.3434015"></trkpt><trkpt lat="61.634373" lon="8.3437169"></trkpt><trkpt lat="61.6343643" lon="8.344079"></trkpt><trkpt lat="61.6343235" lon="8.344333"></trkpt><trkpt lat="61.6342342" lon="8.344623"></trkpt><trkpt lat="61.6342337" lon="8.3448055"></trkpt><trkpt lat="61.6343534" lon="8.3450924"></trkpt><trkpt lat="61.6344087" lon="8.3453232"></trkpt><trkpt lat="61.634308" lon="8.3458517"></trkpt><trkpt lat="61.6343859" lon="8.3462081"></trkpt><trkpt lat="61.634437" lon="8.3466111"></trkpt><trkpt lat="61.6344432" lon="8.3470361"></trkpt><trkpt lat="61.6343857" lon="8.3474276"></trkpt><trkpt lat="61.6342616" lon="8.347637"></trkpt><trkpt lat="61.6341848" lon="8.3480828"></trkpt><trkpt lat="61.6341986" lon="8.3485882"></trkpt><trkpt lat="61.6341857" lon="8.349131"></trkpt><trkpt lat="61.6342496" lon="8.3500039"></trkpt><trkpt lat="61.6342287" lon="8.3502004"></trkpt><trkpt lat="61.6342537" lon="8.3504947"></trkpt><trkpt lat="61.634261" lon="8.3509292"></trkpt><trkpt lat="61.6342115" lon="8.3511661"></trkpt><trkpt lat="61.6341087" lon="8.3514029"></trkpt><trkpt lat="61.6341089" lon="8.3517441"></trkpt><trkpt lat="61.6340869" lon="8.3518471"></trkpt><trkpt lat="61.6339702" lon="8.3520299"></trkpt><trkpt lat="61.633907" lon="8.35213"></trkpt><trkpt lat="61.6338704" lon="8.3522955"></trkpt><trkpt lat="61.6338391" lon="8.352765"></trkpt><trkpt lat="61.6338006" lon="8.3528387"></trkpt><trkpt lat="61.6337043" lon="8.3528565"></trkpt><trkpt lat="61.6335784" lon="8.3530227"></trkpt><trkpt lat="61.6334375" lon="8.3533271"></trkpt><trkpt lat="61.6331575" lon="8.3536836"></trkpt><trkpt lat="61.6329789" lon="8.353819"></trkpt><trkpt lat="61.6327383" lon="8.3543513"></trkpt><trkpt lat="61.6325437" lon="8.3546059"></trkpt><trkpt lat="61.6323181" lon="8.3550566"></trkpt><trkpt lat="61.6322641" lon="8.3553136"></trkpt><trkpt lat="61.6321517" lon="8.3555687"></trkpt><trkpt lat="61.6320681" lon="8.3561274"></trkpt><trkpt lat="61.6317224" lon="8.3572788"></trkpt><trkpt lat="61.6316039" lon="8.3575793"></trkpt><trkpt lat="61.6315563" lon="8.3577657"></trkpt><trkpt lat="61.6315663" lon="8.3581699"></trkpt><trkpt lat="61.6315009" lon="8.3586348"></trkpt><trkpt lat="61.6314169" lon="8.3592085"></trkpt><trkpt lat="61.6311533" lon="8.3605102"></trkpt><trkpt lat="61.6310462" lon="8.3609581"></trkpt><trkpt lat="61.6308354" lon="8.3617142"></trkpt><trkpt lat="61.6307124" lon="8.3624438"></trkpt><trkpt lat="61.6305142" lon="8.3631625"></trkpt><trkpt lat="61.630253" lon="8.3638066"></trkpt><trkpt lat="61.6301323" lon="8.3646004"></trkpt><trkpt lat="61.6300644" lon="8.3649026"></trkpt><trkpt lat="61.6299987" lon="8.3652654"></trkpt><trkpt lat="61.6297833" lon="8.3654771"></trkpt><trkpt lat="61.6296872" lon="8.3656463"></trkpt><trkpt lat="61.629591" lon="8.3657594"></trkpt><trkpt lat="61.629481" lon="8.3663442"></trkpt><trkpt lat="61.6293247" lon="8.3666973"></trkpt><trkpt lat="61.6292597" lon="8.3673536"></trkpt><trkpt lat="61.629243" lon="8.3685793"></trkpt><trkpt lat="61.629232" lon="8.3689842"></trkpt><trkpt lat="61.6290873" lon="8.370119"></trkpt><trkpt lat="61.6290961" lon="8.371405"></trkpt><trkpt lat="61.6291626" lon="8.3720107"></trkpt><trkpt lat="61.6291626" lon="8.3725043"></trkpt><trkpt lat="61.6291368" lon="8.373094"></trkpt><trkpt lat="61.6290756" lon="8.3736838"></trkpt><trkpt lat="61.6290817" lon="8.3744149"></trkpt><trkpt lat="61.6290515" lon="8.3748202"></trkpt><trkpt lat="61.6290036" lon="8.3752628"></trkpt><trkpt lat="61.6290053" lon="8.3758025"></trkpt><trkpt lat="61.628946" lon="8.3761671"></trkpt><trkpt lat="61.6289697" lon="8.3763628"></trkpt><trkpt lat="61.6289164" lon="8.3765169"></trkpt><trkpt lat="61.6289282" lon="8.3770179"></trkpt><trkpt lat="61.6288897" lon="8.3772254"></trkpt><trkpt lat="61.62868" lon="8.3774735"></trkpt><trkpt lat="61.6286925" lon="8.3776999"></trkpt><trkpt lat="61.6286651" lon="8.3778982"></trkpt><trkpt lat="61.6286962" lon="8.3785533"></trkpt><trkpt lat="61.6286673" lon="8.3786813"></trkpt><trkpt lat="61.6285451" lon="8.3788467"></trkpt><trkpt lat="61.6284384" lon="8.3790886"></trkpt><trkpt lat="61.6284251" lon="8.3792523"></trkpt><trkpt lat="61.6282286" lon="8.3796037"></trkpt><trkpt lat="61.628182" lon="8.3804119"></trkpt><trkpt lat="61.6281279" lon="8.380575"></trkpt><trkpt lat="61.627992" lon="8.3807048"></trkpt><trkpt lat="61.6278611" lon="8.3807973"></trkpt><trkpt lat="61.6277306" lon="8.3810048"></trkpt><trkpt lat="61.6275913" lon="8.3811053"></trkpt><trkpt lat="61.6274994" lon="8.381491"></trkpt><trkpt lat="61.6274816" lon="8.3817815"></trkpt><trkpt lat="61.6275047" lon="8.3819208"></trkpt><trkpt lat="61.6275102" lon="8.382131"></trkpt><trkpt lat="61.627498" lon="8.3822384"></trkpt><trkpt lat="61.6274512" lon="8.3822868"></trkpt><trkpt lat="61.6273868" lon="8.382283"></trkpt><trkpt lat="61.6272809" lon="8.3822984"></trkpt><trkpt lat="61.6271793" lon="8.3824336"></trkpt><trkpt lat="61.6271831" lon="8.3825846"></trkpt><trkpt lat="61.6271541" lon="8.3827433"></trkpt><trkpt lat="61.6272022" lon="8.3831414"></trkpt><trkpt lat="61.6272059" lon="8.3832685"></trkpt><trkpt lat="61.6270963" lon="8.3833767"></trkpt><trkpt lat="61.6271177" lon="8.3836249"></trkpt><trkpt lat="61.6270803" lon="8.3837401"></trkpt><trkpt lat="61.6270251" lon="8.3838179"></trkpt><trkpt lat="61.6269244" lon="8.3842922"></trkpt><trkpt lat="61.6268829" lon="8.3848851"></trkpt><trkpt lat="61.6267739" lon="8.3852633"></trkpt><trkpt lat="61.6266836" lon="8.3858445"></trkpt><trkpt lat="61.6265005" lon="8.3865599"></trkpt><trkpt lat="61.6264738" lon="8.3867526"></trkpt><trkpt lat="61.6265153" lon="8.3872032"></trkpt><trkpt lat="61.6264398" lon="8.3875309"></trkpt><trkpt lat="61.6263689" lon="8.3877577"></trkpt><trkpt lat="61.626305" lon="8.3878815"></trkpt><trkpt lat="61.6262566" lon="8.3879171"></trkpt><trkpt lat="61.626077" lon="8.3878253"></trkpt><trkpt lat="61.6260535" lon="8.3878991"></trkpt><trkpt lat="61.626027" lon="8.3881067"></trkpt><trkpt lat="61.6259832" lon="8.3883818"></trkpt><trkpt lat="61.6259032" lon="8.3885182"></trkpt><trkpt lat="61.6258531" lon="8.3887075"></trkpt><trkpt lat="61.6259584" lon="8.3892921"></trkpt><trkpt lat="61.6258866" lon="8.3896333"></trkpt><trkpt lat="61.6258699" lon="8.39019"></trkpt><trkpt lat="61.6259469" lon="8.3906604"></trkpt><trkpt lat="61.6261399" lon="8.3908844"></trkpt><trkpt lat="61.6263222" lon="8.3910185"></trkpt><trkpt lat="61.6265158" lon="8.3913986"></trkpt><trkpt lat="61.6267211" lon="8.3917293"></trkpt><trkpt lat="61.6268494" lon="8.391852"></trkpt><trkpt lat="61.627171" lon="8.3920054"></trkpt><trkpt lat="61.6273452" lon="8.3921741"></trkpt><trkpt lat="61.6276216" lon="8.3924292"></trkpt><trkpt lat="61.6278555" lon="8.3927819"></trkpt><trkpt lat="61.6280514" lon="8.3931023"></trkpt><trkpt lat="61.6281159" lon="8.3932519"></trkpt><trkpt lat="61.6281158" lon="8.3935879"></trkpt><trkpt lat="61.6281666" lon="8.39392"></trkpt><trkpt lat="61.6281787" lon="8.3941097"></trkpt><trkpt lat="61.6281653" lon="8.3942713"></trkpt><trkpt lat="61.628116" lon="8.3944009"></trkpt><trkpt lat="61.6280455" lon="8.3944491"></trkpt><trkpt lat="61.6278868" lon="8.3943149"></trkpt><trkpt lat="61.6278112" lon="8.394142"></trkpt><trkpt lat="61.6277357" lon="8.3940505"></trkpt><trkpt lat="61.6276464" lon="8.3941444"></trkpt><trkpt lat="61.6275366" lon="8.3944871"></trkpt><trkpt lat="61.6274936" lon="8.3946975"></trkpt><trkpt lat="61.6274532" lon="8.3949663"></trkpt><trkpt lat="61.6274292" lon="8.3951089"></trkpt><trkpt lat="61.6273897" lon="8.3951701"></trkpt><trkpt lat="61.6273314" lon="8.3951986"></trkpt><trkpt lat="61.6272055" lon="8.3951579"></trkpt><trkpt lat="61.6271549" lon="8.3951819"></trkpt><trkpt lat="61.6270872" lon="8.3954134"></trkpt><trkpt lat="61.6269393" lon="8.3958076"></trkpt><trkpt lat="61.6267991" lon="8.3961124"></trkpt><trkpt lat="61.6267854" lon="8.3961909"></trkpt><trkpt lat="61.6268026" lon="8.3962612"></trkpt><trkpt lat="61.6268933" lon="8.3963668"></trkpt><trkpt lat="61.6269238" lon="8.3964357"></trkpt><trkpt lat="61.6269156" lon="8.3965575"></trkpt><trkpt lat="61.6267535" lon="8.3968104"></trkpt><trkpt lat="61.6266551" lon="8.3968844"></trkpt><trkpt lat="61.6265946" lon="8.3970906"></trkpt><trkpt lat="61.6264958" lon="8.3972507"></trkpt><trkpt lat="61.6263815" lon="8.3973701"></trkpt><trkpt lat="61.6263078" lon="8.3973571"></trkpt><trkpt lat="61.6262282" lon="8.3972912"></trkpt><trkpt lat="61.6261506" lon="8.3973105"></trkpt><trkpt lat="61.6259282" lon="8.3974868"></trkpt><trkpt lat="61.6258566" lon="8.3976428"></trkpt><trkpt lat="61.6258203" lon="8.3977867"></trkpt><trkpt lat="61.6258413" lon="8.39795"></trkpt><trkpt lat="61.6259492" lon="8.398345"></trkpt><trkpt lat="61.6260675" lon="8.3985203"></trkpt><trkpt lat="61.6261008" lon="8.3986225"></trkpt><trkpt lat="61.626281" lon="8.398748"></trkpt><trkpt lat="61.6264849" lon="8.3989684"></trkpt><trkpt lat="61.6265266" lon="8.3991238"></trkpt><trkpt lat="61.6265389" lon="8.3994418"></trkpt><trkpt lat="61.6264972" lon="8.3995931"></trkpt><trkpt lat="61.6263813" lon="8.3999026"></trkpt><trkpt lat="61.6263697" lon="8.4000918"></trkpt><trkpt lat="61.6264179" lon="8.400403"></trkpt><trkpt lat="61.626397" lon="8.4005804"></trkpt><trkpt lat="61.626385" lon="8.4007952"></trkpt><trkpt lat="61.6262686" lon="8.4009033"></trkpt><trkpt lat="61.6261199" lon="8.4011943"></trkpt><trkpt lat="61.6258949" lon="8.4014341"></trkpt><trkpt lat="61.6257241" lon="8.4015438"></trkpt><trkpt lat="61.6255028" lon="8.4015921"></trkpt><trkpt lat="61.6253831" lon="8.4017047"></trkpt><trkpt lat="61.6252561" lon="8.4018594"></trkpt><trkpt lat="61.6250532" lon="8.4018963"></trkpt><trkpt lat="61.6248782" lon="8.4019608"></trkpt><trkpt lat="61.6246085" lon="8.4019572"></trkpt><trkpt lat="61.624599" lon="8.4021216"></trkpt><trkpt lat="61.6245578" lon="8.4030148"></trkpt><trkpt lat="61.6245696" lon="8.4030962"></trkpt><trkpt lat="61.6245844" lon="8.4031985"></trkpt><trkpt lat="61.6246401" lon="8.4036198"></trkpt><trkpt lat="61.6246454" lon="8.4037309"></trkpt><trkpt lat="61.6246559" lon="8.4039507"></trkpt><trkpt lat="61.6246616" lon="8.4040705"></trkpt><trkpt lat="61.6246603" lon="8.404335"></trkpt><trkpt lat="61.6246377" lon="8.404691"></trkpt><trkpt lat="61.6247532" lon="8.4047845"></trkpt><trkpt lat="61.624866" lon="8.4047965"></trkpt><trkpt lat="61.6250172" lon="8.4046844"></trkpt><trkpt lat="61.6251287" lon="8.4045517"></trkpt></trkseg></trk></gpx>
