<?xml version="1.0" encoding="UTF-8"?>
<gpx version="1.1" creator="Good Shit" xmlns="http://www.topografix.com/GPX/1/1"><trk><name>Haguro cedar-and-stone pilgrimage ascent — Zuishinmon–Sanjingosaiden stone-step return</name><trkseg><trkpt lat="38.705471" lon="139.9644214"></trkpt><trkpt lat="38.7054562" lon="139.964364"></trkpt><trkpt lat="38.7056462" lon="139.9642683"></trkpt><trkpt lat="38.7057093" lon="139.9642338"></trkpt><trkpt lat="38.70573" lon="139.9642167"></trkpt><trkpt lat="38.7057452" lon="139.9641906"></trkpt><trkpt lat="38.7057764" lon="139.9642903"></trkpt><trkpt lat="38.7057846" lon="139.9643068"></trkpt><trkpt lat="38.7058729" lon="139.9645302"></trkpt><trkpt lat="38.705888" lon="139.9645683"></trkpt><trkpt lat="38.7059019" lon="139.9646073"></trkpt><trkpt lat="38.7059305" lon="139.9646867"></trkpt><trkpt lat="38.7059738" lon="139.964807"></trkpt><trkpt lat="38.7059932" lon="139.9648603"></trkpt><trkpt lat="38.7060517" lon="139.9649953"></trkpt><trkpt lat="38.7060897" lon="139.9650836"></trkpt><trkpt lat="38.7061073" lon="139.9651303"></trkpt><trkpt lat="38.7061199" lon="139.9651655"></trkpt><trkpt lat="38.7061273" lon="139.9651826"></trkpt><trkpt lat="38.7061408" lon="139.9652144"></trkpt><trkpt lat="38.7061509" lon="139.9652518"></trkpt><trkpt lat="38.70617" lon="139.9652774"></trkpt><trkpt lat="38.7061839" lon="139.9652983"></trkpt><trkpt lat="38.7062244" lon="139.9653539"></trkpt><trkpt lat="38.7062582" lon="139.9654066"></trkpt><trkpt lat="38.7062918" lon="139.9654598"></trkpt><trkpt lat="38.7063123" lon="139.9654924"></trkpt><trkpt lat="38.7063312" lon="139.9655205"></trkpt><trkpt lat="38.7063453" lon="139.9655551"></trkpt><trkpt lat="38.7063589" lon="139.9655856"></trkpt><trkpt lat="38.7063748" lon="139.9656232"></trkpt><trkpt lat="38.7063892" lon="139.9656728"></trkpt><trkpt lat="38.7063959" lon="139.9656977"></trkpt><trkpt lat="38.7064127" lon="139.9657516"></trkpt><trkpt lat="38.7063846" lon="139.965764"></trkpt><trkpt lat="38.7063795" lon="139.9657662"></trkpt><trkpt lat="38.7063522" lon="139.9657782"></trkpt><trkpt lat="38.7063317" lon="139.9657908"></trkpt><trkpt lat="38.7063087" lon="139.9658076"></trkpt><trkpt lat="38.7062117" lon="139.9658951"></trkpt><trkpt lat="38.7061826" lon="139.9659156"></trkpt><trkpt lat="38.7061433" lon="139.9659356"></trkpt><trkpt lat="38.706104" lon="139.9659481"></trkpt><trkpt lat="38.706059" lon="139.9659539"></trkpt><trkpt lat="38.705997" lon="139.9659621"></trkpt><trkpt lat="38.7057628" lon="139.9660074"></trkpt><trkpt lat="38.7056974" lon="139.9660228"></trkpt><trkpt lat="38.7056633" lon="139.9660328"></trkpt><trkpt lat="38.7056246" lon="139.9660491"></trkpt><trkpt lat="38.7055895" lon="139.9660689"></trkpt><trkpt lat="38.7055552" lon="139.9660932"></trkpt><trkpt lat="38.7053489" lon="139.9662854"></trkpt><trkpt lat="38.7052303" lon="139.9664272"></trkpt><trkpt lat="38.7051319" lon="139.9666016"></trkpt><trkpt lat="38.7050144" lon="139.9668264"></trkpt><trkpt lat="38.7049732" lon="139.9669171"></trkpt><trkpt lat="38.7048885" lon="139.9669455"></trkpt><trkpt lat="38.7047934" lon="139.9669776"></trkpt><trkpt lat="38.7048005" lon="139.9670336"></trkpt><trkpt lat="38.7048055" lon="139.9670782"></trkpt><trkpt lat="38.7048083" lon="139.9671214"></trkpt><trkpt lat="38.704802" lon="139.9671787"></trkpt><trkpt lat="38.7047594" lon="139.96731"></trkpt><trkpt lat="38.7047256" lon="139.9673955"></trkpt><trkpt lat="38.7046849" lon="139.9675388"></trkpt><trkpt lat="38.7046003" lon="139.9675212"></trkpt><trkpt lat="38.7044342" lon="139.9674551"></trkpt><trkpt lat="38.7042355" lon="139.9673765"></trkpt><trkpt lat="38.7041845" lon="139.9675032"></trkpt><trkpt lat="38.7040988" lon="139.9676742"></trkpt><trkpt lat="38.7039888" lon="139.9679835"></trkpt><trkpt lat="38.7040615" lon="139.9682773"></trkpt><trkpt lat="38.7043076" lon="139.9685517"></trkpt><trkpt lat="38.7045354" lon="139.9688139"></trkpt><trkpt lat="38.7046851" lon="139.9689069"></trkpt><trkpt lat="38.704807" lon="139.9690806"></trkpt><trkpt lat="38.7048474" lon="139.969323"></trkpt><trkpt lat="38.704806" lon="139.969522"></trkpt><trkpt lat="38.7047746" lon="139.969695"></trkpt><trkpt lat="38.704748" lon="139.9698083"></trkpt><trkpt lat="38.7046635" lon="139.9699761"></trkpt><trkpt lat="38.7045539" lon="139.9702355"></trkpt><trkpt lat="38.704501" lon="139.9704211"></trkpt><trkpt lat="38.7045225" lon="139.9709081"></trkpt><trkpt lat="38.7044933" lon="139.9712264"></trkpt><trkpt lat="38.7044486" lon="139.9714738"></trkpt><trkpt lat="38.7044096" lon="139.9716374"></trkpt><trkpt lat="38.7043797" lon="139.9717558"></trkpt><trkpt lat="38.7043243" lon="139.971916"></trkpt><trkpt lat="38.7042933" lon="139.971974"></trkpt><trkpt lat="38.7042796" lon="139.9720067"></trkpt><trkpt lat="38.7042367" lon="139.9721086"></trkpt><trkpt lat="38.7041455" lon="139.9723083"></trkpt><trkpt lat="38.7039742" lon="139.972547"></trkpt><trkpt lat="38.7038722" lon="139.9727018"></trkpt><trkpt lat="38.7038242" lon="139.9727854"></trkpt><trkpt lat="38.7037852" lon="139.9728532"></trkpt><trkpt lat="38.7037411" lon="139.97294"></trkpt><trkpt lat="38.7036971" lon="139.9729799"></trkpt><trkpt lat="38.7036793" lon="139.9730159"></trkpt><trkpt lat="38.7036708" lon="139.9730282"></trkpt><trkpt lat="38.7036321" lon="139.9730802"></trkpt><trkpt lat="38.7035555" lon="139.9732657"></trkpt><trkpt lat="38.7035176" lon="139.9733246"></trkpt><trkpt lat="38.7035002" lon="139.9733549"></trkpt><trkpt lat="38.703448" lon="139.9734345"></trkpt><trkpt lat="38.7033296" lon="139.9736249"></trkpt><trkpt lat="38.7032825" lon="139.9737104"></trkpt><trkpt lat="38.7032552" lon="139.973758"></trkpt><trkpt lat="38.7032171" lon="139.9738392"></trkpt><trkpt lat="38.703168" lon="139.9738997"></trkpt><trkpt lat="38.7030711" lon="139.9740586"></trkpt><trkpt lat="38.7029621" lon="139.974236"></trkpt><trkpt lat="38.7029055" lon="139.9743536"></trkpt><trkpt lat="38.7028516" lon="139.9744951"></trkpt><trkpt lat="38.7027982" lon="139.974535"></trkpt><trkpt lat="38.7026781" lon="139.9747293"></trkpt><trkpt lat="38.702633" lon="139.9749913"></trkpt><trkpt lat="38.7025768" lon="139.9751751"></trkpt><trkpt lat="38.7025072" lon="139.9752317"></trkpt><trkpt lat="38.702364" lon="139.9753092"></trkpt><trkpt lat="38.702226" lon="139.9754615"></trkpt><trkpt lat="38.7022421" lon="139.9758957"></trkpt><trkpt lat="38.7023005" lon="139.9763402"></trkpt><trkpt lat="38.7023205" lon="139.9766179"></trkpt><trkpt lat="38.7023677" lon="139.9768913"></trkpt><trkpt lat="38.7024288" lon="139.9771368"></trkpt><trkpt lat="38.7024825" lon="139.9773713"></trkpt><trkpt lat="38.7025136" lon="139.9775723"></trkpt><trkpt lat="38.7026088" lon="139.9777581"></trkpt><trkpt lat="38.702711" lon="139.9780196"></trkpt><trkpt lat="38.7027703" lon="139.9782778"></trkpt><trkpt lat="38.7027851" lon="139.9787095"></trkpt><trkpt lat="38.702791" lon="139.978848"></trkpt><trkpt lat="38.702774" lon="139.979121"></trkpt><trkpt lat="38.702673" lon="139.979409"></trkpt><trkpt lat="38.702662" lon="139.979459"></trkpt><trkpt lat="38.7026165" lon="139.9795838"></trkpt><trkpt lat="38.702487" lon="139.979939"></trkpt><trkpt lat="38.702403" lon="139.980248"></trkpt><trkpt lat="38.7023501" lon="139.9804201"></trkpt><trkpt lat="38.7023348" lon="139.980507"></trkpt><trkpt lat="38.7023258" lon="139.9805705"></trkpt><trkpt lat="38.7023274" lon="139.9806736"></trkpt><trkpt lat="38.7023349" lon="139.9807701"></trkpt><trkpt lat="38.7023453" lon="139.9809333"></trkpt><trkpt lat="38.7023349" lon="139.9807701"></trkpt><trkpt lat="38.7023274" lon="139.9806736"></trkpt><trkpt lat="38.7023258" lon="139.9805705"></trkpt><trkpt lat="38.7023348" lon="139.980507"></trkpt><trkpt lat="38.7023501" lon="139.9804201"></trkpt><trkpt lat="38.702403" lon="139.980248"></trkpt><trkpt lat="38.702487" lon="139.979939"></trkpt><trkpt lat="38.7026165" lon="139.9795838"></trkpt><trkpt lat="38.702662" lon="139.979459"></trkpt><trkpt lat="38.702673" lon="139.979409"></trkpt><trkpt lat="38.702774" lon="139.979121"></trkpt><trkpt lat="38.702791" lon="139.978848"></trkpt><trkpt lat="38.7027851" lon="139.9787095"></trkpt><trkpt lat="38.7027703" lon="139.9782778"></trkpt><trkpt lat="38.702711" lon="139.9780196"></trkpt><trkpt lat="38.7026088" lon="139.9777581"></trkpt><trkpt lat="38.7025136" lon="139.9775723"></trkpt><trkpt lat="38.7024825" lon="139.9773713"></trkpt><trkpt lat="38.7024288" lon="139.9771368"></trkpt><trkpt lat="38.7023677" lon="139.9768913"></trkpt><trkpt lat="38.7023205" lon="139.9766179"></trkpt><trkpt lat="38.7023005" lon="139.9763402"></trkpt><trkpt lat="38.7022421" lon="139.9758957"></trkpt><trkpt lat="38.702226" lon="139.9754615"></trkpt><trkpt lat="38.702364" lon="139.9753092"></trkpt><trkpt lat="38.7025072" lon="139.9752317"></trkpt><trkpt lat="38.7025768" lon="139.9751751"></trkpt><trkpt lat="38.702633" lon="139.9749913"></trkpt><trkpt lat="38.7026781" lon="139.9747293"></trkpt><trkpt lat="38.7027982" lon="139.974535"></trkpt><trkpt lat="38.7028516" lon="139.9744951"></trkpt><trkpt lat="38.7029055" lon="139.9743536"></trkpt><trkpt lat="38.7029621" lon="139.974236"></trkpt><trkpt lat="38.7030711" lon="139.9740586"></trkpt><trkpt lat="38.703168" lon="139.9738997"></trkpt><trkpt lat="38.7032171" lon="139.9738392"></trkpt><trkpt lat="38.7032552" lon="139.973758"></trkpt><trkpt lat="38.7032825" lon="139.9737104"></trkpt><trkpt lat="38.7033296" lon="139.9736249"></trkpt><trkpt lat="38.703448" lon="139.9734345"></trkpt><trkpt lat="38.7035002" lon="139.9733549"></trkpt><trkpt lat="38.7035176" lon="139.9733246"></trkpt><trkpt lat="38.7035555" lon="139.9732657"></trkpt><trkpt lat="38.7036321" lon="139.9730802"></trkpt><trkpt lat="38.7036708" lon="139.9730282"></trkpt><trkpt lat="38.7036793" lon="139.9730159"></trkpt><trkpt lat="38.7036971" lon="139.9729799"></trkpt><trkpt lat="38.7037411" lon="139.97294"></trkpt><trkpt lat="38.7037852" lon="139.9728532"></trkpt><trkpt lat="38.7038242" lon="139.9727854"></trkpt><trkpt lat="38.7038722" lon="139.9727018"></trkpt><trkpt lat="38.7039742" lon="139.972547"></trkpt><trkpt lat="38.7041455" lon="139.9723083"></trkpt><trkpt lat="38.7042367" lon="139.9721086"></trkpt><trkpt lat="38.7042796" lon="139.9720067"></trkpt><trkpt lat="38.7042933" lon="139.971974"></trkpt><trkpt lat="38.7043243" lon="139.971916"></trkpt><trkpt lat="38.7043797" lon="139.9717558"></trkpt><trkpt lat="38.7044096" lon="139.9716374"></trkpt><trkpt lat="38.7044486" lon="139.9714738"></trkpt><trkpt lat="38.7044933" lon="139.9712264"></trkpt><trkpt lat="38.7045225" lon="139.9709081"></trkpt><trkpt lat="38.704501" lon="139.9704211"></trkpt><trkpt lat="38.7045539" lon="139.9702355"></trkpt><trkpt lat="38.7046635" lon="139.9699761"></trkpt><trkpt lat="38.704748" lon="139.9698083"></trkpt><trkpt lat="38.7047746" lon="139.969695"></trkpt><trkpt lat="38.704806" lon="139.969522"></trkpt><trkpt lat="38.7048474" lon="139.969323"></trkpt><trkpt lat="38.704807" lon="139.9690806"></trkpt><trkpt lat="38.7046851" lon="139.9689069"></trkpt><trkpt lat="38.7045354" lon="139.9688139"></trkpt><trkpt lat="38.7043076" lon="139.9685517"></trkpt><trkpt lat="38.7040615" lon="139.9682773"></trkpt><trkpt lat="38.7039888" lon="139.9679835"></trkpt><trkpt lat="38.7040988" lon="139.9676742"></trkpt><trkpt lat="38.7041845" lon="139.9675032"></trkpt><trkpt lat="38.7042355" lon="139.9673765"></trkpt><trkpt lat="38.7044342" lon="139.9674551"></trkpt><trkpt lat="38.7046003" lon="139.9675212"></trkpt><trkpt lat="38.7046849" lon="139.9675388"></trkpt><trkpt lat="38.7047256" lon="139.9673955"></trkpt><trkpt lat="38.7047594" lon="139.96731"></trkpt><trkpt lat="38.704802" lon="139.9671787"></trkpt><trkpt lat="38.7048083" lon="139.9671214"></trkpt><trkpt lat="38.7048055" lon="139.9670782"></trkpt><trkpt lat="38.7048005" lon="139.9670336"></trkpt><trkpt lat="38.7047934" lon="139.9669776"></trkpt><trkpt lat="38.7048885" lon="139.9669455"></trkpt><trkpt lat="38.7049732" lon="139.9669171"></trkpt><trkpt lat="38.7050144" lon="139.9668264"></trkpt><trkpt lat="38.7051319" lon="139.9666016"></trkpt><trkpt lat="38.7052303" lon="139.9664272"></trkpt><trkpt lat="38.7053489" lon="139.9662854"></trkpt><trkpt lat="38.7055552" lon="139.9660932"></trkpt><trkpt lat="38.7055895" lon="139.9660689"></trkpt><trkpt lat="38.7056246" lon="139.9660491"></trkpt><trkpt lat="38.7056633" lon="139.9660328"></trkpt><trkpt lat="38.7056974" lon="139.9660228"></trkpt><trkpt lat="38.7057628" lon="139.9660074"></trkpt><trkpt lat="38.705997" lon="139.9659621"></trkpt><trkpt lat="38.706059" lon="139.9659539"></trkpt><trkpt lat="38.706104" lon="139.9659481"></trkpt><trkpt lat="38.7061433" lon="139.9659356"></trkpt><trkpt lat="38.7061826" lon="139.9659156"></trkpt><trkpt lat="38.7062117" lon="139.9658951"></trkpt><trkpt lat="38.7063087" lon="139.9658076"></trkpt><trkpt lat="38.7063317" lon="139.9657908"></trkpt><trkpt lat="38.7063522" lon="139.9657782"></trkpt><trkpt lat="38.7063795" lon="139.9657662"></trkpt><trkpt lat="38.7063846" lon="139.965764"></trkpt><trkpt lat="38.7064127" lon="139.9657516"></trkpt><trkpt lat="38.7063959" lon="139.9656977"></trkpt><trkpt lat="38.7063892" lon="139.9656728"></trkpt><trkpt lat="38.7063748" lon="139.9656232"></trkpt><trkpt lat="38.7063589" lon="139.9655856"></trkpt><trkpt lat="38.7063453" lon="139.9655551"></trkpt><trkpt lat="38.7063312" lon="139.9655205"></trkpt><trkpt lat="38.7063123" lon="139.9654924"></trkpt><trkpt lat="38.7062918" lon="139.9654598"></trkpt><trkpt lat="38.7062582" lon="139.9654066"></trkpt><trkpt lat="38.7062244" lon="139.9653539"></trkpt><trkpt lat="38.7061839" lon="139.9652983"></trkpt><trkpt lat="38.70617" lon="139.9652774"></trkpt><trkpt lat="38.7061509" lon="139.9652518"></trkpt><trkpt lat="38.7061408" lon="139.9652144"></trkpt><trkpt lat="38.7061273" lon="139.9651826"></trkpt><trkpt lat="38.7061199" lon="139.9651655"></trkpt><trkpt lat="38.7061073" lon="139.9651303"></trkpt><trkpt lat="38.7060897" lon="139.9650836"></trkpt><trkpt lat="38.7060517" lon="139.9649953"></trkpt><trkpt lat="38.7059932" lon="139.9648603"></trkpt><trkpt lat="38.7059738" lon="139.964807"></trkpt><trkpt lat="38.7059305" lon="139.9646867"></trkpt><trkpt lat="38.7059019" lon="139.9646073"></trkpt><trkpt lat="38.705888" lon="139.9645683"></trkpt><trkpt lat="38.7058729" lon="139.9645302"></trkpt><trkpt lat="38.7057846" lon="139.9643068"></trkpt><trkpt lat="38.7057764" lon="139.9642903"></trkpt><trkpt lat="38.7057452" lon="139.9641906"></trkpt><trkpt lat="38.70573" lon="139.9642167"></trkpt><trkpt lat="38.7057093" lon="139.9642338"></trkpt><trkpt lat="38.7056462" lon="139.9642683"></trkpt><trkpt lat="38.7054562" lon="139.964364"></trkpt><trkpt lat="38.705471" lon="139.9644214"></trkpt></trkseg></trk></gpx>
