<?xml version="1.0" encoding="UTF-8"?>
<gpx version="1.1" creator="Good Shit" xmlns="http://www.topografix.com/GPX/1/1"><trk><name>Cinibulkova stezka circuit — Cinibulkova stezka from Městské lázně Mšeno</name><desc>Walk the yellow Cinibulkova circuit from Městské lázně through Romanov, Prolezovačky and Obraznice to the Bludiště rock labyrinth. Return past Švédský val, Průsečná skála, Obří hlava a Žába and Faraon. Narrow passages, rock steps, ladders and chains make dry conditions preferable.

Route geometry: © OpenStreetMap contributors — OpenStreetMap route and path geometry. Licence: ODbL-1.0 (https://opendatacommons.org/licenses/odbl/1.0/). Source: https://www.openstreetmap.org/copyright. Dataset: https://www.openstreetmap.org/.</desc><trkseg><trkpt lat="50.44237605804408" lon="14.629959495853797"></trkpt><trkpt lat="50.44237605804408" lon="14.629959495853798"></trkpt><trkpt lat="50.4423015" lon="14.6301593"></trkpt><trkpt lat="50.4423632" lon="14.6301628"></trkpt><trkpt lat="50.4423988" lon="14.6301744"></trkpt><trkpt lat="50.4424442" lon="14.6301895"></trkpt><trkpt lat="50.4425372" lon="14.6302268"></trkpt><trkpt lat="50.442606" lon="14.6302435"></trkpt><trkpt lat="50.4426538" lon="14.6302443"></trkpt><trkpt lat="50.4428123" lon="14.6302087"></trkpt><trkpt lat="50.4430063" lon="14.6301534"></trkpt><trkpt lat="50.4430783179247" lon="14.630145539979186"></trkpt><trkpt lat="50.4431923" lon="14.6301331"></trkpt><trkpt lat="50.4433731" lon="14.6301396"></trkpt><trkpt lat="50.4433864" lon="14.6301518"></trkpt><trkpt lat="50.4433936" lon="14.6301717"></trkpt><trkpt lat="50.4433963" lon="14.6302045"></trkpt><trkpt lat="50.4435481" lon="14.6301118"></trkpt><trkpt lat="50.443882797248115" lon="14.629786104829561"></trkpt><trkpt lat="50.4439199" lon="14.62975"></trkpt><trkpt lat="50.4440252" lon="14.630008"></trkpt><trkpt lat="50.4441975" lon="14.6300191"></trkpt><trkpt lat="50.4443326" lon="14.6299947"></trkpt><trkpt lat="50.4444633" lon="14.6299739"></trkpt><trkpt lat="50.44465667592449" lon="14.630005549175124"></trkpt><trkpt lat="50.4448244" lon="14.630033"></trkpt><trkpt lat="50.4450438" lon="14.629903"></trkpt><trkpt lat="50.4451858" lon="14.629903"></trkpt><trkpt lat="50.4453242" lon="14.6298704"></trkpt><trkpt lat="50.4454904" lon="14.6297888"></trkpt><trkpt lat="50.44550756333249" lon="14.629789537486943"></trkpt><trkpt lat="50.4456184" lon="14.6297943"></trkpt><trkpt lat="50.4457776" lon="14.6297562"></trkpt><trkpt lat="50.445959" lon="14.6294554"></trkpt><trkpt lat="50.44613019658878" lon="14.629934798102475"></trkpt><trkpt lat="50.44613019658878" lon="14.629934798102477"></trkpt><trkpt lat="50.44613019658878" lon="14.629934798102475"></trkpt><trkpt lat="50.4463901" lon="14.6306626"></trkpt><trkpt lat="50.446681564984054" lon="14.63040236700525"></trkpt><trkpt lat="50.446681564984054" lon="14.630402367005248"></trkpt><trkpt lat="50.446681564984054" lon="14.63040236700525"></trkpt><trkpt lat="50.4469687" lon="14.630146"></trkpt><trkpt lat="50.4473389" lon="14.6297808"></trkpt><trkpt lat="50.447439505740626" lon="14.629657243809941"></trkpt><trkpt lat="50.447439505740626" lon="14.629657243809943"></trkpt><trkpt lat="50.447439505740626" lon="14.629657243809941"></trkpt><trkpt lat="50.4476063" lon="14.6294524"></trkpt><trkpt lat="50.4478942" lon="14.6294137"></trkpt><trkpt lat="50.4481693" lon="14.6294778"></trkpt><trkpt lat="50.44826463729014" lon="14.629493514258076"></trkpt><trkpt lat="50.4483234" lon="14.6295032"></trkpt><trkpt lat="50.4484552" lon="14.629497"></trkpt><trkpt lat="50.4485345" lon="14.6295105"></trkpt><trkpt lat="50.4486132" lon="14.6295888"></trkpt><trkpt lat="50.4486612" lon="14.6296984"></trkpt><trkpt lat="50.4487655" lon="14.6297984"></trkpt><trkpt lat="50.4489765" lon="14.6298199"></trkpt><trkpt lat="50.44909535466779" lon="14.629791632919469"></trkpt><trkpt lat="50.4492805" lon="14.6297476"></trkpt><trkpt lat="50.4494487" lon="14.6297423"></trkpt><trkpt lat="50.4496818" lon="14.6296987"></trkpt><trkpt lat="50.4498388" lon="14.6297176"></trkpt><trkpt lat="50.4499946" lon="14.6297663"></trkpt><trkpt lat="50.450007488326136" lon="14.629774725701584"></trkpt><trkpt lat="50.450072" lon="14.6298169"></trkpt><trkpt lat="50.4501687" lon="14.6298624"></trkpt><trkpt lat="50.4503363" lon="14.6299315"></trkpt><trkpt lat="50.4504416" lon="14.6299162"></trkpt><trkpt lat="50.4505156" lon="14.6299309"></trkpt><trkpt lat="50.4506212" lon="14.6299395"></trkpt><trkpt lat="50.4508333" lon="14.6299719"></trkpt><trkpt lat="50.45088550003335" lon="14.629989313557251"></trkpt><trkpt lat="50.45088550003335" lon="14.629989313557253"></trkpt><trkpt lat="50.45088550003335" lon="14.629989313557251"></trkpt><trkpt lat="50.4510902" lon="14.6300576"></trkpt><trkpt lat="50.4511686" lon="14.6300066"></trkpt><trkpt lat="50.4512574" lon="14.629961"></trkpt><trkpt lat="50.4513535" lon="14.6299416"></trkpt><trkpt lat="50.4514776" lon="14.629954"></trkpt><trkpt lat="50.4515479" lon="14.6299318"></trkpt><trkpt lat="50.451613" lon="14.6298873"></trkpt><trkpt lat="50.4515882" lon="14.6297329"></trkpt><trkpt lat="50.45155042630583" lon="14.629700964589317"></trkpt><trkpt lat="50.4515235" lon="14.6296782"></trkpt><trkpt lat="50.4514589" lon="14.629686"></trkpt><trkpt lat="50.4513752" lon="14.6295973"></trkpt><trkpt lat="50.4512667" lon="14.6296152"></trkpt><trkpt lat="50.4511926" lon="14.6295739"></trkpt><trkpt lat="50.4511543" lon="14.6295089"></trkpt><trkpt lat="50.4507487" lon="14.6294022"></trkpt><trkpt lat="50.450723688322995" lon="14.629350367483099"></trkpt><trkpt lat="50.4506934" lon="14.6292876"></trkpt><trkpt lat="50.4505376" lon="14.6292596"></trkpt><trkpt lat="50.4503972" lon="14.6290809"></trkpt><trkpt lat="50.4503613" lon="14.6289063"></trkpt><trkpt lat="50.4502611" lon="14.6287882"></trkpt><trkpt lat="50.4501316" lon="14.6285674"></trkpt><trkpt lat="50.45007879076129" lon="14.628492385931786"></trkpt><trkpt lat="50.4500046" lon="14.628387"></trkpt><trkpt lat="50.4498883" lon="14.6281177"></trkpt><trkpt lat="50.449936" lon="14.6279744"></trkpt><trkpt lat="50.4502162" lon="14.6281654"></trkpt><trkpt lat="50.4503731" lon="14.6282349"></trkpt><trkpt lat="50.4505584" lon="14.6284141"></trkpt><trkpt lat="50.4506844" lon="14.6286725"></trkpt><trkpt lat="50.4508154" lon="14.6287568"></trkpt><trkpt lat="50.4508849" lon="14.6288671"></trkpt><trkpt lat="50.45109982406689" lon="14.628999158004477"></trkpt><trkpt lat="50.4513655" lon="14.6291624"></trkpt><trkpt lat="50.4516181" lon="14.6293931"></trkpt><trkpt lat="50.451782" lon="14.6294972"></trkpt><trkpt lat="50.45191782485826" lon="14.629549942776421"></trkpt><trkpt lat="50.4520045" lon="14.6295836"></trkpt><trkpt lat="50.4520229" lon="14.6299946"></trkpt><trkpt lat="50.4519587" lon="14.6304105"></trkpt><trkpt lat="50.451971606376354" lon="14.630850973695594"></trkpt><trkpt lat="50.4519735" lon="14.6309156"></trkpt><trkpt lat="50.4522266" lon="14.6310597"></trkpt><trkpt lat="50.4523677" lon="14.6312046"></trkpt><trkpt lat="50.4526691" lon="14.6315166"></trkpt><trkpt lat="50.45277897974376" lon="14.631595643650591"></trkpt><trkpt lat="50.4528266" lon="14.6316299"></trkpt><trkpt lat="50.4529292" lon="14.6316768"></trkpt><trkpt lat="50.453002" lon="14.63167"></trkpt><trkpt lat="50.4531282" lon="14.6312054"></trkpt><trkpt lat="50.4531357" lon="14.6309993"></trkpt><trkpt lat="50.4532194" lon="14.6309057"></trkpt><trkpt lat="50.4532826" lon="14.6308708"></trkpt><trkpt lat="50.4534089" lon="14.6308574"></trkpt><trkpt lat="50.4534705" lon="14.6308381"></trkpt><trkpt lat="50.453776" lon="14.630544"></trkpt><trkpt lat="50.4539004" lon="14.6303754"></trkpt><trkpt lat="50.4539707" lon="14.6302364"></trkpt><trkpt lat="50.45397413044091" lon="14.63021222187521"></trkpt><trkpt lat="50.4539998" lon="14.6300313"></trkpt><trkpt lat="50.4539674" lon="14.6297902"></trkpt><trkpt lat="50.4537146" lon="14.629173"></trkpt><trkpt lat="50.4536186" lon="14.6290693"></trkpt><trkpt lat="50.45360024038002" lon="14.628986924195644"></trkpt><trkpt lat="50.45360024038002" lon="14.628986924195646"></trkpt><trkpt lat="50.45360024038002" lon="14.628986924195644"></trkpt><trkpt lat="50.4535921" lon="14.6289504"></trkpt><trkpt lat="50.4536151" lon="14.6288085"></trkpt><trkpt lat="50.4537219" lon="14.6285977"></trkpt><trkpt lat="50.4539045" lon="14.6285"></trkpt><trkpt lat="50.454222" lon="14.6284887"></trkpt><trkpt lat="50.454278776537855" lon="14.628478776667057"></trkpt><trkpt lat="50.4543124" lon="14.6284729"></trkpt><trkpt lat="50.4543524" lon="14.6284071"></trkpt><trkpt lat="50.4543101" lon="14.6282956"></trkpt><trkpt lat="50.4542106" lon="14.6281955"></trkpt><trkpt lat="50.4540929" lon="14.6281561"></trkpt><trkpt lat="50.453977" lon="14.6280542"></trkpt><trkpt lat="50.4538901" lon="14.6278685"></trkpt><trkpt lat="50.4538699" lon="14.627756"></trkpt><trkpt lat="50.4538205" lon="14.6276656"></trkpt><trkpt lat="50.45377327374652" lon="14.627644261010667"></trkpt><trkpt lat="50.4536959" lon="14.6276093"></trkpt><trkpt lat="50.4536258" lon="14.6274644"></trkpt><trkpt lat="50.4535678" lon="14.6273357"></trkpt><trkpt lat="50.4535298" lon="14.6271772"></trkpt><trkpt lat="50.4535953" lon="14.6269948"></trkpt><trkpt lat="50.4537044" lon="14.626869"></trkpt><trkpt lat="50.45375880794094" lon="14.626830666484771"></trkpt><trkpt lat="50.4538953" lon="14.6267345"></trkpt><trkpt lat="50.4540081" lon="14.6265353"></trkpt><trkpt lat="50.4540955" lon="14.6264747"></trkpt><trkpt lat="50.4542669" lon="14.6264458"></trkpt><trkpt lat="50.454337" lon="14.6264609"></trkpt><trkpt lat="50.4544177" lon="14.626433"></trkpt><trkpt lat="50.4544203" lon="14.6262377"></trkpt><trkpt lat="50.4544184077788" lon="14.626230939088448"></trkpt><trkpt lat="50.4544184077788" lon="14.62623093908845"></trkpt><trkpt lat="50.4544184077788" lon="14.626230939088448"></trkpt><trkpt lat="50.4543477" lon="14.6259783"></trkpt><trkpt lat="50.4543401" lon="14.6258004"></trkpt><trkpt lat="50.4542611" lon="14.6256593"></trkpt><trkpt lat="50.4541442" lon="14.6255831"></trkpt><trkpt lat="50.45404" lon="14.6255308"></trkpt><trkpt lat="50.4539455" lon="14.6254099"></trkpt><trkpt lat="50.45391588654022" lon="14.625308783495518"></trkpt><trkpt lat="50.4538905" lon="14.6252221"></trkpt><trkpt lat="50.4538089" lon="14.6251082"></trkpt><trkpt lat="50.4536514" lon="14.6249616"></trkpt><trkpt lat="50.4535678" lon="14.6249002"></trkpt><trkpt lat="50.4535429" lon="14.6247827"></trkpt><trkpt lat="50.453575" lon="14.6246323"></trkpt><trkpt lat="50.4537095" lon="14.6243677"></trkpt><trkpt lat="50.45372760475324" lon="14.624352646010921"></trkpt><trkpt lat="50.4538454" lon="14.6242547"></trkpt><trkpt lat="50.4540789" lon="14.6239039"></trkpt><trkpt lat="50.4543729" lon="14.6235432"></trkpt><trkpt lat="50.45441588179183" lon="14.623480380458096"></trkpt><trkpt lat="50.45441588179183" lon="14.623480380458094"></trkpt><trkpt lat="50.45441588179183" lon="14.623480380458096"></trkpt><trkpt lat="50.454616" lon="14.6231879"></trkpt><trkpt lat="50.4547022" lon="14.6231209"></trkpt><trkpt lat="50.4548965" lon="14.6231131"></trkpt><trkpt lat="50.455055385675294" lon="14.62312420093396"></trkpt><trkpt lat="50.4551756" lon="14.6231326"></trkpt><trkpt lat="50.4553512" lon="14.6232001"></trkpt><trkpt lat="50.4555551" lon="14.6233153"></trkpt><trkpt lat="50.4557564" lon="14.6233405"></trkpt><trkpt lat="50.4555551" lon="14.6233153"></trkpt><trkpt lat="50.4553512" lon="14.6232001"></trkpt><trkpt lat="50.4551756" lon="14.6231326"></trkpt><trkpt lat="50.45500635616306" lon="14.623120775367896"></trkpt><trkpt lat="50.4548965" lon="14.6231131"></trkpt><trkpt lat="50.454608" lon="14.6229685"></trkpt><trkpt lat="50.4544943" lon="14.62277"></trkpt><trkpt lat="50.4543201" lon="14.6225609"></trkpt><trkpt lat="50.45423367494174" lon="14.622508908144372"></trkpt><trkpt lat="50.4541685" lon="14.6224697"></trkpt><trkpt lat="50.4539785" lon="14.622453"></trkpt><trkpt lat="50.4539037" lon="14.6223352"></trkpt><trkpt lat="50.4538864" lon="14.6222209"></trkpt><trkpt lat="50.4538777" lon="14.622033"></trkpt><trkpt lat="50.4539047" lon="14.6218373"></trkpt><trkpt lat="50.4539636" lon="14.6216699"></trkpt><trkpt lat="50.4540704" lon="14.6214798"></trkpt><trkpt lat="50.4542126" lon="14.6213527"></trkpt><trkpt lat="50.454541" lon="14.6213625"></trkpt><trkpt lat="50.45475722833255" lon="14.621327894275364"></trkpt><trkpt lat="50.45475722833255" lon="14.621327894275366"></trkpt><trkpt lat="50.45475722833255" lon="14.621327894275364"></trkpt><trkpt lat="50.4550115" lon="14.6212872"></trkpt><trkpt lat="50.4554962" lon="14.6211643"></trkpt><trkpt lat="50.45554109598368" lon="14.621059377036893"></trkpt><trkpt lat="50.45554109598368" lon="14.621059377036891"></trkpt><trkpt lat="50.45554109598368" lon="14.621059377036893"></trkpt><trkpt lat="50.4555775" lon="14.6209743"></trkpt><trkpt lat="50.4556521" lon="14.6206475"></trkpt><trkpt lat="50.4557246" lon="14.6201392"></trkpt><trkpt lat="50.4557249" lon="14.6198174"></trkpt><trkpt lat="50.455829483654554" lon="14.619744258449574"></trkpt><trkpt lat="50.4557249" lon="14.6198174"></trkpt><trkpt lat="50.4558222" lon="14.6195546"></trkpt><trkpt lat="50.4558914" lon="14.619374"></trkpt><trkpt lat="50.4559501" lon="14.6192864"></trkpt><trkpt lat="50.4559893" lon="14.6192314"></trkpt><trkpt lat="50.4560267" lon="14.6189572"></trkpt><trkpt lat="50.4561067" lon="14.6189169"></trkpt><trkpt lat="50.4561899" lon="14.6188922"></trkpt><trkpt lat="50.4563064" lon="14.6188679"></trkpt><trkpt lat="50.4563619433046" lon="14.618852205600255"></trkpt><trkpt lat="50.4563619433046" lon="14.618852205600257"></trkpt><trkpt lat="50.4563619433046" lon="14.618852205600255"></trkpt><trkpt lat="50.4565828" lon="14.6187898"></trkpt><trkpt lat="50.4567423" lon="14.618729"></trkpt><trkpt lat="50.4568099" lon="14.618689"></trkpt><trkpt lat="50.4568497" lon="14.6186149"></trkpt><trkpt lat="50.4568576" lon="14.618536"></trkpt><trkpt lat="50.4568504" lon="14.6184638"></trkpt><trkpt lat="50.456826" lon="14.6184051"></trkpt><trkpt lat="50.4567802" lon="14.6183601"></trkpt><trkpt lat="50.456705" lon="14.6183297"></trkpt><trkpt lat="50.4566035" lon="14.6183434"></trkpt><trkpt lat="50.4564827" lon="14.6183574"></trkpt><trkpt lat="50.4563709" lon="14.618359"></trkpt><trkpt lat="50.4562766" lon="14.6183731"></trkpt><trkpt lat="50.4561686" lon="14.618352"></trkpt><trkpt lat="50.4562472" lon="14.6181631"></trkpt><trkpt lat="50.4563363" lon="14.6180577"></trkpt><trkpt lat="50.4564167" lon="14.6179061"></trkpt><trkpt lat="50.4564805" lon="14.6177242"></trkpt><trkpt lat="50.456501949191306" lon="14.617591173765467"></trkpt><trkpt lat="50.456501949191306" lon="14.617591173765469"></trkpt><trkpt lat="50.456501949191306" lon="14.617591173765467"></trkpt><trkpt lat="50.4565325" lon="14.6174017"></trkpt><trkpt lat="50.4566608" lon="14.6171125"></trkpt><trkpt lat="50.4567674" lon="14.6168412"></trkpt><trkpt lat="50.4567161" lon="14.6168575"></trkpt><trkpt lat="50.45658" lon="14.6169609"></trkpt><trkpt lat="50.4564231" lon="14.6170471"></trkpt><trkpt lat="50.4564304" lon="14.6171176"></trkpt><trkpt lat="50.4562855" lon="14.6172393"></trkpt><trkpt lat="50.4562366" lon="14.6173506"></trkpt><trkpt lat="50.4560879" lon="14.6174439"></trkpt><trkpt lat="50.4560446" lon="14.617593"></trkpt><trkpt lat="50.4559658" lon="14.6175956"></trkpt><trkpt lat="50.4559229" lon="14.617743"></trkpt><trkpt lat="50.4557866" lon="14.6178012"></trkpt><trkpt lat="50.4558033" lon="14.6179191"></trkpt><trkpt lat="50.4558596" lon="14.6179895"></trkpt><trkpt lat="50.455857067978755" lon="14.618035017498213"></trkpt><trkpt lat="50.4558553" lon="14.6180668"></trkpt><trkpt lat="50.4557911" lon="14.6181679"></trkpt><trkpt lat="50.4557452" lon="14.6185644"></trkpt><trkpt lat="50.4556584" lon="14.6187045"></trkpt><trkpt lat="50.4556649" lon="14.6189972"></trkpt><trkpt lat="50.4556429" lon="14.6192113"></trkpt><trkpt lat="50.455631" lon="14.6193276"></trkpt><trkpt lat="50.45557000898739" lon="14.619398261248069"></trkpt><trkpt lat="50.45557000898739" lon="14.61939826124807"></trkpt><trkpt lat="50.45557000898739" lon="14.619398261248069"></trkpt><trkpt lat="50.4553907" lon="14.619606"></trkpt><trkpt lat="50.4553631" lon="14.6198174"></trkpt><trkpt lat="50.455145" lon="14.6199777"></trkpt><trkpt lat="50.45480497759871" lon="14.620066448624364"></trkpt><trkpt lat="50.4546431" lon="14.6201087"></trkpt><trkpt lat="50.4544477" lon="14.6203914"></trkpt><trkpt lat="50.454149" lon="14.6207741"></trkpt><trkpt lat="50.45411801102821" lon="14.620898410046827"></trkpt><trkpt lat="50.45411801102821" lon="14.620898410046825"></trkpt><trkpt lat="50.45411801102821" lon="14.620898410046827"></trkpt><trkpt lat="50.454114" lon="14.6209145"></trkpt><trkpt lat="50.4538313" lon="14.6211151"></trkpt><trkpt lat="50.45328472599202" lon="14.621487336955909"></trkpt><trkpt lat="50.45328472599202" lon="14.62148733695591"></trkpt><trkpt lat="50.45328472599202" lon="14.621487336955909"></trkpt><trkpt lat="50.4530519" lon="14.6216459"></trkpt><trkpt lat="50.4526279" lon="14.6219379"></trkpt><trkpt lat="50.452464472627106" lon="14.622061457115132"></trkpt><trkpt lat="50.4522262" lon="14.6222416"></trkpt><trkpt lat="50.4518629" lon="14.6225709"></trkpt><trkpt lat="50.4517295" lon="14.6223555"></trkpt><trkpt lat="50.451696646218025" lon="14.622262023901751"></trkpt><trkpt lat="50.451696646218025" lon="14.62226202390175"></trkpt><trkpt lat="50.451696646218025" lon="14.622262023901751"></trkpt><trkpt lat="50.4516229" lon="14.6220522"></trkpt><trkpt lat="50.4515437" lon="14.621633"></trkpt><trkpt lat="50.4515303" lon="14.6214899"></trkpt><trkpt lat="50.4514845" lon="14.6212568"></trkpt><trkpt lat="50.45151055474311" lon="14.620884424689123"></trkpt><trkpt lat="50.4515184" lon="14.6207723"></trkpt><trkpt lat="50.4515045" lon="14.6205566"></trkpt><trkpt lat="50.451289160147084" lon="14.619535008322845"></trkpt><trkpt lat="50.4511407" lon="14.6188307"></trkpt><trkpt lat="50.4510931" lon="14.6186453"></trkpt><trkpt lat="50.4511051" lon="14.6184897"></trkpt><trkpt lat="50.4510874" lon="14.6183309"></trkpt><trkpt lat="50.45106259876422" lon="14.618172822615213"></trkpt><trkpt lat="50.4510264" lon="14.6179421"></trkpt><trkpt lat="50.451039" lon="14.6177553"></trkpt><trkpt lat="50.4513257" lon="14.6171385"></trkpt><trkpt lat="50.45137153631603" lon="14.617009949468589"></trkpt><trkpt lat="50.45137153631603" lon="14.61700994946859"></trkpt><trkpt lat="50.45137153631603" lon="14.617009949468589"></trkpt><trkpt lat="50.4514091" lon="14.6169046"></trkpt><trkpt lat="50.4514168" lon="14.616678"></trkpt><trkpt lat="50.4513186" lon="14.6164095"></trkpt><trkpt lat="50.451186" lon="14.6162333"></trkpt><trkpt lat="50.4510301" lon="14.6161757"></trkpt><trkpt lat="50.45090454424645" lon="14.616172689999736"></trkpt><trkpt lat="50.4506088" lon="14.6161656"></trkpt><trkpt lat="50.4500123" lon="14.6162175"></trkpt><trkpt lat="50.449996907532245" lon="14.616178669757375"></trkpt><trkpt lat="50.4498734" lon="14.6158671"></trkpt><trkpt lat="50.4498392" lon="14.6156127"></trkpt><trkpt lat="50.4499007" lon="14.6151897"></trkpt><trkpt lat="50.4499182635474" lon="14.614965780286141"></trkpt><trkpt lat="50.449929" lon="14.6148289"></trkpt><trkpt lat="50.4499231" lon="14.6145761"></trkpt><trkpt lat="50.4499179" lon="14.6144891"></trkpt><trkpt lat="50.44976656167087" lon="14.614065139178894"></trkpt><trkpt lat="50.44976656167087" lon="14.614065139178896"></trkpt><trkpt lat="50.44976656167087" lon="14.614065139178894"></trkpt><trkpt lat="50.4497336" lon="14.6139728"></trkpt><trkpt lat="50.4496132" lon="14.6139314"></trkpt><trkpt lat="50.4495003" lon="14.6140635"></trkpt><trkpt lat="50.4493359" lon="14.614436"></trkpt><trkpt lat="50.44925368257365" lon="14.614699360744405"></trkpt><trkpt lat="50.44925368257365" lon="14.614699360744407"></trkpt><trkpt lat="50.44925368257365" lon="14.614699360744405"></trkpt><trkpt lat="50.4492242" lon="14.6147938"></trkpt><trkpt lat="50.4492725" lon="14.615314"></trkpt><trkpt lat="50.4493921" lon="14.6158075"></trkpt><trkpt lat="50.449412664355116" lon="14.616050870351323"></trkpt><trkpt lat="50.4494459" lon="14.6164442"></trkpt><trkpt lat="50.4494075" lon="14.6166483"></trkpt><trkpt lat="50.44952897661399" lon="14.617253448400813"></trkpt><trkpt lat="50.4495434" lon="14.6173253"></trkpt><trkpt lat="50.4496138" lon="14.6174019"></trkpt><trkpt lat="50.4497048" lon="14.6174566"></trkpt><trkpt lat="50.4498467" lon="14.6176121"></trkpt><trkpt lat="50.4499277" lon="14.6177692"></trkpt><trkpt lat="50.450045218475175" lon="14.618409675689703"></trkpt><trkpt lat="50.4500677" lon="14.6185322"></trkpt><trkpt lat="50.4499762" lon="14.6188492"></trkpt><trkpt lat="50.4497948" lon="14.6192035"></trkpt><trkpt lat="50.4497133" lon="14.6193718"></trkpt><trkpt lat="50.4497194" lon="14.6195672"></trkpt><trkpt lat="50.44973844021003" lon="14.61970085744049"></trkpt><trkpt lat="50.4497903" lon="14.6200649"></trkpt><trkpt lat="50.4497796" lon="14.6202437"></trkpt><trkpt lat="50.4496497" lon="14.6204774"></trkpt><trkpt lat="50.44926461728532" lon="14.620487212121027"></trkpt><trkpt lat="50.4492023" lon="14.6204888"></trkpt><trkpt lat="50.4489272" lon="14.6203872"></trkpt><trkpt lat="50.4487236" lon="14.6202138"></trkpt><trkpt lat="50.4484201721658" lon="14.620257128547513"></trkpt><trkpt lat="50.4482495" lon="14.6202815"></trkpt><trkpt lat="50.4478739" lon="14.6204636"></trkpt><trkpt lat="50.4476582" lon="14.6206063"></trkpt><trkpt lat="50.447650695324455" lon="14.620540479923182"></trkpt><trkpt lat="50.4476582" lon="14.6206063"></trkpt><trkpt lat="50.4475154" lon="14.6208351"></trkpt><trkpt lat="50.4471768" lon="14.6214991"></trkpt><trkpt lat="50.4469958" lon="14.6216547"></trkpt><trkpt lat="50.44698648278565" lon="14.621659632314316"></trkpt><trkpt lat="50.446829" lon="14.621743"></trkpt><trkpt lat="50.4468318" lon="14.6220429"></trkpt><trkpt lat="50.4467422" lon="14.622398"></trkpt><trkpt lat="50.44657187406595" lon="14.622727182684601"></trkpt><trkpt lat="50.4465432" lon="14.6227826"></trkpt><trkpt lat="50.4462511" lon="14.6232024"></trkpt><trkpt lat="50.4459605" lon="14.6235659"></trkpt><trkpt lat="50.44589292418212" lon="14.623656347633164"></trkpt><trkpt lat="50.44589292418212" lon="14.623656347633165"></trkpt><trkpt lat="50.44589292418212" lon="14.623656347633164"></trkpt><trkpt lat="50.4452088784903" lon="14.624571916482212"></trkpt><trkpt lat="50.4452088784903" lon="14.62457191648221"></trkpt><trkpt lat="50.4452088784903" lon="14.624571916482212"></trkpt><trkpt lat="50.4446995" lon="14.6252537"></trkpt><trkpt lat="50.44452386140992" lon="14.625486870291473"></trkpt><trkpt lat="50.44452386140992" lon="14.625486870291475"></trkpt><trkpt lat="50.44452386140992" lon="14.625486870291473"></trkpt><trkpt lat="50.4443417" lon="14.6257287"></trkpt><trkpt lat="50.4440725" lon="14.6262386"></trkpt><trkpt lat="50.44392929413586" lon="14.626536009487452"></trkpt><trkpt lat="50.44392929413586" lon="14.626536009487454"></trkpt><trkpt lat="50.44392929413586" lon="14.626536009487452"></trkpt><trkpt lat="50.4437678" lon="14.6268714"></trkpt><trkpt lat="50.4437335" lon="14.6269588"></trkpt><trkpt lat="50.4437232" lon="14.6270406"></trkpt><trkpt lat="50.4437407" lon="14.6271375"></trkpt><trkpt lat="50.4439435" lon="14.6275409"></trkpt><trkpt lat="50.4439725" lon="14.6276683"></trkpt><trkpt lat="50.44397428120913" lon="14.627697107632232"></trkpt><trkpt lat="50.4439829" lon="14.6278365"></trkpt><trkpt lat="50.4438031" lon="14.6282581"></trkpt><trkpt lat="50.4436958" lon="14.6287358"></trkpt><trkpt lat="50.44366679308889" lon="14.628878412673345"></trkpt><trkpt lat="50.4435916" lon="14.6292481"></trkpt><trkpt lat="50.4434863" lon="14.6294713"></trkpt><trkpt lat="50.4433696" lon="14.6295646"></trkpt><trkpt lat="50.4431202" lon="14.629688"></trkpt><trkpt lat="50.44306719530836" lon="14.629726145089242"></trkpt><trkpt lat="50.44306719530836" lon="14.629726145089244"></trkpt><trkpt lat="50.44306719530836" lon="14.629726145089242"></trkpt><trkpt lat="50.4429579" lon="14.6298048"></trkpt><trkpt lat="50.4426538" lon="14.6302443"></trkpt><trkpt lat="50.442606" lon="14.6302435"></trkpt><trkpt lat="50.4425372" lon="14.6302268"></trkpt><trkpt lat="50.4424442" lon="14.6301895"></trkpt><trkpt lat="50.4423988" lon="14.6301744"></trkpt><trkpt lat="50.4423632" lon="14.6301628"></trkpt><trkpt lat="50.4423015" lon="14.6301593"></trkpt><trkpt lat="50.442331879248805" lon="14.630077888263093"></trkpt><trkpt lat="50.442331879248805" lon="14.630077888263095"></trkpt><trkpt lat="50.442331879248805" lon="14.630077888263093"></trkpt><trkpt lat="50.4423799" lon="14.6299492"></trkpt><trkpt lat="50.4424626" lon="14.6297212"></trkpt><trkpt lat="50.4424947" lon="14.6296202"></trkpt><trkpt lat="50.4424994" lon="14.6295443"></trkpt><trkpt lat="50.4424841" lon="14.6294667"></trkpt><trkpt lat="50.4424425" lon="14.6293604"></trkpt><trkpt lat="50.4422972" lon="14.6292533"></trkpt><trkpt lat="50.44229210709332" lon="14.629249976901928"></trkpt><trkpt lat="50.4422972" lon="14.6292533"></trkpt><trkpt lat="50.4424425" lon="14.6293604"></trkpt><trkpt lat="50.4424841" lon="14.6294667"></trkpt><trkpt lat="50.4424994" lon="14.6295443"></trkpt><trkpt lat="50.4424947" lon="14.6296202"></trkpt><trkpt lat="50.4424626" lon="14.6297212"></trkpt><trkpt lat="50.4423799" lon="14.6299492"></trkpt><trkpt lat="50.44237605804408" lon="14.629959495853798"></trkpt><trkpt lat="50.44237605804408" lon="14.629959495853797"></trkpt></trkseg></trk></gpx>
