<?xml version="1.0" encoding="UTF-8"?>
<gpx version="1.1" creator="Good Shit" xmlns="http://www.topografix.com/GPX/1/1"><trk><name>Amata River Kārļi–Zvārte Long Loop — Cēsis Municipality 15 km long loop</name><trkseg><trkpt lat="57.2369204" lon="25.2001501"></trkpt><trkpt lat="57.2371332" lon="25.2004546"></trkpt><trkpt lat="57.2372354" lon="25.2006839"></trkpt><trkpt lat="57.2374208" lon="25.2011668"></trkpt><trkpt lat="57.2374776" lon="25.201331"></trkpt><trkpt lat="57.2375597" lon="25.20153"></trkpt><trkpt lat="57.2376" lon="25.2016277"></trkpt><trkpt lat="57.2377626" lon="25.2014688"></trkpt><trkpt lat="57.2378206" lon="25.2013799"></trkpt><trkpt lat="57.2379146" lon="25.2012844"></trkpt><trkpt lat="57.2380331" lon="25.2012842"></trkpt><trkpt lat="57.2381685" lon="25.2013373"></trkpt><trkpt lat="57.2382957" lon="25.201325"></trkpt><trkpt lat="57.2383621" lon="25.2012092"></trkpt><trkpt lat="57.2385991" lon="25.2007009"></trkpt><trkpt lat="57.2386718" lon="25.2006068"></trkpt><trkpt lat="57.2387446" lon="25.2005238"></trkpt><trkpt lat="57.2388392" lon="25.2004395"></trkpt><trkpt lat="57.2388844" lon="25.2003904"></trkpt><trkpt lat="57.2389238" lon="25.2003394"></trkpt><trkpt lat="57.2389398" lon="25.2002803"></trkpt><trkpt lat="57.2389556" lon="25.2002219"></trkpt><trkpt lat="57.2390824" lon="25.2000369"></trkpt><trkpt lat="57.239107" lon="25.1998526"></trkpt><trkpt lat="57.2390546" lon="25.1997987"></trkpt><trkpt lat="57.2390108" lon="25.1997758"></trkpt><trkpt lat="57.2389993" lon="25.1997206"></trkpt><trkpt lat="57.2390011" lon="25.1996338"></trkpt><trkpt lat="57.2390184" lon="25.1995329"></trkpt><trkpt lat="57.2390772" lon="25.199104"></trkpt><trkpt lat="57.2390278" lon="25.1988854"></trkpt><trkpt lat="57.2389544" lon="25.1985544"></trkpt><trkpt lat="57.2388376" lon="25.1982221"></trkpt><trkpt lat="57.2387592" lon="25.197724"></trkpt><trkpt lat="57.2386963" lon="25.1974785"></trkpt><trkpt lat="57.2386053" lon="25.1971969"></trkpt><trkpt lat="57.2385006" lon="25.1969484"></trkpt><trkpt lat="57.2383637" lon="25.1967668"></trkpt><trkpt lat="57.2382704" lon="25.1966083"></trkpt><trkpt lat="57.2381984" lon="25.1965193"></trkpt><trkpt lat="57.238026" lon="25.1962845"></trkpt><trkpt lat="57.2378826" lon="25.1961596"></trkpt><trkpt lat="57.237768" lon="25.1961078"></trkpt><trkpt lat="57.2376645" lon="25.1960255"></trkpt><trkpt lat="57.2375661" lon="25.1959512"></trkpt><trkpt lat="57.2374743" lon="25.1958804"></trkpt><trkpt lat="57.2372581" lon="25.1956822"></trkpt><trkpt lat="57.2371807" lon="25.1956826"></trkpt><trkpt lat="57.2368142" lon="25.1955802"></trkpt><trkpt lat="57.2365812" lon="25.1955971"></trkpt><trkpt lat="57.2364137" lon="25.1955675"></trkpt><trkpt lat="57.2362318" lon="25.1954542"></trkpt><trkpt lat="57.2360703" lon="25.1953648"></trkpt><trkpt lat="57.2359581" lon="25.1953184"></trkpt><trkpt lat="57.2358636" lon="25.1951057"></trkpt><trkpt lat="57.2358289" lon="25.1947483"></trkpt><trkpt lat="57.2358599" lon="25.1946169"></trkpt><trkpt lat="57.2358712" lon="25.1943506"></trkpt><trkpt lat="57.2358882" lon="25.194197"></trkpt><trkpt lat="57.2358908" lon="25.1939379"></trkpt><trkpt lat="57.2357975" lon="25.1936563"></trkpt><trkpt lat="57.2357035" lon="25.1934616"></trkpt><trkpt lat="57.2356797" lon="25.1933012"></trkpt><trkpt lat="57.235671" lon="25.1930915"></trkpt><trkpt lat="57.2356358" lon="25.1929512"></trkpt><trkpt lat="57.2355657" lon="25.1928144"></trkpt><trkpt lat="57.2354965" lon="25.1927394"></trkpt><trkpt lat="57.2354118" lon="25.1927689"></trkpt><trkpt lat="57.235327" lon="25.192839"></trkpt><trkpt lat="57.235271" lon="25.1928398"></trkpt><trkpt lat="57.2350269" lon="25.1924308"></trkpt><trkpt lat="57.234995" lon="25.1922085"></trkpt><trkpt lat="57.2350419" lon="25.1919234"></trkpt><trkpt lat="57.2351607" lon="25.1916618"></trkpt><trkpt lat="57.2356513" lon="25.1910728"></trkpt><trkpt lat="57.2357906" lon="25.190944"></trkpt><trkpt lat="57.2360229" lon="25.1905921"></trkpt><trkpt lat="57.2360693" lon="25.1902059"></trkpt><trkpt lat="57.2361405" lon="25.1897276"></trkpt><trkpt lat="57.236204" lon="25.1896308"></trkpt><trkpt lat="57.2363055" lon="25.1894079"></trkpt><trkpt lat="57.2363466" lon="25.1890804"></trkpt><trkpt lat="57.2363634" lon="25.188824"></trkpt><trkpt lat="57.236462" lon="25.1885827"></trkpt><trkpt lat="57.2365153" lon="25.188309"></trkpt><trkpt lat="57.2364642" lon="25.1881975"></trkpt><trkpt lat="57.2364583" lon="25.1876846"></trkpt><trkpt lat="57.2364632" lon="25.1874175"></trkpt><trkpt lat="57.2364265" lon="25.1871622"></trkpt><trkpt lat="57.2363799" lon="25.1868988"></trkpt><trkpt lat="57.2363098" lon="25.1867772"></trkpt><trkpt lat="57.2362156" lon="25.1866654"></trkpt><trkpt lat="57.236114" lon="25.1865925"></trkpt><trkpt lat="57.2359185" lon="25.186553"></trkpt><trkpt lat="57.2358365" lon="25.1865017"></trkpt><trkpt lat="57.235762" lon="25.186358"></trkpt><trkpt lat="57.23567" lon="25.1861354"></trkpt><trkpt lat="57.23552" lon="25.1859575"></trkpt><trkpt lat="57.2354299" lon="25.1858612"></trkpt><trkpt lat="57.2353029" lon="25.1855875"></trkpt><trkpt lat="57.235195" lon="25.1853961"></trkpt><trkpt lat="57.2351064" lon="25.1851981"></trkpt><trkpt lat="57.2349902" lon="25.1851337"></trkpt><trkpt lat="57.2348989" lon="25.1850032"></trkpt><trkpt lat="57.2348938" lon="25.1848952"></trkpt><trkpt lat="57.2348108" lon="25.1848242"></trkpt><trkpt lat="57.2347842" lon="25.1847273"></trkpt><trkpt lat="57.2347978" lon="25.1845713"></trkpt><trkpt lat="57.2349037" lon="25.184495"></trkpt><trkpt lat="57.2350622" lon="25.1844236"></trkpt><trkpt lat="57.2352908" lon="25.1843274"></trkpt><trkpt lat="57.2354595" lon="25.1842091"></trkpt><trkpt lat="57.2356508" lon="25.1841455"></trkpt><trkpt lat="57.2357627" lon="25.1838887"></trkpt><trkpt lat="57.2358408" lon="25.1838205"></trkpt><trkpt lat="57.2359159" lon="25.1837227"></trkpt><trkpt lat="57.23609" lon="25.1835433"></trkpt><trkpt lat="57.2361431" lon="25.1834164"></trkpt><trkpt lat="57.2361316" lon="25.1829328"></trkpt><trkpt lat="57.2361291" lon="25.1824748"></trkpt><trkpt lat="57.2361269" lon="25.1821445"></trkpt><trkpt lat="57.2360717" lon="25.1818438"></trkpt><trkpt lat="57.2360083" lon="25.1816546"></trkpt><trkpt lat="57.2359304" lon="25.1815098"></trkpt><trkpt lat="57.2358922" lon="25.1813907"></trkpt><trkpt lat="57.2357941" lon="25.181237"></trkpt><trkpt lat="57.2356417" lon="25.1807969"></trkpt><trkpt lat="57.2355985" lon="25.1803784"></trkpt><trkpt lat="57.2355165" lon="25.1801863"></trkpt><trkpt lat="57.2354045" lon="25.1799889"></trkpt><trkpt lat="57.2353048" lon="25.1798659"></trkpt><trkpt lat="57.2351613" lon="25.179775"></trkpt><trkpt lat="57.2350823" lon="25.1796988"></trkpt><trkpt lat="57.2349888" lon="25.1796846"></trkpt><trkpt lat="57.2349065" lon="25.1795538"></trkpt><trkpt lat="57.2349591" lon="25.1794566"></trkpt><trkpt lat="57.2349872" lon="25.1793344"></trkpt><trkpt lat="57.2350258" lon="25.1792324"></trkpt><trkpt lat="57.235059" lon="25.1791201"></trkpt><trkpt lat="57.2350975" lon="25.1789811"></trkpt><trkpt lat="57.2351805" lon="25.17887"></trkpt><trkpt lat="57.2352247" lon="25.1787884"></trkpt><trkpt lat="57.2352659" lon="25.1786262"></trkpt><trkpt lat="57.2353508" lon="25.1783927"></trkpt><trkpt lat="57.2353911" lon="25.1781872"></trkpt><trkpt lat="57.2353297" lon="25.1779412"></trkpt><trkpt lat="57.2352371" lon="25.1777232"></trkpt><trkpt lat="57.2351696" lon="25.1776286"></trkpt><trkpt lat="57.235046" lon="25.1775435"></trkpt><trkpt lat="57.23491" lon="25.1774878"></trkpt><trkpt lat="57.2347712" lon="25.1775455"></trkpt><trkpt lat="57.2346089" lon="25.177645"></trkpt><trkpt lat="57.2344281" lon="25.1776582"></trkpt><trkpt lat="57.234332" lon="25.1775913"></trkpt><trkpt lat="57.2342743" lon="25.177566"></trkpt><trkpt lat="57.2341283" lon="25.1774201"></trkpt><trkpt lat="57.2340515" lon="25.1773724"></trkpt><trkpt lat="57.2339008" lon="25.1772818"></trkpt><trkpt lat="57.2337533" lon="25.1772658"></trkpt><trkpt lat="57.2335802" lon="25.1773637"></trkpt><trkpt lat="57.2332544" lon="25.1774257"></trkpt><trkpt lat="57.2330843" lon="25.1775942"></trkpt><trkpt lat="57.2330009" lon="25.1777934"></trkpt><trkpt lat="57.2329419" lon="25.1779873"></trkpt><trkpt lat="57.2328789" lon="25.1780495"></trkpt><trkpt lat="57.2326865" lon="25.1781302"></trkpt><trkpt lat="57.2325367" lon="25.1782438"></trkpt><trkpt lat="57.2323723" lon="25.178309"></trkpt><trkpt lat="57.2322811" lon="25.1783466"></trkpt><trkpt lat="57.2321753" lon="25.1784575"></trkpt><trkpt lat="57.2320664" lon="25.1785252"></trkpt><trkpt lat="57.2319354" lon="25.1784919"></trkpt><trkpt lat="57.2318903" lon="25.1783325"></trkpt><trkpt lat="57.2318915" lon="25.1779746"></trkpt><trkpt lat="57.2318479" lon="25.1778453"></trkpt><trkpt lat="57.2317907" lon="25.1776636"></trkpt><trkpt lat="57.2317422" lon="25.1775177"></trkpt><trkpt lat="57.2317175" lon="25.1773089"></trkpt><trkpt lat="57.2317289" lon="25.1772236"></trkpt><trkpt lat="57.2317897" lon="25.1767198"></trkpt><trkpt lat="57.2317696" lon="25.1765407"></trkpt><trkpt lat="57.2317496" lon="25.1762984"></trkpt><trkpt lat="57.2317742" lon="25.1760879"></trkpt><trkpt lat="57.2318372" lon="25.1758818"></trkpt><trkpt lat="57.2318292" lon="25.175765"></trkpt><trkpt lat="57.231795" lon="25.1756041"></trkpt><trkpt lat="57.2317402" lon="25.1754421"></trkpt><trkpt lat="57.2315868" lon="25.1753195"></trkpt><trkpt lat="57.2314998" lon="25.1751071"></trkpt><trkpt lat="57.231461" lon="25.1748369"></trkpt><trkpt lat="57.2313415" lon="25.174656"></trkpt><trkpt lat="57.2312349" lon="25.17467"></trkpt><trkpt lat="57.2311538" lon="25.1747547"></trkpt><trkpt lat="57.2310246" lon="25.1746944"></trkpt><trkpt lat="57.2309366" lon="25.1747166"></trkpt><trkpt lat="57.2308327" lon="25.1746161"></trkpt><trkpt lat="57.2307475" lon="25.1744812"></trkpt><trkpt lat="57.2305826" lon="25.1740092"></trkpt><trkpt lat="57.2305297" lon="25.1739423"></trkpt><trkpt lat="57.2304595" lon="25.1739141"></trkpt><trkpt lat="57.2302928" lon="25.1738928"></trkpt><trkpt lat="57.2301499" lon="25.173874"></trkpt><trkpt lat="57.2300309" lon="25.1738354"></trkpt><trkpt lat="57.2298857" lon="25.1738217"></trkpt><trkpt lat="57.2297446" lon="25.1738424"></trkpt><trkpt lat="57.2296098" lon="25.1739116"></trkpt><trkpt lat="57.229494" lon="25.1740972"></trkpt><trkpt lat="57.2293996" lon="25.1742978"></trkpt><trkpt lat="57.2293131" lon="25.1743912"></trkpt><trkpt lat="57.2292697" lon="25.1744025"></trkpt><trkpt lat="57.2291505" lon="25.1748632"></trkpt><trkpt lat="57.2290147" lon="25.174992"></trkpt><trkpt lat="57.2289178" lon="25.1749575"></trkpt><trkpt lat="57.2288718" lon="25.1748418"></trkpt><trkpt lat="57.2286975" lon="25.1746701"></trkpt><trkpt lat="57.2286162" lon="25.1743483"></trkpt><trkpt lat="57.2285483" lon="25.1738525"></trkpt><trkpt lat="57.2285082" lon="25.1735393"></trkpt><trkpt lat="57.2283422" lon="25.1732153"></trkpt><trkpt lat="57.2282195" lon="25.1730546"></trkpt><trkpt lat="57.2280564" lon="25.1729299"></trkpt><trkpt lat="57.2279077" lon="25.1728248"></trkpt><trkpt lat="57.2278194" lon="25.1728698"></trkpt><trkpt lat="57.2276899" lon="25.172854"></trkpt><trkpt lat="57.2275853" lon="25.172832"></trkpt><trkpt lat="57.2273746" lon="25.1731444"></trkpt><trkpt lat="57.2272783" lon="25.1732992"></trkpt><trkpt lat="57.2272067" lon="25.1733508"></trkpt><trkpt lat="57.2271243" lon="25.1733385"></trkpt><trkpt lat="57.2270548" lon="25.1732502"></trkpt><trkpt lat="57.2269814" lon="25.1730715"></trkpt><trkpt lat="57.2269611" lon="25.1728248"></trkpt><trkpt lat="57.227025" lon="25.1724171"></trkpt><trkpt lat="57.2271354" lon="25.1722669"></trkpt><trkpt lat="57.2274344" lon="25.1720415"></trkpt><trkpt lat="57.2276057" lon="25.1717304"></trkpt><trkpt lat="57.2277509" lon="25.1715052"></trkpt><trkpt lat="57.2278148" lon="25.1712154"></trkpt><trkpt lat="57.2279315" lon="25.170811"></trkpt><trkpt lat="57.2279542" lon="25.1704859"></trkpt><trkpt lat="57.2280355" lon="25.1700567"></trkpt><trkpt lat="57.228082" lon="25.1697349"></trkpt><trkpt lat="57.2278805" lon="25.1692923"></trkpt><trkpt lat="57.2276393" lon="25.1691276"></trkpt><trkpt lat="57.2274633" lon="25.1689544"></trkpt><trkpt lat="57.2273383" lon="25.1688918"></trkpt><trkpt lat="57.2272135" lon="25.1689028"></trkpt><trkpt lat="57.2270399" lon="25.1689086"></trkpt><trkpt lat="57.226921" lon="25.1689474"></trkpt><trkpt lat="57.2267415" lon="25.1690795"></trkpt><trkpt lat="57.2266625" lon="25.1692216"></trkpt><trkpt lat="57.2265488" lon="25.1694774"></trkpt><trkpt lat="57.2263397" lon="25.1701855"></trkpt><trkpt lat="57.2262351" lon="25.1707434"></trkpt><trkpt lat="57.2261306" lon="25.1711296"></trkpt><trkpt lat="57.2260383" lon="25.1713216"></trkpt><trkpt lat="57.2258634" lon="25.171474"></trkpt><trkpt lat="57.2257667" lon="25.1715525"></trkpt><trkpt lat="57.2256194" lon="25.1715008"></trkpt><trkpt lat="57.225446" lon="25.1712722"></trkpt><trkpt lat="57.2253355" lon="25.1710242"></trkpt><trkpt lat="57.2252417" lon="25.1705186"></trkpt><trkpt lat="57.2254467" lon="25.1703175"></trkpt><trkpt lat="57.2255831" lon="25.1702577"></trkpt><trkpt lat="57.2256642" lon="25.1701628"></trkpt><trkpt lat="57.2258092" lon="25.1699456"></trkpt><trkpt lat="57.2259201" lon="25.1693796"></trkpt><trkpt lat="57.2259856" lon="25.1691448"></trkpt><trkpt lat="57.2260979" lon="25.1688398"></trkpt><trkpt lat="57.2261431" lon="25.1686713"></trkpt><trkpt lat="57.2262095" lon="25.1683054"></trkpt><trkpt lat="57.2262358" lon="25.1677111"></trkpt><trkpt lat="57.2262067" lon="25.167473"></trkpt><trkpt lat="57.2260391" lon="25.1671775"></trkpt><trkpt lat="57.2258648" lon="25.1669898"></trkpt><trkpt lat="57.2257304" lon="25.1669687"></trkpt><trkpt lat="57.2256441" lon="25.1668288"></trkpt><trkpt lat="57.2256143" lon="25.166679"></trkpt><trkpt lat="57.225652" lon="25.166502"></trkpt><trkpt lat="57.2256811" lon="25.1662552"></trkpt><trkpt lat="57.225713" lon="25.1660299"></trkpt><trkpt lat="57.2257777" lon="25.1658471"></trkpt><trkpt lat="57.2258967" lon="25.1654984"></trkpt><trkpt lat="57.2259076" lon="25.165236"></trkpt><trkpt lat="57.2259054" lon="25.1649406"></trkpt><trkpt lat="57.2258358" lon="25.1644417"></trkpt><trkpt lat="57.2258263" lon="25.1641846"></trkpt><trkpt lat="57.225652" lon="25.1636642"></trkpt><trkpt lat="57.2256114" lon="25.1635221"></trkpt><trkpt lat="57.2256528" lon="25.1634439"></trkpt><trkpt lat="57.2258045" lon="25.1632377"></trkpt><trkpt lat="57.2258866" lon="25.1629182"></trkpt><trkpt lat="57.2260121" lon="25.1627254"></trkpt><trkpt lat="57.226108" lon="25.1626879"></trkpt><trkpt lat="57.226251" lon="25.1628699"></trkpt><trkpt lat="57.2263417" lon="25.1630339"></trkpt><trkpt lat="57.2263878" lon="25.1631037"></trkpt><trkpt lat="57.2265472" lon="25.1630898"></trkpt><trkpt lat="57.2267018" lon="25.1629883"></trkpt><trkpt lat="57.2268855" lon="25.1624246"></trkpt><trkpt lat="57.227096" lon="25.1617353"></trkpt><trkpt lat="57.2272687" lon="25.1610567"></trkpt><trkpt lat="57.2273792" lon="25.1604693"></trkpt><trkpt lat="57.2275499" lon="25.1599431"></trkpt><trkpt lat="57.2276173" lon="25.1598218"></trkpt><trkpt lat="57.2277283" lon="25.1597455"></trkpt><trkpt lat="57.2279722" lon="25.1597589"></trkpt><trkpt lat="57.2280477" lon="25.1596972"></trkpt><trkpt lat="57.2281057" lon="25.1595131"></trkpt><trkpt lat="57.2282119" lon="25.1592443"></trkpt><trkpt lat="57.2282543" lon="25.1589778"></trkpt><trkpt lat="57.2282648" lon="25.158724"></trkpt><trkpt lat="57.2282306" lon="25.1584151"></trkpt><trkpt lat="57.2280833" lon="25.157771"></trkpt><trkpt lat="57.2280288" lon="25.1573986"></trkpt><trkpt lat="57.2281225" lon="25.1570871"></trkpt><trkpt lat="57.2282953" lon="25.1568161"></trkpt><trkpt lat="57.2284137" lon="25.156268"></trkpt><trkpt lat="57.2284661" lon="25.155579"></trkpt><trkpt lat="57.2285049" lon="25.1551489"></trkpt><trkpt lat="57.2286582" lon="25.1548421"></trkpt><trkpt lat="57.2288477" lon="25.1546305"></trkpt><trkpt lat="57.2290161" lon="25.1546144"></trkpt><trkpt lat="57.2291883" lon="25.1544497"></trkpt><trkpt lat="57.2293471" lon="25.1541182"></trkpt><trkpt lat="57.2293885" lon="25.1538445"></trkpt><trkpt lat="57.2293809" lon="25.1535442"></trkpt><trkpt lat="57.2293152" lon="25.1532143"></trkpt><trkpt lat="57.2291916" lon="25.152864"></trkpt><trkpt lat="57.2290466" lon="25.1526403"></trkpt><trkpt lat="57.2289138" lon="25.1525434"></trkpt><trkpt lat="57.228696" lon="25.1524146"></trkpt><trkpt lat="57.2285262" lon="25.1523878"></trkpt><trkpt lat="57.22832" lon="25.1524603"></trkpt><trkpt lat="57.2280869" lon="25.1526108"></trkpt><trkpt lat="57.2279417" lon="25.1527476"></trkpt><trkpt lat="57.2277898" lon="25.1527816"></trkpt><trkpt lat="57.2276876" lon="25.1526028"></trkpt><trkpt lat="57.2276736" lon="25.1524038"></trkpt><trkpt lat="57.2276891" lon="25.1519805"></trkpt><trkpt lat="57.2277653" lon="25.151433"></trkpt><trkpt lat="57.2278602" lon="25.1509444"></trkpt><trkpt lat="57.2280259" lon="25.1506233"></trkpt><trkpt lat="57.2281334" lon="25.1505375"></trkpt><trkpt lat="57.2282658" lon="25.1505216"></trkpt><trkpt lat="57.2284839" lon="25.1506325"></trkpt><trkpt lat="57.22875" lon="25.1508138"></trkpt><trkpt lat="57.2291414" lon="25.1512629"></trkpt><trkpt lat="57.2293925" lon="25.1516455"></trkpt><trkpt lat="57.2295562" lon="25.1518249"></trkpt><trkpt lat="57.2298271" lon="25.1519025"></trkpt><trkpt lat="57.2300764" lon="25.1519315"></trkpt><trkpt lat="57.2302835" lon="25.1518464"></trkpt><trkpt lat="57.2304722" lon="25.1515299"></trkpt><trkpt lat="57.2305877" lon="25.1511992"></trkpt><trkpt lat="57.2306237" lon="25.1509151"></trkpt><trkpt lat="57.2306178" lon="25.1506366"></trkpt><trkpt lat="57.2305844" lon="25.1502911"></trkpt><trkpt lat="57.2305677" lon="25.1497759"></trkpt><trkpt lat="57.2305942" lon="25.1495317"></trkpt><trkpt lat="57.2306792" lon="25.1492389"></trkpt><trkpt lat="57.2307539" lon="25.1490918"></trkpt><trkpt lat="57.2309833" lon="25.1489523"></trkpt><trkpt lat="57.2312337" lon="25.1489117"></trkpt><trkpt lat="57.2313317" lon="25.1489201"></trkpt><trkpt lat="57.2314517" lon="25.1490351"></trkpt><trkpt lat="57.2317066" lon="25.1493296"></trkpt><trkpt lat="57.2318155" lon="25.1496006"></trkpt><trkpt lat="57.2318746" lon="25.1498911"></trkpt><trkpt lat="57.231879" lon="25.1503386"></trkpt><trkpt lat="57.2317745" lon="25.1509854"></trkpt><trkpt lat="57.2317599" lon="25.1515219"></trkpt><trkpt lat="57.2317725" lon="25.1518468"></trkpt><trkpt lat="57.2319567" lon="25.1523118"></trkpt><trkpt lat="57.2321272" lon="25.1525491"></trkpt><trkpt lat="57.2322617" lon="25.1526183"></trkpt><trkpt lat="57.232431" lon="25.1525268"></trkpt><trkpt lat="57.2326092" lon="25.1522541"></trkpt><trkpt lat="57.2327428" lon="25.1520054"></trkpt><trkpt lat="57.2328879" lon="25.1516077"></trkpt><trkpt lat="57.2329765" lon="25.151259"></trkpt><trkpt lat="57.2330094" lon="25.1509821"></trkpt><trkpt lat="57.2330128" lon="25.150854"></trkpt><trkpt lat="57.2331028" lon="25.1507521"></trkpt><trkpt lat="57.2332243" lon="25.1507227"></trkpt><trkpt lat="57.2333433" lon="25.1508332"></trkpt><trkpt lat="57.2334628" lon="25.1511919"></trkpt><trkpt lat="57.2334941" lon="25.1516147"></trkpt><trkpt lat="57.2337167" lon="25.1519152"></trkpt><trkpt lat="57.2339275" lon="25.1523674"></trkpt><trkpt lat="57.2340541" lon="25.1530793"></trkpt><trkpt lat="57.2340492" lon="25.1534167"></trkpt><trkpt lat="57.2340754" lon="25.1537615"></trkpt><trkpt lat="57.2341632" lon="25.1541742"></trkpt><trkpt lat="57.2343655" lon="25.1546474"></trkpt><trkpt lat="57.2345175" lon="25.1549251"></trkpt><trkpt lat="57.2347357" lon="25.1551146"></trkpt><trkpt lat="57.2349065" lon="25.1552401"></trkpt><trkpt lat="57.2351343" lon="25.1552728"></trkpt><trkpt lat="57.2353734" lon="25.1553429"></trkpt><trkpt lat="57.2354627" lon="25.1553479"></trkpt><trkpt lat="57.2355655" lon="25.1553006"></trkpt><trkpt lat="57.2357252" lon="25.1552256"></trkpt><trkpt lat="57.2360909" lon="25.1549252"></trkpt><trkpt lat="57.2362866" lon="25.1548501"></trkpt><trkpt lat="57.2364283" lon="25.1547052"></trkpt><trkpt lat="57.2365735" lon="25.1545615"></trkpt><trkpt lat="57.2367389" lon="25.1544048"></trkpt><trkpt lat="57.2367993" lon="25.1543565"></trkpt><trkpt lat="57.2369386" lon="25.1542493"></trkpt><trkpt lat="57.2370798" lon="25.1541505"></trkpt><trkpt lat="57.2372022" lon="25.1538416"></trkpt><trkpt lat="57.2373683" lon="25.1536484"></trkpt><trkpt lat="57.2374147" lon="25.1535412"></trkpt><trkpt lat="57.2375425" lon="25.1534124"></trkpt><trkpt lat="57.2376528" lon="25.1532868"></trkpt><trkpt lat="57.2376898" lon="25.1531964"></trkpt><trkpt lat="57.2377943" lon="25.1530784"></trkpt><trkpt lat="57.2379547" lon="25.1529618"></trkpt><trkpt lat="57.2380961" lon="25.1529312"></trkpt><trkpt lat="57.2382282" lon="25.1529113"></trkpt><trkpt lat="57.2383002" lon="25.1529645"></trkpt><trkpt lat="57.2385643" lon="25.1528223"></trkpt><trkpt lat="57.2386122" lon="25.1527794"></trkpt><trkpt lat="57.2387951" lon="25.1524146"></trkpt><trkpt lat="57.2389482" lon="25.1522782"></trkpt><trkpt lat="57.2389997" lon="25.1521679"></trkpt><trkpt lat="57.2390984" lon="25.1519104"></trkpt><trkpt lat="57.2391739" lon="25.1517816"></trkpt><trkpt lat="57.2392225" lon="25.1515621"></trkpt><trkpt lat="57.2392436" lon="25.1513847"></trkpt><trkpt lat="57.2391623" lon="25.1509984"></trkpt><trkpt lat="57.2390636" lon="25.1505907"></trkpt><trkpt lat="57.2389997" lon="25.150301"></trkpt><trkpt lat="57.2388992" lon="25.1501392"></trkpt><trkpt lat="57.2386568" lon="25.1496074"></trkpt><trkpt lat="57.2385962" lon="25.1488466"></trkpt><trkpt lat="57.238751" lon="25.1481666"></trkpt><trkpt lat="57.2388855" lon="25.1481031"></trkpt><trkpt lat="57.2392423" lon="25.1480762"></trkpt><trkpt lat="57.2394108" lon="25.148005"></trkpt><trkpt lat="57.2398484" lon="25.1477761"></trkpt><trkpt lat="57.240037" lon="25.1474664"></trkpt><trkpt lat="57.240363" lon="25.1471464"></trkpt><trkpt lat="57.2405776" lon="25.1470764"></trkpt><trkpt lat="57.2408713" lon="25.1467314"></trkpt><trkpt lat="57.2410774" lon="25.1466107"></trkpt><trkpt lat="57.2412104" lon="25.1466122"></trkpt><trkpt lat="57.2412421" lon="25.1466249"></trkpt><trkpt lat="57.2416155" lon="25.1469281"></trkpt><trkpt lat="57.2417305" lon="25.1469621"></trkpt><trkpt lat="57.2421106" lon="25.1467932"></trkpt><trkpt lat="57.2422007" lon="25.1467381"></trkpt><trkpt lat="57.2422617" lon="25.1467234"></trkpt><trkpt lat="57.242303" lon="25.1466899"></trkpt><trkpt lat="57.2423444" lon="25.1466416"></trkpt><trkpt lat="57.2424482" lon="25.1465558"></trkpt><trkpt lat="57.2425026" lon="25.1464713"></trkpt><trkpt lat="57.2425616" lon="25.1464094"></trkpt><trkpt lat="57.2426434" lon="25.1463854"></trkpt><trkpt lat="57.2428581" lon="25.1465083"></trkpt><trkpt lat="57.243162" lon="25.1464879"></trkpt><trkpt lat="57.2433463" lon="25.1464821"></trkpt><trkpt lat="57.2437264" lon="25.1463556"></trkpt><trkpt lat="57.2442136" lon="25.1467109"></trkpt><trkpt lat="57.2444959" lon="25.146811"></trkpt><trkpt lat="57.2447302" lon="25.1467086"></trkpt><trkpt lat="57.2448978" lon="25.1463556"></trkpt><trkpt lat="57.2450162" lon="25.1458678"></trkpt><trkpt lat="57.245118" lon="25.1452871"></trkpt><trkpt lat="57.2451526" lon="25.1448405"></trkpt><trkpt lat="57.2452345" lon="25.1445585"></trkpt><trkpt lat="57.2453472" lon="25.14397"></trkpt><trkpt lat="57.2454503" lon="25.1435666"></trkpt><trkpt lat="57.2453472" lon="25.14397"></trkpt><trkpt lat="57.2452345" lon="25.1445585"></trkpt><trkpt lat="57.245378" lon="25.1445776"></trkpt><trkpt lat="57.2455683" lon="25.1446453"></trkpt><trkpt lat="57.2457929" lon="25.1447535"></trkpt><trkpt lat="57.2458783" lon="25.1448302"></trkpt><trkpt lat="57.2459092" lon="25.1448454"></trkpt><trkpt lat="57.2458793" lon="25.1452243"></trkpt><trkpt lat="57.2458735" lon="25.145414"></trkpt><trkpt lat="57.2458478" lon="25.1457359"></trkpt><trkpt lat="57.2458286" lon="25.1460229"></trkpt><trkpt lat="57.2458238" lon="25.1461402"></trkpt><trkpt lat="57.2457991" lon="25.146472"></trkpt><trkpt lat="57.2458208" lon="25.1467377"></trkpt><trkpt lat="57.2458505" lon="25.1468939"></trkpt><trkpt lat="57.2458176" lon="25.1469897"></trkpt><trkpt lat="57.2457918" lon="25.1473237"></trkpt><trkpt lat="57.2457769" lon="25.1476113"></trkpt><trkpt lat="57.2457594" lon="25.1479052"></trkpt><trkpt lat="57.2457496" lon="25.1481762"></trkpt><trkpt lat="57.2459868" lon="25.1482273"></trkpt><trkpt lat="57.2459668" lon="25.1485955"></trkpt><trkpt lat="57.2467339" lon="25.1493607"></trkpt><trkpt lat="57.2468766" lon="25.1494914"></trkpt><trkpt lat="57.2470971" lon="25.1496059"></trkpt><trkpt lat="57.2472988" lon="25.1497114"></trkpt><trkpt lat="57.2474984" lon="25.1499197"></trkpt><trkpt lat="57.2476249" lon="25.1501869"></trkpt><trkpt lat="57.2476892" lon="25.1503658"></trkpt><trkpt lat="57.2478323" lon="25.1513864"></trkpt><trkpt lat="57.2479943" lon="25.1525304"></trkpt><trkpt lat="57.2481013" lon="25.1528656"></trkpt><trkpt lat="57.2482938" lon="25.1533053"></trkpt><trkpt lat="57.2485544" lon="25.1536514"></trkpt><trkpt lat="57.2488707" lon="25.154019"></trkpt><trkpt lat="57.2490764" lon="25.1533914"></trkpt><trkpt lat="57.2492244" lon="25.1531285"></trkpt><trkpt lat="57.2494072" lon="25.1526242"></trkpt><trkpt lat="57.2495814" lon="25.1524097"></trkpt><trkpt lat="57.2495465" lon="25.1526993"></trkpt><trkpt lat="57.249593" lon="25.1529139"></trkpt><trkpt lat="57.24968" lon="25.1530641"></trkpt><trkpt lat="57.2498019" lon="25.1532036"></trkpt><trkpt lat="57.2498803" lon="25.1533216"></trkpt><trkpt lat="57.2499441" lon="25.1534986"></trkpt><trkpt lat="57.2499993" lon="25.1537615"></trkpt><trkpt lat="57.2500138" lon="25.154019"></trkpt><trkpt lat="57.2500776" lon="25.154196"></trkpt><trkpt lat="57.2502546" lon="25.1546949"></trkpt><trkpt lat="57.2506279" lon="25.1551455"></trkpt><trkpt lat="57.2526435" lon="25.1579844"></trkpt><trkpt lat="57.2528141" lon="25.1582247"></trkpt><trkpt lat="57.2529418" lon="25.15845"></trkpt><trkpt lat="57.2530172" lon="25.1586915"></trkpt><trkpt lat="57.25317" lon="25.1598972"></trkpt><trkpt lat="57.2532146" lon="25.1600808"></trkpt><trkpt lat="57.253315" lon="25.1603408"></trkpt><trkpt lat="57.2533954" lon="25.1604634"></trkpt><trkpt lat="57.2558047" lon="25.1643055"></trkpt><trkpt lat="57.2559467" lon="25.1645866"></trkpt><trkpt lat="57.2561438" lon="25.165092"></trkpt><trkpt lat="57.2562482" lon="25.1655004"></trkpt><trkpt lat="57.2563297" lon="25.1659087"></trkpt><trkpt lat="57.2560838" lon="25.1663352"></trkpt><trkpt lat="57.2548415" lon="25.1685341"></trkpt><trkpt lat="57.2539208" lon="25.1702458"></trkpt><trkpt lat="57.2534958" lon="25.17113"></trkpt><trkpt lat="57.2524637" lon="25.1728899"></trkpt><trkpt lat="57.2521804" lon="25.1734681"></trkpt><trkpt lat="57.2518911" lon="25.1740881"></trkpt><trkpt lat="57.2517051" lon="25.1746219"></trkpt><trkpt lat="57.2515304" lon="25.175322"></trkpt><trkpt lat="57.2512158" lon="25.1767985"></trkpt><trkpt lat="57.249347" lon="25.1866261"></trkpt><trkpt lat="57.2490776" lon="25.187678"></trkpt><trkpt lat="57.2487611" lon="25.1886653"></trkpt><trkpt lat="57.248019" lon="25.1908797"></trkpt><trkpt lat="57.2461429" lon="25.1965153"></trkpt><trkpt lat="57.245572" lon="25.1982233"></trkpt><trkpt lat="57.2444419" lon="25.2016475"></trkpt><trkpt lat="57.2444242" lon="25.2018375"></trkpt><trkpt lat="57.2444437" lon="25.202081"></trkpt><trkpt lat="57.2444827" lon="25.2022239"></trkpt><trkpt lat="57.244548" lon="25.2023625"></trkpt><trkpt lat="57.2446613" lon="25.2025287"></trkpt><trkpt lat="57.2453752" lon="25.2033025"></trkpt><trkpt lat="57.2454491" lon="25.2034385"></trkpt><trkpt lat="57.2454871" lon="25.2036283"></trkpt><trkpt lat="57.2455006" lon="25.2038122"></trkpt><trkpt lat="57.2454653" lon="25.2040295"></trkpt><trkpt lat="57.2453893" lon="25.2042372"></trkpt><trkpt lat="57.2448444" lon="25.2050915"></trkpt><trkpt lat="57.244658" lon="25.2054438"></trkpt><trkpt lat="57.2444697" lon="25.2057818"></trkpt><trkpt lat="57.2442863" lon="25.2061083"></trkpt><trkpt lat="57.2441103" lon="25.2063415"></trkpt><trkpt lat="57.2439747" lon="25.2064495"></trkpt><trkpt lat="57.2433988" lon="25.2066458"></trkpt><trkpt lat="57.2432256" lon="25.2071415"></trkpt><trkpt lat="57.2431457" lon="25.2075557"></trkpt><trkpt lat="57.2429695" lon="25.2089476"></trkpt><trkpt lat="57.2428973" lon="25.209209"></trkpt><trkpt lat="57.2427673" lon="25.209462"></trkpt><trkpt lat="57.2426735" lon="25.2096733"></trkpt><trkpt lat="57.2421533" lon="25.2105994"></trkpt><trkpt lat="57.2420079" lon="25.2109408"></trkpt><trkpt lat="57.2411562" lon="25.2097312"></trkpt><trkpt lat="57.2410529" lon="25.2095736"></trkpt><trkpt lat="57.2410034" lon="25.2093982"></trkpt><trkpt lat="57.240951" lon="25.2091314"></trkpt><trkpt lat="57.2409128" lon="25.2088762"></trkpt><trkpt lat="57.2408583" lon="25.2081645"></trkpt><trkpt lat="57.2407357" lon="25.207733"></trkpt><trkpt lat="57.2406304" lon="25.2075453"></trkpt><trkpt lat="57.2398907" lon="25.2061606"></trkpt><trkpt lat="57.2398356" lon="25.2059034"></trkpt><trkpt lat="57.2396853" lon="25.2044982"></trkpt><trkpt lat="57.2395561" lon="25.2040421"></trkpt><trkpt lat="57.2393777" lon="25.2037311"></trkpt><trkpt lat="57.2390939" lon="25.2035619"></trkpt><trkpt lat="57.2385115" lon="25.2034552"></trkpt><trkpt lat="57.2383345" lon="25.2033923"></trkpt><trkpt lat="57.2382701" lon="25.203565"></trkpt><trkpt lat="57.2381182" lon="25.2032969"></trkpt><trkpt lat="57.2379672" lon="25.2030609"></trkpt><trkpt lat="57.2379553" lon="25.2028191"></trkpt><trkpt lat="57.237861" lon="25.2025777"></trkpt><trkpt lat="57.2377855" lon="25.2023765"></trkpt><trkpt lat="57.2377144" lon="25.2021834"></trkpt><trkpt lat="57.2376389" lon="25.2019796"></trkpt><trkpt lat="57.2375039" lon="25.2016175"></trkpt><trkpt lat="57.2374295" lon="25.2014506"></trkpt><trkpt lat="57.2375597" lon="25.20153"></trkpt><trkpt lat="57.2374776" lon="25.201331"></trkpt><trkpt lat="57.2374208" lon="25.2011668"></trkpt><trkpt lat="57.2372354" lon="25.2006839"></trkpt><trkpt lat="57.2371332" lon="25.2004546"></trkpt><trkpt lat="57.2369204" lon="25.2001501"></trkpt></trkseg></trk></gpx>
