<?xml version="1.0" encoding="UTF-8"?>
<gpx version="1.1" creator="Good Shit" xmlns="http://www.topografix.com/GPX/1/1"><trk><name>Baybachklamm Loop — Traumschleife Baybachklamm official loop</name><trkseg><trkpt lat="50.13301405" lon="7.4523667499999995"></trkpt><trkpt lat="50.1330417" lon="7.4523665"></trkpt><trkpt lat="50.1331659" lon="7.4523654"></trkpt><trkpt lat="50.1334685" lon="7.45258"></trkpt><trkpt lat="50.1337952" lon="7.452669"></trkpt><trkpt lat="50.1339823" lon="7.4526062500000005"></trkpt><trkpt lat="50.1341694" lon="7.4525435"></trkpt><trkpt lat="50.134299" lon="7.4523796"></trkpt><trkpt lat="50.1344657" lon="7.4523869"></trkpt><trkpt lat="50.134672" lon="7.4524191"></trkpt><trkpt lat="50.134740750000006" lon="7.452440550000001"></trkpt><trkpt lat="50.134740750000006" lon="7.45244055"></trkpt><trkpt lat="50.134740750000006" lon="7.452440550000001"></trkpt><trkpt lat="50.1348095" lon="7.452462"></trkpt><trkpt lat="50.1348439" lon="7.4526122"></trkpt><trkpt lat="50.1348508" lon="7.4528911"></trkpt><trkpt lat="50.1348741" lon="7.4531754"></trkpt><trkpt lat="50.1348947" lon="7.4535483"></trkpt><trkpt lat="50.134832349999996" lon="7.453535799999999"></trkpt><trkpt lat="50.13477" lon="7.4535233"></trkpt><trkpt lat="50.1347156" lon="7.4535082"></trkpt><trkpt lat="50.1345682" lon="7.453512"></trkpt><trkpt lat="50.1345618" lon="7.453582"></trkpt><trkpt lat="50.1345289" lon="7.4538205"></trkpt><trkpt lat="50.1344666" lon="7.4543471"></trkpt><trkpt lat="50.13445835" lon="7.454489349999999"></trkpt><trkpt lat="50.1344501" lon="7.4546316"></trkpt><trkpt lat="50.1344183" lon="7.4550738"></trkpt><trkpt lat="50.1343913" lon="7.4553233"></trkpt><trkpt lat="50.134397" lon="7.4555471"></trkpt><trkpt lat="50.1344605" lon="7.455946"></trkpt><trkpt lat="50.134506200000004" lon="7.456216200000002"></trkpt><trkpt lat="50.134506200000004" lon="7.4562162"></trkpt><trkpt lat="50.134506200000004" lon="7.456216200000002"></trkpt><trkpt lat="50.1345519" lon="7.4564864"></trkpt><trkpt lat="50.1345512" lon="7.4567646"></trkpt><trkpt lat="50.1344912" lon="7.4572219"></trkpt><trkpt lat="50.134455700000004" lon="7.457341149999999"></trkpt><trkpt lat="50.134455700000004" lon="7.45734115"></trkpt><trkpt lat="50.134455700000004" lon="7.457341149999999"></trkpt><trkpt lat="50.1344202" lon="7.4574604"></trkpt><trkpt lat="50.1343389" lon="7.4577066"></trkpt><trkpt lat="50.1341697" lon="7.4579024"></trkpt><trkpt lat="50.1339239" lon="7.4580521"></trkpt><trkpt lat="50.13379325" lon="7.458109550000001"></trkpt><trkpt lat="50.13379325" lon="7.45810955"></trkpt><trkpt lat="50.13379325" lon="7.458109550000001"></trkpt><trkpt lat="50.1336626" lon="7.458167"></trkpt><trkpt lat="50.1335223" lon="7.4583105"></trkpt><trkpt lat="50.1334568" lon="7.458435"></trkpt><trkpt lat="50.1334647" lon="7.4585836"></trkpt><trkpt lat="50.1335047" lon="7.4586921"></trkpt><trkpt lat="50.1334974" lon="7.4589222"></trkpt><trkpt lat="50.133494150000004" lon="7.45895235"></trkpt><trkpt lat="50.133494150000004" lon="7.458952350000001"></trkpt><trkpt lat="50.133494150000004" lon="7.45895235"></trkpt><trkpt lat="50.1334909" lon="7.4589825"></trkpt><trkpt lat="50.1335068" lon="7.4590348"></trkpt><trkpt lat="50.1335658" lon="7.4591177"></trkpt><trkpt lat="50.1336031" lon="7.4591783"></trkpt><trkpt lat="50.1336863" lon="7.4591862"></trkpt><trkpt lat="50.1338097" lon="7.4592063"></trkpt><trkpt lat="50.1339014" lon="7.4592313"></trkpt><trkpt lat="50.1339818" lon="7.4592976"></trkpt><trkpt lat="50.1340603" lon="7.4593311"></trkpt><trkpt lat="50.1342064" lon="7.4594794"></trkpt><trkpt lat="50.13429205" lon="7.45971945"></trkpt><trkpt lat="50.1343777" lon="7.4599595"></trkpt><trkpt lat="50.1344121" lon="7.4601204"></trkpt><trkpt lat="50.1347009" lon="7.4607641"></trkpt><trkpt lat="50.1348265" lon="7.460989200000003"></trkpt><trkpt lat="50.1348265" lon="7.4609892"></trkpt><trkpt lat="50.1348265" lon="7.460989200000003"></trkpt><trkpt lat="50.1349521" lon="7.4612143"></trkpt><trkpt lat="50.135005" lon="7.4615445"></trkpt><trkpt lat="50.1349457" lon="7.4617931"></trkpt><trkpt lat="50.1348453" lon="7.4620087"></trkpt><trkpt lat="50.134824699999996" lon="7.462083800000002"></trkpt><trkpt lat="50.134824699999996" lon="7.4620838"></trkpt><trkpt lat="50.134824699999996" lon="7.462083800000002"></trkpt><trkpt lat="50.1348041" lon="7.4621589"></trkpt><trkpt lat="50.1347215" lon="7.4622125"></trkpt><trkpt lat="50.1346038" lon="7.4622501"></trkpt><trkpt lat="50.13443" lon="7.4623088"></trkpt><trkpt lat="50.133863" lon="7.4632312"></trkpt><trkpt lat="50.13386955" lon="7.46339485"></trkpt><trkpt lat="50.1338761" lon="7.4635585"></trkpt><trkpt lat="50.1338062" lon="7.4640088"></trkpt><trkpt lat="50.1337318" lon="7.4645204"></trkpt><trkpt lat="50.1337034" lon="7.464742099999999"></trkpt><trkpt lat="50.1337034" lon="7.4647421"></trkpt><trkpt lat="50.1337034" lon="7.464742099999999"></trkpt><trkpt lat="50.133675" lon="7.4649638"></trkpt><trkpt lat="50.1336975" lon="7.4654142"></trkpt><trkpt lat="50.1337823" lon="7.4657878"></trkpt><trkpt lat="50.133785700000004" lon="7.465836600000001"></trkpt><trkpt lat="50.133785700000004" lon="7.4658366"></trkpt><trkpt lat="50.133785700000004" lon="7.465836600000001"></trkpt><trkpt lat="50.1337891" lon="7.4658854"></trkpt><trkpt lat="50.1336688" lon="7.4657387"></trkpt><trkpt lat="50.1336097" lon="7.4656383"></trkpt><trkpt lat="50.1335715" lon="7.4654755"></trkpt><trkpt lat="50.1335332" lon="7.4652884"></trkpt><trkpt lat="50.1334845" lon="7.4651419"></trkpt><trkpt lat="50.1334411" lon="7.4650795"></trkpt><trkpt lat="50.1333163" lon="7.4650308"></trkpt><trkpt lat="50.1328816" lon="7.46473235"></trkpt><trkpt lat="50.1324469" lon="7.4644339"></trkpt><trkpt lat="50.13236695" lon="7.46439435"></trkpt><trkpt lat="50.132287" lon="7.4643548"></trkpt><trkpt lat="50.1321429" lon="7.4632977"></trkpt><trkpt lat="50.131747000000004" lon="7.4631881500000015"></trkpt><trkpt lat="50.131747000000004" lon="7.463188150000001"></trkpt><trkpt lat="50.131747000000004" lon="7.4631881500000015"></trkpt><trkpt lat="50.1313511" lon="7.4630786"></trkpt><trkpt lat="50.131167" lon="7.4630598"></trkpt><trkpt lat="50.13095205" lon="7.46308905"></trkpt><trkpt lat="50.1307371" lon="7.4631183"></trkpt><trkpt lat="50.1306472" lon="7.4631711"></trkpt><trkpt lat="50.1305615" lon="7.4632859"></trkpt><trkpt lat="50.1301502" lon="7.4640673"></trkpt><trkpt lat="50.13010335" lon="7.464147800000003"></trkpt><trkpt lat="50.13010335" lon="7.4641478"></trkpt><trkpt lat="50.13010335" lon="7.464147800000003"></trkpt><trkpt lat="50.1300565" lon="7.4642283"></trkpt><trkpt lat="50.1299397" lon="7.464325"></trkpt><trkpt lat="50.1297148" lon="7.4645066"></trkpt><trkpt lat="50.1295642" lon="7.4646265"></trkpt><trkpt lat="50.129183" lon="7.4647433"></trkpt><trkpt lat="50.1291399" lon="7.4647347"></trkpt><trkpt lat="50.1290968" lon="7.4647261"></trkpt><trkpt lat="50.1290632" lon="7.464874"></trkpt><trkpt lat="50.129104" lon="7.4650265"></trkpt><trkpt lat="50.1291653" lon="7.465158"></trkpt><trkpt lat="50.1292656" lon="7.4652261"></trkpt><trkpt lat="50.1293068" lon="7.4653521"></trkpt><trkpt lat="50.1293663" lon="7.4654963"></trkpt><trkpt lat="50.1294721" lon="7.4657297"></trkpt><trkpt lat="50.12949175" lon="7.465825199999999"></trkpt><trkpt lat="50.1295114" lon="7.4659207"></trkpt><trkpt lat="50.1294881" lon="7.4660846"></trkpt><trkpt lat="50.1294341" lon="7.4662453"></trkpt><trkpt lat="50.1295211" lon="7.4663745"></trkpt><trkpt lat="50.1296303" lon="7.466798"></trkpt><trkpt lat="50.1296762" lon="7.4669803"></trkpt><trkpt lat="50.1296922" lon="7.4670432"></trkpt><trkpt lat="50.1297082" lon="7.4671061"></trkpt><trkpt lat="50.1297249" lon="7.4671777"></trkpt><trkpt lat="50.1297096" lon="7.4672277"></trkpt><trkpt lat="50.1296776" lon="7.4672537"></trkpt><trkpt lat="50.1296274" lon="7.4672607"></trkpt><trkpt lat="50.1295725" lon="7.4672618"></trkpt><trkpt lat="50.1295151" lon="7.4672237"></trkpt><trkpt lat="50.1294558" lon="7.467143"></trkpt><trkpt lat="50.1294117" lon="7.4670473"></trkpt><trkpt lat="50.1293682" lon="7.4670667"></trkpt><trkpt lat="50.1293577" lon="7.4671387"></trkpt><trkpt lat="50.1293719" lon="7.4671902"></trkpt><trkpt lat="50.129431" lon="7.4672489"></trkpt><trkpt lat="50.1294323" lon="7.4673571"></trkpt><trkpt lat="50.1294813" lon="7.4674496"></trkpt><trkpt lat="50.1294356" lon="7.4674825"></trkpt><trkpt lat="50.1294812" lon="7.4676842"></trkpt><trkpt lat="50.129449449999996" lon="7.467696300000001"></trkpt><trkpt lat="50.129449449999996" lon="7.4676963"></trkpt><trkpt lat="50.129449449999996" lon="7.467696300000001"></trkpt><trkpt lat="50.1294177" lon="7.4677084"></trkpt><trkpt lat="50.1293696" lon="7.4677527"></trkpt><trkpt lat="50.1293752" lon="7.4678063"></trkpt><trkpt lat="50.1295957" lon="7.4678479"></trkpt><trkpt lat="50.1296022" lon="7.4678891"></trkpt><trkpt lat="50.1296132" lon="7.4679712"></trkpt><trkpt lat="50.1296189" lon="7.4679954"></trkpt><trkpt lat="50.1297539" lon="7.4679598"></trkpt><trkpt lat="50.129967" lon="7.4678234"></trkpt><trkpt lat="50.1300736" lon="7.467669899999998"></trkpt><trkpt lat="50.1300736" lon="7.467669900000001"></trkpt><trkpt lat="50.1300736" lon="7.467669899999998"></trkpt><trkpt lat="50.1301802" lon="7.4675164"></trkpt><trkpt lat="50.1302688" lon="7.4672659"></trkpt><trkpt lat="50.1302514" lon="7.4672406"></trkpt><trkpt lat="50.130214" lon="7.4671914"></trkpt><trkpt lat="50.1301983" lon="7.4671639"></trkpt><trkpt lat="50.1302098" lon="7.4670592"></trkpt><trkpt lat="50.1302425" lon="7.4668931"></trkpt><trkpt lat="50.1303495" lon="7.466869"></trkpt><trkpt lat="50.13039195" lon="7.466757849999998"></trkpt><trkpt lat="50.13039195" lon="7.4667578500000005"></trkpt><trkpt lat="50.13039195" lon="7.466757849999998"></trkpt><trkpt lat="50.1304344" lon="7.4666467"></trkpt><trkpt lat="50.1305386" lon="7.466492"></trkpt><trkpt lat="50.1306064" lon="7.4663849"></trkpt><trkpt lat="50.1306981" lon="7.4662716"></trkpt><trkpt lat="50.130878" lon="7.4661258"></trkpt><trkpt lat="50.1311052" lon="7.4661418"></trkpt><trkpt lat="50.13121645" lon="7.4661195000000005"></trkpt><trkpt lat="50.13121645" lon="7.4661195"></trkpt><trkpt lat="50.13121645" lon="7.4661195000000005"></trkpt><trkpt lat="50.1313277" lon="7.4660972"></trkpt><trkpt lat="50.1314549" lon="7.4660162"></trkpt><trkpt lat="50.1317697" lon="7.4660893"></trkpt><trkpt lat="50.1322612" lon="7.4663961"></trkpt><trkpt lat="50.1324315" lon="7.46652815"></trkpt><trkpt lat="50.1326018" lon="7.4666602"></trkpt><trkpt lat="50.1328979" lon="7.4669344"></trkpt><trkpt lat="50.1331346" lon="7.4671602"></trkpt><trkpt lat="50.13333485" lon="7.467292699999998"></trkpt><trkpt lat="50.13333485" lon="7.4672927"></trkpt><trkpt lat="50.13333485" lon="7.467292699999998"></trkpt><trkpt lat="50.1335351" lon="7.4674252"></trkpt><trkpt lat="50.1338529" lon="7.4675896"></trkpt><trkpt lat="50.1341545" lon="7.4677903"></trkpt><trkpt lat="50.1342098" lon="7.4678686"></trkpt><trkpt lat="50.1342651" lon="7.4679469"></trkpt><trkpt lat="50.134322" lon="7.4680508"></trkpt><trkpt lat="50.1343835" lon="7.468125"></trkpt><trkpt lat="50.1344507" lon="7.4682124"></trkpt><trkpt lat="50.1345738" lon="7.4683128"></trkpt><trkpt lat="50.134683" lon="7.4684132"></trkpt><trkpt lat="50.1348117" lon="7.4684743"></trkpt><trkpt lat="50.1348789" lon="7.4685747"></trkpt><trkpt lat="50.13489985" lon="7.468585649999998"></trkpt><trkpt lat="50.13489985" lon="7.46858565"></trkpt><trkpt lat="50.13489985" lon="7.468585649999998"></trkpt><trkpt lat="50.1349208" lon="7.4685966"></trkpt><trkpt lat="50.1349712" lon="7.4685791"></trkpt><trkpt lat="50.1350412" lon="7.468518"></trkpt><trkpt lat="50.1351279" lon="7.468387"></trkpt><trkpt lat="50.1351615" lon="7.4682866"></trkpt><trkpt lat="50.1351783" lon="7.4681687"></trkpt><trkpt lat="50.1351475" lon="7.468077"></trkpt><trkpt lat="50.1351308" lon="7.4679383"></trkpt><trkpt lat="50.1350978" lon="7.467851"></trkpt><trkpt lat="50.1351055" lon="7.4677889"></trkpt><trkpt lat="50.1351357" lon="7.4677615"></trkpt><trkpt lat="50.1351622" lon="7.4677359"></trkpt><trkpt lat="50.1352062" lon="7.4676478"></trkpt><trkpt lat="50.1351909" lon="7.46759965"></trkpt><trkpt lat="50.1351756" lon="7.4675515"></trkpt><trkpt lat="50.1351667" lon="7.467508"></trkpt><trkpt lat="50.1350924" lon="7.4674197"></trkpt><trkpt lat="50.1349247" lon="7.4673653"></trkpt><trkpt lat="50.1348606" lon="7.4672538"></trkpt><trkpt lat="50.1348116" lon="7.4670738"></trkpt><trkpt lat="50.1347991" lon="7.4669343"></trkpt><trkpt lat="50.1348012" lon="7.4667403"></trkpt><trkpt lat="50.1348225" lon="7.4665385"></trkpt><trkpt lat="50.13481455" lon="7.466454250000001"></trkpt><trkpt lat="50.13481455" lon="7.46645425"></trkpt><trkpt lat="50.13481455" lon="7.466454250000001"></trkpt><trkpt lat="50.1348066" lon="7.46637"></trkpt><trkpt lat="50.1348003" lon="7.466286"></trkpt><trkpt lat="50.1348173" lon="7.4661081"></trkpt><trkpt lat="50.1348834" lon="7.4656809"></trkpt><trkpt lat="50.1349231" lon="7.4654479"></trkpt><trkpt lat="50.1350271" lon="7.4653816"></trkpt><trkpt lat="50.13503655" lon="7.46535075"></trkpt><trkpt lat="50.135046" lon="7.4653199"></trkpt><trkpt lat="50.1349669" lon="7.4652475"></trkpt><trkpt lat="50.1350408" lon="7.4651536"></trkpt><trkpt lat="50.1350531" lon="7.4649739"></trkpt><trkpt lat="50.1350433" lon="7.4647872"></trkpt><trkpt lat="50.1350617" lon="7.4646246"></trkpt><trkpt lat="50.1351632" lon="7.4643189"></trkpt><trkpt lat="50.1353615" lon="7.4640009"></trkpt><trkpt lat="50.1354183" lon="7.463871800000002"></trkpt><trkpt lat="50.1354183" lon="7.4638718"></trkpt><trkpt lat="50.1354183" lon="7.463871800000002"></trkpt><trkpt lat="50.1354751" lon="7.4637427"></trkpt><trkpt lat="50.135909" lon="7.4629834"></trkpt><trkpt lat="50.1360378" lon="7.462781200000003"></trkpt><trkpt lat="50.1360378" lon="7.4627812"></trkpt><trkpt lat="50.1360378" lon="7.462781200000003"></trkpt><trkpt lat="50.1361666" lon="7.462579"></trkpt><trkpt lat="50.1363542" lon="7.4623044"></trkpt><trkpt lat="50.1365816" lon="7.4620067"></trkpt><trkpt lat="50.13664805" lon="7.46189105"></trkpt><trkpt lat="50.1367145" lon="7.4617754"></trkpt><trkpt lat="50.1367968" lon="7.4615685"></trkpt><trkpt lat="50.1368623" lon="7.4614334"></trkpt><trkpt lat="50.136865" lon="7.4613353"></trkpt><trkpt lat="50.1368133" lon="7.4610606"></trkpt><trkpt lat="50.1368261" lon="7.4609442"></trkpt><trkpt lat="50.1367068" lon="7.4607838"></trkpt><trkpt lat="50.136656349999996" lon="7.460669249999998"></trkpt><trkpt lat="50.136656349999996" lon="7.4606692500000005"></trkpt><trkpt lat="50.136656349999996" lon="7.460669249999998"></trkpt><trkpt lat="50.1366059" lon="7.4605547"></trkpt><trkpt lat="50.136561" lon="7.4604193"></trkpt><trkpt lat="50.136482" lon="7.4602706"></trkpt><trkpt lat="50.136388" lon="7.4599527"></trkpt><trkpt lat="50.1362039" lon="7.4597227"></trkpt><trkpt lat="50.1361455" lon="7.45950205"></trkpt><trkpt lat="50.1360871" lon="7.4592814"></trkpt><trkpt lat="50.1360706" lon="7.4590341"></trkpt><trkpt lat="50.1361005" lon="7.4588345"></trkpt><trkpt lat="50.1362803" lon="7.4584106"></trkpt><trkpt lat="50.13633865" lon="7.458345850000002"></trkpt><trkpt lat="50.13633865" lon="7.45834585"></trkpt><trkpt lat="50.13633865" lon="7.458345850000002"></trkpt><trkpt lat="50.136397" lon="7.4582811"></trkpt><trkpt lat="50.1365489" lon="7.4582148"></trkpt><trkpt lat="50.1367261" lon="7.4580155"></trkpt><trkpt lat="50.1370439" lon="7.4577581"></trkpt><trkpt lat="50.13724345" lon="7.45754305"></trkpt><trkpt lat="50.137443" lon="7.457328"></trkpt><trkpt lat="50.1378431" lon="7.4569892"></trkpt><trkpt lat="50.13790685" lon="7.4569205499999995"></trkpt><trkpt lat="50.1379706" lon="7.4568519"></trkpt><trkpt lat="50.1381211" lon="7.456721"></trkpt><trkpt lat="50.138218" lon="7.4566108"></trkpt><trkpt lat="50.138224" lon="7.4565124"></trkpt><trkpt lat="50.1381838" lon="7.4564082"></trkpt><trkpt lat="50.1380641" lon="7.456327"></trkpt><trkpt lat="50.1378467" lon="7.4562846"></trkpt><trkpt lat="50.137579099999996" lon="7.456200249999999"></trkpt><trkpt lat="50.137579099999996" lon="7.45620025"></trkpt><trkpt lat="50.137579099999996" lon="7.456200249999999"></trkpt><trkpt lat="50.1373115" lon="7.4561159"></trkpt><trkpt lat="50.1369276" lon="7.4559075"></trkpt><trkpt lat="50.13681475" lon="7.4558257"></trkpt><trkpt lat="50.1367019" lon="7.4557439"></trkpt><trkpt lat="50.1365505" lon="7.4555816"></trkpt><trkpt lat="50.1364678" lon="7.4553877"></trkpt><trkpt lat="50.1364137" lon="7.4551179"></trkpt><trkpt lat="50.1363794" lon="7.454788"></trkpt><trkpt lat="50.13637715" lon="7.45457765"></trkpt><trkpt lat="50.1363749" lon="7.4543673"></trkpt><trkpt lat="50.1364132" lon="7.4542073"></trkpt><trkpt lat="50.1365641" lon="7.4535764"></trkpt><trkpt lat="50.136628" lon="7.45362665"></trkpt><trkpt lat="50.1366919" lon="7.4536769"></trkpt><trkpt lat="50.1367701" lon="7.4537215"></trkpt><trkpt lat="50.1368536" lon="7.4537458"></trkpt><trkpt lat="50.1369" lon="7.4536142"></trkpt><trkpt lat="50.1370186" lon="7.4530579"></trkpt><trkpt lat="50.1371125" lon="7.4527364"></trkpt><trkpt lat="50.1371453" lon="7.4526342"></trkpt><trkpt lat="50.1371781" lon="7.452532"></trkpt><trkpt lat="50.1372079" lon="7.4524393"></trkpt><trkpt lat="50.1373421" lon="7.452136"></trkpt><trkpt lat="50.1374817" lon="7.4520212"></trkpt><trkpt lat="50.1376214" lon="7.451984"></trkpt><trkpt lat="50.1377021" lon="7.4519665"></trkpt><trkpt lat="50.13769625" lon="7.4519285"></trkpt><trkpt lat="50.1376904" lon="7.4518905"></trkpt><trkpt lat="50.1376915" lon="7.4518154"></trkpt><trkpt lat="50.1376741" lon="7.4517246"></trkpt><trkpt lat="50.1377068" lon="7.4517172"></trkpt><trkpt lat="50.1378748" lon="7.4516349"></trkpt><trkpt lat="50.1379941" lon="7.4516288"></trkpt><trkpt lat="50.1380738" lon="7.4515629"></trkpt><trkpt lat="50.1381171" lon="7.451445"></trkpt><trkpt lat="50.1381784" lon="7.4513027"></trkpt><trkpt lat="50.1382408" lon="7.451061"></trkpt><trkpt lat="50.1382706" lon="7.4509431500000005"></trkpt><trkpt lat="50.1383004" lon="7.4508253"></trkpt><trkpt lat="50.1384329" lon="7.45061"></trkpt><trkpt lat="50.1385755" lon="7.4504068"></trkpt><trkpt lat="50.1387607" lon="7.4502704"></trkpt><trkpt lat="50.1389441" lon="7.4502046"></trkpt><trkpt lat="50.1390572" lon="7.450135400000001"></trkpt><trkpt lat="50.1391703" lon="7.4500662"></trkpt><trkpt lat="50.1393983" lon="7.4499761"></trkpt><trkpt lat="50.1396901" lon="7.4499355"></trkpt><trkpt lat="50.1398875" lon="7.4498577"></trkpt><trkpt lat="50.1399981" lon="7.4497915"></trkpt><trkpt lat="50.1401087" lon="7.4497253"></trkpt><trkpt lat="50.1402051" lon="7.449614"></trkpt><trkpt lat="50.1402938" lon="7.4494461"></trkpt><trkpt lat="50.1403657" lon="7.4493034"></trkpt><trkpt lat="50.1404854" lon="7.4490717"></trkpt><trkpt lat="50.1405851" lon="7.448827"></trkpt><trkpt lat="50.140635" lon="7.448697499999997"></trkpt><trkpt lat="50.140635" lon="7.4486975"></trkpt><trkpt lat="50.140635" lon="7.448697499999997"></trkpt><trkpt lat="50.1406849" lon="7.448568"></trkpt><trkpt lat="50.1408737" lon="7.4483959"></trkpt><trkpt lat="50.1409448" lon="7.4482224"></trkpt><trkpt lat="50.1411053" lon="7.4480373"></trkpt><trkpt lat="50.1412342" lon="7.4480123"></trkpt><trkpt lat="50.1413918" lon="7.448021450000001"></trkpt><trkpt lat="50.1415494" lon="7.4480306"></trkpt><trkpt lat="50.1417488" lon="7.4480317"></trkpt><trkpt lat="50.1420435" lon="7.4481229"></trkpt><trkpt lat="50.1421013" lon="7.44821625"></trkpt><trkpt lat="50.1421591" lon="7.4483096"></trkpt><trkpt lat="50.1422406" lon="7.4486545"></trkpt><trkpt lat="50.1423012" lon="7.4491879"></trkpt><trkpt lat="50.1423985" lon="7.4493549"></trkpt><trkpt lat="50.142452750000004" lon="7.449426200000002"></trkpt><trkpt lat="50.142452750000004" lon="7.4494261999999996"></trkpt><trkpt lat="50.142452750000004" lon="7.449426200000002"></trkpt><trkpt lat="50.142507" lon="7.4494975"></trkpt><trkpt lat="50.1425775" lon="7.4496306"></trkpt><trkpt lat="50.1426243" lon="7.4498747"></trkpt><trkpt lat="50.1428572" lon="7.4502148"></trkpt><trkpt lat="50.142971" lon="7.4503011"></trkpt><trkpt lat="50.14303635" lon="7.45029495"></trkpt><trkpt lat="50.1431017" lon="7.4502888"></trkpt><trkpt lat="50.1431353" lon="7.4501552"></trkpt><trkpt lat="50.1431637" lon="7.4500233"></trkpt><trkpt lat="50.1431389" lon="7.4497625"></trkpt><trkpt lat="50.1430816" lon="7.4494328"></trkpt><trkpt lat="50.1430756" lon="7.4490917"></trkpt><trkpt lat="50.1430953" lon="7.448819100000001"></trkpt><trkpt lat="50.1430953" lon="7.4488191"></trkpt><trkpt lat="50.1430953" lon="7.448819100000001"></trkpt><trkpt lat="50.143115" lon="7.4485465"></trkpt><trkpt lat="50.1431558" lon="7.4481538"></trkpt><trkpt lat="50.1432083" lon="7.4478561"></trkpt><trkpt lat="50.1431792" lon="7.4476291"></trkpt><trkpt lat="50.1431311" lon="7.44748005"></trkpt><trkpt lat="50.143083" lon="7.447331"></trkpt><trkpt lat="50.1429664" lon="7.4470838"></trkpt><trkpt lat="50.1428197" lon="7.4469341"></trkpt><trkpt lat="50.1426607" lon="7.4466669"></trkpt><trkpt lat="50.14261125" lon="7.44653215"></trkpt><trkpt lat="50.1425618" lon="7.4463974"></trkpt><trkpt lat="50.142507" lon="7.4462405"></trkpt><trkpt lat="50.1424953" lon="7.4460372"></trkpt><trkpt lat="50.1425589" lon="7.4458273"></trkpt><trkpt lat="50.1427561" lon="7.4455665"></trkpt><trkpt lat="50.1427676" lon="7.4455582"></trkpt><trkpt lat="50.1427791" lon="7.4455499"></trkpt><trkpt lat="50.1429518" lon="7.4454254"></trkpt><trkpt lat="50.1430296" lon="7.4453693"></trkpt><trkpt lat="50.1431684" lon="7.4452835"></trkpt><trkpt lat="50.1431919" lon="7.4451035"></trkpt><trkpt lat="50.1431219" lon="7.444926"></trkpt><trkpt lat="50.1429775" lon="7.4447446"></trkpt><trkpt lat="50.142916650000004" lon="7.444669850000003"></trkpt><trkpt lat="50.142916650000004" lon="7.44466985"></trkpt><trkpt lat="50.142916650000004" lon="7.444669850000003"></trkpt><trkpt lat="50.1428558" lon="7.4445951"></trkpt><trkpt lat="50.1427544" lon="7.4445971"></trkpt><trkpt lat="50.1426169" lon="7.4443719"></trkpt><trkpt lat="50.1424822" lon="7.4440296"></trkpt><trkpt lat="50.1424058" lon="7.443756"></trkpt><trkpt lat="50.142382749999996" lon="7.443650699999997"></trkpt><trkpt lat="50.142382749999996" lon="7.443650699999999"></trkpt><trkpt lat="50.142382749999996" lon="7.443650699999997"></trkpt><trkpt lat="50.1423597" lon="7.4435454"></trkpt><trkpt lat="50.1423525" lon="7.4433735"></trkpt><trkpt lat="50.1421055" lon="7.4429026"></trkpt><trkpt lat="50.1417889" lon="7.4425416"></trkpt><trkpt lat="50.1416519" lon="7.44243865"></trkpt><trkpt lat="50.1415149" lon="7.4423357"></trkpt><trkpt lat="50.1411839" lon="7.4420835"></trkpt><trkpt lat="50.140822" lon="7.4419368"></trkpt><trkpt lat="50.1407551" lon="7.441873599999999"></trkpt><trkpt lat="50.1406882" lon="7.4418104"></trkpt><trkpt lat="50.1406219" lon="7.4415668"></trkpt><trkpt lat="50.1405127" lon="7.4413649"></trkpt><trkpt lat="50.1403658" lon="7.4410036"></trkpt><trkpt lat="50.1402715" lon="7.4406267"></trkpt><trkpt lat="50.1402976" lon="7.440613150000002"></trkpt><trkpt lat="50.1402976" lon="7.44061315"></trkpt><trkpt lat="50.1402976" lon="7.440613150000002"></trkpt><trkpt lat="50.1403237" lon="7.4405996"></trkpt><trkpt lat="50.1403763" lon="7.4405776"></trkpt><trkpt lat="50.1403642" lon="7.4404974"></trkpt><trkpt lat="50.1403478" lon="7.4403968"></trkpt><trkpt lat="50.1403065" lon="7.4402211"></trkpt><trkpt lat="50.1402928" lon="7.4401072"></trkpt><trkpt lat="50.1402894" lon="7.439847"></trkpt><trkpt lat="50.1402938" lon="7.4397333"></trkpt><trkpt lat="50.1403159" lon="7.4394448"></trkpt><trkpt lat="50.14031215" lon="7.4393186"></trkpt><trkpt lat="50.1403084" lon="7.4391924"></trkpt><trkpt lat="50.1402928" lon="7.4386346"></trkpt><trkpt lat="50.1402585" lon="7.4385247"></trkpt><trkpt lat="50.1402045" lon="7.4385183"></trkpt><trkpt lat="50.1400882" lon="7.4385379"></trkpt><trkpt lat="50.1400152" lon="7.4383106"></trkpt><trkpt lat="50.13984295" lon="7.4378769"></trkpt><trkpt lat="50.1396707" lon="7.4374432"></trkpt><trkpt lat="50.1393619" lon="7.4369052"></trkpt><trkpt lat="50.1390387" lon="7.43645995"></trkpt><trkpt lat="50.1387155" lon="7.4360147"></trkpt><trkpt lat="50.138594850000004" lon="7.435815650000003"></trkpt><trkpt lat="50.138594850000004" lon="7.43581565"></trkpt><trkpt lat="50.138594850000004" lon="7.435815650000003"></trkpt><trkpt lat="50.1384742" lon="7.4356166"></trkpt><trkpt lat="50.1383818" lon="7.4353406"></trkpt><trkpt lat="50.1383375" lon="7.4348797"></trkpt><trkpt lat="50.138291699999996" lon="7.4347198999999975"></trkpt><trkpt lat="50.138291699999996" lon="7.434719899999999"></trkpt><trkpt lat="50.138291699999996" lon="7.4347198999999975"></trkpt><trkpt lat="50.1382459" lon="7.4345601"></trkpt><trkpt lat="50.1379879" lon="7.4343368"></trkpt><trkpt lat="50.137661" lon="7.4343135"></trkpt><trkpt lat="50.137352750000005" lon="7.434332599999999"></trkpt><trkpt lat="50.1370445" lon="7.4343517"></trkpt><trkpt lat="50.1365938" lon="7.4344851"></trkpt><trkpt lat="50.136463500000005" lon="7.4344904"></trkpt><trkpt lat="50.1363332" lon="7.4344957"></trkpt><trkpt lat="50.1361299" lon="7.4344804"></trkpt><trkpt lat="50.1360353" lon="7.4344475"></trkpt><trkpt lat="50.1359638" lon="7.4345312"></trkpt><trkpt lat="50.1358596" lon="7.4345104"></trkpt><trkpt lat="50.1357287" lon="7.434462"></trkpt><trkpt lat="50.1356465" lon="7.4344263999999995"></trkpt><trkpt lat="50.1355643" lon="7.4343908"></trkpt><trkpt lat="50.1355076" lon="7.4343458"></trkpt><trkpt lat="50.1354474" lon="7.434272"></trkpt><trkpt lat="50.1353847" lon="7.4342358"></trkpt><trkpt lat="50.1352848" lon="7.4342671"></trkpt><trkpt lat="50.1352617" lon="7.4344402"></trkpt><trkpt lat="50.135125" lon="7.4347356"></trkpt><trkpt lat="50.1351044" lon="7.434820999999998"></trkpt><trkpt lat="50.1351044" lon="7.4348209999999995"></trkpt><trkpt lat="50.1351044" lon="7.434820999999998"></trkpt><trkpt lat="50.1350838" lon="7.4349064"></trkpt><trkpt lat="50.1350941" lon="7.4349564"></trkpt><trkpt lat="50.1351387" lon="7.4350073"></trkpt><trkpt lat="50.1351663" lon="7.4350619"></trkpt><trkpt lat="50.1350496" lon="7.4355871"></trkpt><trkpt lat="50.1348917" lon="7.4358616"></trkpt><trkpt lat="50.13471105" lon="7.43619375"></trkpt><trkpt lat="50.1345304" lon="7.4365259"></trkpt><trkpt lat="50.1344749" lon="7.4366325"></trkpt><trkpt lat="50.1344246" lon="7.4367313"></trkpt><trkpt lat="50.1338039" lon="7.4384101"></trkpt><trkpt lat="50.1336982" lon="7.43865865"></trkpt><trkpt lat="50.1335925" lon="7.4389072"></trkpt><trkpt lat="50.1334215" lon="7.4393032"></trkpt><trkpt lat="50.1327606" lon="7.4407285"></trkpt><trkpt lat="50.132613649999996" lon="7.441076200000002"></trkpt><trkpt lat="50.132613649999996" lon="7.4410761999999995"></trkpt><trkpt lat="50.132613649999996" lon="7.441076200000002"></trkpt><trkpt lat="50.1324667" lon="7.4414239"></trkpt><trkpt lat="50.1323974" lon="7.4415846"></trkpt><trkpt lat="50.132449" lon="7.4416462"></trkpt><trkpt lat="50.1326314" lon="7.4418059"></trkpt><trkpt lat="50.1327109" lon="7.44188095"></trkpt><trkpt lat="50.1327904" lon="7.441956"></trkpt><trkpt lat="50.1328824" lon="7.4420231"></trkpt><trkpt lat="50.1327397" lon="7.4425558"></trkpt><trkpt lat="50.1325068" lon="7.4432641"></trkpt><trkpt lat="50.132517750000005" lon="7.443317450000002"></trkpt><trkpt lat="50.132517750000005" lon="7.44331745"></trkpt><trkpt lat="50.132517750000005" lon="7.443317450000002"></trkpt><trkpt lat="50.1325287" lon="7.4433708"></trkpt><trkpt lat="50.1325848" lon="7.4435377"></trkpt><trkpt lat="50.1326232" lon="7.4437169"></trkpt><trkpt lat="50.1326166" lon="7.4438716"></trkpt><trkpt lat="50.1325713" lon="7.4440445"></trkpt><trkpt lat="50.1325685" lon="7.4441694"></trkpt><trkpt lat="50.132597" lon="7.4442562"></trkpt><trkpt lat="50.1328674" lon="7.444536"></trkpt><trkpt lat="50.13303915" lon="7.444699"></trkpt><trkpt lat="50.1332109" lon="7.444862"></trkpt><trkpt lat="50.1332622" lon="7.444899"></trkpt><trkpt lat="50.1335009" lon="7.4450451"></trkpt><trkpt lat="50.1341231" lon="7.4458524"></trkpt><trkpt lat="50.1341414" lon="7.4458927500000005"></trkpt><trkpt lat="50.1341597" lon="7.4459331"></trkpt><trkpt lat="50.1341193" lon="7.4461341"></trkpt><trkpt lat="50.1341555" lon="7.4464097"></trkpt><trkpt lat="50.1340987" lon="7.4465306"></trkpt><trkpt lat="50.1340059" lon="7.4466027"></trkpt><trkpt lat="50.1339211" lon="7.446597"></trkpt><trkpt lat="50.1336966" lon="7.4464211"></trkpt><trkpt lat="50.1335639" lon="7.44634475"></trkpt><trkpt lat="50.1334312" lon="7.4462684"></trkpt><trkpt lat="50.1332072" lon="7.4460503"></trkpt><trkpt lat="50.1329853" lon="7.4458669"></trkpt><trkpt lat="50.1329163" lon="7.445798"></trkpt><trkpt lat="50.1328915" lon="7.4457802"></trkpt><trkpt lat="50.1328667" lon="7.4457624"></trkpt><trkpt lat="50.1328508" lon="7.4457978"></trkpt><trkpt lat="50.1328985" lon="7.44586"></trkpt><trkpt lat="50.132982" lon="7.4459799"></trkpt><trkpt lat="50.1330491" lon="7.4460992"></trkpt><trkpt lat="50.1331295" lon="7.4462303"></trkpt><trkpt lat="50.1331893" lon="7.446348"></trkpt><trkpt lat="50.1331565" lon="7.4463996"></trkpt><trkpt lat="50.1331102" lon="7.4463821"></trkpt><trkpt lat="50.1329435" lon="7.4462247"></trkpt><trkpt lat="50.1325974" lon="7.4459284"></trkpt><trkpt lat="50.1324318" lon="7.4457988"></trkpt><trkpt lat="50.1324097" lon="7.4458047500000015"></trkpt><trkpt lat="50.1324097" lon="7.445804750000001"></trkpt><trkpt lat="50.1324097" lon="7.4458047500000015"></trkpt><trkpt lat="50.1323876" lon="7.4458107"></trkpt><trkpt lat="50.1323794" lon="7.4458799"></trkpt><trkpt lat="50.1324738" lon="7.446123"></trkpt><trkpt lat="50.1326191" lon="7.4464312"></trkpt><trkpt lat="50.1327597" lon="7.4467046"></trkpt><trkpt lat="50.1328343" lon="7.4469038"></trkpt><trkpt lat="50.132878149999996" lon="7.447038149999998"></trkpt><trkpt lat="50.132878149999996" lon="7.44703815"></trkpt><trkpt lat="50.132878149999996" lon="7.447038149999998"></trkpt><trkpt lat="50.132922" lon="7.4471725"></trkpt><trkpt lat="50.1329701" lon="7.4474065"></trkpt><trkpt lat="50.1329748" lon="7.4475471"></trkpt><trkpt lat="50.1329794" lon="7.4476135"></trkpt><trkpt lat="50.1329511" lon="7.4476764"></trkpt><trkpt lat="50.1328683" lon="7.4476821"></trkpt><trkpt lat="50.1327926" lon="7.4476599"></trkpt><trkpt lat="50.132707" lon="7.4475639"></trkpt><trkpt lat="50.1325356" lon="7.447391"></trkpt><trkpt lat="50.1325174" lon="7.4473468"></trkpt><trkpt lat="50.1325021" lon="7.4473559"></trkpt><trkpt lat="50.1325021" lon="7.4474149"></trkpt><trkpt lat="50.13250465" lon="7.44747045"></trkpt><trkpt lat="50.1325072" lon="7.447526"></trkpt><trkpt lat="50.1325036" lon="7.4476167"></trkpt><trkpt lat="50.132489" lon="7.4476383"></trkpt><trkpt lat="50.1324774" lon="7.4476247"></trkpt><trkpt lat="50.1324574" lon="7.447607"></trkpt><trkpt lat="50.1324173" lon="7.4475672"></trkpt><trkpt lat="50.1322231" lon="7.4473839"></trkpt><trkpt lat="50.1322176" lon="7.4474354"></trkpt><trkpt lat="50.132157" lon="7.4474525"></trkpt><trkpt lat="50.1320635" lon="7.4474268"></trkpt><trkpt lat="50.132003" lon="7.4474182"></trkpt><trkpt lat="50.1319535" lon="7.4474354"></trkpt><trkpt lat="50.1319425" lon="7.447547"></trkpt><trkpt lat="50.13193425" lon="7.4475985"></trkpt><trkpt lat="50.131926" lon="7.44765"></trkpt><trkpt lat="50.1316819" lon="7.4475401"></trkpt><trkpt lat="50.1314989" lon="7.4474788"></trkpt><trkpt lat="50.1313947" lon="7.4475076"></trkpt><trkpt lat="50.1315388" lon="7.4476198"></trkpt><trkpt lat="50.1317222" lon="7.4477297"></trkpt><trkpt lat="50.1317967" lon="7.4478987"></trkpt><trkpt lat="50.1317772" lon="7.4479443"></trkpt><trkpt lat="50.1316775" lon="7.447939"></trkpt><trkpt lat="50.13154" lon="7.4479336"></trkpt><trkpt lat="50.131435100000004" lon="7.447898750000001"></trkpt><trkpt lat="50.131435100000004" lon="7.44789875"></trkpt><trkpt lat="50.131435100000004" lon="7.447898750000001"></trkpt><trkpt lat="50.1313302" lon="7.4478639"></trkpt><trkpt lat="50.1311639" lon="7.4478934"></trkpt><trkpt lat="50.1310401" lon="7.4479416"></trkpt><trkpt lat="50.1309301" lon="7.4481294"></trkpt><trkpt lat="50.1308132" lon="7.4482367"></trkpt><trkpt lat="50.1307891" lon="7.4483172"></trkpt><trkpt lat="50.130796000000004" lon="7.448344000000002"></trkpt><trkpt lat="50.130796000000004" lon="7.4483440000000005"></trkpt><trkpt lat="50.130796000000004" lon="7.448344000000002"></trkpt><trkpt lat="50.1308029" lon="7.4483708"></trkpt><trkpt lat="50.1310814" lon="7.4483976"></trkpt><trkpt lat="50.1313393" lon="7.448403"></trkpt><trkpt lat="50.1314712" lon="7.4485827"></trkpt><trkpt lat="50.1315757" lon="7.4487195"></trkpt><trkpt lat="50.131587249999995" lon="7.4487584999999985"></trkpt><trkpt lat="50.131587249999995" lon="7.4487585"></trkpt><trkpt lat="50.131587249999995" lon="7.4487584999999985"></trkpt><trkpt lat="50.1315988" lon="7.4487975"></trkpt><trkpt lat="50.1315563" lon="7.4488289"></trkpt><trkpt lat="50.1314142" lon="7.4487434"></trkpt><trkpt lat="50.1312535" lon="7.4487128"></trkpt><trkpt lat="50.1310881" lon="7.4487759"></trkpt><trkpt lat="50.1309735" lon="7.4487693"></trkpt><trkpt lat="50.1309055" lon="7.4489303"></trkpt><trkpt lat="50.130869649999994" lon="7.4489696000000025"></trkpt><trkpt lat="50.130869649999994" lon="7.4489696"></trkpt><trkpt lat="50.130869649999994" lon="7.4489696000000025"></trkpt><trkpt lat="50.1308338" lon="7.4490089"></trkpt><trkpt lat="50.1308027" lon="7.4490691"></trkpt><trkpt lat="50.130785" lon="7.4491519"></trkpt><trkpt lat="50.1307786" lon="7.4492139"></trkpt><trkpt lat="50.1307863" lon="7.4492755"></trkpt><trkpt lat="50.1308191" lon="7.4493118"></trkpt><trkpt lat="50.1308551" lon="7.4493077"></trkpt><trkpt lat="50.1308779" lon="7.449275"></trkpt><trkpt lat="50.1308886" lon="7.4492212"></trkpt><trkpt lat="50.1308936" lon="7.4491269"></trkpt><trkpt lat="50.1309445" lon="7.4490717"></trkpt><trkpt lat="50.131031" lon="7.4491376"></trkpt><trkpt lat="50.13128" lon="7.4495981"></trkpt><trkpt lat="50.131425199999995" lon="7.449860599999997"></trkpt><trkpt lat="50.131425199999995" lon="7.4498606"></trkpt><trkpt lat="50.131425199999995" lon="7.449860599999997"></trkpt><trkpt lat="50.1315704" lon="7.4501231"></trkpt><trkpt lat="50.1317988" lon="7.45074"></trkpt><trkpt lat="50.131844349999994" lon="7.450865649999997"></trkpt><trkpt lat="50.131844349999994" lon="7.45086565"></trkpt><trkpt lat="50.131844349999994" lon="7.450865649999997"></trkpt><trkpt lat="50.1318899" lon="7.4509913"></trkpt><trkpt lat="50.1319924" lon="7.4512481"></trkpt><trkpt lat="50.1322051" lon="7.451455"></trkpt><trkpt lat="50.1326983" lon="7.4519899"></trkpt><trkpt lat="50.1329864" lon="7.452367"></trkpt><trkpt lat="50.13301405" lon="7.4523667499999995"></trkpt></trkseg></trk></gpx>
