<?xml version="1.0" encoding="UTF-8"?>
<gpx version="1.1" creator="Good Shit" xmlns="http://www.topografix.com/GPX/1/1"><trk><name>Rißlochfälle–Großer Arber ascent — Risslochfaelle to Grosser Arber ascent</name><trkseg><trkpt lat="49.070244135801296" lon="13.101623155730332"></trkpt><trkpt lat="49.070244135801296" lon="13.10162315573033"></trkpt><trkpt lat="49.0702536" lon="13.101636"></trkpt><trkpt lat="49.0702664" lon="13.1016675"></trkpt><trkpt lat="49.0702728" lon="13.1017034"></trkpt><trkpt lat="49.0702725" lon="13.1017239"></trkpt><trkpt lat="49.0702722" lon="13.1017405"></trkpt><trkpt lat="49.0702648" lon="13.1017759"></trkpt><trkpt lat="49.070251" lon="13.1018065"></trkpt><trkpt lat="49.0702321" lon="13.1018299"></trkpt><trkpt lat="49.0703051" lon="13.101924"></trkpt><trkpt lat="49.0703298" lon="13.1019316"></trkpt><trkpt lat="49.0703177" lon="13.1020054"></trkpt><trkpt lat="49.0702564" lon="13.1023807"></trkpt><trkpt lat="49.070213" lon="13.1026467"></trkpt><trkpt lat="49.0702287" lon="13.1027069"></trkpt><trkpt lat="49.07022" lon="13.1027867"></trkpt><trkpt lat="49.0701838" lon="13.1028857"></trkpt><trkpt lat="49.0701426" lon="13.1029842"></trkpt><trkpt lat="49.070095" lon="13.1031922"></trkpt><trkpt lat="49.0700684" lon="13.1035021"></trkpt><trkpt lat="49.0700437" lon="13.1036551"></trkpt><trkpt lat="49.0700121" lon="13.1037337"></trkpt><trkpt lat="49.0701145" lon="13.1037702"></trkpt><trkpt lat="49.0701977" lon="13.1037932"></trkpt><trkpt lat="49.070240296888144" lon="13.103777932858439"></trkpt><trkpt lat="49.0703612" lon="13.1037346"></trkpt><trkpt lat="49.0704549" lon="13.103698"></trkpt><trkpt lat="49.0705328" lon="13.1036528"></trkpt><trkpt lat="49.0706719" lon="13.1035475"></trkpt><trkpt lat="49.070797" lon="13.1034761"></trkpt><trkpt lat="49.0708753" lon="13.1034373"></trkpt><trkpt lat="49.0709465" lon="13.1034137"></trkpt><trkpt lat="49.0709897" lon="13.1034058"></trkpt><trkpt lat="49.0710338" lon="13.1034048"></trkpt><trkpt lat="49.0712032" lon="13.1034402"></trkpt><trkpt lat="49.0714626" lon="13.1034921"></trkpt><trkpt lat="49.0715972" lon="13.1035065"></trkpt><trkpt lat="49.0717333" lon="13.1035319"></trkpt><trkpt lat="49.071856" lon="13.1035739"></trkpt><trkpt lat="49.071972647528774" lon="13.103615539460147"></trkpt><trkpt lat="49.0719787" lon="13.1036177"></trkpt><trkpt lat="49.0721597" lon="13.1037041"></trkpt><trkpt lat="49.0724393" lon="13.103896"></trkpt><trkpt lat="49.0725587" lon="13.1040302"></trkpt><trkpt lat="49.0726652" lon="13.104135"></trkpt><trkpt lat="49.0728334" lon="13.1043049"></trkpt><trkpt lat="49.0728743" lon="13.10435"></trkpt><trkpt lat="49.0731504" lon="13.1046549"></trkpt><trkpt lat="49.0732645" lon="13.1048316"></trkpt><trkpt lat="49.0733421" lon="13.1049628"></trkpt><trkpt lat="49.07343705159481" lon="13.10512387032729"></trkpt><trkpt lat="49.07343705159481" lon="13.105123870327292"></trkpt><trkpt lat="49.07343705159481" lon="13.10512387032729"></trkpt><trkpt lat="49.0735061" lon="13.105241"></trkpt><trkpt lat="49.07375" lon="13.1056355"></trkpt><trkpt lat="49.0739579" lon="13.1059308"></trkpt><trkpt lat="49.0745578" lon="13.1066703"></trkpt><trkpt lat="49.074603" lon="13.1066467"></trkpt><trkpt lat="49.0747414" lon="13.1066647"></trkpt><trkpt lat="49.07483966832349" lon="13.106694479426487"></trkpt><trkpt lat="49.0750011" lon="13.1067434"></trkpt><trkpt lat="49.0752182" lon="13.1068151"></trkpt><trkpt lat="49.07536" lon="13.106888"></trkpt><trkpt lat="49.075472" lon="13.1069666"></trkpt><trkpt lat="49.0759325" lon="13.1074191"></trkpt><trkpt lat="49.076013" lon="13.1075111"></trkpt><trkpt lat="49.0760771" lon="13.1076104"></trkpt><trkpt lat="49.0761487" lon="13.1077462"></trkpt><trkpt lat="49.0762378" lon="13.1079744"></trkpt><trkpt lat="49.076280937009464" lon="13.108122225497727"></trkpt><trkpt lat="49.0763055" lon="13.1082064"></trkpt><trkpt lat="49.0763512" lon="13.108357"></trkpt><trkpt lat="49.076423" lon="13.1084762"></trkpt><trkpt lat="49.0765479" lon="13.108595"></trkpt><trkpt lat="49.0767245" lon="13.108687"></trkpt><trkpt lat="49.0770482" lon="13.1089138"></trkpt><trkpt lat="49.0772709" lon="13.1090626"></trkpt><trkpt lat="49.0774993" lon="13.1091919"></trkpt><trkpt lat="49.0777062" lon="13.1092718"></trkpt><trkpt lat="49.07784037489296" lon="13.10929195060968"></trkpt><trkpt lat="49.0779539" lon="13.109309"></trkpt><trkpt lat="49.0781977" lon="13.1093364"></trkpt><trkpt lat="49.0782835" lon="13.1093406"></trkpt><trkpt lat="49.0784314" lon="13.1093516"></trkpt><trkpt lat="49.0785948" lon="13.1093621"></trkpt><trkpt lat="49.0787865" lon="13.1093971"></trkpt><trkpt lat="49.0788785" lon="13.1094277"></trkpt><trkpt lat="49.0791937" lon="13.1095611"></trkpt><trkpt lat="49.0793911" lon="13.1096978"></trkpt><trkpt lat="49.0795739" lon="13.1098479"></trkpt><trkpt lat="49.079573422304414" lon="13.109858478091132"></trkpt><trkpt lat="49.0795739" lon="13.1098479"></trkpt><trkpt lat="49.0796227" lon="13.1098791"></trkpt><trkpt lat="49.0800339" lon="13.1101111"></trkpt><trkpt lat="49.0802638" lon="13.1102125"></trkpt><trkpt lat="49.0803755" lon="13.1102448"></trkpt><trkpt lat="49.0805106" lon="13.1102915"></trkpt><trkpt lat="49.0807317" lon="13.1104139"></trkpt><trkpt lat="49.0808956" lon="13.1104517"></trkpt><trkpt lat="49.0810811" lon="13.1104594"></trkpt><trkpt lat="49.08131077289935" lon="13.110463934882421"></trkpt><trkpt lat="49.0813242" lon="13.1104642"></trkpt><trkpt lat="49.0815614" lon="13.1105169"></trkpt><trkpt lat="49.0817521" lon="13.1105142"></trkpt><trkpt lat="49.0820911" lon="13.1104381"></trkpt><trkpt lat="49.0823861" lon="13.1103736"></trkpt><trkpt lat="49.0824876" lon="13.1103615"></trkpt><trkpt lat="49.082591" lon="13.1103463"></trkpt><trkpt lat="49.0829302" lon="13.1103332"></trkpt><trkpt lat="49.08309960259053" lon="13.110340942263988"></trkpt><trkpt lat="49.0832956" lon="13.1103499"></trkpt><trkpt lat="49.0834603" lon="13.1103587"></trkpt><trkpt lat="49.0837091" lon="13.1103341"></trkpt><trkpt lat="49.0840023" lon="13.1104491"></trkpt><trkpt lat="49.0843017" lon="13.1105813"></trkpt><trkpt lat="49.0846981" lon="13.1108649"></trkpt><trkpt lat="49.08483053067334" lon="13.110931680165656"></trkpt><trkpt lat="49.08483053067334" lon="13.110931680165654"></trkpt><trkpt lat="49.08483053067334" lon="13.110931680165656"></trkpt><trkpt lat="49.0850029" lon="13.1110186"></trkpt><trkpt lat="49.0852762" lon="13.1111023"></trkpt><trkpt lat="49.085532" lon="13.1111405"></trkpt><trkpt lat="49.0856862" lon="13.1112289"></trkpt><trkpt lat="49.0857922" lon="13.1113722"></trkpt><trkpt lat="49.0858719" lon="13.1115455"></trkpt><trkpt lat="49.0859504" lon="13.1118153"></trkpt><trkpt lat="49.086036" lon="13.111959"></trkpt><trkpt lat="49.0862177" lon="13.1121817"></trkpt><trkpt lat="49.08627888408101" lon="13.11223521690294"></trkpt><trkpt lat="49.086497" lon="13.112426"></trkpt><trkpt lat="49.0866946" lon="13.11273"></trkpt><trkpt lat="49.0867429" lon="13.1134468"></trkpt><trkpt lat="49.0869466" lon="13.1140423"></trkpt><trkpt lat="49.0869213" lon="13.114405"></trkpt><trkpt lat="49.086923129946804" lon="13.114575969315622"></trkpt><trkpt lat="49.0869269" lon="13.1149282"></trkpt><trkpt lat="49.0869162" lon="13.1154207"></trkpt><trkpt lat="49.0869888" lon="13.1157964"></trkpt><trkpt lat="49.0869889" lon="13.1161494"></trkpt><trkpt lat="49.0869889" lon="13.1165582"></trkpt><trkpt lat="49.0870192" lon="13.1170977"></trkpt><trkpt lat="49.087057575361264" lon="13.117287802826336"></trkpt><trkpt lat="49.0871663" lon="13.1178264"></trkpt><trkpt lat="49.0874613" lon="13.1186482"></trkpt><trkpt lat="49.0876681" lon="13.1190487"></trkpt><trkpt lat="49.0877432" lon="13.1192823"></trkpt><trkpt lat="49.0878692" lon="13.1195929"></trkpt><trkpt lat="49.087926988246586" lon="13.119666925254805"></trkpt><trkpt lat="49.0881525" lon="13.1199558"></trkpt><trkpt lat="49.088354" lon="13.120088"></trkpt><trkpt lat="49.0885202" lon="13.1201357"></trkpt><trkpt lat="49.0886114" lon="13.1201932"></trkpt><trkpt lat="49.0886632" lon="13.1201621"></trkpt><trkpt lat="49.0887471" lon="13.1200267"></trkpt><trkpt lat="49.0890037" lon="13.1196036"></trkpt><trkpt lat="49.0892163" lon="13.1192657"></trkpt><trkpt lat="49.08933428374773" lon="13.119113958590619"></trkpt><trkpt lat="49.08933428374773" lon="13.119113958590617"></trkpt><trkpt lat="49.08933428374773" lon="13.119113958590619"></trkpt><trkpt lat="49.089462" lon="13.1189497"></trkpt><trkpt lat="49.090048" lon="13.118799"></trkpt><trkpt lat="49.0909924" lon="13.118744"></trkpt><trkpt lat="49.091074852484226" lon="13.118677334697416"></trkpt><trkpt lat="49.0911026" lon="13.1186549"></trkpt><trkpt lat="49.0912678" lon="13.1186496"></trkpt><trkpt lat="49.0914044" lon="13.1185858"></trkpt><trkpt lat="49.0915312" lon="13.1185571"></trkpt><trkpt lat="49.0918866" lon="13.1184906"></trkpt><trkpt lat="49.0921536" lon="13.1184798"></trkpt><trkpt lat="49.0925104" lon="13.1184556"></trkpt><trkpt lat="49.0928581" lon="13.1184242"></trkpt><trkpt lat="49.092858302016396" lon="13.118424194145275"></trkpt><trkpt lat="49.0932135" lon="13.1184139"></trkpt><trkpt lat="49.0934834" lon="13.1184814"></trkpt><trkpt lat="49.0936154" lon="13.1185919"></trkpt><trkpt lat="49.0937634" lon="13.1187229"></trkpt><trkpt lat="49.09386" lon="13.118937"></trkpt><trkpt lat="49.0941895" lon="13.1192496"></trkpt><trkpt lat="49.09444825559323" lon="13.119392129145185"></trkpt><trkpt lat="49.09444825559323" lon="13.119392129145186"></trkpt><trkpt lat="49.09444825559323" lon="13.119392129145185"></trkpt><trkpt lat="49.0945348" lon="13.1194398"></trkpt><trkpt lat="49.0949133" lon="13.119664"></trkpt><trkpt lat="49.0953674" lon="13.1201015"></trkpt><trkpt lat="49.0956492" lon="13.1202417"></trkpt><trkpt lat="49.095881" lon="13.1204402"></trkpt><trkpt lat="49.096042928730846" lon="13.120623884710016"></trkpt><trkpt lat="49.096042928730846" lon="13.120623884710017"></trkpt><trkpt lat="49.096042928730846" lon="13.120623884710016"></trkpt><trkpt lat="49.0962137" lon="13.1208176"></trkpt><trkpt lat="49.096373" lon="13.121181"></trkpt><trkpt lat="49.0964232" lon="13.1213836"></trkpt><trkpt lat="49.0964569" lon="13.1216732"></trkpt><trkpt lat="49.0964476" lon="13.1218401"></trkpt><trkpt lat="49.0966184" lon="13.1220035"></trkpt><trkpt lat="49.0967188" lon="13.1221233"></trkpt><trkpt lat="49.096686" lon="13.1226383"></trkpt><trkpt lat="49.09669718122377" lon="13.122917466554435"></trkpt><trkpt lat="49.0967075" lon="13.1231751"></trkpt><trkpt lat="49.096669" lon="13.1234273"></trkpt><trkpt lat="49.0965949" lon="13.1236558"></trkpt><trkpt lat="49.0965796" lon="13.1239676"></trkpt><trkpt lat="49.0964707" lon="13.1242681"></trkpt><trkpt lat="49.0964954" lon="13.1249131"></trkpt><trkpt lat="49.096621130496665" lon="13.125539645739098"></trkpt><trkpt lat="49.096621130496665" lon="13.1255396457391"></trkpt><trkpt lat="49.096621130496665" lon="13.125539645739098"></trkpt><trkpt lat="49.0966446" lon="13.1256566"></trkpt><trkpt lat="49.0969056" lon="13.1263657"></trkpt><trkpt lat="49.0971935" lon="13.1279363"></trkpt><trkpt lat="49.09723391187107" lon="13.128100790629013"></trkpt><trkpt lat="49.0973996" lon="13.1287752"></trkpt><trkpt lat="49.0975387" lon="13.1292204"></trkpt><trkpt lat="49.0976139" lon="13.1294774"></trkpt><trkpt lat="49.0975844" lon="13.1298217"></trkpt><trkpt lat="49.0975834" lon="13.1298333"></trkpt><trkpt lat="49.0975717" lon="13.1298746"></trkpt><trkpt lat="49.0977116" lon="13.1303999"></trkpt><trkpt lat="49.097832508075186" lon="13.130618258626118"></trkpt><trkpt lat="49.097832508075186" lon="13.130618258626116"></trkpt><trkpt lat="49.097832508075186" lon="13.130618258626118"></trkpt><trkpt lat="49.0980322" lon="13.1309789"></trkpt><trkpt lat="49.0985044" lon="13.1315261"></trkpt><trkpt lat="49.098944" lon="13.1317416"></trkpt><trkpt lat="49.098991" lon="13.1316074"></trkpt><trkpt lat="49.09921943499039" lon="13.131356758847549"></trkpt><trkpt lat="49.0993315" lon="13.1312338"></trkpt><trkpt lat="49.0995069" lon="13.1312639"></trkpt><trkpt lat="49.100124" lon="13.1306143"></trkpt><trkpt lat="49.1004999" lon="13.1301545"></trkpt><trkpt lat="49.10068935082252" lon="13.129922719940385"></trkpt><trkpt lat="49.10068935082252" lon="13.129922719940387"></trkpt><trkpt lat="49.10068935082252" lon="13.129922719940385"></trkpt><trkpt lat="49.1007756" lon="13.1298172"></trkpt><trkpt lat="49.1018148" lon="13.1285109"></trkpt><trkpt lat="49.1018748" lon="13.1284321"></trkpt><trkpt lat="49.1020203" lon="13.1282967"></trkpt><trkpt lat="49.1020317" lon="13.1282899"></trkpt><trkpt lat="49.1020402" lon="13.1283593"></trkpt><trkpt lat="49.102111667650725" lon="13.128269693719432"></trkpt><trkpt lat="49.102632" lon="13.1276173"></trkpt><trkpt lat="49.1027585" lon="13.1276171"></trkpt><trkpt lat="49.103755698026525" lon="13.127681264416202"></trkpt><trkpt lat="49.1043204" lon="13.1277176"></trkpt><trkpt lat="49.1055525289268" lon="13.127804742123255"></trkpt><trkpt lat="49.1057414" lon="13.1278181"></trkpt><trkpt lat="49.1059841" lon="13.1278495"></trkpt><trkpt lat="49.1060477" lon="13.1281298"></trkpt><trkpt lat="49.1061952" lon="13.1282637"></trkpt><trkpt lat="49.1063401" lon="13.1285131"></trkpt><trkpt lat="49.1064676" lon="13.1290969"></trkpt><trkpt lat="49.1065047" lon="13.1292248"></trkpt><trkpt lat="49.1064938" lon="13.1293526"></trkpt><trkpt lat="49.10643761197063" lon="13.129662576041806"></trkpt><trkpt lat="49.10643761197063" lon="13.129662576041804"></trkpt><trkpt lat="49.10643761197063" lon="13.129662576041806"></trkpt><trkpt lat="49.1064073" lon="13.1298298"></trkpt><trkpt lat="49.1063766" lon="13.1302749"></trkpt><trkpt lat="49.106283" lon="13.1308352"></trkpt><trkpt lat="49.1062489" lon="13.1311939"></trkpt><trkpt lat="49.1062574" lon="13.1318261"></trkpt><trkpt lat="49.106547635749" lon="13.132187592123696"></trkpt><trkpt lat="49.106547635749" lon="13.132187592123694"></trkpt><trkpt lat="49.106547635749" lon="13.132187592123696"></trkpt><trkpt lat="49.1068423" lon="13.1325546"></trkpt><trkpt lat="49.1074235" lon="13.133246"></trkpt><trkpt lat="49.1077029" lon="13.1335691"></trkpt><trkpt lat="49.1077853" lon="13.1337073"></trkpt><trkpt lat="49.1078063" lon="13.1337502"></trkpt><trkpt lat="49.1078485" lon="13.1338709"></trkpt><trkpt lat="49.1078976" lon="13.1339406"></trkpt><trkpt lat="49.10791308745869" lon="13.133953523585987"></trkpt><trkpt lat="49.10791308745869" lon="13.133953523585989"></trkpt><trkpt lat="49.10791308745869" lon="13.133953523585987"></trkpt><trkpt lat="49.1079719" lon="13.1340026"></trkpt><trkpt lat="49.1080193" lon="13.1340731"></trkpt><trkpt lat="49.1080749" lon="13.1341839"></trkpt><trkpt lat="49.1081888" lon="13.134287"></trkpt><trkpt lat="49.1084114" lon="13.1344092"></trkpt><trkpt lat="49.1084227" lon="13.1345477"></trkpt><trkpt lat="49.108756" lon="13.13488"></trkpt><trkpt lat="49.1091269" lon="13.1350476"></trkpt><trkpt lat="49.109365" lon="13.1354064"></trkpt><trkpt lat="49.10936538965624" lon="13.135406618027886"></trkpt><trkpt lat="49.10936538965624" lon="13.135406618027888"></trkpt><trkpt lat="49.10936538965624" lon="13.135406618027886"></trkpt><trkpt lat="49.1095212" lon="13.1354938"></trkpt><trkpt lat="49.1097142" lon="13.1354895"></trkpt><trkpt lat="49.1098268" lon="13.1355947"></trkpt><trkpt lat="49.1099746" lon="13.1355411"></trkpt><trkpt lat="49.1100646" lon="13.1355422"></trkpt><trkpt lat="49.110265" lon="13.1355561"></trkpt><trkpt lat="49.1105632" lon="13.1355068"></trkpt><trkpt lat="49.1108426" lon="13.1353046"></trkpt><trkpt lat="49.110933" lon="13.1351286"></trkpt><trkpt lat="49.11097742167497" lon="13.13498055834354"></trkpt><trkpt lat="49.11097742167497" lon="13.134980558343539"></trkpt><trkpt lat="49.11097742167497" lon="13.13498055834354"></trkpt><trkpt lat="49.1109814" lon="13.1349673"></trkpt><trkpt lat="49.1110274" lon="13.1348502"></trkpt><trkpt lat="49.1111041" lon="13.1347429"></trkpt><trkpt lat="49.1111522" lon="13.1346229"></trkpt><trkpt lat="49.1112142" lon="13.134556"></trkpt><trkpt lat="49.1112936" lon="13.1345029"></trkpt><trkpt lat="49.1113327" lon="13.134435"></trkpt><trkpt lat="49.1114106" lon="13.134194"></trkpt><trkpt lat="49.111442" lon="13.1340517"></trkpt><trkpt lat="49.111446" lon="13.1338494"></trkpt><trkpt lat="49.1114469" lon="13.1336935"></trkpt><trkpt lat="49.1114312" lon="13.1335969"></trkpt><trkpt lat="49.1114521" lon="13.1334939"></trkpt><trkpt lat="49.1114564" lon="13.1333855"></trkpt><trkpt lat="49.1114698" lon="13.133332"></trkpt><trkpt lat="49.1114961" lon="13.1333226"></trkpt><trkpt lat="49.1115944" lon="13.1334438"></trkpt><trkpt lat="49.1118955" lon="13.1337076"></trkpt><trkpt lat="49.111918887676985" lon="13.133735999322054"></trkpt><trkpt lat="49.111918887676985" lon="13.133735999322056"></trkpt><trkpt lat="49.111918887676985" lon="13.133735999322054"></trkpt><trkpt lat="49.1119431" lon="13.1337654"></trkpt><trkpt lat="49.1121717" lon="13.1340094"></trkpt><trkpt lat="49.11228" lon="13.1341577"></trkpt><trkpt lat="49.1123636" lon="13.1342266"></trkpt><trkpt lat="49.1124043" lon="13.1343115"></trkpt><trkpt lat="49.1124464" lon="13.1343759"></trkpt><trkpt lat="49.1124828" lon="13.1343902"></trkpt><trkpt lat="49.1125329" lon="13.1343947"></trkpt><trkpt lat="49.1126046" lon="13.1344103"></trkpt><trkpt lat="49.1126962" lon="13.1344691"></trkpt><trkpt lat="49.1127725" lon="13.1345066"></trkpt><trkpt lat="49.1127923" lon="13.1345159"></trkpt><trkpt lat="49.1129588" lon="13.134594"></trkpt><trkpt lat="49.112984" lon="13.1345873"></trkpt><trkpt lat="49.1130712" lon="13.1345641"></trkpt><trkpt lat="49.1130324" lon="13.1347385"></trkpt><trkpt lat="49.1130134" lon="13.1349184"></trkpt><trkpt lat="49.112981914844184" lon="13.135358848081351"></trkpt><trkpt lat="49.1129768" lon="13.1354304"></trkpt><trkpt lat="49.1129179" lon="13.1356154"></trkpt><trkpt lat="49.1128109" lon="13.1358134"></trkpt><trkpt lat="49.1126909" lon="13.1359562"></trkpt><trkpt lat="49.1125941" lon="13.1358648"></trkpt><trkpt lat="49.1125343" lon="13.1357338"></trkpt><trkpt lat="49.1124817" lon="13.1361491"></trkpt></trkseg></trk></gpx>
