<?xml version="1.0" encoding="UTF-8"?>
<gpx version="1.1" creator="Good Shit" xmlns="http://www.topografix.com/GPX/1/1"><trk><name>EA1 Schluchtentour: Landgrafenschlucht–Drachenschlucht — EA1 Schluchtentour: Landgrafenschlucht–Drachenschlucht</name><trkseg><trkpt lat="50.9594457" lon="10.3127311"></trkpt><trkpt lat="50.9594075" lon="10.3127423"></trkpt><trkpt lat="50.9593323" lon="10.3127678"></trkpt><trkpt lat="50.9592861" lon="10.312759"></trkpt><trkpt lat="50.9589391" lon="10.3124505"></trkpt><trkpt lat="50.958735" lon="10.3122403"></trkpt><trkpt lat="50.9585149" lon="10.3119418"></trkpt><trkpt lat="50.9582842" lon="10.3115302"></trkpt><trkpt lat="50.9581482" lon="10.3113837"></trkpt><trkpt lat="50.9579378" lon="10.3111837"></trkpt><trkpt lat="50.9577575" lon="10.3110924"></trkpt><trkpt lat="50.9573084" lon="10.3108728"></trkpt><trkpt lat="50.9568248" lon="10.3106745"></trkpt><trkpt lat="50.9563953" lon="10.3104462"></trkpt><trkpt lat="50.9560185" lon="10.3102216"></trkpt><trkpt lat="50.9556271" lon="10.3100394"></trkpt><trkpt lat="50.9553926" lon="10.3099743"></trkpt><trkpt lat="50.954673" lon="10.309706"></trkpt><trkpt lat="50.9541766" lon="10.3094692"></trkpt><trkpt lat="50.9539178" lon="10.3095323"></trkpt><trkpt lat="50.9537308" lon="10.3096166"></trkpt><trkpt lat="50.953601" lon="10.3097518"></trkpt><trkpt lat="50.9532116" lon="10.3099407"></trkpt><trkpt lat="50.9531255" lon="10.3100252"></trkpt><trkpt lat="50.9529536" lon="10.3101296"></trkpt><trkpt lat="50.9527195" lon="10.3103065"></trkpt><trkpt lat="50.9525981" lon="10.3104559"></trkpt><trkpt lat="50.9524608" lon="10.310623"></trkpt><trkpt lat="50.9521009" lon="10.3108105"></trkpt><trkpt lat="50.9518495" lon="10.3111054"></trkpt><trkpt lat="50.9517098" lon="10.3113523"></trkpt><trkpt lat="50.9516023" lon="10.3115978"></trkpt><trkpt lat="50.9514998" lon="10.3118298"></trkpt><trkpt lat="50.9514391" lon="10.3120803"></trkpt><trkpt lat="50.951388" lon="10.3122133"></trkpt><trkpt lat="50.9512498" lon="10.3124644"></trkpt><trkpt lat="50.9512053" lon="10.3125558"></trkpt><trkpt lat="50.9511226" lon="10.3127986"></trkpt><trkpt lat="50.9510386" lon="10.3129832"></trkpt><trkpt lat="50.9509141" lon="10.3131927"></trkpt><trkpt lat="50.9508778" lon="10.3133647"></trkpt><trkpt lat="50.9508581" lon="10.3136225"></trkpt><trkpt lat="50.9508336" lon="10.3139567"></trkpt><trkpt lat="50.9508282" lon="10.3142162"></trkpt><trkpt lat="50.9508564" lon="10.3143878"></trkpt><trkpt lat="50.9509155" lon="10.3146137"></trkpt><trkpt lat="50.9509871" lon="10.3148821"></trkpt><trkpt lat="50.9510087" lon="10.3151063"></trkpt><trkpt lat="50.9509769" lon="10.3152049"></trkpt><trkpt lat="50.9509508" lon="10.3153206"></trkpt><trkpt lat="50.9509456" lon="10.3154454"></trkpt><trkpt lat="50.9509638" lon="10.3156152"></trkpt><trkpt lat="50.950969" lon="10.3157094"></trkpt><trkpt lat="50.9509267" lon="10.315761"></trkpt><trkpt lat="50.950882" lon="10.3157954"></trkpt><trkpt lat="50.9508543" lon="10.3159092"></trkpt><trkpt lat="50.9507988" lon="10.3160952"></trkpt><trkpt lat="50.9507034" lon="10.3162344"></trkpt><trkpt lat="50.9506342" lon="10.3162689"></trkpt><trkpt lat="50.950216" lon="10.316169"></trkpt><trkpt lat="50.9498549" lon="10.3161406"></trkpt><trkpt lat="50.9497757" lon="10.3161218"></trkpt><trkpt lat="50.9494466" lon="10.316227"></trkpt><trkpt lat="50.9492904" lon="10.3163051"></trkpt><trkpt lat="50.9491947" lon="10.3165118"></trkpt><trkpt lat="50.9490964" lon="10.3166233"></trkpt><trkpt lat="50.9489955" lon="10.3166542"></trkpt><trkpt lat="50.9488711" lon="10.3167077"></trkpt><trkpt lat="50.9488302" lon="10.3167653"></trkpt><trkpt lat="50.948803" lon="10.3169064"></trkpt><trkpt lat="50.9487664" lon="10.3170388"></trkpt><trkpt lat="50.9486932" lon="10.3171002"></trkpt><trkpt lat="50.9484371" lon="10.3176878"></trkpt><trkpt lat="50.9483245" lon="10.3180297"></trkpt><trkpt lat="50.9482299" lon="10.3182162"></trkpt><trkpt lat="50.948204" lon="10.3184582"></trkpt><trkpt lat="50.9481413" lon="10.3187532"></trkpt><trkpt lat="50.948047" lon="10.3191593"></trkpt><trkpt lat="50.9479677" lon="10.3193609"></trkpt><trkpt lat="50.9479335" lon="10.3195035"></trkpt><trkpt lat="50.9479164" lon="10.3196147"></trkpt><trkpt lat="50.9478886" lon="10.3197848"></trkpt><trkpt lat="50.9478112" lon="10.3201702"></trkpt><trkpt lat="50.9478115" lon="10.3203294"></trkpt><trkpt lat="50.9477568" lon="10.3205434"></trkpt><trkpt lat="50.9477831" lon="10.3209701"></trkpt><trkpt lat="50.9478296" lon="10.3210969"></trkpt><trkpt lat="50.9479556" lon="10.3213068"></trkpt><trkpt lat="50.9480606" lon="10.3215767"></trkpt><trkpt lat="50.9480892" lon="10.3216275"></trkpt><trkpt lat="50.9481353" lon="10.3216663"></trkpt><trkpt lat="50.9484125" lon="10.3217391"></trkpt><trkpt lat="50.9486764" lon="10.3219073"></trkpt><trkpt lat="50.9488873" lon="10.322051"></trkpt><trkpt lat="50.9489643" lon="10.322119"></trkpt><trkpt lat="50.9489915" lon="10.322096"></trkpt><trkpt lat="50.9490507" lon="10.3221715"></trkpt><trkpt lat="50.9491049" lon="10.3222711"></trkpt><trkpt lat="50.9491061" lon="10.3223236"></trkpt><trkpt lat="50.949072" lon="10.3224703"></trkpt><trkpt lat="50.9490295" lon="10.3226289"></trkpt><trkpt lat="50.9489289" lon="10.3228333"></trkpt><trkpt lat="50.9488766" lon="10.3230703"></trkpt><trkpt lat="50.9488348" lon="10.3231392"></trkpt><trkpt lat="50.9488111" lon="10.3231788"></trkpt><trkpt lat="50.9488066" lon="10.3232519"></trkpt><trkpt lat="50.9488111" lon="10.3233866"></trkpt><trkpt lat="50.948776" lon="10.3236921"></trkpt><trkpt lat="50.948707" lon="10.3239791"></trkpt><trkpt lat="50.9487243" lon="10.3241016"></trkpt><trkpt lat="50.948724" lon="10.3243227"></trkpt><trkpt lat="50.9486902" lon="10.3245507"></trkpt><trkpt lat="50.9486757" lon="10.3247681"></trkpt><trkpt lat="50.9486836" lon="10.324857"></trkpt><trkpt lat="50.9487038" lon="10.3249169"></trkpt><trkpt lat="50.9486909" lon="10.3249746"></trkpt><trkpt lat="50.948734" lon="10.3251012"></trkpt><trkpt lat="50.9487252" lon="10.3252278"></trkpt><trkpt lat="50.9487797" lon="10.3252339"></trkpt><trkpt lat="50.9488082" lon="10.3252855"></trkpt><trkpt lat="50.9488205" lon="10.3254016"></trkpt><trkpt lat="50.9488027" lon="10.3255453"></trkpt><trkpt lat="50.9487487" lon="10.3257047"></trkpt><trkpt lat="50.9487235" lon="10.3258078"></trkpt><trkpt lat="50.9487466" lon="10.3259878"></trkpt><trkpt lat="50.9487824" lon="10.3261316"></trkpt><trkpt lat="50.9488742" lon="10.3262865"></trkpt><trkpt lat="50.9491774" lon="10.3265684"></trkpt><trkpt lat="50.9491931" lon="10.3265937"></trkpt><trkpt lat="50.9492028" lon="10.3266471"></trkpt><trkpt lat="50.9492282" lon="10.3267672"></trkpt><trkpt lat="50.949229" lon="10.3268876"></trkpt><trkpt lat="50.9491772" lon="10.3270593"></trkpt><trkpt lat="50.9491216" lon="10.3272796"></trkpt><trkpt lat="50.9490976" lon="10.3275693"></trkpt><trkpt lat="50.9490774" lon="10.3279356"></trkpt><trkpt lat="50.9490938" lon="10.3280359"></trkpt><trkpt lat="50.9491274" lon="10.3281545"></trkpt><trkpt lat="50.949235" lon="10.3284304"></trkpt><trkpt lat="50.9493105" lon="10.3285499"></trkpt><trkpt lat="50.949393" lon="10.328638"></trkpt><trkpt lat="50.9494942" lon="10.3287184"></trkpt><trkpt lat="50.9495491" lon="10.3288451"></trkpt><trkpt lat="50.9496378" lon="10.3292524"></trkpt><trkpt lat="50.9497956" lon="10.329617"></trkpt><trkpt lat="50.9500262" lon="10.3299361"></trkpt><trkpt lat="50.9502086" lon="10.3301191"></trkpt><trkpt lat="50.9502702" lon="10.3302263"></trkpt><trkpt lat="50.9503677" lon="10.3303502"></trkpt><trkpt lat="50.9503377" lon="10.3303694"></trkpt><trkpt lat="50.9500298" lon="10.3301997"></trkpt><trkpt lat="50.9498046" lon="10.3301509"></trkpt><trkpt lat="50.9497158" lon="10.3300912"></trkpt><trkpt lat="50.9495939" lon="10.3299397"></trkpt><trkpt lat="50.9494907" lon="10.3299053"></trkpt><trkpt lat="50.9494256" lon="10.3299011"></trkpt><trkpt lat="50.9493409" lon="10.3299497"></trkpt><trkpt lat="50.9492213" lon="10.3300644"></trkpt><trkpt lat="50.9491302" lon="10.3302189"></trkpt><trkpt lat="50.9490362" lon="10.3304324"></trkpt><trkpt lat="50.9489812" lon="10.3305097"></trkpt><trkpt lat="50.9489112" lon="10.3305609"></trkpt><trkpt lat="50.9488287" lon="10.330656"></trkpt><trkpt lat="50.9485407" lon="10.3311243"></trkpt><trkpt lat="50.9484774" lon="10.3312079"></trkpt><trkpt lat="50.9484407" lon="10.3312222"></trkpt><trkpt lat="50.9484124" lon="10.3311993"></trkpt><trkpt lat="50.9484008" lon="10.3311411"></trkpt><trkpt lat="50.9484002" lon="10.331038"></trkpt><trkpt lat="50.9483955" lon="10.3308148"></trkpt><trkpt lat="50.9483762" lon="10.3307281"></trkpt><trkpt lat="50.9483249" lon="10.3306359"></trkpt><trkpt lat="50.9481983" lon="10.3305546"></trkpt><trkpt lat="50.9481787" lon="10.3305204"></trkpt><trkpt lat="50.9481647" lon="10.330437"></trkpt><trkpt lat="50.9481829" lon="10.3303712"></trkpt><trkpt lat="50.9482908" lon="10.3302205"></trkpt><trkpt lat="50.9483464" lon="10.3300918"></trkpt><trkpt lat="50.9483722" lon="10.3299464"></trkpt><trkpt lat="50.9483454" lon="10.3298616"></trkpt><trkpt lat="50.9483144" lon="10.3298032"></trkpt><trkpt lat="50.9482551" lon="10.3297613"></trkpt><trkpt lat="50.9481259" lon="10.3296494"></trkpt><trkpt lat="50.9478219" lon="10.3294603"></trkpt><trkpt lat="50.9477824" lon="10.3294277"></trkpt><trkpt lat="50.9477527" lon="10.3293568"></trkpt><trkpt lat="50.9477443" lon="10.3292912"></trkpt><trkpt lat="50.9477952" lon="10.3291809"></trkpt><trkpt lat="50.9478674" lon="10.328993"></trkpt><trkpt lat="50.947947" lon="10.3287902"></trkpt><trkpt lat="50.9480114" lon="10.3286238"></trkpt><trkpt lat="50.9480121" lon="10.3285379"></trkpt><trkpt lat="50.9479712" lon="10.3284765"></trkpt><trkpt lat="50.9479114" lon="10.3284184"></trkpt><trkpt lat="50.9478234" lon="10.3284265"></trkpt><trkpt lat="50.9473312" lon="10.3288155"></trkpt><trkpt lat="50.9472488" lon="10.3289174"></trkpt><trkpt lat="50.9471785" lon="10.3291091"></trkpt><trkpt lat="50.9471537" lon="10.3292443"></trkpt><trkpt lat="50.9471469" lon="10.3293795"></trkpt><trkpt lat="50.9471394" lon="10.3297969"></trkpt><trkpt lat="50.9471061" lon="10.3300355"></trkpt><trkpt lat="50.9470491" lon="10.3303422"></trkpt><trkpt lat="50.9470261" lon="10.3305266"></trkpt><trkpt lat="50.9470296" lon="10.3306762"></trkpt><trkpt lat="50.9470377" lon="10.3308115"></trkpt><trkpt lat="50.9470644" lon="10.3311605"></trkpt><trkpt lat="50.9470631" lon="10.3313727"></trkpt><trkpt lat="50.9470299" lon="10.3315322"></trkpt><trkpt lat="50.946968" lon="10.3317679"></trkpt><trkpt lat="50.9468778" lon="10.3320036"></trkpt><trkpt lat="50.9468265" lon="10.3322703"></trkpt><trkpt lat="50.9467827" lon="10.3323635"></trkpt><trkpt lat="50.946724" lon="10.3324455"></trkpt><trkpt lat="50.9465319" lon="10.3326234"></trkpt><trkpt lat="50.9464604" lon="10.3326596"></trkpt><trkpt lat="50.9462639" lon="10.3326734"></trkpt><trkpt lat="50.9461737" lon="10.3326894"></trkpt><trkpt lat="50.9461287" lon="10.3327199"></trkpt><trkpt lat="50.9460876" lon="10.3327829"></trkpt><trkpt lat="50.945959" lon="10.3331375"></trkpt><trkpt lat="50.9458824" lon="10.3333909"></trkpt><trkpt lat="50.9458525" lon="10.3336623"></trkpt><trkpt lat="50.9457816" lon="10.3338189"></trkpt><trkpt lat="50.945676" lon="10.3339412"></trkpt><trkpt lat="50.9455259" lon="10.3340816"></trkpt><trkpt lat="50.9453663" lon="10.334184"></trkpt><trkpt lat="50.9452056" lon="10.3342512"></trkpt><trkpt lat="50.9450817" lon="10.3342898"></trkpt><trkpt lat="50.9450174" lon="10.3342818"></trkpt><trkpt lat="50.9449259" lon="10.3342539"></trkpt><trkpt lat="50.9448337" lon="10.3341781"></trkpt><trkpt lat="50.9447552" lon="10.3340969"></trkpt><trkpt lat="50.9446684" lon="10.3339648"></trkpt><trkpt lat="50.9446057" lon="10.3338285"></trkpt><trkpt lat="50.9444902" lon="10.3335704"></trkpt><trkpt lat="50.9444175" lon="10.333361"></trkpt><trkpt lat="50.9443337" lon="10.3330864"></trkpt><trkpt lat="50.9441946" lon="10.3326786"></trkpt><trkpt lat="50.9440992" lon="10.3324644"></trkpt><trkpt lat="50.9440337" lon="10.3323543"></trkpt><trkpt lat="50.9439155" lon="10.3322354"></trkpt><trkpt lat="50.9437553" lon="10.3320896"></trkpt><trkpt lat="50.9437052" lon="10.3320519"></trkpt><trkpt lat="50.9436385" lon="10.3320342"></trkpt><trkpt lat="50.9435458" lon="10.3320212"></trkpt><trkpt lat="50.9434906" lon="10.3320184"></trkpt><trkpt lat="50.9434296" lon="10.3320367"></trkpt><trkpt lat="50.9433635" lon="10.3320864"></trkpt><trkpt lat="50.9432691" lon="10.3321436"></trkpt><trkpt lat="50.9432118" lon="10.3321301"></trkpt><trkpt lat="50.9431842" lon="10.3321122"></trkpt><trkpt lat="50.9431106" lon="10.332013"></trkpt><trkpt lat="50.9430105" lon="10.3318004"></trkpt><trkpt lat="50.9429096" lon="10.331633"></trkpt><trkpt lat="50.9428146" lon="10.331432"></trkpt><trkpt lat="50.9427366" lon="10.3313002"></trkpt><trkpt lat="50.9427281" lon="10.3312169"></trkpt><trkpt lat="50.9427245" lon="10.3311385"></trkpt><trkpt lat="50.9426919" lon="10.3310272"></trkpt><trkpt lat="50.9426517" lon="10.330891"></trkpt><trkpt lat="50.9426294" lon="10.3307475"></trkpt><trkpt lat="50.9426221" lon="10.3306129"></trkpt><trkpt lat="50.9426181" lon="10.3304744"></trkpt><trkpt lat="50.9426418" lon="10.3303279"></trkpt><trkpt lat="50.9428603" lon="10.3300593"></trkpt><trkpt lat="50.9429739" lon="10.329879"></trkpt><trkpt lat="50.9430857" lon="10.3295405"></trkpt><trkpt lat="50.9432251" lon="10.3289784"></trkpt><trkpt lat="50.943313" lon="10.3283717"></trkpt><trkpt lat="50.9433114" lon="10.3280837"></trkpt><trkpt lat="50.9433594" lon="10.3276454"></trkpt><trkpt lat="50.9433439" lon="10.3274701"></trkpt><trkpt lat="50.9432818" lon="10.327177"></trkpt><trkpt lat="50.9431968" lon="10.3269018"></trkpt><trkpt lat="50.9431221" lon="10.3266962"></trkpt><trkpt lat="50.9430546" lon="10.3265211"></trkpt><trkpt lat="50.9429753" lon="10.3263696"></trkpt><trkpt lat="50.9428985" lon="10.3262533"></trkpt><trkpt lat="50.9428208" lon="10.3261609"></trkpt><trkpt lat="50.9426558" lon="10.3260076"></trkpt><trkpt lat="50.9423059" lon="10.3257026"></trkpt><trkpt lat="50.9421526" lon="10.3255536"></trkpt><trkpt lat="50.9420461" lon="10.3254761"></trkpt><trkpt lat="50.9418862" lon="10.3254133"></trkpt><trkpt lat="50.9417106" lon="10.32536"></trkpt><trkpt lat="50.941291" lon="10.3251161"></trkpt><trkpt lat="50.9411037" lon="10.3250715"></trkpt><trkpt lat="50.9405504" lon="10.3251308"></trkpt><trkpt lat="50.9403163" lon="10.3251542"></trkpt><trkpt lat="50.9401807" lon="10.3251303"></trkpt><trkpt lat="50.9398627" lon="10.3249556"></trkpt><trkpt lat="50.9393002" lon="10.3246257"></trkpt><trkpt lat="50.9389089" lon="10.3244424"></trkpt><trkpt lat="50.9382203" lon="10.3238237"></trkpt><trkpt lat="50.9376163" lon="10.3233418"></trkpt><trkpt lat="50.9371475" lon="10.3231073"></trkpt><trkpt lat="50.9366732" lon="10.3230123"></trkpt><trkpt lat="50.9363602" lon="10.3229793"></trkpt><trkpt lat="50.9362527" lon="10.3229681"></trkpt><trkpt lat="50.9359576" lon="10.322929"></trkpt><trkpt lat="50.935635" lon="10.3227365"></trkpt><trkpt lat="50.9353492" lon="10.3224277"></trkpt><trkpt lat="50.9348065" lon="10.3218265"></trkpt><trkpt lat="50.93426" lon="10.321258"></trkpt><trkpt lat="50.9340056" lon="10.3209968"></trkpt><trkpt lat="50.9327804" lon="10.3197045"></trkpt><trkpt lat="50.9326154" lon="10.3195409"></trkpt><trkpt lat="50.9324532" lon="10.3193896"></trkpt><trkpt lat="50.9322775" lon="10.3192345"></trkpt><trkpt lat="50.9322332" lon="10.3191881"></trkpt><trkpt lat="50.9322147" lon="10.3191448"></trkpt><trkpt lat="50.9322193" lon="10.3190402"></trkpt><trkpt lat="50.9322345" lon="10.3189417"></trkpt><trkpt lat="50.9322446" lon="10.3188547"></trkpt><trkpt lat="50.9322174" lon="10.318699"></trkpt><trkpt lat="50.9321624" lon="10.3184192"></trkpt><trkpt lat="50.9321429" lon="10.3183128"></trkpt><trkpt lat="50.9321404" lon="10.3182821"></trkpt><trkpt lat="50.9321413" lon="10.3181467"></trkpt><trkpt lat="50.9321466" lon="10.3179586"></trkpt><trkpt lat="50.9322591" lon="10.3179094"></trkpt><trkpt lat="50.9323302" lon="10.3178883"></trkpt><trkpt lat="50.9323593" lon="10.317861"></trkpt><trkpt lat="50.9324139" lon="10.3177738"></trkpt><trkpt lat="50.9324637" lon="10.3176621"></trkpt><trkpt lat="50.932514" lon="10.3174777"></trkpt><trkpt lat="50.9325692" lon="10.3172692"></trkpt><trkpt lat="50.9326036" lon="10.3171881"></trkpt><trkpt lat="50.9326665" lon="10.3171311"></trkpt><trkpt lat="50.9327857" lon="10.3171027"></trkpt><trkpt lat="50.9330627" lon="10.3170806"></trkpt><trkpt lat="50.9332965" lon="10.3170955"></trkpt><trkpt lat="50.9335332" lon="10.3171411"></trkpt><trkpt lat="50.9336523" lon="10.3171357"></trkpt><trkpt lat="50.9337749" lon="10.3170861"></trkpt><trkpt lat="50.9338908" lon="10.3170036"></trkpt><trkpt lat="50.9340137" lon="10.3169949"></trkpt><trkpt lat="50.9341611" lon="10.3170452"></trkpt><trkpt lat="50.9343099" lon="10.31711"></trkpt><trkpt lat="50.9343923" lon="10.3170948"></trkpt><trkpt lat="50.934463" lon="10.3171081"></trkpt><trkpt lat="50.9345753" lon="10.317129"></trkpt><trkpt lat="50.9346108" lon="10.3171254"></trkpt><trkpt lat="50.9346699" lon="10.3171264"></trkpt><trkpt lat="50.9347921" lon="10.3171552"></trkpt><trkpt lat="50.9348579" lon="10.3171616"></trkpt><trkpt lat="50.9349151" lon="10.3171477"></trkpt><trkpt lat="50.9350535" lon="10.3172015"></trkpt><trkpt lat="50.9351229" lon="10.3172252"></trkpt><trkpt lat="50.9351708" lon="10.3172065"></trkpt><trkpt lat="50.9352323" lon="10.3171862"></trkpt><trkpt lat="50.9353401" lon="10.3172008"></trkpt><trkpt lat="50.9354255" lon="10.317186"></trkpt><trkpt lat="50.935505" lon="10.3171874"></trkpt><trkpt lat="50.9355789" lon="10.317176"></trkpt><trkpt lat="50.9356571" lon="10.3171767"></trkpt><trkpt lat="50.935712" lon="10.3171988"></trkpt><trkpt lat="50.9357686" lon="10.3172051"></trkpt><trkpt lat="50.9358954" lon="10.3171733"></trkpt><trkpt lat="50.9359741" lon="10.3172018"></trkpt><trkpt lat="50.9360154" lon="10.3171995"></trkpt><trkpt lat="50.9360564" lon="10.3172149"></trkpt><trkpt lat="50.9361228" lon="10.3172524"></trkpt><trkpt lat="50.9362075" lon="10.3172662"></trkpt><trkpt lat="50.9362254" lon="10.3172769"></trkpt><trkpt lat="50.9362335" lon="10.3173047"></trkpt><trkpt lat="50.9362475" lon="10.3173455"></trkpt><trkpt lat="50.9362666" lon="10.3173742"></trkpt><trkpt lat="50.9362902" lon="10.3173921"></trkpt><trkpt lat="50.9363142" lon="10.3173976"></trkpt><trkpt lat="50.9363427" lon="10.3173896"></trkpt><trkpt lat="50.9363613" lon="10.317383"></trkpt><trkpt lat="50.9363996" lon="10.3173726"></trkpt><trkpt lat="50.9365917" lon="10.317332"></trkpt><trkpt lat="50.9367854" lon="10.3172792"></trkpt><trkpt lat="50.9368604" lon="10.3172893"></trkpt><trkpt lat="50.9369468" lon="10.3173342"></trkpt><trkpt lat="50.9370152" lon="10.3173597"></trkpt><trkpt lat="50.9370955" lon="10.3173805"></trkpt><trkpt lat="50.9371632" lon="10.3174308"></trkpt><trkpt lat="50.9372387" lon="10.3174309"></trkpt><trkpt lat="50.9373221" lon="10.3174221"></trkpt><trkpt lat="50.9374223" lon="10.3174293"></trkpt><trkpt lat="50.9375524" lon="10.3174478"></trkpt><trkpt lat="50.9375837" lon="10.3174792"></trkpt><trkpt lat="50.937615" lon="10.3175145"></trkpt><trkpt lat="50.9377325" lon="10.3175402"></trkpt><trkpt lat="50.9377952" lon="10.3175583"></trkpt><trkpt lat="50.9378507" lon="10.3175489"></trkpt><trkpt lat="50.9378877" lon="10.3175384"></trkpt><trkpt lat="50.9379299" lon="10.3175164"></trkpt><trkpt lat="50.9379673" lon="10.3175069"></trkpt><trkpt lat="50.9379886" lon="10.3174892"></trkpt><trkpt lat="50.9380438" lon="10.3174583"></trkpt><trkpt lat="50.9381005" lon="10.3174095"></trkpt><trkpt lat="50.9381609" lon="10.3173683"></trkpt><trkpt lat="50.9382274" lon="10.3173312"></trkpt><trkpt lat="50.9383381" lon="10.3172641"></trkpt><trkpt lat="50.9384146" lon="10.3172167"></trkpt><trkpt lat="50.938455" lon="10.3171931"></trkpt><trkpt lat="50.9385194" lon="10.3171636"></trkpt><trkpt lat="50.9385571" lon="10.3171592"></trkpt><trkpt lat="50.9386484" lon="10.3171451"></trkpt><trkpt lat="50.9386788" lon="10.3171396"></trkpt><trkpt lat="50.938705" lon="10.3171136"></trkpt><trkpt lat="50.9387186" lon="10.3170767"></trkpt><trkpt lat="50.93873" lon="10.3170204"></trkpt><trkpt lat="50.938754" lon="10.3169822"></trkpt><trkpt lat="50.9387912" lon="10.3169259"></trkpt><trkpt lat="50.9388508" lon="10.316891"></trkpt><trkpt lat="50.9388884" lon="10.3168682"></trkpt><trkpt lat="50.9389142" lon="10.3168367"></trkpt><trkpt lat="50.9389353" lon="10.3168095"></trkpt><trkpt lat="50.938949" lon="10.3167398"></trkpt><trkpt lat="50.9389847" lon="10.3166184"></trkpt><trkpt lat="50.9390133" lon="10.3165415"></trkpt><trkpt lat="50.9390553" lon="10.3164169"></trkpt><trkpt lat="50.9390914" lon="10.3163427"></trkpt><trkpt lat="50.9391272" lon="10.3162243"></trkpt><trkpt lat="50.9391495" lon="10.3161928"></trkpt><trkpt lat="50.939188" lon="10.3161244"></trkpt><trkpt lat="50.9392971" lon="10.3160345"></trkpt><trkpt lat="50.9393794" lon="10.3159187"></trkpt><trkpt lat="50.9394832" lon="10.3158517"></trkpt><trkpt lat="50.9395712" lon="10.3158324"></trkpt><trkpt lat="50.9396736" lon="10.3158152"></trkpt><trkpt lat="50.9397731" lon="10.3158143"></trkpt><trkpt lat="50.9400039" lon="10.3158369"></trkpt><trkpt lat="50.9400943" lon="10.3158202"></trkpt><trkpt lat="50.9402355" lon="10.3158882"></trkpt><trkpt lat="50.9402617" lon="10.3158966"></trkpt><trkpt lat="50.9402843" lon="10.3158954"></trkpt><trkpt lat="50.9403143" lon="10.3158846"></trkpt><trkpt lat="50.9403363" lon="10.3158652"></trkpt><trkpt lat="50.940374" lon="10.3157865"></trkpt><trkpt lat="50.9404736" lon="10.3154332"></trkpt><trkpt lat="50.9405116" lon="10.3153141"></trkpt><trkpt lat="50.9405351" lon="10.3152"></trkpt><trkpt lat="50.9405953" lon="10.315017"></trkpt><trkpt lat="50.9405991" lon="10.3147942"></trkpt><trkpt lat="50.9405729" lon="10.3145052"></trkpt><trkpt lat="50.9405857" lon="10.3143115"></trkpt><trkpt lat="50.9405864" lon="10.3140719"></trkpt><trkpt lat="50.9405986" lon="10.3137438"></trkpt><trkpt lat="50.9406307" lon="10.3135106"></trkpt><trkpt lat="50.9406504" lon="10.3134001"></trkpt><trkpt lat="50.940688" lon="10.3133201"></trkpt><trkpt lat="50.9407432" lon="10.3132499"></trkpt><trkpt lat="50.9408177" lon="10.3131144"></trkpt><trkpt lat="50.9408659" lon="10.3130206"></trkpt><trkpt lat="50.9409129" lon="10.3129878"></trkpt><trkpt lat="50.9410295" lon="10.3129856"></trkpt><trkpt lat="50.9411188" lon="10.312971"></trkpt><trkpt lat="50.9411734" lon="10.3129279"></trkpt><trkpt lat="50.941258" lon="10.3129002"></trkpt><trkpt lat="50.9412925" lon="10.3129067"></trkpt><trkpt lat="50.9413201" lon="10.3128771"></trkpt><trkpt lat="50.9413467" lon="10.3128751"></trkpt><trkpt lat="50.9414971" lon="10.3128384"></trkpt><trkpt lat="50.9416253" lon="10.312778"></trkpt><trkpt lat="50.9417846" lon="10.3127322"></trkpt><trkpt lat="50.9418542" lon="10.3126994"></trkpt><trkpt lat="50.9419911" lon="10.3126407"></trkpt><trkpt lat="50.9420718" lon="10.3125806"></trkpt><trkpt lat="50.9421757" lon="10.3124727"></trkpt><trkpt lat="50.9422782" lon="10.3123828"></trkpt><trkpt lat="50.9424133" lon="10.3123401"></trkpt><trkpt lat="50.942451" lon="10.3123097"></trkpt><trkpt lat="50.9426973" lon="10.3122067"></trkpt><trkpt lat="50.9429838" lon="10.3121624"></trkpt><trkpt lat="50.9430791" lon="10.3121486"></trkpt><trkpt lat="50.9431623" lon="10.31212"></trkpt><trkpt lat="50.9435719" lon="10.3120376"></trkpt><trkpt lat="50.9436366" lon="10.3120375"></trkpt><trkpt lat="50.943705" lon="10.3120282"></trkpt><trkpt lat="50.9437822" lon="10.3120194"></trkpt><trkpt lat="50.9439312" lon="10.3119953"></trkpt><trkpt lat="50.9439901" lon="10.311971"></trkpt><trkpt lat="50.9440287" lon="10.3119372"></trkpt><trkpt lat="50.9440665" lon="10.3118754"></trkpt><trkpt lat="50.9441298" lon="10.3117798"></trkpt><trkpt lat="50.944238" lon="10.3116904"></trkpt><trkpt lat="50.944423" lon="10.3115172"></trkpt><trkpt lat="50.9445346" lon="10.3113247"></trkpt><trkpt lat="50.9446462" lon="10.3110721"></trkpt><trkpt lat="50.944769" lon="10.3106972"></trkpt><trkpt lat="50.9448988" lon="10.3104047"></trkpt><trkpt lat="50.9449724" lon="10.3102227"></trkpt><trkpt lat="50.9450588" lon="10.3100088"></trkpt><trkpt lat="50.9451703" lon="10.3096059"></trkpt><trkpt lat="50.9451821" lon="10.3093893"></trkpt><trkpt lat="50.9452163" lon="10.3092164"></trkpt><trkpt lat="50.9454097" lon="10.3085059"></trkpt><trkpt lat="50.945452" lon="10.3084512"></trkpt><trkpt lat="50.9455267" lon="10.3083675"></trkpt><trkpt lat="50.945629" lon="10.3082028"></trkpt><trkpt lat="50.9456855" lon="10.30806"></trkpt><trkpt lat="50.9458148" lon="10.3079556"></trkpt><trkpt lat="50.9459305" lon="10.3078794"></trkpt><trkpt lat="50.9460277" lon="10.3078336"></trkpt><trkpt lat="50.9461533" lon="10.3076681"></trkpt><trkpt lat="50.9462624" lon="10.3075601"></trkpt><trkpt lat="50.9463614" lon="10.3075247"></trkpt><trkpt lat="50.9464185" lon="10.3075308"></trkpt><trkpt lat="50.946488" lon="10.3075293"></trkpt><trkpt lat="50.9465515" lon="10.3074805"></trkpt><trkpt lat="50.9466187" lon="10.3074443"></trkpt><trkpt lat="50.9466686" lon="10.3074342"></trkpt><trkpt lat="50.9467147" lon="10.3074084"></trkpt><trkpt lat="50.9467881" lon="10.3074027"></trkpt><trkpt lat="50.946876" lon="10.3073879"></trkpt><trkpt lat="50.9469436" lon="10.3073256"></trkpt><trkpt lat="50.9470479" lon="10.3073068"></trkpt><trkpt lat="50.9471451" lon="10.3071941"></trkpt><trkpt lat="50.9472292" lon="10.3071479"></trkpt><trkpt lat="50.9472919" lon="10.3071482"></trkpt><trkpt lat="50.9473889" lon="10.3070929"></trkpt><trkpt lat="50.9474827" lon="10.3070399"></trkpt><trkpt lat="50.9475596" lon="10.3070252"></trkpt><trkpt lat="50.9476306" lon="10.3069976"></trkpt><trkpt lat="50.9477574" lon="10.3069419"></trkpt><trkpt lat="50.9479617" lon="10.3069273"></trkpt><trkpt lat="50.948025" lon="10.3069126"></trkpt><trkpt lat="50.948089" lon="10.3069089"></trkpt><trkpt lat="50.9482044" lon="10.3070079"></trkpt><trkpt lat="50.948345" lon="10.3071118"></trkpt><trkpt lat="50.9486143" lon="10.307333"></trkpt><trkpt lat="50.9486958" lon="10.3074058"></trkpt><trkpt lat="50.9489023" lon="10.3077399"></trkpt><trkpt lat="50.9490229" lon="10.3078681"></trkpt><trkpt lat="50.9491068" lon="10.3080382"></trkpt><trkpt lat="50.9491885" lon="10.3081411"></trkpt><trkpt lat="50.9492349" lon="10.3082882"></trkpt><trkpt lat="50.9492881" lon="10.3084002"></trkpt><trkpt lat="50.949459" lon="10.3085739"></trkpt><trkpt lat="50.9495733" lon="10.3086441"></trkpt><trkpt lat="50.9496249" lon="10.3086579"></trkpt><trkpt lat="50.9498285" lon="10.3087317"></trkpt><trkpt lat="50.9499332" lon="10.308746"></trkpt><trkpt lat="50.9500743" lon="10.3087819"></trkpt><trkpt lat="50.9501632" lon="10.3087702"></trkpt><trkpt lat="50.9503093" lon="10.3087939"></trkpt><trkpt lat="50.9504006" lon="10.3088227"></trkpt><trkpt lat="50.9505803" lon="10.3087815"></trkpt><trkpt lat="50.9507751" lon="10.3087496"></trkpt><trkpt lat="50.9509759" lon="10.308774"></trkpt><trkpt lat="50.9511975" lon="10.3087222"></trkpt><trkpt lat="50.9513475" lon="10.3087267"></trkpt><trkpt lat="50.9514401" lon="10.3087393"></trkpt><trkpt lat="50.9514806" lon="10.3087636"></trkpt><trkpt lat="50.9515653" lon="10.3087987"></trkpt><trkpt lat="50.9517779" lon="10.3088101"></trkpt><trkpt lat="50.9518942" lon="10.3087881"></trkpt><trkpt lat="50.9519736" lon="10.3087555"></trkpt><trkpt lat="50.9520054" lon="10.3086725"></trkpt><trkpt lat="50.9520583" lon="10.308543"></trkpt><trkpt lat="50.9522515" lon="10.3084023"></trkpt><trkpt lat="50.9523152" lon="10.3082963"></trkpt><trkpt lat="50.9523797" lon="10.3082248"></trkpt><trkpt lat="50.9524454" lon="10.3081708"></trkpt><trkpt lat="50.9525052" lon="10.3081371"></trkpt><trkpt lat="50.9525874" lon="10.3081121"></trkpt><trkpt lat="50.952659" lon="10.308114"></trkpt><trkpt lat="50.9527215" lon="10.3081095"></trkpt><trkpt lat="50.95277" lon="10.3080861"></trkpt><trkpt lat="50.952871" lon="10.3080009"></trkpt><trkpt lat="50.9530253" lon="10.3080012"></trkpt><trkpt lat="50.9530479" lon="10.3080486"></trkpt><trkpt lat="50.9531272" lon="10.3080976"></trkpt><trkpt lat="50.9531617" lon="10.3081395"></trkpt><trkpt lat="50.9531946" lon="10.3082161"></trkpt><trkpt lat="50.9532392" lon="10.3082875"></trkpt><trkpt lat="50.9533293" lon="10.3083408"></trkpt><trkpt lat="50.9536845" lon="10.3085386"></trkpt><trkpt lat="50.9536807" lon="10.3086004"></trkpt><trkpt lat="50.9536657" lon="10.3086646"></trkpt><trkpt lat="50.9535578" lon="10.3086213"></trkpt><trkpt lat="50.9535645" lon="10.3086696"></trkpt><trkpt lat="50.9537462" lon="10.3088554"></trkpt><trkpt lat="50.9539443" lon="10.3090195"></trkpt><trkpt lat="50.9540001" lon="10.3090757"></trkpt><trkpt lat="50.9540595" lon="10.3092079"></trkpt><trkpt lat="50.9540836" lon="10.3092871"></trkpt><trkpt lat="50.9541118" lon="10.3093598"></trkpt><trkpt lat="50.9541459" lon="10.3094162"></trkpt><trkpt lat="50.9541766" lon="10.3094692"></trkpt><trkpt lat="50.954673" lon="10.309706"></trkpt><trkpt lat="50.9553926" lon="10.3099743"></trkpt><trkpt lat="50.9556271" lon="10.3100394"></trkpt><trkpt lat="50.9560185" lon="10.3102216"></trkpt><trkpt lat="50.9563953" lon="10.3104462"></trkpt><trkpt lat="50.9568248" lon="10.3106745"></trkpt><trkpt lat="50.9573084" lon="10.3108728"></trkpt><trkpt lat="50.9577575" lon="10.3110924"></trkpt><trkpt lat="50.9579378" lon="10.3111837"></trkpt><trkpt lat="50.9581482" lon="10.3113837"></trkpt><trkpt lat="50.9582842" lon="10.3115302"></trkpt><trkpt lat="50.9585149" lon="10.3119418"></trkpt><trkpt lat="50.958735" lon="10.3122403"></trkpt><trkpt lat="50.9589391" lon="10.3124505"></trkpt><trkpt lat="50.9592861" lon="10.312759"></trkpt><trkpt lat="50.9593323" lon="10.3127678"></trkpt><trkpt lat="50.9594075" lon="10.3127423"></trkpt><trkpt lat="50.9594457" lon="10.3127311"></trkpt></trkseg></trk></gpx>
