<?xml version="1.0" encoding="UTF-8"?>
<gpx version="1.1" creator="Good Shit" xmlns="http://www.topografix.com/GPX/1/1"><trk><name>Ehrbachklamm circuit from Oppenhausen — Ehrbachklamm circuit from Oppenhausen</name><trkseg><trkpt lat="50.1978217" lon="7.4805682"></trkpt><trkpt lat="50.1976292" lon="7.4799213"></trkpt><trkpt lat="50.1975507" lon="7.4796532"></trkpt><trkpt lat="50.1974888" lon="7.4794685"></trkpt><trkpt lat="50.1973995" lon="7.479233"></trkpt><trkpt lat="50.1971562" lon="7.4786211"></trkpt><trkpt lat="50.1969034" lon="7.4779972"></trkpt><trkpt lat="50.1968784" lon="7.477934"></trkpt><trkpt lat="50.1968698" lon="7.4778735"></trkpt><trkpt lat="50.1968713" lon="7.4778191"></trkpt><trkpt lat="50.1968945" lon="7.4777501"></trkpt><trkpt lat="50.1969342" lon="7.4777037"></trkpt><trkpt lat="50.1970274" lon="7.4776267"></trkpt><trkpt lat="50.1972022" lon="7.477476"></trkpt><trkpt lat="50.1974001" lon="7.4773427"></trkpt><trkpt lat="50.1975303" lon="7.4772825"></trkpt><trkpt lat="50.1975753" lon="7.477272"></trkpt><trkpt lat="50.1975337" lon="7.4772163"></trkpt><trkpt lat="50.1973718" lon="7.4770117"></trkpt><trkpt lat="50.1971238" lon="7.4767127"></trkpt><trkpt lat="50.1969121" lon="7.4764508"></trkpt><trkpt lat="50.1967194" lon="7.4762052"></trkpt><trkpt lat="50.1965657" lon="7.4759768"></trkpt><trkpt lat="50.1964194" lon="7.4757708"></trkpt><trkpt lat="50.1962931" lon="7.4756253"></trkpt><trkpt lat="50.1961558" lon="7.4754756"></trkpt><trkpt lat="50.1959278" lon="7.4752463"></trkpt><trkpt lat="50.1957823" lon="7.4751002"></trkpt><trkpt lat="50.1956421" lon="7.4749629"></trkpt><trkpt lat="50.1954901" lon="7.4748214"></trkpt><trkpt lat="50.1953784" lon="7.4746999"></trkpt><trkpt lat="50.1953141" lon="7.4745931"></trkpt><trkpt lat="50.1952622" lon="7.4744806"></trkpt><trkpt lat="50.195163" lon="7.4742376"></trkpt><trkpt lat="50.1950544" lon="7.4739571"></trkpt><trkpt lat="50.194948" lon="7.4736908"></trkpt><trkpt lat="50.1948108" lon="7.4733659"></trkpt><trkpt lat="50.1946649" lon="7.4730318"></trkpt><trkpt lat="50.1944638" lon="7.4725896"></trkpt><trkpt lat="50.1943717" lon="7.4723652"></trkpt><trkpt lat="50.1942761" lon="7.4720719"></trkpt><trkpt lat="50.1942181" lon="7.471932"></trkpt><trkpt lat="50.1941476" lon="7.4717899"></trkpt><trkpt lat="50.1940979" lon="7.4716947"></trkpt><trkpt lat="50.1940571" lon="7.4716144"></trkpt><trkpt lat="50.1939778" lon="7.4714525"></trkpt><trkpt lat="50.1939459" lon="7.4713569"></trkpt><trkpt lat="50.1939376" lon="7.4713106"></trkpt><trkpt lat="50.1939317" lon="7.4712472"></trkpt><trkpt lat="50.1939333" lon="7.4711819"></trkpt><trkpt lat="50.1939436" lon="7.4711095"></trkpt><trkpt lat="50.1939582" lon="7.4710505"></trkpt><trkpt lat="50.1939846" lon="7.4709819"></trkpt><trkpt lat="50.1940568" lon="7.4708387"></trkpt><trkpt lat="50.1944398" lon="7.4702114"></trkpt><trkpt lat="50.1951693" lon="7.4690381"></trkpt><trkpt lat="50.1953096" lon="7.4687721"></trkpt><trkpt lat="50.1953236" lon="7.4687173"></trkpt><trkpt lat="50.1953234" lon="7.4686786"></trkpt><trkpt lat="50.1953171" lon="7.4686329"></trkpt><trkpt lat="50.1952997" lon="7.4685942"></trkpt><trkpt lat="50.1950307" lon="7.4683015"></trkpt><trkpt lat="50.1949454" lon="7.4680237"></trkpt><trkpt lat="50.1947754" lon="7.4676482"></trkpt><trkpt lat="50.194667" lon="7.4674028"></trkpt><trkpt lat="50.1945524" lon="7.467217"></trkpt><trkpt lat="50.1941784" lon="7.4666701"></trkpt><trkpt lat="50.1940164" lon="7.4664367"></trkpt><trkpt lat="50.1940892" lon="7.4664056"></trkpt><trkpt lat="50.1941733" lon="7.466394"></trkpt><trkpt lat="50.194214" lon="7.4663884"></trkpt><trkpt lat="50.1943687" lon="7.4663852"></trkpt><trkpt lat="50.1945981" lon="7.46644"></trkpt><trkpt lat="50.1947364" lon="7.4665233"></trkpt><trkpt lat="50.1948066" lon="7.4665066"></trkpt><trkpt lat="50.1948567" lon="7.4664343"></trkpt><trkpt lat="50.1948746" lon="7.4663769"></trkpt><trkpt lat="50.1948834" lon="7.4663073"></trkpt><trkpt lat="50.1949202" lon="7.4662053"></trkpt><trkpt lat="50.194912" lon="7.4660923"></trkpt><trkpt lat="50.1948441" lon="7.4659617"></trkpt><trkpt lat="50.1949085" lon="7.4658114"></trkpt><trkpt lat="50.1949581" lon="7.4653719"></trkpt><trkpt lat="50.1949467" lon="7.4652301"></trkpt><trkpt lat="50.1948884" lon="7.4650487"></trkpt><trkpt lat="50.1947945" lon="7.4648395"></trkpt><trkpt lat="50.1947207" lon="7.4649796"></trkpt><trkpt lat="50.1947341" lon="7.46512"></trkpt><trkpt lat="50.1946227" lon="7.4653526"></trkpt><trkpt lat="50.1945062" lon="7.4655207"></trkpt><trkpt lat="50.1944689" lon="7.4655493"></trkpt><trkpt lat="50.1943067" lon="7.4654633"></trkpt><trkpt lat="50.1941106" lon="7.4654016"></trkpt><trkpt lat="50.1939425" lon="7.4653969"></trkpt><trkpt lat="50.1930126" lon="7.4655486"></trkpt><trkpt lat="50.1925332" lon="7.4656681"></trkpt><trkpt lat="50.1924469" lon="7.4657047"></trkpt><trkpt lat="50.1923506" lon="7.4657686"></trkpt><trkpt lat="50.1922802" lon="7.4658653"></trkpt><trkpt lat="50.192228" lon="7.4659999"></trkpt><trkpt lat="50.1920555" lon="7.4666326"></trkpt><trkpt lat="50.1920386" lon="7.4667985"></trkpt><trkpt lat="50.1920286" lon="7.4670532"></trkpt><trkpt lat="50.1920705" lon="7.4680007"></trkpt><trkpt lat="50.192063" lon="7.4681582"></trkpt><trkpt lat="50.1919985" lon="7.4685794"></trkpt><trkpt lat="50.1919193" lon="7.4688294"></trkpt><trkpt lat="50.191888" lon="7.4689246"></trkpt><trkpt lat="50.1918528" lon="7.4689777"></trkpt><trkpt lat="50.1918059" lon="7.4690305"></trkpt><trkpt lat="50.1914194" lon="7.4693625"></trkpt><trkpt lat="50.1912865" lon="7.4695477"></trkpt><trkpt lat="50.1910384" lon="7.4699267"></trkpt><trkpt lat="50.1908281" lon="7.4702373"></trkpt><trkpt lat="50.190775" lon="7.4703024"></trkpt><trkpt lat="50.1906297" lon="7.4704742"></trkpt><trkpt lat="50.1906181" lon="7.4704837"></trkpt><trkpt lat="50.1906049" lon="7.4704839"></trkpt><trkpt lat="50.1905932" lon="7.4704748"></trkpt><trkpt lat="50.190586" lon="7.4704603"></trkpt><trkpt lat="50.1905832" lon="7.4704426"></trkpt><trkpt lat="50.1905854" lon="7.4704246"></trkpt><trkpt lat="50.190592" lon="7.4704095"></trkpt><trkpt lat="50.1906437" lon="7.4702973"></trkpt><trkpt lat="50.1911634" lon="7.4695362"></trkpt><trkpt lat="50.1911795" lon="7.4694964"></trkpt><trkpt lat="50.1911904" lon="7.4694518"></trkpt><trkpt lat="50.1912008" lon="7.4693126"></trkpt><trkpt lat="50.1912329" lon="7.4691673"></trkpt><trkpt lat="50.1912365" lon="7.4691105"></trkpt><trkpt lat="50.1912346" lon="7.4688784"></trkpt><trkpt lat="50.191225" lon="7.4687918"></trkpt><trkpt lat="50.1912102" lon="7.4687073"></trkpt><trkpt lat="50.1911349" lon="7.4682814"></trkpt><trkpt lat="50.1911681" lon="7.4681891"></trkpt><trkpt lat="50.1911874" lon="7.4681049"></trkpt><trkpt lat="50.1911887" lon="7.4680612"></trkpt><trkpt lat="50.1911802" lon="7.4680214"></trkpt><trkpt lat="50.1911666" lon="7.4679413"></trkpt><trkpt lat="50.1911088" lon="7.4678691"></trkpt><trkpt lat="50.1909765" lon="7.4678913"></trkpt><trkpt lat="50.1909336" lon="7.4678758"></trkpt><trkpt lat="50.190857" lon="7.4677125"></trkpt><trkpt lat="50.1908316" lon="7.4677061"></trkpt><trkpt lat="50.1908005" lon="7.467693"></trkpt><trkpt lat="50.1907821" lon="7.4677267"></trkpt><trkpt lat="50.1907446" lon="7.4677142"></trkpt><trkpt lat="50.1907328" lon="7.4676769"></trkpt><trkpt lat="50.1907617" lon="7.4675944"></trkpt><trkpt lat="50.1907505" lon="7.4675448"></trkpt><trkpt lat="50.1906677" lon="7.4674692"></trkpt><trkpt lat="50.1905502" lon="7.4674502"></trkpt><trkpt lat="50.1905133" lon="7.4674274"></trkpt><trkpt lat="50.1904722" lon="7.4672932"></trkpt><trkpt lat="50.1903479" lon="7.4671378"></trkpt><trkpt lat="50.1903233" lon="7.4671081"></trkpt><trkpt lat="50.1903101" lon="7.4670687"></trkpt><trkpt lat="50.1903041" lon="7.4670137"></trkpt><trkpt lat="50.1903032" lon="7.4668716"></trkpt><trkpt lat="50.1902912" lon="7.4668273"></trkpt><trkpt lat="50.1902698" lon="7.4667979"></trkpt><trkpt lat="50.1900429" lon="7.4667154"></trkpt><trkpt lat="50.1897563" lon="7.4664413"></trkpt><trkpt lat="50.1897041" lon="7.466417"></trkpt><trkpt lat="50.1896309" lon="7.4664035"></trkpt><trkpt lat="50.1894348" lon="7.466423"></trkpt><trkpt lat="50.1894249" lon="7.4664244"></trkpt><trkpt lat="50.189411" lon="7.4664258"></trkpt><trkpt lat="50.1893208" lon="7.4664386"></trkpt><trkpt lat="50.1892514" lon="7.4664558"></trkpt><trkpt lat="50.1891337" lon="7.4665571"></trkpt><trkpt lat="50.1888961" lon="7.4667508"></trkpt><trkpt lat="50.1887762" lon="7.4669054"></trkpt><trkpt lat="50.1885825" lon="7.4672258"></trkpt><trkpt lat="50.1885515" lon="7.4674999"></trkpt><trkpt lat="50.1884185" lon="7.4677151"></trkpt><trkpt lat="50.1882889" lon="7.4682539"></trkpt><trkpt lat="50.188143" lon="7.4685537"></trkpt><trkpt lat="50.1878609" lon="7.4689234"></trkpt><trkpt lat="50.1878547" lon="7.4690011"></trkpt><trkpt lat="50.1878009" lon="7.4690699"></trkpt><trkpt lat="50.1875838" lon="7.4692319"></trkpt><trkpt lat="50.1875083" lon="7.4693315"></trkpt><trkpt lat="50.1875083" lon="7.4693795"></trkpt><trkpt lat="50.1874791" lon="7.4694613"></trkpt><trkpt lat="50.1874207" lon="7.4695082"></trkpt><trkpt lat="50.187352" lon="7.4695256"></trkpt><trkpt lat="50.1872412" lon="7.4696007"></trkpt><trkpt lat="50.1872129" lon="7.46959"></trkpt><trkpt lat="50.1871453" lon="7.4696131"></trkpt><trkpt lat="50.1869579" lon="7.4697354"></trkpt><trkpt lat="50.1868881" lon="7.4698207"></trkpt><trkpt lat="50.1866967" lon="7.4701227"></trkpt><trkpt lat="50.1863904" lon="7.4704408"></trkpt><trkpt lat="50.1863172" lon="7.4705226"></trkpt><trkpt lat="50.1863045" lon="7.4706468"></trkpt><trkpt lat="50.1862495" lon="7.4707785"></trkpt><trkpt lat="50.1860645" lon="7.4708995"></trkpt><trkpt lat="50.1857898" lon="7.4712263"></trkpt><trkpt lat="50.1857113" lon="7.4713703"></trkpt><trkpt lat="50.185635" lon="7.4714468"></trkpt><trkpt lat="50.1855564" lon="7.4715047"></trkpt><trkpt lat="50.1854339" lon="7.4715863"></trkpt><trkpt lat="50.1853738" lon="7.4716178"></trkpt><trkpt lat="50.1853579" lon="7.4716239"></trkpt><trkpt lat="50.1853412" lon="7.4716281"></trkpt><trkpt lat="50.185238" lon="7.4716402"></trkpt><trkpt lat="50.1851276" lon="7.4716455"></trkpt><trkpt lat="50.1850952" lon="7.4716602"></trkpt><trkpt lat="50.1850887" lon="7.4716635"></trkpt><trkpt lat="50.1850446" lon="7.4717088"></trkpt><trkpt lat="50.1850412" lon="7.4717129"></trkpt><trkpt lat="50.1850384" lon="7.471717"></trkpt><trkpt lat="50.1849427" lon="7.4718746"></trkpt><trkpt lat="50.1849393" lon="7.4718824"></trkpt><trkpt lat="50.184912" lon="7.4719863"></trkpt><trkpt lat="50.1849096" lon="7.4719927"></trkpt><trkpt lat="50.1849073" lon="7.4719967"></trkpt><trkpt lat="50.1847941" lon="7.472092"></trkpt><trkpt lat="50.1847908" lon="7.4720972"></trkpt><trkpt lat="50.1847874" lon="7.472107"></trkpt><trkpt lat="50.1847487" lon="7.4722379"></trkpt><trkpt lat="50.1847398" lon="7.4722605"></trkpt><trkpt lat="50.1846616" lon="7.4724359"></trkpt><trkpt lat="50.184645" lon="7.4724775"></trkpt><trkpt lat="50.1846199" lon="7.472561"></trkpt><trkpt lat="50.1846184" lon="7.4725672"></trkpt><trkpt lat="50.1846181" lon="7.4725734"></trkpt><trkpt lat="50.1846325" lon="7.4726549"></trkpt><trkpt lat="50.1846339" lon="7.4726599"></trkpt><trkpt lat="50.1846484" lon="7.4726758"></trkpt><trkpt lat="50.1846498" lon="7.4726802"></trkpt><trkpt lat="50.1846492" lon="7.472685"></trkpt><trkpt lat="50.1846042" lon="7.4727561"></trkpt><trkpt lat="50.1845901" lon="7.4727721"></trkpt><trkpt lat="50.1845893" lon="7.4727765"></trkpt><trkpt lat="50.1845901" lon="7.4727814"></trkpt><trkpt lat="50.1846214" lon="7.4728377"></trkpt><trkpt lat="50.1846217" lon="7.4728397"></trkpt><trkpt lat="50.1846216" lon="7.4728416"></trkpt><trkpt lat="50.1846205" lon="7.4728445"></trkpt><trkpt lat="50.1846192" lon="7.4728454"></trkpt><trkpt lat="50.1846177" lon="7.4728458"></trkpt><trkpt lat="50.1845881" lon="7.4728426"></trkpt><trkpt lat="50.1845863" lon="7.4728429"></trkpt><trkpt lat="50.1845851" lon="7.4728443"></trkpt><trkpt lat="50.1845845" lon="7.4728485"></trkpt><trkpt lat="50.1845772" lon="7.4729149"></trkpt><trkpt lat="50.1845768" lon="7.4729293"></trkpt><trkpt lat="50.1845796" lon="7.4730067"></trkpt><trkpt lat="50.1845779" lon="7.4730248"></trkpt><trkpt lat="50.1845533" lon="7.473134"></trkpt><trkpt lat="50.1845523" lon="7.4731476"></trkpt><trkpt lat="50.1845626" lon="7.4732202"></trkpt><trkpt lat="50.1845615" lon="7.4732306"></trkpt><trkpt lat="50.1845574" lon="7.4732386"></trkpt><trkpt lat="50.1844567" lon="7.4734073"></trkpt><trkpt lat="50.1844487" lon="7.4734256"></trkpt><trkpt lat="50.1844063" lon="7.4735464"></trkpt><trkpt lat="50.1844054" lon="7.4735576"></trkpt><trkpt lat="50.1844061" lon="7.4735684"></trkpt><trkpt lat="50.1844224" lon="7.4737004"></trkpt><trkpt lat="50.1844223" lon="7.4737179"></trkpt><trkpt lat="50.1844202" lon="7.4737326"></trkpt><trkpt lat="50.1843929" lon="7.4739447"></trkpt><trkpt lat="50.1843902" lon="7.4739599"></trkpt><trkpt lat="50.1843873" lon="7.4739716"></trkpt><trkpt lat="50.184381" lon="7.4739886"></trkpt><trkpt lat="50.1843737" lon="7.4740085"></trkpt><trkpt lat="50.1843593" lon="7.4740392"></trkpt><trkpt lat="50.1843251" lon="7.4741072"></trkpt><trkpt lat="50.1842314" lon="7.4741875"></trkpt><trkpt lat="50.1841089" lon="7.4743343"></trkpt><trkpt lat="50.1840827" lon="7.4744838"></trkpt><trkpt lat="50.1840364" lon="7.4745968"></trkpt><trkpt lat="50.1839395" lon="7.4747305"></trkpt><trkpt lat="50.1839068" lon="7.4747305"></trkpt><trkpt lat="50.1838472" lon="7.4747916"></trkpt><trkpt lat="50.1838021" lon="7.4749558"></trkpt><trkpt lat="50.1837927" lon="7.4750597"></trkpt><trkpt lat="50.1837942" lon="7.4753838"></trkpt><trkpt lat="50.1838253" lon="7.475515"></trkpt><trkpt lat="50.1837978" lon="7.4757068"></trkpt><trkpt lat="50.1837712" lon="7.4758242"></trkpt><trkpt lat="50.1837083" lon="7.4759787"></trkpt><trkpt lat="50.1836551" lon="7.4760735"></trkpt><trkpt lat="50.1836434" lon="7.4763976"></trkpt><trkpt lat="50.1836805" lon="7.4764849"></trkpt><trkpt lat="50.1837028" lon="7.4766226"></trkpt><trkpt lat="50.183836" lon="7.477029"></trkpt><trkpt lat="50.1839191" lon="7.4772398"></trkpt><trkpt lat="50.1839252" lon="7.4773559"></trkpt><trkpt lat="50.1840052" lon="7.4774685"></trkpt><trkpt lat="50.1840381" lon="7.4777368"></trkpt><trkpt lat="50.1840408" lon="7.4780279"></trkpt><trkpt lat="50.1840119" lon="7.4781152"></trkpt><trkpt lat="50.1839527" lon="7.4783546"></trkpt><trkpt lat="50.1839456" lon="7.4784792"></trkpt><trkpt lat="50.1838928" lon="7.4785942"></trkpt><trkpt lat="50.1838692" lon="7.4786886"></trkpt><trkpt lat="50.1838663" lon="7.4788757"></trkpt><trkpt lat="50.1838371" lon="7.478968"></trkpt><trkpt lat="50.183854" lon="7.479086"></trkpt><trkpt lat="50.1838854" lon="7.4791078"></trkpt><trkpt lat="50.1839352" lon="7.4791519"></trkpt><trkpt lat="50.1839509" lon="7.479166"></trkpt><trkpt lat="50.183902" lon="7.4792041"></trkpt><trkpt lat="50.1838855" lon="7.4792405"></trkpt><trkpt lat="50.1839479" lon="7.4794621"></trkpt><trkpt lat="50.1838909" lon="7.4795932"></trkpt><trkpt lat="50.1839354" lon="7.4797252"></trkpt><trkpt lat="50.1840267" lon="7.4800475"></trkpt><trkpt lat="50.1839533" lon="7.4801017"></trkpt><trkpt lat="50.1839002" lon="7.4804714"></trkpt><trkpt lat="50.1838495" lon="7.4804687"></trkpt><trkpt lat="50.1838352" lon="7.4804678"></trkpt><trkpt lat="50.1838248" lon="7.4805018"></trkpt><trkpt lat="50.1838197" lon="7.480589"></trkpt><trkpt lat="50.1838149" lon="7.4806457"></trkpt><trkpt lat="50.1838091" lon="7.480801"></trkpt><trkpt lat="50.1837592" lon="7.4808287"></trkpt><trkpt lat="50.1837502" lon="7.4808972"></trkpt><trkpt lat="50.1837503" lon="7.4809265"></trkpt><trkpt lat="50.1837504" lon="7.4809933"></trkpt><trkpt lat="50.1837142" lon="7.4810742"></trkpt><trkpt lat="50.1836415" lon="7.4811445"></trkpt><trkpt lat="50.1836399" lon="7.4812069"></trkpt><trkpt lat="50.1835613" lon="7.4812609"></trkpt><trkpt lat="50.1835353" lon="7.4813271"></trkpt><trkpt lat="50.1835175" lon="7.4814327"></trkpt><trkpt lat="50.1834925" lon="7.4815511"></trkpt><trkpt lat="50.1835754" lon="7.4817586"></trkpt><trkpt lat="50.1836905" lon="7.4817986"></trkpt><trkpt lat="50.1837274" lon="7.481871"></trkpt><trkpt lat="50.1837842" lon="7.4820109"></trkpt><trkpt lat="50.1837888" lon="7.4821853"></trkpt><trkpt lat="50.183836" lon="7.4822935"></trkpt><trkpt lat="50.1838851" lon="7.4823836"></trkpt><trkpt lat="50.1838426" lon="7.4825037"></trkpt><trkpt lat="50.1836483" lon="7.4827842"></trkpt><trkpt lat="50.1835448" lon="7.4831374"></trkpt><trkpt lat="50.1834728" lon="7.4833233"></trkpt><trkpt lat="50.183399" lon="7.4833834"></trkpt><trkpt lat="50.1833196" lon="7.4834999"></trkpt><trkpt lat="50.1831948" lon="7.4837933"></trkpt><trkpt lat="50.1831196" lon="7.4839355"></trkpt><trkpt lat="50.1830756" lon="7.4841395"></trkpt><trkpt lat="50.1830138" lon="7.484324"></trkpt><trkpt lat="50.1829407" lon="7.4847016"></trkpt><trkpt lat="50.1829057" lon="7.4848512"></trkpt><trkpt lat="50.1829245" lon="7.4850026"></trkpt><trkpt lat="50.1828946" lon="7.4851112"></trkpt><trkpt lat="50.1828975" lon="7.4852447"></trkpt><trkpt lat="50.182925" lon="7.4855342"></trkpt><trkpt lat="50.1830443" lon="7.485747"></trkpt><trkpt lat="50.1831074" lon="7.4860263"></trkpt><trkpt lat="50.1832709" lon="7.4862804"></trkpt><trkpt lat="50.1834814" lon="7.4865645"></trkpt><trkpt lat="50.183665" lon="7.4866131"></trkpt><trkpt lat="50.1838157" lon="7.4866903"></trkpt><trkpt lat="50.1838647" lon="7.4867986"></trkpt><trkpt lat="50.1840033" lon="7.4869041"></trkpt><trkpt lat="50.1840215" lon="7.4869486"></trkpt><trkpt lat="50.1840361" lon="7.487127"></trkpt><trkpt lat="50.1840165" lon="7.4874566"></trkpt><trkpt lat="50.1839876" lon="7.487607"></trkpt><trkpt lat="50.1839645" lon="7.4876705"></trkpt><trkpt lat="50.1838977" lon="7.4878799"></trkpt><trkpt lat="50.183947" lon="7.4879331"></trkpt><trkpt lat="50.1839198" lon="7.4880785"></trkpt><trkpt lat="50.1838623" lon="7.4882632"></trkpt><trkpt lat="50.1838911" lon="7.4883582"></trkpt><trkpt lat="50.1839485" lon="7.4883278"></trkpt><trkpt lat="50.1839637" lon="7.4883489"></trkpt><trkpt lat="50.1839825" lon="7.48836"></trkpt><trkpt lat="50.1840375" lon="7.4883774"></trkpt><trkpt lat="50.1840985" lon="7.4883428"></trkpt><trkpt lat="50.1840479" lon="7.4882977"></trkpt><trkpt lat="50.1840403" lon="7.4882329"></trkpt><trkpt lat="50.184037" lon="7.4881549"></trkpt><trkpt lat="50.1840639" lon="7.488121"></trkpt><trkpt lat="50.1841039" lon="7.4881012"></trkpt><trkpt lat="50.1841131" lon="7.4881186"></trkpt><trkpt lat="50.1841281" lon="7.4881202"></trkpt><trkpt lat="50.184134" lon="7.4880933"></trkpt><trkpt lat="50.184154" lon="7.4881055"></trkpt><trkpt lat="50.1841731" lon="7.4880993"></trkpt><trkpt lat="50.1841972" lon="7.4880503"></trkpt><trkpt lat="50.1842196" lon="7.4880244"></trkpt><trkpt lat="50.1842026" lon="7.488001"></trkpt><trkpt lat="50.1842289" lon="7.4879277"></trkpt><trkpt lat="50.1842428" lon="7.48787"></trkpt><trkpt lat="50.1843177" lon="7.4878625"></trkpt><trkpt lat="50.1843684" lon="7.4878089"></trkpt><trkpt lat="50.1843727" lon="7.4878681"></trkpt><trkpt lat="50.1843973" lon="7.4878808"></trkpt><trkpt lat="50.1844358" lon="7.4878372"></trkpt><trkpt lat="50.1844601" lon="7.4877846"></trkpt><trkpt lat="50.1844947" lon="7.4877606"></trkpt><trkpt lat="50.1845452" lon="7.4876872"></trkpt><trkpt lat="50.184608" lon="7.4876807"></trkpt><trkpt lat="50.1846198" lon="7.4875914"></trkpt><trkpt lat="50.1846311" lon="7.4874417"></trkpt><trkpt lat="50.1846791" lon="7.4873122"></trkpt><trkpt lat="50.1847003" lon="7.4872477"></trkpt><trkpt lat="50.1847319" lon="7.4871808"></trkpt><trkpt lat="50.1847695" lon="7.4871746"></trkpt><trkpt lat="50.1848382" lon="7.487078"></trkpt><trkpt lat="50.1848507" lon="7.4870198"></trkpt><trkpt lat="50.184852" lon="7.4868183"></trkpt><trkpt lat="50.1848799" lon="7.4868568"></trkpt><trkpt lat="50.1849136" lon="7.4868195"></trkpt><trkpt lat="50.1849516" lon="7.4868157"></trkpt><trkpt lat="50.1849885" lon="7.4867522"></trkpt><trkpt lat="50.184993" lon="7.4866939"></trkpt><trkpt lat="50.1849976" lon="7.4866319"></trkpt><trkpt lat="50.1849948" lon="7.4865622"></trkpt><trkpt lat="50.1849748" lon="7.4863823"></trkpt><trkpt lat="50.1848697" lon="7.4862094"></trkpt><trkpt lat="50.1848604" lon="7.4861237"></trkpt><trkpt lat="50.1848938" lon="7.4859267"></trkpt><trkpt lat="50.1848898" lon="7.4858543"></trkpt><trkpt lat="50.1848404" lon="7.485693"></trkpt><trkpt lat="50.184801" lon="7.485593"></trkpt><trkpt lat="50.1848097" lon="7.4855397"></trkpt><trkpt lat="50.1847682" lon="7.4854234"></trkpt><trkpt lat="50.1845295" lon="7.4853077"></trkpt><trkpt lat="50.1844454" lon="7.4852144"></trkpt><trkpt lat="50.1842694" lon="7.4852024"></trkpt><trkpt lat="50.1840767" lon="7.4850794"></trkpt><trkpt lat="50.1839867" lon="7.4850265"></trkpt><trkpt lat="50.1839156" lon="7.484981"></trkpt><trkpt lat="50.1838767" lon="7.4849637"></trkpt><trkpt lat="50.1838581" lon="7.4850142"></trkpt><trkpt lat="50.1838684" lon="7.4850571"></trkpt><trkpt lat="50.1838502" lon="7.4850533"></trkpt><trkpt lat="50.1838114" lon="7.4850305"></trkpt><trkpt lat="50.1837929" lon="7.484981"></trkpt><trkpt lat="50.1837859" lon="7.4849154"></trkpt><trkpt lat="50.1838335" lon="7.4848649"></trkpt><trkpt lat="50.1838899" lon="7.4848395"></trkpt><trkpt lat="50.183958" lon="7.4847735"></trkpt><trkpt lat="50.1839674" lon="7.4847559"></trkpt><trkpt lat="50.1839829" lon="7.4847313"></trkpt><trkpt lat="50.1839973" lon="7.4846664"></trkpt><trkpt lat="50.184014" lon="7.4846223"></trkpt><trkpt lat="50.1840552" lon="7.4845749"></trkpt><trkpt lat="50.1841083" lon="7.4845378"></trkpt><trkpt lat="50.1841249" lon="7.4845118"></trkpt><trkpt lat="50.184156" lon="7.4845247"></trkpt><trkpt lat="50.1841673" lon="7.4845567"></trkpt><trkpt lat="50.1843547" lon="7.4844185"></trkpt><trkpt lat="50.1847567" lon="7.4843871"></trkpt><trkpt lat="50.1849821" lon="7.4842947"></trkpt><trkpt lat="50.1850425" lon="7.484266"></trkpt><trkpt lat="50.1851001" lon="7.4841876"></trkpt><trkpt lat="50.1851833" lon="7.4840853"></trkpt><trkpt lat="50.1852478" lon="7.4839828"></trkpt><trkpt lat="50.1852687" lon="7.4838888"></trkpt><trkpt lat="50.1852674" lon="7.4837899"></trkpt><trkpt lat="50.185265" lon="7.483644"></trkpt><trkpt lat="50.185324" lon="7.4834064"></trkpt><trkpt lat="50.1855357" lon="7.4827212"></trkpt><trkpt lat="50.185587" lon="7.4826103"></trkpt><trkpt lat="50.1856986" lon="7.4824336"></trkpt><trkpt lat="50.185885" lon="7.4821698"></trkpt><trkpt lat="50.185998" lon="7.4820167"></trkpt><trkpt lat="50.1861273" lon="7.4818974"></trkpt><trkpt lat="50.1862356" lon="7.4818537"></trkpt><trkpt lat="50.1864256" lon="7.4818169"></trkpt><trkpt lat="50.1864528" lon="7.4817882"></trkpt><trkpt lat="50.1864037" lon="7.4816717"></trkpt><trkpt lat="50.1863301" lon="7.4815774"></trkpt><trkpt lat="50.1862734" lon="7.4813944"></trkpt><trkpt lat="50.1862241" lon="7.4813305"></trkpt><trkpt lat="50.1861661" lon="7.4813113"></trkpt><trkpt lat="50.1860936" lon="7.4813145"></trkpt><trkpt lat="50.1860022" lon="7.4813815"></trkpt><trkpt lat="50.185788" lon="7.4814525"></trkpt><trkpt lat="50.185722" lon="7.4815267"></trkpt><trkpt lat="50.1855784" lon="7.4814384"></trkpt><trkpt lat="50.1854091" lon="7.4815092"></trkpt><trkpt lat="50.1853703" lon="7.481564"></trkpt><trkpt lat="50.185347" lon="7.4816257"></trkpt><trkpt lat="50.1852501" lon="7.4815751"></trkpt><trkpt lat="50.1852327" lon="7.4815594"></trkpt><trkpt lat="50.1852155" lon="7.4815312"></trkpt><trkpt lat="50.1852173" lon="7.4814829"></trkpt><trkpt lat="50.1852284" lon="7.4814521"></trkpt><trkpt lat="50.185274" lon="7.4813904"></trkpt><trkpt lat="50.185322" lon="7.4812616"></trkpt><trkpt lat="50.1853603" lon="7.4808424"></trkpt><trkpt lat="50.1854023" lon="7.4807938"></trkpt><trkpt lat="50.1854968" lon="7.4807579"></trkpt><trkpt lat="50.1855384" lon="7.4806807"></trkpt><trkpt lat="50.1856066" lon="7.4806497"></trkpt><trkpt lat="50.1856297" lon="7.4805348"></trkpt><trkpt lat="50.185645" lon="7.4802416"></trkpt><trkpt lat="50.1856404" lon="7.4800732"></trkpt><trkpt lat="50.1855895" lon="7.4799912"></trkpt><trkpt lat="50.1855169" lon="7.4798827"></trkpt><trkpt lat="50.185499" lon="7.4797411"></trkpt><trkpt lat="50.1854556" lon="7.4795373"></trkpt><trkpt lat="50.1854535" lon="7.4794093"></trkpt><trkpt lat="50.1854167" lon="7.4793128"></trkpt><trkpt lat="50.185293" lon="7.4789948"></trkpt><trkpt lat="50.1852789" lon="7.4789209"></trkpt><trkpt lat="50.1853019" lon="7.4788662"></trkpt><trkpt lat="50.1853395" lon="7.478667"></trkpt><trkpt lat="50.1853564" lon="7.4786009"></trkpt><trkpt lat="50.185365" lon="7.4784444"></trkpt><trkpt lat="50.1853252" lon="7.4782749"></trkpt><trkpt lat="50.1853074" lon="7.4779625"></trkpt><trkpt lat="50.1852664" lon="7.4778065"></trkpt><trkpt lat="50.1852949" lon="7.477605"></trkpt><trkpt lat="50.1852624" lon="7.4774489"></trkpt><trkpt lat="50.1852123" lon="7.4772037"></trkpt><trkpt lat="50.1851331" lon="7.476954"></trkpt><trkpt lat="50.1850335" lon="7.4767318"></trkpt><trkpt lat="50.1849231" lon="7.4765031"></trkpt><trkpt lat="50.1848556" lon="7.4763871"></trkpt><trkpt lat="50.1848077" lon="7.4763344"></trkpt><trkpt lat="50.1847793" lon="7.476266"></trkpt><trkpt lat="50.1847647" lon="7.4761963"></trkpt><trkpt lat="50.1847663" lon="7.4761412"></trkpt><trkpt lat="50.1847759" lon="7.4761011"></trkpt><trkpt lat="50.1847997" lon="7.4760232"></trkpt><trkpt lat="50.1848111" lon="7.4759351"></trkpt><trkpt lat="50.1848137" lon="7.4758275"></trkpt><trkpt lat="50.1848076" lon="7.4757236"></trkpt><trkpt lat="50.1847853" lon="7.4755874"></trkpt><trkpt lat="50.1847939" lon="7.4754158"></trkpt><trkpt lat="50.184807" lon="7.4753724"></trkpt><trkpt lat="50.1848223" lon="7.4753353"></trkpt><trkpt lat="50.1848377" lon="7.4753259"></trkpt><trkpt lat="50.1849292" lon="7.4753686"></trkpt><trkpt lat="50.1850559" lon="7.4753179"></trkpt><trkpt lat="50.1851365" lon="7.4753286"></trkpt><trkpt lat="50.1851836" lon="7.4753778"></trkpt><trkpt lat="50.1852336" lon="7.475456"></trkpt><trkpt lat="50.1853082" lon="7.4754973"></trkpt><trkpt lat="50.1854889" lon="7.4755638"></trkpt><trkpt lat="50.1855252" lon="7.4756088"></trkpt><trkpt lat="50.1856917" lon="7.4755378"></trkpt><trkpt lat="50.1857568" lon="7.475541"></trkpt><trkpt lat="50.1857639" lon="7.4755738"></trkpt><trkpt lat="50.185978" lon="7.4755062"></trkpt><trkpt lat="50.1860601" lon="7.4754813"></trkpt><trkpt lat="50.1861515" lon="7.4755398"></trkpt><trkpt lat="50.186231" lon="7.475526"></trkpt><trkpt lat="50.186318" lon="7.4755173"></trkpt><trkpt lat="50.1864031" lon="7.4754989"></trkpt><trkpt lat="50.1865468" lon="7.4754608"></trkpt><trkpt lat="50.1866281" lon="7.4754516"></trkpt><trkpt lat="50.1866696" lon="7.4754959"></trkpt><trkpt lat="50.1866929" lon="7.4755358"></trkpt><trkpt lat="50.1867218" lon="7.4755608"></trkpt><trkpt lat="50.186764" lon="7.4755339"></trkpt><trkpt lat="50.1868083" lon="7.4755453"></trkpt><trkpt lat="50.1868488" lon="7.4755508"></trkpt><trkpt lat="50.1868556" lon="7.4755258"></trkpt><trkpt lat="50.1868591" lon="7.4755083"></trkpt><trkpt lat="50.18684" lon="7.4754786"></trkpt><trkpt lat="50.1867938" lon="7.4754219"></trkpt><trkpt lat="50.1867651" lon="7.4753468"></trkpt><trkpt lat="50.186742" lon="7.4753269"></trkpt><trkpt lat="50.1864805" lon="7.475191"></trkpt><trkpt lat="50.186057" lon="7.4752008"></trkpt><trkpt lat="50.1859948" lon="7.475194"></trkpt><trkpt lat="50.1859707" lon="7.4751827"></trkpt><trkpt lat="50.1857914" lon="7.4749732"></trkpt><trkpt lat="50.185626" lon="7.4747801"></trkpt><trkpt lat="50.1855905" lon="7.4747132"></trkpt><trkpt lat="50.1855208" lon="7.4745626"></trkpt><trkpt lat="50.1854947" lon="7.4744562"></trkpt><trkpt lat="50.1854813" lon="7.474405"></trkpt><trkpt lat="50.1854849" lon="7.4743699"></trkpt><trkpt lat="50.1854985" lon="7.4743453"></trkpt><trkpt lat="50.185541" lon="7.4743214"></trkpt><trkpt lat="50.1856124" lon="7.4742542"></trkpt><trkpt lat="50.1856383" lon="7.4742038"></trkpt><trkpt lat="50.1857047" lon="7.4739615"></trkpt><trkpt lat="50.1857418" lon="7.4734818"></trkpt><trkpt lat="50.1857603" lon="7.4734811"></trkpt><trkpt lat="50.1858342" lon="7.4737231"></trkpt><trkpt lat="50.185823" lon="7.4737805"></trkpt><trkpt lat="50.1858864" lon="7.4739733"></trkpt><trkpt lat="50.1859267" lon="7.4740989"></trkpt><trkpt lat="50.1859468" lon="7.4740863"></trkpt><trkpt lat="50.1859601" lon="7.474068"></trkpt><trkpt lat="50.1860025" lon="7.4737533"></trkpt><trkpt lat="50.1860348" lon="7.4736996"></trkpt><trkpt lat="50.1860567" lon="7.4736012"></trkpt><trkpt lat="50.1860485" lon="7.4735242"></trkpt><trkpt lat="50.186012" lon="7.473464"></trkpt><trkpt lat="50.1860738" lon="7.4735067"></trkpt><trkpt lat="50.1861317" lon="7.4736389"></trkpt><trkpt lat="50.1861527" lon="7.4737697"></trkpt><trkpt lat="50.1861829" lon="7.4738782"></trkpt><trkpt lat="50.1861717" lon="7.4739912"></trkpt><trkpt lat="50.1861698" lon="7.4740104"></trkpt><trkpt lat="50.1861889" lon="7.4741043"></trkpt><trkpt lat="50.1862446" lon="7.474168"></trkpt><trkpt lat="50.1862839" lon="7.4742848"></trkpt><trkpt lat="50.1863201" lon="7.4743105"></trkpt><trkpt lat="50.1865725" lon="7.4742688"></trkpt><trkpt lat="50.1866248" lon="7.4742266"></trkpt><trkpt lat="50.1866883" lon="7.4741617"></trkpt><trkpt lat="50.1867022" lon="7.4741475"></trkpt><trkpt lat="50.1867801" lon="7.4741001"></trkpt><trkpt lat="50.1868479" lon="7.4741282"></trkpt><trkpt lat="50.186945" lon="7.4741014"></trkpt><trkpt lat="50.1870243" lon="7.4740584"></trkpt><trkpt lat="50.1870763" lon="7.4739833"></trkpt><trkpt lat="50.1871037" lon="7.473895"></trkpt><trkpt lat="50.1871389" lon="7.4736904"></trkpt><trkpt lat="50.1871869" lon="7.4733652"></trkpt><trkpt lat="50.1872152" lon="7.4732192"></trkpt><trkpt lat="50.1872523" lon="7.4731675"></trkpt><trkpt lat="50.1873268" lon="7.473106"></trkpt><trkpt lat="50.1873944" lon="7.4730583"></trkpt><trkpt lat="50.1875379" lon="7.4729673"></trkpt><trkpt lat="50.1876491" lon="7.4728274"></trkpt><trkpt lat="50.1878368" lon="7.4728066"></trkpt><trkpt lat="50.1880754" lon="7.4725624"></trkpt><trkpt lat="50.1881709" lon="7.4725684"></trkpt><trkpt lat="50.1882426" lon="7.472509"></trkpt><trkpt lat="50.1883005" lon="7.4725274"></trkpt><trkpt lat="50.1883446" lon="7.4725485"></trkpt><trkpt lat="50.188458" lon="7.4726142"></trkpt><trkpt lat="50.1885438" lon="7.4727282"></trkpt><trkpt lat="50.1887339" lon="7.4726858"></trkpt><trkpt lat="50.1887799" lon="7.4728128"></trkpt><trkpt lat="50.1887902" lon="7.4729449"></trkpt><trkpt lat="50.1887093" lon="7.4732082"></trkpt><trkpt lat="50.1886286" lon="7.4733839"></trkpt><trkpt lat="50.1886065" lon="7.4734718"></trkpt><trkpt lat="50.1886027" lon="7.473548"></trkpt><trkpt lat="50.1885932" lon="7.4736881"></trkpt><trkpt lat="50.1885167" lon="7.4739677"></trkpt><trkpt lat="50.1885044" lon="7.4741146"></trkpt><trkpt lat="50.1885184" lon="7.4742457"></trkpt><trkpt lat="50.1885473" lon="7.4744032"></trkpt><trkpt lat="50.1885967" lon="7.4746838"></trkpt><trkpt lat="50.1886778" lon="7.4749039"></trkpt><trkpt lat="50.1886962" lon="7.4750594"></trkpt><trkpt lat="50.1887472" lon="7.4752821"></trkpt><trkpt lat="50.1888329" lon="7.475457"></trkpt><trkpt lat="50.1888097" lon="7.4755999"></trkpt><trkpt lat="50.1889524" lon="7.4760211"></trkpt><trkpt lat="50.1896569" lon="7.4775433"></trkpt><trkpt lat="50.1900192" lon="7.4782736"></trkpt><trkpt lat="50.1901014" lon="7.4784091"></trkpt><trkpt lat="50.1903072" lon="7.4786489"></trkpt><trkpt lat="50.1903942" lon="7.4787189"></trkpt><trkpt lat="50.1908001" lon="7.4788856"></trkpt><trkpt lat="50.1910009" lon="7.4789314"></trkpt><trkpt lat="50.191066" lon="7.478921"></trkpt><trkpt lat="50.1911867" lon="7.4788691"></trkpt><trkpt lat="50.1913048" lon="7.478705"></trkpt><trkpt lat="50.1915712" lon="7.4782977"></trkpt><trkpt lat="50.1916471" lon="7.478192"></trkpt><trkpt lat="50.1916881" lon="7.4781851"></trkpt><trkpt lat="50.1917241" lon="7.478164"></trkpt><trkpt lat="50.1917706" lon="7.4781167"></trkpt><trkpt lat="50.1920357" lon="7.4777006"></trkpt><trkpt lat="50.1923007" lon="7.4772254"></trkpt><trkpt lat="50.1923526" lon="7.4771807"></trkpt><trkpt lat="50.1924446" lon="7.4772383"></trkpt><trkpt lat="50.192586" lon="7.4773732"></trkpt><trkpt lat="50.1927785" lon="7.4775997"></trkpt><trkpt lat="50.1930027" lon="7.4778559"></trkpt><trkpt lat="50.193305" lon="7.47828"></trkpt><trkpt lat="50.193477" lon="7.4785154"></trkpt><trkpt lat="50.1935568" lon="7.4786447"></trkpt><trkpt lat="50.193779" lon="7.4789047"></trkpt><trkpt lat="50.1939581" lon="7.4789927"></trkpt><trkpt lat="50.1942688" lon="7.4790055"></trkpt><trkpt lat="50.1943706" lon="7.4790122"></trkpt><trkpt lat="50.1944098" lon="7.4789844"></trkpt><trkpt lat="50.1944835" lon="7.4788286"></trkpt><trkpt lat="50.1945524" lon="7.4788839"></trkpt><trkpt lat="50.1947581" lon="7.4792934"></trkpt><trkpt lat="50.1951127" lon="7.4798777"></trkpt><trkpt lat="50.1953315" lon="7.4802033"></trkpt><trkpt lat="50.1955553" lon="7.480537"></trkpt><trkpt lat="50.1956664" lon="7.4807052"></trkpt><trkpt lat="50.195897" lon="7.4810413"></trkpt><trkpt lat="50.1960228" lon="7.4811789"></trkpt><trkpt lat="50.1961704" lon="7.4813047"></trkpt><trkpt lat="50.1962248" lon="7.48133"></trkpt><trkpt lat="50.1962749" lon="7.4813204"></trkpt><trkpt lat="50.196433" lon="7.4812882"></trkpt><trkpt lat="50.1967131" lon="7.4812203"></trkpt><trkpt lat="50.1968382" lon="7.4811786"></trkpt><trkpt lat="50.1970361" lon="7.4810932"></trkpt><trkpt lat="50.1971806" lon="7.4810136"></trkpt><trkpt lat="50.1973305" lon="7.4809089"></trkpt><trkpt lat="50.1973757" lon="7.4809039"></trkpt><trkpt lat="50.1975826" lon="7.4807274"></trkpt><trkpt lat="50.1978217" lon="7.4805682"></trkpt></trkseg></trk></gpx>
