<?xml version="1.0" encoding="UTF-8"?>
<gpx version="1.1" creator="Good Shit" xmlns="http://www.topografix.com/GPX/1/1"><trk><name>HO7 Hohenstein route — HO7 Hohenstein route</name><trkseg><trkpt lat="52.1958914" lon="9.2849182"></trkpt><trkpt lat="52.1958703" lon="9.2849867"></trkpt><trkpt lat="52.1958318" lon="9.2851117"></trkpt><trkpt lat="52.1957998" lon="9.2852301"></trkpt><trkpt lat="52.1957778" lon="9.2853234"></trkpt><trkpt lat="52.195722" lon="9.2855644"></trkpt><trkpt lat="52.1956507" lon="9.285898"></trkpt><trkpt lat="52.1955153" lon="9.2864889"></trkpt><trkpt lat="52.1954645" lon="9.2867799"></trkpt><trkpt lat="52.1954374" lon="9.2871484"></trkpt><trkpt lat="52.1954098" lon="9.2878826"></trkpt><trkpt lat="52.1953731" lon="9.2883255"></trkpt><trkpt lat="52.1952844" lon="9.2890715"></trkpt><trkpt lat="52.1952412" lon="9.2894019"></trkpt><trkpt lat="52.1951816" lon="9.2899918"></trkpt><trkpt lat="52.1951706" lon="9.2903066"></trkpt><trkpt lat="52.1951808" lon="9.2912123"></trkpt><trkpt lat="52.1952051" lon="9.2915953"></trkpt><trkpt lat="52.1953128" lon="9.2922527"></trkpt><trkpt lat="52.195283" lon="9.2924435"></trkpt><trkpt lat="52.1952709" lon="9.2926129"></trkpt><trkpt lat="52.1953023" lon="9.2928299"></trkpt><trkpt lat="52.1954243" lon="9.293194"></trkpt><trkpt lat="52.1956032" lon="9.2936351"></trkpt><trkpt lat="52.1958169" lon="9.2939699"></trkpt><trkpt lat="52.1958777" lon="9.2941414"></trkpt><trkpt lat="52.1959395" lon="9.294467"></trkpt><trkpt lat="52.1959612" lon="9.2948192"></trkpt><trkpt lat="52.1959547" lon="9.2952262"></trkpt><trkpt lat="52.1959664" lon="9.2957591"></trkpt><trkpt lat="52.1960096" lon="9.2964653"></trkpt><trkpt lat="52.1960345" lon="9.2968052"></trkpt><trkpt lat="52.196034" lon="9.2972742"></trkpt><trkpt lat="52.1960171" lon="9.2976514"></trkpt><trkpt lat="52.1961185" lon="9.2976843"></trkpt><trkpt lat="52.1961871" lon="9.2977687"></trkpt><trkpt lat="52.1962494" lon="9.2979534"></trkpt><trkpt lat="52.1962777" lon="9.298151"></trkpt><trkpt lat="52.1962812" lon="9.2982893"></trkpt><trkpt lat="52.1962686" lon="9.2984894"></trkpt><trkpt lat="52.1962864" lon="9.2987272"></trkpt><trkpt lat="52.1962855" lon="9.2989795"></trkpt><trkpt lat="52.1962787" lon="9.2994245"></trkpt><trkpt lat="52.196231" lon="9.2999127"></trkpt><trkpt lat="52.1962176" lon="9.3002133"></trkpt><trkpt lat="52.1962104" lon="9.3007246"></trkpt><trkpt lat="52.1961319" lon="9.3010709"></trkpt><trkpt lat="52.1960073" lon="9.3015423"></trkpt><trkpt lat="52.1960097" lon="9.3018219"></trkpt><trkpt lat="52.1960824" lon="9.3019657"></trkpt><trkpt lat="52.1966303" lon="9.3024612"></trkpt><trkpt lat="52.1967149" lon="9.3026377"></trkpt><trkpt lat="52.1966743" lon="9.303158"></trkpt><trkpt lat="52.1966694" lon="9.3034886"></trkpt><trkpt lat="52.1967908" lon="9.3043707"></trkpt><trkpt lat="52.1969524" lon="9.3050178"></trkpt><trkpt lat="52.1971888" lon="9.3055927"></trkpt><trkpt lat="52.1974149" lon="9.3063991"></trkpt><trkpt lat="52.1978472" lon="9.3073821"></trkpt><trkpt lat="52.1979596" lon="9.3077673"></trkpt><trkpt lat="52.1982872" lon="9.3085671"></trkpt><trkpt lat="52.1982433" lon="9.3087076"></trkpt><trkpt lat="52.1982269" lon="9.3088503"></trkpt><trkpt lat="52.1982078" lon="9.3089023"></trkpt><trkpt lat="52.1980295" lon="9.3090549"></trkpt><trkpt lat="52.1977513" lon="9.3089582"></trkpt><trkpt lat="52.197589" lon="9.3088276"></trkpt><trkpt lat="52.1975545" lon="9.3088299"></trkpt><trkpt lat="52.1968906" lon="9.3086445"></trkpt><trkpt lat="52.1966911" lon="9.308364"></trkpt><trkpt lat="52.1965173" lon="9.3081753"></trkpt><trkpt lat="52.1964924" lon="9.3082471"></trkpt><trkpt lat="52.196498" lon="9.3083391"></trkpt><trkpt lat="52.1964992" lon="9.3083579"></trkpt><trkpt lat="52.196512" lon="9.3085674"></trkpt><trkpt lat="52.1965467" lon="9.3088506"></trkpt><trkpt lat="52.196535" lon="9.3091173"></trkpt><trkpt lat="52.196528" lon="9.3092769"></trkpt><trkpt lat="52.1965711" lon="9.3096069"></trkpt><trkpt lat="52.1965665" lon="9.309712"></trkpt><trkpt lat="52.1965651" lon="9.3099867"></trkpt><trkpt lat="52.1965687" lon="9.3102867"></trkpt><trkpt lat="52.1965694" lon="9.3109115"></trkpt><trkpt lat="52.1965847" lon="9.3111653"></trkpt><trkpt lat="52.1966348" lon="9.3113211"></trkpt><trkpt lat="52.1966416" lon="9.3113784"></trkpt><trkpt lat="52.1966614" lon="9.3115859"></trkpt><trkpt lat="52.1968794" lon="9.312381"></trkpt><trkpt lat="52.1969411" lon="9.312715"></trkpt><trkpt lat="52.1970052" lon="9.3134667"></trkpt><trkpt lat="52.1970191" lon="9.3139654"></trkpt><trkpt lat="52.1970902" lon="9.3142802"></trkpt><trkpt lat="52.1973797" lon="9.3153167"></trkpt><trkpt lat="52.1980826" lon="9.3166439"></trkpt><trkpt lat="52.1983559" lon="9.3172915"></trkpt><trkpt lat="52.1987145" lon="9.318556"></trkpt><trkpt lat="52.1990086" lon="9.319541"></trkpt><trkpt lat="52.1993332" lon="9.3209994"></trkpt><trkpt lat="52.1994409" lon="9.3216524"></trkpt><trkpt lat="52.1996018" lon="9.3223633"></trkpt><trkpt lat="52.1999047" lon="9.3240532"></trkpt><trkpt lat="52.1999394" lon="9.3247433"></trkpt><trkpt lat="52.1999712" lon="9.3254273"></trkpt><trkpt lat="52.1999505" lon="9.3264092"></trkpt><trkpt lat="52.1998579" lon="9.327329"></trkpt><trkpt lat="52.1997359" lon="9.3279807"></trkpt><trkpt lat="52.1996925" lon="9.3283268"></trkpt><trkpt lat="52.1997363" lon="9.3288253"></trkpt><trkpt lat="52.1997224" lon="9.3290188"></trkpt><trkpt lat="52.1995832" lon="9.3298092"></trkpt><trkpt lat="52.19933" lon="9.3308338"></trkpt><trkpt lat="52.1990077" lon="9.3314766"></trkpt><trkpt lat="52.1985999" lon="9.3322632"></trkpt><trkpt lat="52.1983099" lon="9.3327667"></trkpt><trkpt lat="52.1980523" lon="9.3332408"></trkpt><trkpt lat="52.1979096" lon="9.3335765"></trkpt><trkpt lat="52.1976663" lon="9.3343744"></trkpt><trkpt lat="52.1976312" lon="9.3345291"></trkpt><trkpt lat="52.1976308" lon="9.3346348"></trkpt><trkpt lat="52.1976548" lon="9.3349054"></trkpt><trkpt lat="52.1976959" lon="9.3355197"></trkpt><trkpt lat="52.1977795" lon="9.3367786"></trkpt><trkpt lat="52.1979624" lon="9.3387618"></trkpt><trkpt lat="52.1981173" lon="9.3396649"></trkpt><trkpt lat="52.1981126" lon="9.3398702"></trkpt><trkpt lat="52.1981723" lon="9.3400963"></trkpt><trkpt lat="52.1983223" lon="9.3405729"></trkpt><trkpt lat="52.1984789" lon="9.3410616"></trkpt><trkpt lat="52.1986184" lon="9.3415499"></trkpt><trkpt lat="52.1987952" lon="9.3421085"></trkpt><trkpt lat="52.198961" lon="9.3426586"></trkpt><trkpt lat="52.1991493" lon="9.3431848"></trkpt><trkpt lat="52.1994574" lon="9.3438657"></trkpt><trkpt lat="52.1997414" lon="9.3443869"></trkpt><trkpt lat="52.1998565" lon="9.3445464"></trkpt><trkpt lat="52.2001501" lon="9.3447402"></trkpt><trkpt lat="52.2002776" lon="9.344789"></trkpt><trkpt lat="52.2003602" lon="9.3447238"></trkpt><trkpt lat="52.201559" lon="9.3433412"></trkpt><trkpt lat="52.2017767" lon="9.3431158"></trkpt><trkpt lat="52.2026266" lon="9.3421655"></trkpt><trkpt lat="52.2032239" lon="9.3414785"></trkpt><trkpt lat="52.2033202" lon="9.3414985"></trkpt><trkpt lat="52.2033751" lon="9.3415613"></trkpt><trkpt lat="52.2036164" lon="9.3419565"></trkpt><trkpt lat="52.2038706" lon="9.3423425"></trkpt><trkpt lat="52.204338" lon="9.3430458"></trkpt><trkpt lat="52.2049169" lon="9.3438991"></trkpt><trkpt lat="52.2051392" lon="9.3442334"></trkpt><trkpt lat="52.2053958" lon="9.3445999"></trkpt><trkpt lat="52.2056004" lon="9.3449101"></trkpt><trkpt lat="52.2061916" lon="9.3457856"></trkpt><trkpt lat="52.2069139" lon="9.3468574"></trkpt><trkpt lat="52.2076383" lon="9.3479271"></trkpt><trkpt lat="52.2078729" lon="9.3474447"></trkpt><trkpt lat="52.2083919" lon="9.3464115"></trkpt><trkpt lat="52.208795" lon="9.345589"></trkpt><trkpt lat="52.2091851" lon="9.3448392"></trkpt><trkpt lat="52.2095858" lon="9.344032"></trkpt><trkpt lat="52.2100694" lon="9.343087"></trkpt><trkpt lat="52.2101761" lon="9.342863"></trkpt><trkpt lat="52.2103803" lon="9.3424637"></trkpt><trkpt lat="52.2104337" lon="9.3423562"></trkpt><trkpt lat="52.210489" lon="9.3422239"></trkpt><trkpt lat="52.210523" lon="9.3421062"></trkpt><trkpt lat="52.2105395" lon="9.3419828"></trkpt><trkpt lat="52.210558" lon="9.341438"></trkpt><trkpt lat="52.2106642" lon="9.3394288"></trkpt><trkpt lat="52.2107132" lon="9.3385529"></trkpt><trkpt lat="52.2107766" lon="9.3372582"></trkpt><trkpt lat="52.2108479" lon="9.3359132"></trkpt><trkpt lat="52.2109298" lon="9.3344733"></trkpt><trkpt lat="52.2109576" lon="9.333909"></trkpt><trkpt lat="52.2109677" lon="9.33369"></trkpt><trkpt lat="52.2110017" lon="9.3331191"></trkpt><trkpt lat="52.2111082" lon="9.3311798"></trkpt><trkpt lat="52.2112151" lon="9.3291267"></trkpt><trkpt lat="52.2112568" lon="9.3282318"></trkpt><trkpt lat="52.2113212" lon="9.3271096"></trkpt><trkpt lat="52.2113327" lon="9.3268337"></trkpt><trkpt lat="52.2113344" lon="9.3265996"></trkpt><trkpt lat="52.211325" lon="9.3263383"></trkpt><trkpt lat="52.2113069" lon="9.3260416"></trkpt><trkpt lat="52.2112887" lon="9.3258754"></trkpt><trkpt lat="52.211264" lon="9.3257588"></trkpt><trkpt lat="52.2112295" lon="9.3256553"></trkpt><trkpt lat="52.2111836" lon="9.3255671"></trkpt><trkpt lat="52.211127" lon="9.325497"></trkpt><trkpt lat="52.2110151" lon="9.3254017"></trkpt><trkpt lat="52.2108008" lon="9.3252445"></trkpt><trkpt lat="52.2102603" lon="9.3248472"></trkpt><trkpt lat="52.2101585" lon="9.324768"></trkpt><trkpt lat="52.210046" lon="9.3246688"></trkpt><trkpt lat="52.2099707" lon="9.3245659"></trkpt><trkpt lat="52.2099006" lon="9.3244305"></trkpt><trkpt lat="52.2098478" lon="9.3242769"></trkpt><trkpt lat="52.2097774" lon="9.3239714"></trkpt><trkpt lat="52.2096908" lon="9.3234283"></trkpt><trkpt lat="52.2096382" lon="9.323034"></trkpt><trkpt lat="52.2095856" lon="9.3225606"></trkpt><trkpt lat="52.2095476" lon="9.3221828"></trkpt><trkpt lat="52.2095371" lon="9.3219382"></trkpt><trkpt lat="52.2095701" lon="9.3217514"></trkpt><trkpt lat="52.2096351" lon="9.3215887"></trkpt><trkpt lat="52.2097285" lon="9.3214133"></trkpt><trkpt lat="52.2102158" lon="9.3205984"></trkpt><trkpt lat="52.2110552" lon="9.3191909"></trkpt><trkpt lat="52.211763" lon="9.3179766"></trkpt><trkpt lat="52.2127683" lon="9.3162902"></trkpt><trkpt lat="52.2131042" lon="9.315726"></trkpt><trkpt lat="52.2135405" lon="9.3149899"></trkpt><trkpt lat="52.2139031" lon="9.3143778"></trkpt><trkpt lat="52.2135966" lon="9.3139093"></trkpt><trkpt lat="52.2133203" lon="9.3135096"></trkpt><trkpt lat="52.2130304" lon="9.3131232"></trkpt><trkpt lat="52.2128126" lon="9.3128139"></trkpt><trkpt lat="52.2124706" lon="9.3124565"></trkpt><trkpt lat="52.2124003" lon="9.3124223"></trkpt><trkpt lat="52.2121857" lon="9.3123778"></trkpt><trkpt lat="52.2119731" lon="9.3123785"></trkpt><trkpt lat="52.2117472" lon="9.3123654"></trkpt><trkpt lat="52.2115872" lon="9.3123215"></trkpt><trkpt lat="52.2114173" lon="9.3122367"></trkpt><trkpt lat="52.2112821" lon="9.3121379"></trkpt><trkpt lat="52.2110319" lon="9.3119109"></trkpt><trkpt lat="52.2108567" lon="9.3116813"></trkpt><trkpt lat="52.2107269" lon="9.3116423"></trkpt><trkpt lat="52.2107176" lon="9.3115849"></trkpt><trkpt lat="52.2107312" lon="9.3114629"></trkpt><trkpt lat="52.2107136" lon="9.3111412"></trkpt><trkpt lat="52.2107234" lon="9.3109608"></trkpt><trkpt lat="52.2107567" lon="9.3108238"></trkpt><trkpt lat="52.2108123" lon="9.3106902"></trkpt><trkpt lat="52.2108852" lon="9.3105563"></trkpt><trkpt lat="52.2109208" lon="9.3104697"></trkpt><trkpt lat="52.2109514" lon="9.3103728"></trkpt><trkpt lat="52.2109659" lon="9.3102699"></trkpt><trkpt lat="52.2109734" lon="9.3101576"></trkpt><trkpt lat="52.2109903" lon="9.3100281"></trkpt><trkpt lat="52.2110312" lon="9.3098832"></trkpt><trkpt lat="52.2110868" lon="9.3096985"></trkpt><trkpt lat="52.2111789" lon="9.3095188"></trkpt><trkpt lat="52.2112166" lon="9.3093762"></trkpt><trkpt lat="52.2112394" lon="9.3090648"></trkpt><trkpt lat="52.2112467" lon="9.308873"></trkpt><trkpt lat="52.2112356" lon="9.3085834"></trkpt><trkpt lat="52.2112039" lon="9.3084226"></trkpt><trkpt lat="52.2111757" lon="9.3081456"></trkpt><trkpt lat="52.2111447" lon="9.3078448"></trkpt><trkpt lat="52.2111221" lon="9.3075389"></trkpt><trkpt lat="52.211086" lon="9.3073544"></trkpt><trkpt lat="52.2110394" lon="9.307186"></trkpt><trkpt lat="52.2110334" lon="9.3069379"></trkpt><trkpt lat="52.2110058" lon="9.3067556"></trkpt><trkpt lat="52.2109519" lon="9.3064522"></trkpt><trkpt lat="52.2109387" lon="9.3062636"></trkpt><trkpt lat="52.2109042" lon="9.306021"></trkpt><trkpt lat="52.2108634" lon="9.305695"></trkpt><trkpt lat="52.2108579" lon="9.3055326"></trkpt><trkpt lat="52.2108069" lon="9.3052446"></trkpt><trkpt lat="52.2108029" lon="9.3050202"></trkpt><trkpt lat="52.2108701" lon="9.304812"></trkpt><trkpt lat="52.2104767" lon="9.3041959"></trkpt><trkpt lat="52.2096995" lon="9.3029667"></trkpt><trkpt lat="52.2093254" lon="9.3023801"></trkpt><trkpt lat="52.2089567" lon="9.301784"></trkpt><trkpt lat="52.2083932" lon="9.3008845"></trkpt><trkpt lat="52.2076531" lon="9.2997289"></trkpt><trkpt lat="52.2073312" lon="9.3002186"></trkpt><trkpt lat="52.2070933" lon="9.3005856"></trkpt><trkpt lat="52.2068715" lon="9.3009291"></trkpt><trkpt lat="52.2066496" lon="9.3012847"></trkpt><trkpt lat="52.2063566" lon="9.3017385"></trkpt><trkpt lat="52.2061657" lon="9.3020369"></trkpt><trkpt lat="52.205918" lon="9.302427"></trkpt><trkpt lat="52.2058345" lon="9.3025314"></trkpt><trkpt lat="52.2057534" lon="9.3025826"></trkpt><trkpt lat="52.2056571" lon="9.3026053"></trkpt><trkpt lat="52.2053779" lon="9.3026183"></trkpt><trkpt lat="52.2053063" lon="9.3027309"></trkpt><trkpt lat="52.2051489" lon="9.3030363"></trkpt><trkpt lat="52.2048667" lon="9.3034678"></trkpt><trkpt lat="52.2048051" lon="9.3036803"></trkpt><trkpt lat="52.2047798" lon="9.3039726"></trkpt><trkpt lat="52.2047575" lon="9.3040672"></trkpt><trkpt lat="52.2046969" lon="9.3041967"></trkpt><trkpt lat="52.2045814" lon="9.3043676"></trkpt><trkpt lat="52.2035753" lon="9.3056736"></trkpt><trkpt lat="52.2035002" lon="9.3057143"></trkpt><trkpt lat="52.2034309" lon="9.3057086"></trkpt><trkpt lat="52.203333" lon="9.3055865"></trkpt><trkpt lat="52.2032694" lon="9.3054337"></trkpt><trkpt lat="52.2032301" lon="9.305268"></trkpt><trkpt lat="52.2032163" lon="9.3050994"></trkpt><trkpt lat="52.2032154" lon="9.304858"></trkpt><trkpt lat="52.2031958" lon="9.3046494"></trkpt><trkpt lat="52.2031612" lon="9.3044181"></trkpt><trkpt lat="52.2031135" lon="9.3041861"></trkpt><trkpt lat="52.2029718" lon="9.3035316"></trkpt><trkpt lat="52.2028486" lon="9.3027783"></trkpt><trkpt lat="52.2027548" lon="9.3024002"></trkpt><trkpt lat="52.2026578" lon="9.3019534"></trkpt><trkpt lat="52.2026092" lon="9.3015748"></trkpt><trkpt lat="52.2025393" lon="9.3011733"></trkpt><trkpt lat="52.2022931" lon="9.3004007"></trkpt><trkpt lat="52.2020721" lon="9.3000153"></trkpt><trkpt lat="52.2018245" lon="9.2992217"></trkpt><trkpt lat="52.2015128" lon="9.2983048"></trkpt><trkpt lat="52.2012669" lon="9.29763"></trkpt><trkpt lat="52.201098" lon="9.2971802"></trkpt><trkpt lat="52.2009305" lon="9.2968195"></trkpt><trkpt lat="52.2004839" lon="9.2959229"></trkpt><trkpt lat="52.1997854" lon="9.2949432"></trkpt><trkpt lat="52.1985775" lon="9.2933415"></trkpt><trkpt lat="52.1979185" lon="9.2923629"></trkpt><trkpt lat="52.1974681" lon="9.2915762"></trkpt><trkpt lat="52.197202" lon="9.2911523"></trkpt><trkpt lat="52.1971145" lon="9.2910012"></trkpt><trkpt lat="52.1963955" lon="9.2897191"></trkpt><trkpt lat="52.1962334" lon="9.2893016"></trkpt><trkpt lat="52.1960496" lon="9.2886553"></trkpt><trkpt lat="52.1959201" lon="9.2880677"></trkpt><trkpt lat="52.1958645" lon="9.2874771"></trkpt><trkpt lat="52.195852" lon="9.2870777"></trkpt><trkpt lat="52.19584" lon="9.2862132"></trkpt><trkpt lat="52.1958565" lon="9.2858435"></trkpt><trkpt lat="52.1958882" lon="9.2855019"></trkpt><trkpt lat="52.195914" lon="9.2851464"></trkpt><trkpt lat="52.1959196" lon="9.2850481"></trkpt><trkpt lat="52.195907" lon="9.2849899"></trkpt><trkpt lat="52.1958914" lon="9.2849182"></trkpt></trkseg></trk></gpx>
