<?xml version="1.0" encoding="UTF-8"?>
<gpx version="1.1" creator="Good Shit" xmlns="http://www.topografix.com/GPX/1/1"><trk><name>Herzogstand–Heimgarten Ridge Loop — Walchensee H2–Herzogstand–Heimgarten–H5 loop</name><desc>Full walking circuit from Walchensee via H2 to Herzogstand, across H1 to Heimgarten, then down H5 via Ohlstädter Alm. The path is assembled from exact connected OpenStreetMap way/node edges; current signs and mountain conditions remain authoritative.

Route geometry: © OpenStreetMap contributors — OpenStreetMap route and path geometry. Licence: ODbL-1.0 (https://opendatacommons.org/licenses/odbl/1.0/). Source: https://www.openstreetmap.org/copyright. Dataset: https://www.openstreetmap.org/.</desc><trkseg><trkpt lat="47.5966497" lon="11.3175275"></trkpt><trkpt lat="47.5966764" lon="11.3176002"></trkpt><trkpt lat="47.5967606" lon="11.3176439"></trkpt><trkpt lat="47.5968233" lon="11.317679"></trkpt><trkpt lat="47.5968772" lon="11.3177169"></trkpt><trkpt lat="47.5970977" lon="11.3176258"></trkpt><trkpt lat="47.5976267" lon="11.3183188"></trkpt><trkpt lat="47.5980281" lon="11.3182899"></trkpt><trkpt lat="47.59825" lon="11.3187842"></trkpt><trkpt lat="47.5982886" lon="11.3187369"></trkpt><trkpt lat="47.5981512" lon="11.3179639"></trkpt><trkpt lat="47.5984582" lon="11.3183928"></trkpt><trkpt lat="47.5983907" lon="11.3174558"></trkpt><trkpt lat="47.5988117" lon="11.3178878"></trkpt><trkpt lat="47.5988352" lon="11.3175115"></trkpt><trkpt lat="47.5987709" lon="11.3173644"></trkpt><trkpt lat="47.598733" lon="11.3170052"></trkpt><trkpt lat="47.5985114" lon="11.316594"></trkpt><trkpt lat="47.5984914" lon="11.3165217"></trkpt><trkpt lat="47.5985136" lon="11.3162496"></trkpt><trkpt lat="47.5983237" lon="11.3151955"></trkpt><trkpt lat="47.5982853" lon="11.314877"></trkpt><trkpt lat="47.5982339" lon="11.3145105"></trkpt><trkpt lat="47.5985996" lon="11.3149572"></trkpt><trkpt lat="47.5986373" lon="11.3148229"></trkpt><trkpt lat="47.5987466" lon="11.3149658"></trkpt><trkpt lat="47.5985624" lon="11.3135515"></trkpt><trkpt lat="47.5985856" lon="11.3135009"></trkpt><trkpt lat="47.5986892" lon="11.3136038"></trkpt><trkpt lat="47.5989548" lon="11.3140042"></trkpt><trkpt lat="47.5990004" lon="11.3140094"></trkpt><trkpt lat="47.598813" lon="11.3130393"></trkpt><trkpt lat="47.5987453" lon="11.3125278"></trkpt><trkpt lat="47.5986083" lon="11.3121108"></trkpt><trkpt lat="47.5984168" lon="11.31131"></trkpt><trkpt lat="47.5990626" lon="11.3119862"></trkpt><trkpt lat="47.5990334" lon="11.3115926"></trkpt><trkpt lat="47.5988297" lon="11.3106503"></trkpt><trkpt lat="47.5990055" lon="11.310795"></trkpt><trkpt lat="47.5990584" lon="11.3108121"></trkpt><trkpt lat="47.5991105" lon="11.3106216"></trkpt><trkpt lat="47.5990841" lon="11.3104525"></trkpt><trkpt lat="47.5990375" lon="11.3102821"></trkpt><trkpt lat="47.5990601" lon="11.3097207"></trkpt><trkpt lat="47.5991536" lon="11.3096114"></trkpt><trkpt lat="47.5993895" lon="11.3095993"></trkpt><trkpt lat="47.5994215" lon="11.3097333"></trkpt><trkpt lat="47.5994218" lon="11.3098873"></trkpt><trkpt lat="47.5995625" lon="11.3099843"></trkpt><trkpt lat="47.5997442" lon="11.3097951"></trkpt><trkpt lat="47.5999544" lon="11.3105791"></trkpt><trkpt lat="47.6001045" lon="11.3100873"></trkpt><trkpt lat="47.6004039" lon="11.3097328"></trkpt><trkpt lat="47.6004661" lon="11.3104033"></trkpt><trkpt lat="47.6007554" lon="11.3103623"></trkpt><trkpt lat="47.6007824" lon="11.310662"></trkpt><trkpt lat="47.6009682" lon="11.3109342"></trkpt><trkpt lat="47.6013644" lon="11.3111563"></trkpt><trkpt lat="47.60162" lon="11.3114103"></trkpt><trkpt lat="47.6018145" lon="11.3114462"></trkpt><trkpt lat="47.6020344" lon="11.3106988"></trkpt><trkpt lat="47.6022209" lon="11.3103513"></trkpt><trkpt lat="47.6027965" lon="11.3100624"></trkpt><trkpt lat="47.6027688" lon="11.3093591"></trkpt><trkpt lat="47.6026443" lon="11.3091998"></trkpt><trkpt lat="47.6026432" lon="11.309145"></trkpt><trkpt lat="47.6026856" lon="11.3089847"></trkpt><trkpt lat="47.6027122" lon="11.3088743"></trkpt><trkpt lat="47.6027052" lon="11.3087931"></trkpt><trkpt lat="47.6026785" lon="11.3087103"></trkpt><trkpt lat="47.6026317" lon="11.3086221"></trkpt><trkpt lat="47.602626" lon="11.3085077"></trkpt><trkpt lat="47.6026519" lon="11.3084255"></trkpt><trkpt lat="47.6027338" lon="11.3083724"></trkpt><trkpt lat="47.6027704" lon="11.3083104"></trkpt><trkpt lat="47.6027929" lon="11.3083012"></trkpt><trkpt lat="47.6027983" lon="11.3083405"></trkpt><trkpt lat="47.6027812" lon="11.3084451"></trkpt><trkpt lat="47.6028003" lon="11.3086116"></trkpt><trkpt lat="47.6028431" lon="11.3087048"></trkpt><trkpt lat="47.6028997" lon="11.3086053"></trkpt><trkpt lat="47.6029636" lon="11.3085263"></trkpt><trkpt lat="47.6029955" lon="11.3084985"></trkpt><trkpt lat="47.603063" lon="11.3084883"></trkpt><trkpt lat="47.6031482" lon="11.3084688"></trkpt><trkpt lat="47.6032006" lon="11.3083712"></trkpt><trkpt lat="47.6032762" lon="11.3083575"></trkpt><trkpt lat="47.6033357" lon="11.3083009"></trkpt><trkpt lat="47.6033635" lon="11.3082931"></trkpt><trkpt lat="47.6033694" lon="11.3083055"></trkpt><trkpt lat="47.6033466" lon="11.308322"></trkpt><trkpt lat="47.60336" lon="11.3083436"></trkpt><trkpt lat="47.6034051" lon="11.3083453"></trkpt><trkpt lat="47.6034429" lon="11.3083771"></trkpt><trkpt lat="47.6034719" lon="11.3083856"></trkpt><trkpt lat="47.6035493" lon="11.3083964"></trkpt><trkpt lat="47.603686" lon="11.3083435"></trkpt><trkpt lat="47.6037206" lon="11.3082937"></trkpt><trkpt lat="47.6038653" lon="11.3082687"></trkpt><trkpt lat="47.6039534" lon="11.3081889"></trkpt><trkpt lat="47.6039744" lon="11.3081413"></trkpt><trkpt lat="47.6040223" lon="11.3081263"></trkpt><trkpt lat="47.6041982" lon="11.3082358"></trkpt><trkpt lat="47.6042478" lon="11.30824"></trkpt><trkpt lat="47.6042463" lon="11.3082635"></trkpt><trkpt lat="47.604066" lon="11.3082811"></trkpt><trkpt lat="47.60401" lon="11.3082812"></trkpt><trkpt lat="47.6040129" lon="11.3083033"></trkpt><trkpt lat="47.6041367" lon="11.3083817"></trkpt><trkpt lat="47.6042164" lon="11.3084561"></trkpt><trkpt lat="47.6043411" lon="11.308502"></trkpt><trkpt lat="47.6043572" lon="11.3085334"></trkpt><trkpt lat="47.6043892" lon="11.3085368"></trkpt><trkpt lat="47.6044526" lon="11.3084858"></trkpt><trkpt lat="47.604512" lon="11.3084846"></trkpt><trkpt lat="47.6046748" lon="11.3084504"></trkpt><trkpt lat="47.6047173" lon="11.3084748"></trkpt><trkpt lat="47.6047378" lon="11.3085183"></trkpt><trkpt lat="47.6047934" lon="11.3085605"></trkpt><trkpt lat="47.6048134" lon="11.3085992"></trkpt><trkpt lat="47.6048904" lon="11.3086435"></trkpt><trkpt lat="47.6049359" lon="11.3086584"></trkpt><trkpt lat="47.6049912" lon="11.308689"></trkpt><trkpt lat="47.6050326" lon="11.3086757"></trkpt><trkpt lat="47.6050629" lon="11.3086169"></trkpt><trkpt lat="47.6050692" lon="11.3086047"></trkpt><trkpt lat="47.605036" lon="11.3084703"></trkpt><trkpt lat="47.6050076" lon="11.3084001"></trkpt><trkpt lat="47.6049954" lon="11.3082947"></trkpt><trkpt lat="47.6048965" lon="11.3080693"></trkpt><trkpt lat="47.604918" lon="11.3080489"></trkpt><trkpt lat="47.6049278" lon="11.308079"></trkpt><trkpt lat="47.6049722" lon="11.3080999"></trkpt><trkpt lat="47.6049963" lon="11.3081631"></trkpt><trkpt lat="47.6050045" lon="11.3082035"></trkpt><trkpt lat="47.6050204" lon="11.3082237"></trkpt><trkpt lat="47.6050362" lon="11.3082308"></trkpt><trkpt lat="47.6050343" lon="11.3081641"></trkpt><trkpt lat="47.6050185" lon="11.3080243"></trkpt><trkpt lat="47.6049946" lon="11.3079752"></trkpt><trkpt lat="47.6049999" lon="11.3079276"></trkpt><trkpt lat="47.6051191" lon="11.3077808"></trkpt><trkpt lat="47.6051376" lon="11.3077395"></trkpt><trkpt lat="47.6051222" lon="11.307702"></trkpt><trkpt lat="47.6051009" lon="11.3075886"></trkpt><trkpt lat="47.6050331" lon="11.3073767"></trkpt><trkpt lat="47.6050086" lon="11.3072644"></trkpt><trkpt lat="47.6051243" lon="11.3073857"></trkpt><trkpt lat="47.6051841" lon="11.3074053"></trkpt><trkpt lat="47.6052557" lon="11.307466"></trkpt><trkpt lat="47.605284" lon="11.3073825"></trkpt><trkpt lat="47.604915" lon="11.3062199"></trkpt><trkpt lat="47.6049143" lon="11.3058838"></trkpt><trkpt lat="47.604908" lon="11.3057567"></trkpt><trkpt lat="47.6049108" lon="11.3056141"></trkpt><trkpt lat="47.6049181" lon="11.3055691"></trkpt><trkpt lat="47.604953" lon="11.3055652"></trkpt><trkpt lat="47.6049782" lon="11.3056516"></trkpt><trkpt lat="47.6051255" lon="11.3058739"></trkpt><trkpt lat="47.6052439" lon="11.3055734"></trkpt><trkpt lat="47.605237" lon="11.3057759"></trkpt><trkpt lat="47.6053226" lon="11.3055892"></trkpt><trkpt lat="47.6053762" lon="11.3054687"></trkpt><trkpt lat="47.6054141" lon="11.3054155"></trkpt><trkpt lat="47.6053966" lon="11.3056877"></trkpt><trkpt lat="47.6054452" lon="11.3056263"></trkpt><trkpt lat="47.6055018" lon="11.3055063"></trkpt><trkpt lat="47.6055319" lon="11.3054186"></trkpt><trkpt lat="47.6055288" lon="11.3055779"></trkpt><trkpt lat="47.6055351" lon="11.3056898"></trkpt><trkpt lat="47.6055324" lon="11.3057897"></trkpt><trkpt lat="47.6055533" lon="11.3058895"></trkpt><trkpt lat="47.6055797" lon="11.3058248"></trkpt><trkpt lat="47.6055771" lon="11.3057661"></trkpt><trkpt lat="47.6056192" lon="11.3056402"></trkpt><trkpt lat="47.6056742" lon="11.3054038"></trkpt><trkpt lat="47.6056857" lon="11.3051732"></trkpt><trkpt lat="47.6057268" lon="11.3049719"></trkpt><trkpt lat="47.6057897" lon="11.3047911"></trkpt><trkpt lat="47.6058218" lon="11.3047578"></trkpt><trkpt lat="47.6058398" lon="11.3047148"></trkpt><trkpt lat="47.6058855" lon="11.3046659"></trkpt><trkpt lat="47.6059415" lon="11.3046558"></trkpt><trkpt lat="47.605914" lon="11.3047128"></trkpt><trkpt lat="47.6058825" lon="11.3049279"></trkpt><trkpt lat="47.6058929" lon="11.30516"></trkpt><trkpt lat="47.6058882" lon="11.3052526"></trkpt><trkpt lat="47.6058759" lon="11.3053018"></trkpt><trkpt lat="47.605919" lon="11.3055209"></trkpt><trkpt lat="47.6060041" lon="11.3053719"></trkpt><trkpt lat="47.6060892" lon="11.3051936"></trkpt><trkpt lat="47.606145" lon="11.3050362"></trkpt><trkpt lat="47.6061814" lon="11.3050023"></trkpt><trkpt lat="47.6062113" lon="11.3050032"></trkpt><trkpt lat="47.6062964" lon="11.3050977"></trkpt><trkpt lat="47.6062252" lon="11.305238"></trkpt><trkpt lat="47.6061998" lon="11.3056242"></trkpt><trkpt lat="47.6062441" lon="11.3056135"></trkpt><trkpt lat="47.6062844" lon="11.3055443"></trkpt><trkpt lat="47.6063494" lon="11.3054234"></trkpt><trkpt lat="47.6064062" lon="11.3053981"></trkpt><trkpt lat="47.6064623" lon="11.3054507"></trkpt><trkpt lat="47.606397" lon="11.3055134"></trkpt><trkpt lat="47.6063793" lon="11.3056095"></trkpt><trkpt lat="47.6066354" lon="11.3063048"></trkpt><trkpt lat="47.6067744" lon="11.306762"></trkpt><trkpt lat="47.6067907" lon="11.3066336"></trkpt><trkpt lat="47.6068031" lon="11.3064994"></trkpt><trkpt lat="47.6067568" lon="11.306187"></trkpt><trkpt lat="47.6068072" lon="11.3060661"></trkpt><trkpt lat="47.6069158" lon="11.3060836"></trkpt><trkpt lat="47.6070283" lon="11.3061479"></trkpt><trkpt lat="47.6070697" lon="11.3061391"></trkpt><trkpt lat="47.6070859" lon="11.3061569"></trkpt><trkpt lat="47.6070952" lon="11.3061808"></trkpt><trkpt lat="47.6070675" lon="11.3061922"></trkpt><trkpt lat="47.6070588" lon="11.3062127"></trkpt><trkpt lat="47.606981" lon="11.3062786"></trkpt><trkpt lat="47.6069635" lon="11.3063278"></trkpt><trkpt lat="47.6069947" lon="11.306378"></trkpt><trkpt lat="47.6070695" lon="11.306327"></trkpt><trkpt lat="47.6071366" lon="11.3063571"></trkpt><trkpt lat="47.6071641" lon="11.3063579"></trkpt><trkpt lat="47.6071657" lon="11.3063853"></trkpt><trkpt lat="47.6071191" lon="11.3064194"></trkpt><trkpt lat="47.6070898" lon="11.3064834"></trkpt><trkpt lat="47.6070922" lon="11.3065473"></trkpt><trkpt lat="47.6071842" lon="11.3068085"></trkpt><trkpt lat="47.607209" lon="11.306935"></trkpt><trkpt lat="47.6072903" lon="11.3071763"></trkpt><trkpt lat="47.6073184" lon="11.3073962"></trkpt><trkpt lat="47.6073603" lon="11.3076191"></trkpt><trkpt lat="47.6074519" lon="11.3078891"></trkpt><trkpt lat="47.6074774" lon="11.3080486"></trkpt><trkpt lat="47.6075119" lon="11.3082052"></trkpt><trkpt lat="47.6074871" lon="11.3083151"></trkpt><trkpt lat="47.6074979" lon="11.3084309"></trkpt><trkpt lat="47.6075086" lon="11.3084822"></trkpt><trkpt lat="47.607508" lon="11.3085664"></trkpt><trkpt lat="47.6075556" lon="11.309186"></trkpt><trkpt lat="47.607744" lon="11.3099793"></trkpt><trkpt lat="47.6077583" lon="11.310259"></trkpt><trkpt lat="47.607734" lon="11.3103928"></trkpt><trkpt lat="47.6077436" lon="11.3104392"></trkpt><trkpt lat="47.6077247" lon="11.3105268"></trkpt><trkpt lat="47.6076866" lon="11.3108695"></trkpt><trkpt lat="47.6076671" lon="11.3110282"></trkpt><trkpt lat="47.6076385" lon="11.3111103"></trkpt><trkpt lat="47.6075897" lon="11.3112487"></trkpt><trkpt lat="47.6075595" lon="11.3113639"></trkpt><trkpt lat="47.6075369" lon="11.3114719"></trkpt><trkpt lat="47.6075225" lon="11.3115565"></trkpt><trkpt lat="47.6076215" lon="11.3114907"></trkpt><trkpt lat="47.6076349" lon="11.311503"></trkpt><trkpt lat="47.6076613" lon="11.3115017"></trkpt><trkpt lat="47.6077027" lon="11.3114741"></trkpt><trkpt lat="47.6077859" lon="11.3113259"></trkpt><trkpt lat="47.6078217" lon="11.3112946"></trkpt><trkpt lat="47.6078555" lon="11.31132"></trkpt><trkpt lat="47.6079366" lon="11.3112556"></trkpt><trkpt lat="47.60801" lon="11.3112127"></trkpt><trkpt lat="47.6080761" lon="11.311197"></trkpt><trkpt lat="47.6081479" lon="11.3112035"></trkpt><trkpt lat="47.6081912" lon="11.3111909"></trkpt><trkpt lat="47.608279" lon="11.3111418"></trkpt><trkpt lat="47.6083548" lon="11.3110874"></trkpt><trkpt lat="47.6084355" lon="11.310998"></trkpt><trkpt lat="47.6085614" lon="11.3108238"></trkpt><trkpt lat="47.6086419" lon="11.3106348"></trkpt><trkpt lat="47.6087262" lon="11.3104628"></trkpt><trkpt lat="47.6089655" lon="11.3100885"></trkpt><trkpt lat="47.6093092" lon="11.3096829"></trkpt><trkpt lat="47.6096222" lon="11.3094373"></trkpt><trkpt lat="47.6097094" lon="11.3094035"></trkpt><trkpt lat="47.6097902" lon="11.3093714"></trkpt><trkpt lat="47.6098709" lon="11.309324"></trkpt><trkpt lat="47.6099136" lon="11.3092657"></trkpt><trkpt lat="47.6099676" lon="11.3092003"></trkpt><trkpt lat="47.6100414" lon="11.3091358"></trkpt><trkpt lat="47.6101552" lon="11.309033"></trkpt><trkpt lat="47.6102401" lon="11.3089811"></trkpt><trkpt lat="47.6103808" lon="11.308867"></trkpt><trkpt lat="47.6105393" lon="11.3087907"></trkpt><trkpt lat="47.6107174" lon="11.3086086"></trkpt><trkpt lat="47.6107711" lon="11.3085888"></trkpt><trkpt lat="47.6109266" lon="11.3085694"></trkpt><trkpt lat="47.6111358" lon="11.3084916"></trkpt><trkpt lat="47.611225" lon="11.3084369"></trkpt><trkpt lat="47.6113199" lon="11.3083468"></trkpt><trkpt lat="47.611477" lon="11.3082162"></trkpt><trkpt lat="47.6117062" lon="11.3081677"></trkpt><trkpt lat="47.6117665" lon="11.3081771"></trkpt><trkpt lat="47.6118095" lon="11.3082093"></trkpt><trkpt lat="47.6118615" lon="11.3082708"></trkpt><trkpt lat="47.6119731" lon="11.3084688"></trkpt><trkpt lat="47.612076" lon="11.3086161"></trkpt><trkpt lat="47.6120993" lon="11.3086001"></trkpt><trkpt lat="47.6120984" lon="11.308552"></trkpt><trkpt lat="47.6120522" lon="11.3084353"></trkpt><trkpt lat="47.6120156" lon="11.3083039"></trkpt><trkpt lat="47.6120431" lon="11.3082888"></trkpt><trkpt lat="47.6121351" lon="11.3084569"></trkpt><trkpt lat="47.61222" lon="11.3085781"></trkpt><trkpt lat="47.612328" lon="11.3087598"></trkpt><trkpt lat="47.6124134" lon="11.3089442"></trkpt><trkpt lat="47.6124344" lon="11.3090711"></trkpt><trkpt lat="47.6124966" lon="11.3092352"></trkpt><trkpt lat="47.6126274" lon="11.3094483"></trkpt><trkpt lat="47.612763" lon="11.3097597"></trkpt><trkpt lat="47.6127832" lon="11.3097442"></trkpt><trkpt lat="47.6127805" lon="11.3096751"></trkpt><trkpt lat="47.6127502" lon="11.3095725"></trkpt><trkpt lat="47.6127095" lon="11.3093231"></trkpt><trkpt lat="47.6126598" lon="11.3092124"></trkpt><trkpt lat="47.6126182" lon="11.3090846"></trkpt><trkpt lat="47.6125703" lon="11.3087954"></trkpt><trkpt lat="47.6125631" lon="11.308623"></trkpt><trkpt lat="47.6125002" lon="11.3084601"></trkpt><trkpt lat="47.6124772" lon="11.3083"></trkpt><trkpt lat="47.6124885" lon="11.3082931"></trkpt><trkpt lat="47.6126331" lon="11.3085761"></trkpt><trkpt lat="47.6126826" lon="11.3087254"></trkpt><trkpt lat="47.6127247" lon="11.3088603"></trkpt><trkpt lat="47.6129763" lon="11.309302"></trkpt><trkpt lat="47.6129889" lon="11.3092882"></trkpt><trkpt lat="47.6129789" lon="11.3092245"></trkpt><trkpt lat="47.6129256" lon="11.3089959"></trkpt><trkpt lat="47.6128957" lon="11.3089129"></trkpt><trkpt lat="47.6128252" lon="11.3085265"></trkpt><trkpt lat="47.6127989" lon="11.3083079"></trkpt><trkpt lat="47.6128121" lon="11.3083012"></trkpt><trkpt lat="47.6129033" lon="11.308484"></trkpt><trkpt lat="47.613035" lon="11.3088376"></trkpt><trkpt lat="47.613153" lon="11.3090683"></trkpt><trkpt lat="47.6131977" lon="11.3091796"></trkpt><trkpt lat="47.6132731" lon="11.3094107"></trkpt><trkpt lat="47.6132778" lon="11.309512"></trkpt><trkpt lat="47.6132874" lon="11.3095468"></trkpt><trkpt lat="47.6133298" lon="11.3095878"></trkpt><trkpt lat="47.6133533" lon="11.3096492"></trkpt><trkpt lat="47.6133788" lon="11.3097151"></trkpt><trkpt lat="47.6134298" lon="11.3097714"></trkpt><trkpt lat="47.6134821" lon="11.3097743"></trkpt><trkpt lat="47.6134749" lon="11.3097383"></trkpt><trkpt lat="47.6134212" lon="11.3096631"></trkpt><trkpt lat="47.6134148" lon="11.3095716"></trkpt><trkpt lat="47.6133699" lon="11.3094152"></trkpt><trkpt lat="47.6133701" lon="11.309306"></trkpt><trkpt lat="47.6133834" lon="11.3091975"></trkpt><trkpt lat="47.6133808" lon="11.3091326"></trkpt><trkpt lat="47.61332" lon="11.308871"></trkpt><trkpt lat="47.6133112" lon="11.3087562"></trkpt><trkpt lat="47.6132886" lon="11.3085282"></trkpt><trkpt lat="47.613257" lon="11.3083614"></trkpt><trkpt lat="47.6132497" lon="11.3082223"></trkpt><trkpt lat="47.6132566" lon="11.3081863"></trkpt><trkpt lat="47.6132523" lon="11.3081375"></trkpt><trkpt lat="47.6132566" lon="11.3080778"></trkpt><trkpt lat="47.6132778" lon="11.3081188"></trkpt><trkpt lat="47.6132797" lon="11.3081567"></trkpt><trkpt lat="47.6133237" lon="11.3081998"></trkpt><trkpt lat="47.6133637" lon="11.3082426"></trkpt><trkpt lat="47.6134133" lon="11.3082407"></trkpt><trkpt lat="47.6134524" lon="11.3082921"></trkpt><trkpt lat="47.6134333" lon="11.3083352"></trkpt><trkpt lat="47.6134413" lon="11.3083798"></trkpt><trkpt lat="47.613446" lon="11.3084039"></trkpt><trkpt lat="47.6134699" lon="11.3084147"></trkpt><trkpt lat="47.613446" lon="11.3084039"></trkpt><trkpt lat="47.6134413" lon="11.3083798"></trkpt><trkpt lat="47.6134333" lon="11.3083352"></trkpt><trkpt lat="47.6134524" lon="11.3082921"></trkpt><trkpt lat="47.6134133" lon="11.3082407"></trkpt><trkpt lat="47.6133637" lon="11.3082426"></trkpt><trkpt lat="47.6133237" lon="11.3081998"></trkpt><trkpt lat="47.6132797" lon="11.3081567"></trkpt><trkpt lat="47.6132778" lon="11.3081188"></trkpt><trkpt lat="47.6132566" lon="11.3080778"></trkpt><trkpt lat="47.6132861" lon="11.3080618"></trkpt><trkpt lat="47.6133212" lon="11.3080548"></trkpt><trkpt lat="47.6133549" lon="11.3080345"></trkpt><trkpt lat="47.6134255" lon="11.3080481"></trkpt><trkpt lat="47.6134776" lon="11.3080727"></trkpt><trkpt lat="47.6134919" lon="11.3080643"></trkpt><trkpt lat="47.6134683" lon="11.3080068"></trkpt><trkpt lat="47.6134631" lon="11.3079366"></trkpt><trkpt lat="47.6135057" lon="11.3079176"></trkpt><trkpt lat="47.6135366" lon="11.3078438"></trkpt><trkpt lat="47.6136339" lon="11.3077104"></trkpt><trkpt lat="47.6136936" lon="11.3076429"></trkpt><trkpt lat="47.6137252" lon="11.3076126"></trkpt><trkpt lat="47.6138057" lon="11.3075418"></trkpt><trkpt lat="47.6138643" lon="11.3075276"></trkpt><trkpt lat="47.6139409" lon="11.3075212"></trkpt><trkpt lat="47.6140415" lon="11.307545"></trkpt><trkpt lat="47.6140799" lon="11.3076496"></trkpt><trkpt lat="47.614095" lon="11.3076446"></trkpt><trkpt lat="47.6140977" lon="11.3075726"></trkpt><trkpt lat="47.6141228" lon="11.3075161"></trkpt><trkpt lat="47.6141328" lon="11.307448"></trkpt><trkpt lat="47.6141621" lon="11.3073918"></trkpt><trkpt lat="47.6141625" lon="11.3073664"></trkpt><trkpt lat="47.6141328" lon="11.3073122"></trkpt><trkpt lat="47.614135" lon="11.3072832"></trkpt><trkpt lat="47.6141606" lon="11.3072653"></trkpt><trkpt lat="47.6141678" lon="11.307237"></trkpt><trkpt lat="47.614219" lon="11.3072005"></trkpt><trkpt lat="47.6142179" lon="11.3071799"></trkpt><trkpt lat="47.6141655" lon="11.3071559"></trkpt><trkpt lat="47.614163" lon="11.3071239"></trkpt><trkpt lat="47.6142303" lon="11.3069881"></trkpt><trkpt lat="47.6142274" lon="11.3068909"></trkpt><trkpt lat="47.6142606" lon="11.3068597"></trkpt><trkpt lat="47.6142729" lon="11.3068186"></trkpt><trkpt lat="47.614257" lon="11.306616"></trkpt><trkpt lat="47.6142728" lon="11.306493"></trkpt><trkpt lat="47.6142555" lon="11.3064229"></trkpt><trkpt lat="47.6142497" lon="11.3063379"></trkpt><trkpt lat="47.6142701" lon="11.306261"></trkpt><trkpt lat="47.6142324" lon="11.3062196"></trkpt><trkpt lat="47.6142377" lon="11.3061828"></trkpt><trkpt lat="47.6142371" lon="11.3061369"></trkpt><trkpt lat="47.6142224" lon="11.3060559"></trkpt><trkpt lat="47.6142355" lon="11.3059684"></trkpt><trkpt lat="47.6142584" lon="11.3059125"></trkpt><trkpt lat="47.6142332" lon="11.3058123"></trkpt><trkpt lat="47.6142739" lon="11.3055927"></trkpt><trkpt lat="47.6142539" lon="11.3055352"></trkpt><trkpt lat="47.6142695" lon="11.3053012"></trkpt><trkpt lat="47.614279" lon="11.3052539"></trkpt><trkpt lat="47.6142726" lon="11.3051897"></trkpt><trkpt lat="47.6142537" lon="11.3051648"></trkpt><trkpt lat="47.6142729" lon="11.305147"></trkpt><trkpt lat="47.6142921" lon="11.3051042"></trkpt><trkpt lat="47.6143075" lon="11.3050389"></trkpt><trkpt lat="47.6143073" lon="11.3049725"></trkpt><trkpt lat="47.6143176" lon="11.3048142"></trkpt><trkpt lat="47.6143268" lon="11.3047538"></trkpt><trkpt lat="47.6143294" lon="11.3047089"></trkpt><trkpt lat="47.6143314" lon="11.3046525"></trkpt><trkpt lat="47.6143385" lon="11.3046032"></trkpt><trkpt lat="47.6143534" lon="11.304579"></trkpt><trkpt lat="47.6143866" lon="11.3044965"></trkpt><trkpt lat="47.6143816" lon="11.3044885"></trkpt><trkpt lat="47.6143458" lon="11.3045022"></trkpt><trkpt lat="47.614339" lon="11.304494"></trkpt><trkpt lat="47.6143549" lon="11.3044494"></trkpt><trkpt lat="47.6143612" lon="11.3042958"></trkpt><trkpt lat="47.6143493" lon="11.3041569"></trkpt><trkpt lat="47.6143592" lon="11.3041081"></trkpt><trkpt lat="47.6143702" lon="11.3040023"></trkpt><trkpt lat="47.614352" lon="11.3038505"></trkpt><trkpt lat="47.6143335" lon="11.3038193"></trkpt><trkpt lat="47.6143399" lon="11.3037817"></trkpt><trkpt lat="47.6143342" lon="11.3036695"></trkpt><trkpt lat="47.6143212" lon="11.3035675"></trkpt><trkpt lat="47.614317" lon="11.3035134"></trkpt><trkpt lat="47.6142952" lon="11.3034331"></trkpt><trkpt lat="47.6142928" lon="11.3033106"></trkpt><trkpt lat="47.6142673" lon="11.3032719"></trkpt><trkpt lat="47.6142641" lon="11.3032394"></trkpt><trkpt lat="47.6142894" lon="11.303171"></trkpt><trkpt lat="47.6142927" lon="11.3030969"></trkpt><trkpt lat="47.6143058" lon="11.3030459"></trkpt><trkpt lat="47.61431" lon="11.3029649"></trkpt><trkpt lat="47.6143344" lon="11.3028518"></trkpt><trkpt lat="47.6143455" lon="11.3027586"></trkpt><trkpt lat="47.6143991" lon="11.3027413"></trkpt><trkpt lat="47.614473" lon="11.3026425"></trkpt><trkpt lat="47.6145748" lon="11.3024764"></trkpt><trkpt lat="47.6146057" lon="11.3024438"></trkpt><trkpt lat="47.614666" lon="11.3023483"></trkpt><trkpt lat="47.614681" lon="11.3022991"></trkpt><trkpt lat="47.6146817" lon="11.3022386"></trkpt><trkpt lat="47.6146633" lon="11.3021682"></trkpt><trkpt lat="47.6146506" lon="11.3020886"></trkpt><trkpt lat="47.6146262" lon="11.3020396"></trkpt><trkpt lat="47.6146195" lon="11.3019952"></trkpt><trkpt lat="47.6146366" lon="11.3019209"></trkpt><trkpt lat="47.6146607" lon="11.3018293"></trkpt><trkpt lat="47.6146502" lon="11.3017384"></trkpt><trkpt lat="47.6146549" lon="11.3016254"></trkpt><trkpt lat="47.6146551" lon="11.3015536"></trkpt><trkpt lat="47.614661" lon="11.3014631"></trkpt><trkpt lat="47.6146552" lon="11.3013851"></trkpt><trkpt lat="47.6146593" lon="11.3013281"></trkpt><trkpt lat="47.6146886" lon="11.301257"></trkpt><trkpt lat="47.6146972" lon="11.3011697"></trkpt><trkpt lat="47.6147326" lon="11.3010681"></trkpt><trkpt lat="47.6147457" lon="11.3010227"></trkpt><trkpt lat="47.6147736" lon="11.3009444"></trkpt><trkpt lat="47.6147728" lon="11.3008316"></trkpt><trkpt lat="47.6147859" lon="11.3007316"></trkpt><trkpt lat="47.6147727" lon="11.3006576"></trkpt><trkpt lat="47.6147762" lon="11.3005935"></trkpt><trkpt lat="47.6147612" lon="11.3005377"></trkpt><trkpt lat="47.6147342" lon="11.3004746"></trkpt><trkpt lat="47.6147337" lon="11.3004307"></trkpt><trkpt lat="47.6147195" lon="11.3004018"></trkpt><trkpt lat="47.61473" lon="11.3003641"></trkpt><trkpt lat="47.6147223" lon="11.3003039"></trkpt><trkpt lat="47.6146992" lon="11.3002608"></trkpt><trkpt lat="47.6146971" lon="11.3001658"></trkpt><trkpt lat="47.6147197" lon="11.3000798"></trkpt><trkpt lat="47.6147375" lon="11.3000393"></trkpt><trkpt lat="47.6147694" lon="11.2997905"></trkpt><trkpt lat="47.6148144" lon="11.2996223"></trkpt><trkpt lat="47.6148405" lon="11.2993703"></trkpt><trkpt lat="47.6148033" lon="11.2992357"></trkpt><trkpt lat="47.6147502" lon="11.2990968"></trkpt><trkpt lat="47.6147528" lon="11.2989752"></trkpt><trkpt lat="47.6147656" lon="11.2988022"></trkpt><trkpt lat="47.6147643" lon="11.29868"></trkpt><trkpt lat="47.6147508" lon="11.2985538"></trkpt><trkpt lat="47.6147512" lon="11.2984019"></trkpt><trkpt lat="47.6147297" lon="11.2982502"></trkpt><trkpt lat="47.6147596" lon="11.2981336"></trkpt><trkpt lat="47.6148328" lon="11.29779"></trkpt><trkpt lat="47.6148394" lon="11.2975927"></trkpt><trkpt lat="47.6148368" lon="11.297436"></trkpt><trkpt lat="47.614844" lon="11.2972991"></trkpt><trkpt lat="47.614867" lon="11.2972795"></trkpt><trkpt lat="47.6148892" lon="11.2972363"></trkpt><trkpt lat="47.6148833" lon="11.2972142"></trkpt><trkpt lat="47.6148556" lon="11.2971783"></trkpt><trkpt lat="47.614861" lon="11.2971024"></trkpt><trkpt lat="47.6148461" lon="11.2970446"></trkpt><trkpt lat="47.6148471" lon="11.2969521"></trkpt><trkpt lat="47.6148317" lon="11.2968791"></trkpt><trkpt lat="47.6148239" lon="11.2967858"></trkpt><trkpt lat="47.6148316" lon="11.2966895"></trkpt><trkpt lat="47.6148504" lon="11.296633"></trkpt><trkpt lat="47.6148727" lon="11.2965524"></trkpt><trkpt lat="47.614882" lon="11.2964538"></trkpt><trkpt lat="47.614884" lon="11.2961853"></trkpt><trkpt lat="47.6149056" lon="11.2960503"></trkpt><trkpt lat="47.6148985" lon="11.295892"></trkpt><trkpt lat="47.6149266" lon="11.2958174"></trkpt><trkpt lat="47.614935" lon="11.2957878"></trkpt><trkpt lat="47.6149376" lon="11.2957326"></trkpt><trkpt lat="47.614937" lon="11.2956536"></trkpt><trkpt lat="47.6149286" lon="11.295616"></trkpt><trkpt lat="47.6149396" lon="11.2955646"></trkpt><trkpt lat="47.6149099" lon="11.2952988"></trkpt><trkpt lat="47.6148984" lon="11.2952553"></trkpt><trkpt lat="47.6149064" lon="11.2952216"></trkpt><trkpt lat="47.6148791" lon="11.2950603"></trkpt><trkpt lat="47.6148741" lon="11.2949226"></trkpt><trkpt lat="47.6148587" lon="11.2948714"></trkpt><trkpt lat="47.6148675" lon="11.2948182"></trkpt><trkpt lat="47.6148288" lon="11.2946911"></trkpt><trkpt lat="47.6148214" lon="11.2946252"></trkpt><trkpt lat="47.6148252" lon="11.294576"></trkpt><trkpt lat="47.6148146" lon="11.2945391"></trkpt><trkpt lat="47.6148071" lon="11.294363"></trkpt><trkpt lat="47.6148138" lon="11.2943299"></trkpt><trkpt lat="47.6148046" lon="11.2942764"></trkpt><trkpt lat="47.6148009" lon="11.2942336"></trkpt><trkpt lat="47.6147746" lon="11.2941139"></trkpt><trkpt lat="47.6147854" lon="11.2940509"></trkpt><trkpt lat="47.6147743" lon="11.2939685"></trkpt><trkpt lat="47.6147878" lon="11.2938862"></trkpt><trkpt lat="47.6147797" lon="11.2938254"></trkpt><trkpt lat="47.6147834" lon="11.293757"></trkpt><trkpt lat="47.6147986" lon="11.2937087"></trkpt><trkpt lat="47.6148062" lon="11.2936166"></trkpt><trkpt lat="47.6148282" lon="11.2935416"></trkpt><trkpt lat="47.6148335" lon="11.2934885"></trkpt><trkpt lat="47.6148449" lon="11.2934398"></trkpt><trkpt lat="47.6148714" lon="11.293403"></trkpt><trkpt lat="47.6148508" lon="11.2933029"></trkpt><trkpt lat="47.6148549" lon="11.2931952"></trkpt><trkpt lat="47.6148417" lon="11.2931088"></trkpt><trkpt lat="47.6148346" lon="11.2929724"></trkpt><trkpt lat="47.6148717" lon="11.2927124"></trkpt><trkpt lat="47.6148852" lon="11.2925559"></trkpt><trkpt lat="47.6149141" lon="11.2924048"></trkpt><trkpt lat="47.6149402" lon="11.2923273"></trkpt><trkpt lat="47.6149648" lon="11.2922425"></trkpt><trkpt lat="47.6149981" lon="11.2921738"></trkpt><trkpt lat="47.6150094" lon="11.2920472"></trkpt><trkpt lat="47.6150622" lon="11.2919673"></trkpt><trkpt lat="47.6150811" lon="11.2918287"></trkpt><trkpt lat="47.615069" lon="11.2917581"></trkpt><trkpt lat="47.615108" lon="11.2916662"></trkpt><trkpt lat="47.6150925" lon="11.2915192"></trkpt><trkpt lat="47.6150933" lon="11.2913915"></trkpt><trkpt lat="47.615089" lon="11.2913411"></trkpt><trkpt lat="47.615093" lon="11.2912817"></trkpt><trkpt lat="47.6150591" lon="11.2910268"></trkpt><trkpt lat="47.6150403" lon="11.2909705"></trkpt><trkpt lat="47.6150368" lon="11.2908994"></trkpt><trkpt lat="47.6150168" lon="11.2908489"></trkpt><trkpt lat="47.6150246" lon="11.2907929"></trkpt><trkpt lat="47.6149945" lon="11.2907355"></trkpt><trkpt lat="47.6149534" lon="11.2904323"></trkpt><trkpt lat="47.6149674" lon="11.2903702"></trkpt><trkpt lat="47.6149583" lon="11.2903025"></trkpt><trkpt lat="47.6149645" lon="11.2902374"></trkpt><trkpt lat="47.6149489" lon="11.2901684"></trkpt><trkpt lat="47.6149426" lon="11.2900754"></trkpt><trkpt lat="47.614957" lon="11.2899815"></trkpt><trkpt lat="47.6149749" lon="11.2899495"></trkpt><trkpt lat="47.6149786" lon="11.2899107"></trkpt><trkpt lat="47.6149714" lon="11.2898462"></trkpt><trkpt lat="47.6149746" lon="11.2897663"></trkpt><trkpt lat="47.6149384" lon="11.2895324"></trkpt><trkpt lat="47.6149299" lon="11.2893985"></trkpt><trkpt lat="47.614932" lon="11.2893143"></trkpt><trkpt lat="47.6149238" lon="11.2892121"></trkpt><trkpt lat="47.6149365" lon="11.2891728"></trkpt><trkpt lat="47.6149329" lon="11.289098"></trkpt><trkpt lat="47.6149367" lon="11.2889796"></trkpt><trkpt lat="47.6149397" lon="11.2888916"></trkpt><trkpt lat="47.6149221" lon="11.2888172"></trkpt><trkpt lat="47.6149208" lon="11.2886482"></trkpt><trkpt lat="47.614906" lon="11.2885988"></trkpt><trkpt lat="47.6149121" lon="11.2885329"></trkpt><trkpt lat="47.6148647" lon="11.2883694"></trkpt><trkpt lat="47.6148563" lon="11.2882604"></trkpt><trkpt lat="47.614834" lon="11.2882133"></trkpt><trkpt lat="47.6148434" lon="11.2881438"></trkpt><trkpt lat="47.6148237" lon="11.2880933"></trkpt><trkpt lat="47.6148274" lon="11.2880462"></trkpt><trkpt lat="47.614824" lon="11.2880023"></trkpt><trkpt lat="47.6147853" lon="11.2879143"></trkpt><trkpt lat="47.6147886" lon="11.2878045"></trkpt><trkpt lat="47.6147421" lon="11.2876635"></trkpt><trkpt lat="47.6147635" lon="11.2875186"></trkpt><trkpt lat="47.6147554" lon="11.287451"></trkpt><trkpt lat="47.6147229" lon="11.2873405"></trkpt><trkpt lat="47.6146963" lon="11.2872632"></trkpt><trkpt lat="47.6146761" lon="11.2872096"></trkpt><trkpt lat="47.6146772" lon="11.287192"></trkpt><trkpt lat="47.6146595" lon="11.2871786"></trkpt><trkpt lat="47.6146056" lon="11.2870369"></trkpt><trkpt lat="47.6146075" lon="11.2870104"></trkpt><trkpt lat="47.6145858" lon="11.286966"></trkpt><trkpt lat="47.6145519" lon="11.2868712"></trkpt><trkpt lat="47.6145295" lon="11.2867512"></trkpt><trkpt lat="47.6144995" lon="11.2866769"></trkpt><trkpt lat="47.6144897" lon="11.2866248"></trkpt><trkpt lat="47.614456" lon="11.2865619"></trkpt><trkpt lat="47.6144595" lon="11.2865206"></trkpt><trkpt lat="47.6144432" lon="11.2864807"></trkpt><trkpt lat="47.614446" lon="11.2864024"></trkpt><trkpt lat="47.614416" lon="11.2863592"></trkpt><trkpt lat="47.6144146" lon="11.2863302"></trkpt><trkpt lat="47.6143998" lon="11.2863013"></trkpt><trkpt lat="47.6144183" lon="11.2862148"></trkpt><trkpt lat="47.6144438" lon="11.2861866"></trkpt><trkpt lat="47.6144463" lon="11.2861501"></trkpt><trkpt lat="47.6144078" lon="11.2860984"></trkpt><trkpt lat="47.6144104" lon="11.2860871"></trkpt><trkpt lat="47.614387" lon="11.2860033"></trkpt><trkpt lat="47.6143744" lon="11.2859299"></trkpt><trkpt lat="47.614352" lon="11.2858286"></trkpt><trkpt lat="47.6143" lon="11.2858019"></trkpt><trkpt lat="47.6143039" lon="11.2857531"></trkpt><trkpt lat="47.6142731" lon="11.2856813"></trkpt><trkpt lat="47.6142265" lon="11.2856063"></trkpt><trkpt lat="47.6141868" lon="11.2855196"></trkpt><trkpt lat="47.6141124" lon="11.2853887"></trkpt><trkpt lat="47.6141071" lon="11.2853262"></trkpt><trkpt lat="47.6141253" lon="11.2852561"></trkpt><trkpt lat="47.614111" lon="11.2852105"></trkpt><trkpt lat="47.614112" lon="11.285104"></trkpt><trkpt lat="47.6141074" lon="11.2849811"></trkpt><trkpt lat="47.6140789" lon="11.2849518"></trkpt><trkpt lat="47.6140806" lon="11.2849274"></trkpt><trkpt lat="47.6140742" lon="11.2848139"></trkpt><trkpt lat="47.6140848" lon="11.2847385"></trkpt><trkpt lat="47.6140734" lon="11.2847086"></trkpt><trkpt lat="47.6140449" lon="11.2846806"></trkpt><trkpt lat="47.6140413" lon="11.2846329"></trkpt><trkpt lat="47.6140022" lon="11.2844686"></trkpt><trkpt lat="47.6139614" lon="11.2843703"></trkpt><trkpt lat="47.6139561" lon="11.2843103"></trkpt><trkpt lat="47.6139318" lon="11.2841528"></trkpt><trkpt lat="47.6138956" lon="11.2841006"></trkpt><trkpt lat="47.6138411" lon="11.2840273"></trkpt><trkpt lat="47.613834" lon="11.2839602"></trkpt><trkpt lat="47.6138055" lon="11.2839176"></trkpt><trkpt lat="47.6137851" lon="11.2838604"></trkpt><trkpt lat="47.6137886" lon="11.2838238"></trkpt><trkpt lat="47.6137697" lon="11.2837797"></trkpt><trkpt lat="47.6137486" lon="11.2837827"></trkpt><trkpt lat="47.613745" lon="11.2837461"></trkpt><trkpt lat="47.6137328" lon="11.2837169"></trkpt><trkpt lat="47.6137357" lon="11.2836675"></trkpt><trkpt lat="47.6137223" lon="11.2836263"></trkpt><trkpt lat="47.6137015" lon="11.283614"></trkpt><trkpt lat="47.613697" lon="11.2835928"></trkpt><trkpt lat="47.6136633" lon="11.2835753"></trkpt><trkpt lat="47.6135774" lon="11.2834797"></trkpt><trkpt lat="47.613563" lon="11.2834329"></trkpt><trkpt lat="47.6135526" lon="11.2833791"></trkpt><trkpt lat="47.6135107" lon="11.2833318"></trkpt><trkpt lat="47.6134833" lon="11.2832277"></trkpt><trkpt lat="47.6134522" lon="11.2831237"></trkpt><trkpt lat="47.6134194" lon="11.2830347"></trkpt><trkpt lat="47.6134164" lon="11.2829834"></trkpt><trkpt lat="47.6134289" lon="11.282928"></trkpt><trkpt lat="47.6134567" lon="11.2829656"></trkpt><trkpt lat="47.6134665" lon="11.2829425"></trkpt><trkpt lat="47.6134598" lon="11.2828828"></trkpt><trkpt lat="47.6134309" lon="11.2828235"></trkpt><trkpt lat="47.6134362" lon="11.2828027"></trkpt><trkpt lat="47.6134587" lon="11.2828043"></trkpt><trkpt lat="47.6134688" lon="11.2827766"></trkpt><trkpt lat="47.6134419" lon="11.2827313"></trkpt><trkpt lat="47.6134351" lon="11.2826425"></trkpt><trkpt lat="47.6134255" lon="11.2825563"></trkpt><trkpt lat="47.6134186" lon="11.2824606"></trkpt><trkpt lat="47.6134311" lon="11.2823871"></trkpt><trkpt lat="47.6134319" lon="11.2823053"></trkpt><trkpt lat="47.6134088" lon="11.2822479"></trkpt><trkpt lat="47.6134203" lon="11.282226"></trkpt><trkpt lat="47.6134444" lon="11.2822137"></trkpt><trkpt lat="47.6134344" lon="11.2821708"></trkpt><trkpt lat="47.6134635" lon="11.2821537"></trkpt><trkpt lat="47.6135044" lon="11.2822438"></trkpt><trkpt lat="47.6135329" lon="11.2823369"></trkpt><trkpt lat="47.61355" lon="11.2823925"></trkpt><trkpt lat="47.6135607" lon="11.2824474"></trkpt><trkpt lat="47.6136019" lon="11.2824913"></trkpt><trkpt lat="47.6136276" lon="11.2825165"></trkpt><trkpt lat="47.6136473" lon="11.2825486"></trkpt><trkpt lat="47.6136784" lon="11.2825747"></trkpt><trkpt lat="47.6137044" lon="11.2825653"></trkpt><trkpt lat="47.6137311" lon="11.2825867"></trkpt><trkpt lat="47.6137503" lon="11.2825704"></trkpt><trkpt lat="47.6137805" lon="11.2825368"></trkpt><trkpt lat="47.6138255" lon="11.2825549"></trkpt><trkpt lat="47.6138772" lon="11.2825348"></trkpt><trkpt lat="47.6139138" lon="11.2824956"></trkpt><trkpt lat="47.6139675" lon="11.2823955"></trkpt><trkpt lat="47.613992" lon="11.2823313"></trkpt><trkpt lat="47.6139906" lon="11.2823081"></trkpt><trkpt lat="47.6139765" lon="11.282292"></trkpt><trkpt lat="47.6139575" lon="11.2823078"></trkpt><trkpt lat="47.6139381" lon="11.2823077"></trkpt><trkpt lat="47.6139351" lon="11.2822752"></trkpt><trkpt lat="47.6139139" lon="11.2822491"></trkpt><trkpt lat="47.6139183" lon="11.2822206"></trkpt><trkpt lat="47.6139406" lon="11.2822192"></trkpt><trkpt lat="47.6139683" lon="11.2821938"></trkpt><trkpt lat="47.6139708" lon="11.2821648"></trkpt><trkpt lat="47.6139499" lon="11.2821163"></trkpt><trkpt lat="47.6139325" lon="11.2820555"></trkpt><trkpt lat="47.6139464" lon="11.2820233"></trkpt><trkpt lat="47.6139401" lon="11.2819853"></trkpt><trkpt lat="47.6139652" lon="11.2819476"></trkpt><trkpt lat="47.6139696" lon="11.2818449"></trkpt><trkpt lat="47.6139434" lon="11.2818248"></trkpt><trkpt lat="47.613938" lon="11.2817967"></trkpt><trkpt lat="47.6139482" lon="11.281788"></trkpt><trkpt lat="47.6139474" lon="11.281754"></trkpt><trkpt lat="47.6139139" lon="11.2816779"></trkpt><trkpt lat="47.6139095" lon="11.2816314"></trkpt><trkpt lat="47.613888" lon="11.2816064"></trkpt><trkpt lat="47.6138672" lon="11.2814708"></trkpt><trkpt lat="47.6138128" lon="11.2813782"></trkpt><trkpt lat="47.613796" lon="11.28132"></trkpt><trkpt lat="47.6137998" lon="11.2812748"></trkpt><trkpt lat="47.6137809" lon="11.2812633"></trkpt><trkpt lat="47.6137662" lon="11.2812797"></trkpt><trkpt lat="47.6137558" lon="11.2812482"></trkpt><trkpt lat="47.6137545" lon="11.2811899"></trkpt><trkpt lat="47.6137306" lon="11.2811645"></trkpt><trkpt lat="47.6137189" lon="11.281179"></trkpt><trkpt lat="47.613679" lon="11.2811083"></trkpt><trkpt lat="47.6136785" lon="11.2810191"></trkpt><trkpt lat="47.613641" lon="11.2809916"></trkpt><trkpt lat="47.6136484" lon="11.2809252"></trkpt><trkpt lat="47.6136086" lon="11.2809323"></trkpt><trkpt lat="47.6135778" lon="11.2808777"></trkpt><trkpt lat="47.6135521" lon="11.2808643"></trkpt><trkpt lat="47.6135295" lon="11.2808526"></trkpt><trkpt lat="47.613503" lon="11.2808223"></trkpt><trkpt lat="47.6134323" lon="11.2807667"></trkpt><trkpt lat="47.613391" lon="11.280732"></trkpt><trkpt lat="47.6133737" lon="11.2806752"></trkpt><trkpt lat="47.6132645" lon="11.2806317"></trkpt><trkpt lat="47.613199" lon="11.2806034"></trkpt><trkpt lat="47.6131143" lon="11.2805895"></trkpt><trkpt lat="47.6129908" lon="11.2805897"></trkpt><trkpt lat="47.6128826" lon="11.2806095"></trkpt><trkpt lat="47.6127907" lon="11.2806323"></trkpt><trkpt lat="47.6127431" lon="11.2806656"></trkpt><trkpt lat="47.612683" lon="11.2807044"></trkpt><trkpt lat="47.6125772" lon="11.2807321"></trkpt><trkpt lat="47.6124969" lon="11.2807421"></trkpt><trkpt lat="47.612412" lon="11.2807128"></trkpt><trkpt lat="47.6123429" lon="11.280707"></trkpt><trkpt lat="47.612285" lon="11.2806375"></trkpt><trkpt lat="47.6122709" lon="11.2805684"></trkpt><trkpt lat="47.6122834" lon="11.2805"></trkpt><trkpt lat="47.6123411" lon="11.2804322"></trkpt><trkpt lat="47.6123478" lon="11.2804203"></trkpt><trkpt lat="47.6124222" lon="11.280322"></trkpt><trkpt lat="47.6124681" lon="11.2802899"></trkpt><trkpt lat="47.6123712" lon="11.2802527"></trkpt><trkpt lat="47.6123599" lon="11.2802477"></trkpt><trkpt lat="47.6123571" lon="11.2802399"></trkpt><trkpt lat="47.6123583" lon="11.2802324"></trkpt><trkpt lat="47.6123662" lon="11.2802191"></trkpt><trkpt lat="47.6123658" lon="11.2802069"></trkpt><trkpt lat="47.6123571" lon="11.2801992"></trkpt><trkpt lat="47.6123397" lon="11.2801979"></trkpt><trkpt lat="47.6122968" lon="11.2802007"></trkpt><trkpt lat="47.6122708" lon="11.2801897"></trkpt><trkpt lat="47.6122444" lon="11.2801999"></trkpt><trkpt lat="47.6122135" lon="11.2802105"></trkpt><trkpt lat="47.6121743" lon="11.2802239"></trkpt><trkpt lat="47.6120906" lon="11.2802366"></trkpt><trkpt lat="47.6120345" lon="11.2802508"></trkpt><trkpt lat="47.611989" lon="11.2802691"></trkpt><trkpt lat="47.6119486" lon="11.2803211"></trkpt><trkpt lat="47.6119376" lon="11.2803099"></trkpt><trkpt lat="47.6119252" lon="11.2803052"></trkpt><trkpt lat="47.6119058" lon="11.2803095"></trkpt><trkpt lat="47.6118705" lon="11.2803592"></trkpt><trkpt lat="47.6118631" lon="11.280368"></trkpt><trkpt lat="47.6118552" lon="11.2803671"></trkpt><trkpt lat="47.6118467" lon="11.2803325"></trkpt><trkpt lat="47.6118305" lon="11.2802695"></trkpt><trkpt lat="47.6117553" lon="11.2802677"></trkpt><trkpt lat="47.6117036" lon="11.28013"></trkpt><trkpt lat="47.6115587" lon="11.280137"></trkpt><trkpt lat="47.6115231" lon="11.2800836"></trkpt><trkpt lat="47.6115139" lon="11.2800284"></trkpt><trkpt lat="47.6113941" lon="11.2799496"></trkpt><trkpt lat="47.6114111" lon="11.2798654"></trkpt><trkpt lat="47.6112542" lon="11.2797994"></trkpt><trkpt lat="47.6112096" lon="11.2797373"></trkpt><trkpt lat="47.6112587" lon="11.2796594"></trkpt><trkpt lat="47.6113808" lon="11.2795894"></trkpt><trkpt lat="47.611543" lon="11.2794784"></trkpt><trkpt lat="47.6115437" lon="11.2794359"></trkpt><trkpt lat="47.6114388" lon="11.2793125"></trkpt><trkpt lat="47.6113081" lon="11.2792062"></trkpt><trkpt lat="47.6111866" lon="11.2790416"></trkpt><trkpt lat="47.6110381" lon="11.278919"></trkpt><trkpt lat="47.6108475" lon="11.2786993"></trkpt><trkpt lat="47.6105782" lon="11.2785507"></trkpt><trkpt lat="47.6106287" lon="11.2784354"></trkpt><trkpt lat="47.6105808" lon="11.2782848"></trkpt><trkpt lat="47.6105211" lon="11.2782705"></trkpt><trkpt lat="47.6103439" lon="11.2783809"></trkpt><trkpt lat="47.6103082" lon="11.2784657"></trkpt><trkpt lat="47.6100858" lon="11.2785556"></trkpt><trkpt lat="47.6101132" lon="11.2783723"></trkpt><trkpt lat="47.6100803" lon="11.278374"></trkpt><trkpt lat="47.6099632" lon="11.2784621"></trkpt><trkpt lat="47.6099383" lon="11.2785582"></trkpt><trkpt lat="47.6099028" lon="11.2785773"></trkpt><trkpt lat="47.6098546" lon="11.2791793"></trkpt><trkpt lat="47.6098007" lon="11.2793343"></trkpt><trkpt lat="47.6097811" lon="11.2793404"></trkpt><trkpt lat="47.6097134" lon="11.2791612"></trkpt><trkpt lat="47.6096843" lon="11.2788513"></trkpt><trkpt lat="47.6096476" lon="11.2788437"></trkpt><trkpt lat="47.6095886" lon="11.2789851"></trkpt><trkpt lat="47.6095324" lon="11.2790863"></trkpt><trkpt lat="47.6095103" lon="11.2789642"></trkpt><trkpt lat="47.6094314" lon="11.279088"></trkpt><trkpt lat="47.6093236" lon="11.2795253"></trkpt><trkpt lat="47.6092773" lon="11.2795296"></trkpt><trkpt lat="47.6092886" lon="11.2796507"></trkpt><trkpt lat="47.6092381" lon="11.2795849"></trkpt><trkpt lat="47.6091858" lon="11.2797173"></trkpt><trkpt lat="47.6091318" lon="11.2796655"></trkpt><trkpt lat="47.6091038" lon="11.2797386"></trkpt><trkpt lat="47.6091149" lon="11.2797958"></trkpt><trkpt lat="47.6090664" lon="11.2797452"></trkpt><trkpt lat="47.6089863" lon="11.2796476"></trkpt><trkpt lat="47.6089511" lon="11.2795104"></trkpt><trkpt lat="47.6089248" lon="11.2795187"></trkpt><trkpt lat="47.608912" lon="11.2794395"></trkpt><trkpt lat="47.6089597" lon="11.2793259"></trkpt><trkpt lat="47.6089434" lon="11.2793061"></trkpt><trkpt lat="47.6088369" lon="11.2794098"></trkpt><trkpt lat="47.608795" lon="11.2795025"></trkpt><trkpt lat="47.6087969" lon="11.2796579"></trkpt><trkpt lat="47.6087342" lon="11.2795558"></trkpt><trkpt lat="47.6086876" lon="11.2795742"></trkpt><trkpt lat="47.6086796" lon="11.2796959"></trkpt><trkpt lat="47.6086541" lon="11.2797122"></trkpt><trkpt lat="47.6085754" lon="11.2796183"></trkpt><trkpt lat="47.6085164" lon="11.2794637"></trkpt><trkpt lat="47.6085064" lon="11.2792818"></trkpt><trkpt lat="47.6085362" lon="11.2791316"></trkpt><trkpt lat="47.608598" lon="11.2789853"></trkpt><trkpt lat="47.6085776" lon="11.2789378"></trkpt><trkpt lat="47.608268" lon="11.2789705"></trkpt><trkpt lat="47.60818" lon="11.279038"></trkpt><trkpt lat="47.6081278" lon="11.27911"></trkpt><trkpt lat="47.6079298" lon="11.2795433"></trkpt><trkpt lat="47.6078801" lon="11.2797859"></trkpt><trkpt lat="47.6078577" lon="11.279792"></trkpt><trkpt lat="47.6077281" lon="11.2796169"></trkpt><trkpt lat="47.6076369" lon="11.2793179"></trkpt><trkpt lat="47.6076051" lon="11.2793108"></trkpt><trkpt lat="47.6075392" lon="11.2794359"></trkpt><trkpt lat="47.6074759" lon="11.2795695"></trkpt><trkpt lat="47.6074551" lon="11.2797081"></trkpt><trkpt lat="47.6074599" lon="11.2800639"></trkpt><trkpt lat="47.6075367" lon="11.2802886"></trkpt><trkpt lat="47.6076233" lon="11.2804308"></trkpt><trkpt lat="47.6076179" lon="11.2805691"></trkpt><trkpt lat="47.6076423" lon="11.2806711"></trkpt><trkpt lat="47.6076396" lon="11.2807596"></trkpt><trkpt lat="47.6075971" lon="11.2808753"></trkpt><trkpt lat="47.6075089" lon="11.2807735"></trkpt><trkpt lat="47.607344" lon="11.2807614"></trkpt><trkpt lat="47.6073973" lon="11.2808669"></trkpt><trkpt lat="47.6074108" lon="11.2809862"></trkpt><trkpt lat="47.6073828" lon="11.2810116"></trkpt><trkpt lat="47.6073304" lon="11.2809701"></trkpt><trkpt lat="47.6072128" lon="11.2809192"></trkpt><trkpt lat="47.607139" lon="11.2808441"></trkpt><trkpt lat="47.6068991" lon="11.2807851"></trkpt><trkpt lat="47.6068178" lon="11.2807316"></trkpt><trkpt lat="47.6066893" lon="11.2805678"></trkpt><trkpt lat="47.6066224" lon="11.2805356"></trkpt><trkpt lat="47.6065437" lon="11.2804055"></trkpt><trkpt lat="47.6064877" lon="11.2802875"></trkpt><trkpt lat="47.606475" lon="11.2802906"></trkpt><trkpt lat="47.6064356" lon="11.2806552"></trkpt><trkpt lat="47.6063224" lon="11.2806441"></trkpt><trkpt lat="47.6062693" lon="11.2807296"></trkpt><trkpt lat="47.6062144" lon="11.2807399"></trkpt><trkpt lat="47.6061529" lon="11.2807462"></trkpt><trkpt lat="47.6061052" lon="11.2808052"></trkpt><trkpt lat="47.6058867" lon="11.2809916"></trkpt><trkpt lat="47.6057317" lon="11.2810332"></trkpt><trkpt lat="47.605663" lon="11.2810975"></trkpt><trkpt lat="47.605531" lon="11.2811003"></trkpt><trkpt lat="47.6054008" lon="11.2812102"></trkpt><trkpt lat="47.60534" lon="11.2812342"></trkpt><trkpt lat="47.6052529" lon="11.2812246"></trkpt><trkpt lat="47.6051369" lon="11.2812742"></trkpt><trkpt lat="47.6050471" lon="11.2814078"></trkpt><trkpt lat="47.6049633" lon="11.2814226"></trkpt><trkpt lat="47.6046476" lon="11.2813671"></trkpt><trkpt lat="47.6045563" lon="11.2813215"></trkpt><trkpt lat="47.6044703" lon="11.2813136"></trkpt><trkpt lat="47.6043969" lon="11.2813428"></trkpt><trkpt lat="47.6042877" lon="11.2814395"></trkpt><trkpt lat="47.6042061" lon="11.281665"></trkpt><trkpt lat="47.6039387" lon="11.2820859"></trkpt><trkpt lat="47.6038609" lon="11.2821637"></trkpt><trkpt lat="47.6037853" lon="11.2822925"></trkpt><trkpt lat="47.6037298" lon="11.282503"></trkpt><trkpt lat="47.6036875" lon="11.2825734"></trkpt><trkpt lat="47.6035409" lon="11.2826743"></trkpt><trkpt lat="47.6032514" lon="11.2829348"></trkpt><trkpt lat="47.6031625" lon="11.2829638"></trkpt><trkpt lat="47.6030869" lon="11.2831146"></trkpt><trkpt lat="47.6030804" lon="11.2833209"></trkpt><trkpt lat="47.6030579" lon="11.2833787"></trkpt><trkpt lat="47.6029204" lon="11.2835029"></trkpt><trkpt lat="47.60285" lon="11.283663"></trkpt><trkpt lat="47.6026995" lon="11.2839246"></trkpt><trkpt lat="47.6026502" lon="11.2842184"></trkpt><trkpt lat="47.6025797" lon="11.2843347"></trkpt><trkpt lat="47.6025132" lon="11.284371"></trkpt><trkpt lat="47.6024786" lon="11.2843755"></trkpt><trkpt lat="47.6024108" lon="11.2843618"></trkpt><trkpt lat="47.6022221" lon="11.2841656"></trkpt><trkpt lat="47.6020718" lon="11.2838994"></trkpt><trkpt lat="47.6018938" lon="11.2836133"></trkpt><trkpt lat="47.6018117" lon="11.2833905"></trkpt><trkpt lat="47.6016509" lon="11.2832489"></trkpt><trkpt lat="47.6014496" lon="11.2831848"></trkpt><trkpt lat="47.6011872" lon="11.2831916"></trkpt><trkpt lat="47.6010416" lon="11.2831161"></trkpt><trkpt lat="47.6008957" lon="11.2831867"></trkpt><trkpt lat="47.600739" lon="11.2833002"></trkpt><trkpt lat="47.6004032" lon="11.2832197"></trkpt><trkpt lat="47.6001789" lon="11.283102"></trkpt><trkpt lat="47.6000129" lon="11.282927"></trkpt><trkpt lat="47.5998465" lon="11.2829349"></trkpt><trkpt lat="47.5996819" lon="11.2829992"></trkpt><trkpt lat="47.5995794" lon="11.2829465"></trkpt><trkpt lat="47.5995061" lon="11.282979"></trkpt><trkpt lat="47.5994147" lon="11.2831108"></trkpt><trkpt lat="47.599317" lon="11.2831566"></trkpt><trkpt lat="47.5991416" lon="11.2832883"></trkpt><trkpt lat="47.5990022" lon="11.283427"></trkpt><trkpt lat="47.598947" lon="11.2835446"></trkpt><trkpt lat="47.5988345" lon="11.2836199"></trkpt><trkpt lat="47.598754" lon="11.2837728"></trkpt><trkpt lat="47.5987296" lon="11.2839551"></trkpt><trkpt lat="47.5986336" lon="11.2842138"></trkpt><trkpt lat="47.5986335" lon="11.2845116"></trkpt><trkpt lat="47.5986691" lon="11.2846676"></trkpt><trkpt lat="47.5986802" lon="11.2848311"></trkpt><trkpt lat="47.5986872" lon="11.2851213"></trkpt><trkpt lat="47.5987589" lon="11.2854052"></trkpt><trkpt lat="47.5987958" lon="11.2858246"></trkpt><trkpt lat="47.5988472" lon="11.2860641"></trkpt><trkpt lat="47.5988703" lon="11.2861422"></trkpt><trkpt lat="47.5989778" lon="11.2865229"></trkpt><trkpt lat="47.5989455" lon="11.2870442"></trkpt><trkpt lat="47.5990156" lon="11.287935"></trkpt><trkpt lat="47.5989624" lon="11.2882765"></trkpt><trkpt lat="47.5989172" lon="11.288459"></trkpt><trkpt lat="47.5988784" lon="11.2890887"></trkpt><trkpt lat="47.5988931" lon="11.2896871"></trkpt><trkpt lat="47.5987528" lon="11.2902035"></trkpt><trkpt lat="47.5987431" lon="11.2904896"></trkpt><trkpt lat="47.5986825" lon="11.2907826"></trkpt><trkpt lat="47.5986911" lon="11.2911692"></trkpt><trkpt lat="47.5987184" lon="11.2913796"></trkpt><trkpt lat="47.5986766" lon="11.291703"></trkpt><trkpt lat="47.5986188" lon="11.2918887"></trkpt><trkpt lat="47.5986594" lon="11.2920986"></trkpt><trkpt lat="47.5986398" lon="11.2925418"></trkpt><trkpt lat="47.5986748" lon="11.2926833"></trkpt><trkpt lat="47.5987942" lon="11.2928537"></trkpt><trkpt lat="47.5987697" lon="11.2930387"></trkpt><trkpt lat="47.5986217" lon="11.2931349"></trkpt><trkpt lat="47.5987454" lon="11.2932288"></trkpt><trkpt lat="47.5986303" lon="11.2933009"></trkpt><trkpt lat="47.5986998" lon="11.293355"></trkpt><trkpt lat="47.5985505" lon="11.2934078"></trkpt><trkpt lat="47.5984626" lon="11.2935504"></trkpt><trkpt lat="47.5984689" lon="11.2936446"></trkpt><trkpt lat="47.5983833" lon="11.2937068"></trkpt><trkpt lat="47.5984125" lon="11.2937848"></trkpt><trkpt lat="47.5983249" lon="11.2939027"></trkpt><trkpt lat="47.5984273" lon="11.2940203"></trkpt><trkpt lat="47.5982987" lon="11.2940903"></trkpt><trkpt lat="47.5983609" lon="11.2942069"></trkpt><trkpt lat="47.5982757" lon="11.2942893"></trkpt><trkpt lat="47.5982453" lon="11.2943187"></trkpt><trkpt lat="47.5981993" lon="11.2943199"></trkpt><trkpt lat="47.5982103" lon="11.2945158"></trkpt><trkpt lat="47.5981705" lon="11.2946419"></trkpt><trkpt lat="47.5982563" lon="11.2950306"></trkpt><trkpt lat="47.5982095" lon="11.2951923"></trkpt><trkpt lat="47.5982629" lon="11.2952461"></trkpt><trkpt lat="47.5981523" lon="11.2954756"></trkpt><trkpt lat="47.5981704" lon="11.2956109"></trkpt><trkpt lat="47.598278" lon="11.2956667"></trkpt><trkpt lat="47.598265" lon="11.2959108"></trkpt><trkpt lat="47.5982375" lon="11.2959876"></trkpt><trkpt lat="47.5982983" lon="11.2960152"></trkpt><trkpt lat="47.5982259" lon="11.296073"></trkpt><trkpt lat="47.5982615" lon="11.2961631"></trkpt><trkpt lat="47.5982108" lon="11.2962224"></trkpt><trkpt lat="47.5982627" lon="11.2962869"></trkpt><trkpt lat="47.5982658" lon="11.2963739"></trkpt><trkpt lat="47.5982038" lon="11.2964793"></trkpt><trkpt lat="47.5981668" lon="11.2967816"></trkpt><trkpt lat="47.5980936" lon="11.297309"></trkpt><trkpt lat="47.5980052" lon="11.2975803"></trkpt><trkpt lat="47.5979151" lon="11.2978797"></trkpt><trkpt lat="47.5978392" lon="11.2980573"></trkpt><trkpt lat="47.5978565" lon="11.2982209"></trkpt><trkpt lat="47.5977767" lon="11.2984352"></trkpt><trkpt lat="47.5978624" lon="11.2984813"></trkpt><trkpt lat="47.5977495" lon="11.2988103"></trkpt><trkpt lat="47.5978129" lon="11.2989185"></trkpt><trkpt lat="47.5976891" lon="11.2992078"></trkpt><trkpt lat="47.597554" lon="11.2995007"></trkpt><trkpt lat="47.5976041" lon="11.2996343"></trkpt><trkpt lat="47.5976148" lon="11.2997974"></trkpt><trkpt lat="47.597707" lon="11.2997677"></trkpt><trkpt lat="47.5976833" lon="11.2999448"></trkpt><trkpt lat="47.5977784" lon="11.2999965"></trkpt><trkpt lat="47.597737" lon="11.3000849"></trkpt><trkpt lat="47.5975682" lon="11.3001969"></trkpt><trkpt lat="47.5975462" lon="11.3003048"></trkpt><trkpt lat="47.5975482" lon="11.3005527"></trkpt><trkpt lat="47.5975254" lon="11.300734"></trkpt><trkpt lat="47.5974205" lon="11.3010304"></trkpt><trkpt lat="47.5973326" lon="11.301138"></trkpt><trkpt lat="47.5974559" lon="11.3012037"></trkpt><trkpt lat="47.5973344" lon="11.301421"></trkpt><trkpt lat="47.5974066" lon="11.3015279"></trkpt><trkpt lat="47.5973927" lon="11.3016232"></trkpt><trkpt lat="47.5974532" lon="11.3016803"></trkpt><trkpt lat="47.5973635" lon="11.3018178"></trkpt><trkpt lat="47.5972413" lon="11.3018374"></trkpt><trkpt lat="47.5971754" lon="11.302004"></trkpt><trkpt lat="47.5969934" lon="11.3023074"></trkpt><trkpt lat="47.5970636" lon="11.3023624"></trkpt><trkpt lat="47.5970365" lon="11.3024242"></trkpt><trkpt lat="47.5970935" lon="11.3024818"></trkpt><trkpt lat="47.5969256" lon="11.3027143"></trkpt><trkpt lat="47.5969727" lon="11.3027217"></trkpt><trkpt lat="47.59694" lon="11.3028339"></trkpt><trkpt lat="47.5970643" lon="11.3028525"></trkpt><trkpt lat="47.5969546" lon="11.3030164"></trkpt><trkpt lat="47.597024" lon="11.3030419"></trkpt><trkpt lat="47.5969039" lon="11.3032838"></trkpt><trkpt lat="47.5969532" lon="11.3033353"></trkpt><trkpt lat="47.5970448" lon="11.303319"></trkpt><trkpt lat="47.5969935" lon="11.3034166"></trkpt><trkpt lat="47.5970319" lon="11.3034261"></trkpt><trkpt lat="47.5969721" lon="11.3035062"></trkpt><trkpt lat="47.5970009" lon="11.3035368"></trkpt><trkpt lat="47.5969284" lon="11.3036723"></trkpt><trkpt lat="47.5969675" lon="11.3037081"></trkpt><trkpt lat="47.5968545" lon="11.3038404"></trkpt><trkpt lat="47.5969209" lon="11.3038978"></trkpt><trkpt lat="47.5968349" lon="11.3039749"></trkpt><trkpt lat="47.596793" lon="11.3039701"></trkpt><trkpt lat="47.5968026" lon="11.3040154"></trkpt><trkpt lat="47.5967475" lon="11.3040044"></trkpt><trkpt lat="47.5967866" lon="11.3040571"></trkpt><trkpt lat="47.5967578" lon="11.3041224"></trkpt><trkpt lat="47.5966917" lon="11.3041095"></trkpt><trkpt lat="47.5966387" lon="11.3039697"></trkpt><trkpt lat="47.5965619" lon="11.3038175"></trkpt><trkpt lat="47.5964805" lon="11.3035853"></trkpt><trkpt lat="47.5963987" lon="11.3035801"></trkpt><trkpt lat="47.5963651" lon="11.3036573"></trkpt><trkpt lat="47.5960961" lon="11.3038809"></trkpt><trkpt lat="47.596039" lon="11.3039"></trkpt><trkpt lat="47.5958438" lon="11.3040756"></trkpt><trkpt lat="47.5956416" lon="11.3043496"></trkpt><trkpt lat="47.5949864" lon="11.3045286"></trkpt><trkpt lat="47.5948964" lon="11.3048445"></trkpt><trkpt lat="47.5947968" lon="11.3051023"></trkpt><trkpt lat="47.5946916" lon="11.3051698"></trkpt><trkpt lat="47.594485" lon="11.3050556"></trkpt><trkpt lat="47.5942931" lon="11.3048444"></trkpt><trkpt lat="47.5941376" lon="11.3047814"></trkpt><trkpt lat="47.5940767" lon="11.3048032"></trkpt><trkpt lat="47.5940028" lon="11.3048807"></trkpt><trkpt lat="47.5939595" lon="11.3049802"></trkpt><trkpt lat="47.5939497" lon="11.3051512"></trkpt><trkpt lat="47.5939221" lon="11.3053462"></trkpt><trkpt lat="47.5938998" lon="11.3056414"></trkpt><trkpt lat="47.5938918" lon="11.3059693"></trkpt><trkpt lat="47.5938815" lon="11.3061643"></trkpt><trkpt lat="47.5938639" lon="11.3063116"></trkpt><trkpt lat="47.5938532" lon="11.3064893"></trkpt><trkpt lat="47.5938787" lon="11.3066201"></trkpt><trkpt lat="47.5939255" lon="11.3069395"></trkpt><trkpt lat="47.5939444" lon="11.3070772"></trkpt><trkpt lat="47.5939485" lon="11.3073073"></trkpt><trkpt lat="47.5939406" lon="11.3075349"></trkpt><trkpt lat="47.5938686" lon="11.3076758"></trkpt><trkpt lat="47.5937201" lon="11.3079258"></trkpt><trkpt lat="47.5936687" lon="11.3080177"></trkpt><trkpt lat="47.5936171" lon="11.3080976"></trkpt><trkpt lat="47.5935413" lon="11.3082259"></trkpt><trkpt lat="47.593491" lon="11.3083626"></trkpt><trkpt lat="47.5934456" lon="11.3084967"></trkpt><trkpt lat="47.5934296" lon="11.3086131"></trkpt><trkpt lat="47.5934236" lon="11.308762"></trkpt><trkpt lat="47.5934176" lon="11.3089167"></trkpt><trkpt lat="47.5934117" lon="11.3090805"></trkpt><trkpt lat="47.593415" lon="11.3093186"></trkpt><trkpt lat="47.5934351" lon="11.3095171"></trkpt><trkpt lat="47.593397" lon="11.3096591"></trkpt><trkpt lat="47.5933805" lon="11.3097968"></trkpt><trkpt lat="47.593345" lon="11.3099376"></trkpt><trkpt lat="47.5933169" lon="11.3100738"></trkpt><trkpt lat="47.5932936" lon="11.310351"></trkpt><trkpt lat="47.5932223" lon="11.3106042"></trkpt><trkpt lat="47.5931782" lon="11.3107888"></trkpt><trkpt lat="47.593126" lon="11.3109733"></trkpt><trkpt lat="47.5930979" lon="11.3111756"></trkpt><trkpt lat="47.5931059" lon="11.3113125"></trkpt><trkpt lat="47.5931421" lon="11.3114078"></trkpt><trkpt lat="47.5932023" lon="11.3115328"></trkpt><trkpt lat="47.5932745" lon="11.3116697"></trkpt><trkpt lat="47.5933468" lon="11.3118244"></trkpt><trkpt lat="47.5933829" lon="11.3119851"></trkpt><trkpt lat="47.5933869" lon="11.312128"></trkpt><trkpt lat="47.5933548" lon="11.3123363"></trkpt><trkpt lat="47.5933468" lon="11.3125565"></trkpt><trkpt lat="47.5933508" lon="11.312747"></trkpt><trkpt lat="47.5933883" lon="11.3129094"></trkpt><trkpt lat="47.5934173" lon="11.3130893"></trkpt><trkpt lat="47.5934415" lon="11.3131824"></trkpt><trkpt lat="47.5934678" lon="11.3132837"></trkpt><trkpt lat="47.5935075" lon="11.3135186"></trkpt><trkpt lat="47.5935446" lon="11.3136911"></trkpt><trkpt lat="47.5935922" lon="11.3138762"></trkpt><trkpt lat="47.5936252" lon="11.3140271"></trkpt><trkpt lat="47.593685" lon="11.3142675"></trkpt><trkpt lat="47.5937428" lon="11.3145061"></trkpt><trkpt lat="47.5937959" lon="11.3147252"></trkpt><trkpt lat="47.5938123" lon="11.3148574"></trkpt><trkpt lat="47.5939442" lon="11.3149109"></trkpt><trkpt lat="47.5940803" lon="11.314988"></trkpt><trkpt lat="47.5941819" lon="11.3151389"></trkpt><trkpt lat="47.594377" lon="11.3153941"></trkpt><trkpt lat="47.5945235" lon="11.3156642"></trkpt><trkpt lat="47.5946215" lon="11.3157931"></trkpt><trkpt lat="47.5947123" lon="11.315919"></trkpt><trkpt lat="47.5947329" lon="11.3158843"></trkpt><trkpt lat="47.5947982" lon="11.3157997"></trkpt><trkpt lat="47.5949286" lon="11.3156584"></trkpt><trkpt lat="47.5950855" lon="11.3155469"></trkpt><trkpt lat="47.5951193" lon="11.3156927"></trkpt><trkpt lat="47.5951797" lon="11.3159093"></trkpt><trkpt lat="47.5952234" lon="11.3160505"></trkpt><trkpt lat="47.5952331" lon="11.3160779"></trkpt><trkpt lat="47.5952617" lon="11.3161593"></trkpt><trkpt lat="47.5952758" lon="11.3161991"></trkpt><trkpt lat="47.5953995" lon="11.3162251"></trkpt><trkpt lat="47.5955711" lon="11.3162466"></trkpt><trkpt lat="47.5958339" lon="11.3162979"></trkpt><trkpt lat="47.5959195" lon="11.3163204"></trkpt><trkpt lat="47.5959962" lon="11.3163666"></trkpt><trkpt lat="47.5959934" lon="11.3166998"></trkpt><trkpt lat="47.5960036" lon="11.3170334"></trkpt><trkpt lat="47.5960869" lon="11.3170363"></trkpt><trkpt lat="47.5961814" lon="11.3169863"></trkpt><trkpt lat="47.5962912" lon="11.3169463"></trkpt><trkpt lat="47.5963489" lon="11.3169258"></trkpt><trkpt lat="47.5964062" lon="11.3169718"></trkpt><trkpt lat="47.5964794" lon="11.3170262"></trkpt><trkpt lat="47.5966497" lon="11.3175275"></trkpt></trkseg></trk></gpx>
