<?xml version="1.0" encoding="UTF-8"?>
<gpx version="1.1" creator="Good Shit" xmlns="http://www.topografix.com/GPX/1/1"><trk><name>Kleine Reibn via Schneibstein and Seeleinsee — Kleine Reibn via Schneibstein and Seeleinsee loop</name><trkseg><trkpt lat="47.59432350657941" lon="13.020273458575858"></trkpt><trkpt lat="47.59432350657941" lon="13.02027345857586"></trkpt><trkpt lat="47.5944233" lon="13.0203679"></trkpt><trkpt lat="47.5941291" lon="13.0204014"></trkpt><trkpt lat="47.5935601" lon="13.0209"></trkpt><trkpt lat="47.592901" lon="13.0212572"></trkpt><trkpt lat="47.592781241744724" lon="13.021298255007107"></trkpt><trkpt lat="47.5925565" lon="13.0213753"></trkpt><trkpt lat="47.59101862928543" lon="13.021579907760053"></trkpt><trkpt lat="47.5909548" lon="13.0215884"></trkpt><trkpt lat="47.590405" lon="13.0215272"></trkpt><trkpt lat="47.5901046" lon="13.0216875"></trkpt><trkpt lat="47.5899787" lon="13.0217427"></trkpt><trkpt lat="47.5898097" lon="13.0217422"></trkpt><trkpt lat="47.5896299" lon="13.0215528"></trkpt><trkpt lat="47.5895668" lon="13.0214743"></trkpt><trkpt lat="47.5894629" lon="13.0213648"></trkpt><trkpt lat="47.5894307" lon="13.0213309"></trkpt><trkpt lat="47.589453932137445" lon="13.021183119468597"></trkpt><trkpt lat="47.589453932137445" lon="13.0211831194686"></trkpt><trkpt lat="47.589453932137445" lon="13.021183119468597"></trkpt><trkpt lat="47.5894692" lon="13.021086"></trkpt><trkpt lat="47.5894654" lon="13.0206335"></trkpt><trkpt lat="47.5893867" lon="13.0203793"></trkpt><trkpt lat="47.5891322" lon="13.0198516"></trkpt><trkpt lat="47.5890139" lon="13.0199599"></trkpt><trkpt lat="47.5889338" lon="13.0199713"></trkpt><trkpt lat="47.5889129" lon="13.0200667"></trkpt><trkpt lat="47.5888111" lon="13.0201758"></trkpt><trkpt lat="47.5887407" lon="13.0201965"></trkpt><trkpt lat="47.5887139" lon="13.0204056"></trkpt><trkpt lat="47.5886535" lon="13.0204615"></trkpt><trkpt lat="47.5885658" lon="13.0204429"></trkpt><trkpt lat="47.58856461831434" lon="13.020442918583402"></trkpt><trkpt lat="47.5884577" lon="13.0204446"></trkpt><trkpt lat="47.5884925" lon="13.0205636"></trkpt><trkpt lat="47.5884416" lon="13.0206723"></trkpt><trkpt lat="47.5884356" lon="13.0208444"></trkpt><trkpt lat="47.5883164" lon="13.02079"></trkpt><trkpt lat="47.5882661" lon="13.0207915"></trkpt><trkpt lat="47.5883113" lon="13.0209047"></trkpt><trkpt lat="47.5883179" lon="13.0210297"></trkpt><trkpt lat="47.5882343" lon="13.0211292"></trkpt><trkpt lat="47.5881183" lon="13.0210523"></trkpt><trkpt lat="47.5880132" lon="13.0212478"></trkpt><trkpt lat="47.5878674" lon="13.0214779"></trkpt><trkpt lat="47.5876887" lon="13.0215477"></trkpt><trkpt lat="47.5875779" lon="13.0215926"></trkpt><trkpt lat="47.5875066" lon="13.0215949"></trkpt><trkpt lat="47.5874629" lon="13.0217081"></trkpt><trkpt lat="47.587448243657995" lon="13.021734646225879"></trkpt><trkpt lat="47.587438" lon="13.0217532"></trkpt><trkpt lat="47.58741" lon="13.0217724"></trkpt><trkpt lat="47.5873494" lon="13.0217474"></trkpt><trkpt lat="47.5873465" lon="13.0218108"></trkpt><trkpt lat="47.587292" lon="13.0218232"></trkpt><trkpt lat="47.587292" lon="13.0218823"></trkpt><trkpt lat="47.5872267" lon="13.0219445"></trkpt><trkpt lat="47.5871808" lon="13.0219803"></trkpt><trkpt lat="47.5869454" lon="13.0222172"></trkpt><trkpt lat="47.5868043" lon="13.0224334"></trkpt><trkpt lat="47.5865597" lon="13.0226147"></trkpt><trkpt lat="47.5864489" lon="13.022681"></trkpt><trkpt lat="47.5864087" lon="13.0227184"></trkpt><trkpt lat="47.5863658" lon="13.0227133"></trkpt><trkpt lat="47.5863458" lon="13.0227339"></trkpt><trkpt lat="47.5863434" lon="13.0228663"></trkpt><trkpt lat="47.5863447" lon="13.022975"></trkpt><trkpt lat="47.5863169" lon="13.0230601"></trkpt><trkpt lat="47.5863063" lon="13.0231142"></trkpt><trkpt lat="47.5862321" lon="13.0233623"></trkpt><trkpt lat="47.586224299761625" lon="13.023379224692379"></trkpt><trkpt lat="47.586224299761625" lon="13.02337922469238"></trkpt><trkpt lat="47.586224299761625" lon="13.023379224692379"></trkpt><trkpt lat="47.5860654" lon="13.023724"></trkpt><trkpt lat="47.5860206" lon="13.0239066"></trkpt><trkpt lat="47.5857343" lon="13.0245018"></trkpt><trkpt lat="47.5856537" lon="13.0246556"></trkpt><trkpt lat="47.5856026" lon="13.0247948"></trkpt><trkpt lat="47.5855303" lon="13.0248342"></trkpt><trkpt lat="47.5853485" lon="13.0248378"></trkpt><trkpt lat="47.5852401" lon="13.0250267"></trkpt><trkpt lat="47.58509355189434" lon="13.025281227154215"></trkpt><trkpt lat="47.58509355189434" lon="13.025281227154213"></trkpt><trkpt lat="47.58509355189434" lon="13.025281227154215"></trkpt><trkpt lat="47.5850353" lon="13.0253824"></trkpt><trkpt lat="47.5849936" lon="13.0253764"></trkpt><trkpt lat="47.5849649" lon="13.0251626"></trkpt><trkpt lat="47.5849153" lon="13.0251624"></trkpt><trkpt lat="47.5848865" lon="13.0251917"></trkpt><trkpt lat="47.5848428" lon="13.0254175"></trkpt><trkpt lat="47.5847432" lon="13.0255625"></trkpt><trkpt lat="47.5846922" lon="13.0255405"></trkpt><trkpt lat="47.5846592" lon="13.0254491"></trkpt><trkpt lat="47.5847064" lon="13.0253378"></trkpt><trkpt lat="47.5847375" lon="13.0246898"></trkpt><trkpt lat="47.5847476" lon="13.0244006"></trkpt><trkpt lat="47.5847114" lon="13.0243009"></trkpt><trkpt lat="47.58466431566901" lon="13.024291229638898"></trkpt><trkpt lat="47.58466431566901" lon="13.0242912296389"></trkpt><trkpt lat="47.58466431566901" lon="13.024291229638898"></trkpt><trkpt lat="47.5846111" lon="13.0242803"></trkpt><trkpt lat="47.5843927" lon="13.0245309"></trkpt><trkpt lat="47.5842503" lon="13.0246269"></trkpt><trkpt lat="47.5841513" lon="13.0248614"></trkpt><trkpt lat="47.584076" lon="13.0250491"></trkpt><trkpt lat="47.5840051" lon="13.0252029"></trkpt><trkpt lat="47.5839558" lon="13.0250787"></trkpt><trkpt lat="47.5839526" lon="13.0249112"></trkpt><trkpt lat="47.5840008" lon="13.0247654"></trkpt><trkpt lat="47.5839841" lon="13.0246833"></trkpt><trkpt lat="47.5839731" lon="13.024652"></trkpt><trkpt lat="47.5839475" lon="13.0245791"></trkpt><trkpt lat="47.5839225" lon="13.0245144"></trkpt><trkpt lat="47.583872" lon="13.0244579"></trkpt><trkpt lat="47.5838103" lon="13.0242884"></trkpt><trkpt lat="47.5837512" lon="13.0242244"></trkpt><trkpt lat="47.5837256" lon="13.0241842"></trkpt><trkpt lat="47.5837136" lon="13.0241814"></trkpt><trkpt lat="47.5836956" lon="13.0242472"></trkpt><trkpt lat="47.583685" lon="13.0242776"></trkpt><trkpt lat="47.5836796" lon="13.0243172"></trkpt><trkpt lat="47.5836736" lon="13.0244144"></trkpt><trkpt lat="47.58367318400368" lon="13.024416568686698"></trkpt><trkpt lat="47.58366" lon="13.0244853"></trkpt><trkpt lat="47.5836559" lon="13.0245203"></trkpt><trkpt lat="47.5836392" lon="13.0245548"></trkpt><trkpt lat="47.5835966" lon="13.0245652"></trkpt><trkpt lat="47.5835847" lon="13.0246526"></trkpt><trkpt lat="47.5835737" lon="13.0248326"></trkpt><trkpt lat="47.5835537" lon="13.0249686"></trkpt><trkpt lat="47.5836667" lon="13.02512"></trkpt><trkpt lat="47.5835745" lon="13.0252405"></trkpt><trkpt lat="47.5834627" lon="13.0249357"></trkpt><trkpt lat="47.5833951" lon="13.0247192"></trkpt><trkpt lat="47.5833684" lon="13.0246986"></trkpt><trkpt lat="47.5833136" lon="13.0251055"></trkpt><trkpt lat="47.5832705" lon="13.0253476"></trkpt><trkpt lat="47.5832339" lon="13.0256868"></trkpt><trkpt lat="47.58318169143836" lon="13.026033584372843"></trkpt><trkpt lat="47.583171" lon="13.0261046"></trkpt><trkpt lat="47.5831315" lon="13.0264418"></trkpt><trkpt lat="47.5830402" lon="13.0268228"></trkpt><trkpt lat="47.5829825" lon="13.027137"></trkpt><trkpt lat="47.5829377" lon="13.0277026"></trkpt><trkpt lat="47.5828942" lon="13.0283916"></trkpt><trkpt lat="47.58293673108479" lon="13.028658274790274"></trkpt><trkpt lat="47.5829986" lon="13.0290462"></trkpt><trkpt lat="47.5830037" lon="13.029147"></trkpt><trkpt lat="47.5829953" lon="13.0292191"></trkpt><trkpt lat="47.5829054" lon="13.0294834"></trkpt><trkpt lat="47.5828409" lon="13.0296907"></trkpt><trkpt lat="47.5827841" lon="13.0299328"></trkpt><trkpt lat="47.5827471" lon="13.0301794"></trkpt><trkpt lat="47.58271" lon="13.0303109"></trkpt><trkpt lat="47.5826892" lon="13.0303394"></trkpt><trkpt lat="47.5826535" lon="13.0303884"></trkpt><trkpt lat="47.5825596" lon="13.0304187"></trkpt><trkpt lat="47.5823392" lon="13.0305575"></trkpt><trkpt lat="47.58215067495159" lon="13.030681203279414"></trkpt><trkpt lat="47.5819774" lon="13.0307949"></trkpt><trkpt lat="47.5818746" lon="13.0309124"></trkpt><trkpt lat="47.5816676" lon="13.0309684"></trkpt><trkpt lat="47.5812821" lon="13.0309478"></trkpt><trkpt lat="47.5811824" lon="13.0308873"></trkpt><trkpt lat="47.5811269" lon="13.030854"></trkpt><trkpt lat="47.5810889" lon="13.0308138"></trkpt><trkpt lat="47.5810253" lon="13.0307117"></trkpt><trkpt lat="47.5810002" lon="13.0306193"></trkpt><trkpt lat="47.5809756" lon="13.0304966"></trkpt><trkpt lat="47.5809351" lon="13.0303311"></trkpt><trkpt lat="47.5808797" lon="13.0302222"></trkpt><trkpt lat="47.5808039" lon="13.030111"></trkpt><trkpt lat="47.580736" lon="13.0300322"></trkpt><trkpt lat="47.58071737569189" lon="13.03002111821296"></trkpt><trkpt lat="47.58071737569189" lon="13.030021118212963"></trkpt><trkpt lat="47.58071737569189" lon="13.03002111821296"></trkpt><trkpt lat="47.5805634" lon="13.0299295"></trkpt><trkpt lat="47.5805371" lon="13.0298214"></trkpt><trkpt lat="47.580509" lon="13.0296899"></trkpt><trkpt lat="47.5805167" lon="13.0296182"></trkpt><trkpt lat="47.580547" lon="13.0295759"></trkpt><trkpt lat="47.5806067" lon="13.0295505"></trkpt><trkpt lat="47.5806827" lon="13.0295612"></trkpt><trkpt lat="47.580785" lon="13.0296037"></trkpt><trkpt lat="47.5806492" lon="13.029297"></trkpt><trkpt lat="47.580467" lon="13.0290186"></trkpt><trkpt lat="47.5801942" lon="13.0287725"></trkpt><trkpt lat="47.5796515" lon="13.0285333"></trkpt><trkpt lat="47.5793537" lon="13.0284382"></trkpt><trkpt lat="47.57934587163814" lon="13.02843570178387"></trkpt><trkpt lat="47.57934587163814" lon="13.028435701783872"></trkpt><trkpt lat="47.57934587163814" lon="13.02843570178387"></trkpt><trkpt lat="47.5790159" lon="13.0283304"></trkpt><trkpt lat="47.5787274" lon="13.0282579"></trkpt><trkpt lat="47.5785853" lon="13.0283257"></trkpt><trkpt lat="47.5784115" lon="13.0284979"></trkpt><trkpt lat="47.5783366" lon="13.0285232"></trkpt><trkpt lat="47.5783119" lon="13.028398"></trkpt><trkpt lat="47.5783888" lon="13.0278662"></trkpt><trkpt lat="47.5782495" lon="13.0278993"></trkpt><trkpt lat="47.578108341259025" lon="13.027968014268902"></trkpt><trkpt lat="47.57789" lon="13.0280743"></trkpt><trkpt lat="47.5777862" lon="13.0283057"></trkpt><trkpt lat="47.577593" lon="13.0287295"></trkpt><trkpt lat="47.5775229" lon="13.0287717"></trkpt><trkpt lat="47.577466" lon="13.0286465"></trkpt><trkpt lat="47.5774663" lon="13.0284661"></trkpt><trkpt lat="47.5774188" lon="13.0283399"></trkpt><trkpt lat="47.577339" lon="13.0283678"></trkpt><trkpt lat="47.5772054" lon="13.0286967"></trkpt><trkpt lat="47.5770546" lon="13.0291073"></trkpt><trkpt lat="47.57703302713253" lon="13.029140234774411"></trkpt><trkpt lat="47.5768353" lon="13.0294421"></trkpt><trkpt lat="47.5767926" lon="13.0295639"></trkpt><trkpt lat="47.576672" lon="13.0299357"></trkpt><trkpt lat="47.5766404" lon="13.0300889"></trkpt><trkpt lat="47.5766226" lon="13.0301541"></trkpt><trkpt lat="47.57659" lon="13.030169"></trkpt><trkpt lat="47.5765578" lon="13.0301564"></trkpt><trkpt lat="47.5764851" lon="13.0300619"></trkpt><trkpt lat="47.5764487" lon="13.0300039"></trkpt><trkpt lat="47.5763319" lon="13.0297071"></trkpt><trkpt lat="47.5762809" lon="13.0296119"></trkpt><trkpt lat="47.5762046" lon="13.029863"></trkpt><trkpt lat="47.5761758" lon="13.0301002"></trkpt><trkpt lat="47.576214882406504" lon="13.030270909001997"></trkpt><trkpt lat="47.5762394" lon="13.030378"></trkpt><trkpt lat="47.5762606" lon="13.0306125"></trkpt><trkpt lat="47.5762152" lon="13.03084"></trkpt><trkpt lat="47.57617" lon="13.0309711"></trkpt><trkpt lat="47.5761601" lon="13.0310774"></trkpt><trkpt lat="47.5760617" lon="13.0311177"></trkpt><trkpt lat="47.5760513" lon="13.0313878"></trkpt><trkpt lat="47.5761014" lon="13.0317726"></trkpt><trkpt lat="47.5760679" lon="13.0322464"></trkpt><trkpt lat="47.5759967" lon="13.0324737"></trkpt><trkpt lat="47.57596617777211" lon="13.032648753954069"></trkpt><trkpt lat="47.57596617777211" lon="13.032648753954067"></trkpt><trkpt lat="47.57596617777211" lon="13.032648753954069"></trkpt><trkpt lat="47.5759593" lon="13.0326882"></trkpt><trkpt lat="47.5759361" lon="13.0327851"></trkpt><trkpt lat="47.5756484" lon="13.0330362"></trkpt><trkpt lat="47.5755948" lon="13.0333425"></trkpt><trkpt lat="47.5755787" lon="13.033617"></trkpt><trkpt lat="47.5755327" lon="13.0337734"></trkpt><trkpt lat="47.575475" lon="13.0339434"></trkpt><trkpt lat="47.5753901" lon="13.0340441"></trkpt><trkpt lat="47.5752616" lon="13.0341801"></trkpt><trkpt lat="47.5751741" lon="13.0342926"></trkpt><trkpt lat="47.5750783" lon="13.0344807"></trkpt><trkpt lat="47.5750104" lon="13.0346344"></trkpt><trkpt lat="47.574967147332316" lon="13.034712790231374"></trkpt><trkpt lat="47.574967147332316" lon="13.034712790231373"></trkpt><trkpt lat="47.574967147332316" lon="13.034712790231374"></trkpt><trkpt lat="47.5749587" lon="13.0347281"></trkpt><trkpt lat="47.5749051" lon="13.0349081"></trkpt><trkpt lat="47.5748616" lon="13.0349816"></trkpt><trkpt lat="47.5748478" lon="13.0351664"></trkpt><trkpt lat="47.5748831" lon="13.0352772"></trkpt><trkpt lat="47.5750387" lon="13.0353641"></trkpt><trkpt lat="47.5751239" lon="13.0355642"></trkpt><trkpt lat="47.575108" lon="13.0358222"></trkpt><trkpt lat="47.5751356" lon="13.0360481"></trkpt><trkpt lat="47.575136" lon="13.0362343"></trkpt><trkpt lat="47.5751005" lon="13.036394"></trkpt><trkpt lat="47.5751369" lon="13.03658"></trkpt><trkpt lat="47.5751813" lon="13.0366866"></trkpt><trkpt lat="47.5751735" lon="13.0368058"></trkpt><trkpt lat="47.575228" lon="13.0369783"></trkpt><trkpt lat="47.5751386" lon="13.0372049"></trkpt><trkpt lat="47.57510015528575" lon="13.037250673639706"></trkpt><trkpt lat="47.57510015528575" lon="13.037250673639704"></trkpt><trkpt lat="47.57510015528575" lon="13.037250673639706"></trkpt><trkpt lat="47.5750489" lon="13.0373117"></trkpt><trkpt lat="47.5749862" lon="13.0374185"></trkpt><trkpt lat="47.5746987" lon="13.0375929"></trkpt><trkpt lat="47.574582" lon="13.0376867"></trkpt><trkpt lat="47.5742994" lon="13.0378167"></trkpt><trkpt lat="47.5740929" lon="13.0378746"></trkpt><trkpt lat="47.5739745" lon="13.0380253"></trkpt><trkpt lat="47.5738063" lon="13.0381774"></trkpt><trkpt lat="47.5737405" lon="13.0383191"></trkpt><trkpt lat="47.5736778" lon="13.0384511"></trkpt><trkpt lat="47.57364782715509" lon="13.038626557234732"></trkpt><trkpt lat="47.573621" lon="13.0387836"></trkpt><trkpt lat="47.5735573" lon="13.038936"></trkpt><trkpt lat="47.5735317" lon="13.0392387"></trkpt><trkpt lat="47.5735233" lon="13.0394467"></trkpt><trkpt lat="47.5734941" lon="13.0396959"></trkpt><trkpt lat="47.573649" lon="13.040312"></trkpt><trkpt lat="47.5737676" lon="13.0406397"></trkpt><trkpt lat="47.5739189" lon="13.0409479"></trkpt><trkpt lat="47.5739774" lon="13.0410071"></trkpt><trkpt lat="47.5739741" lon="13.0410793"></trkpt><trkpt lat="47.573955385673116" lon="13.041051288109442"></trkpt><trkpt lat="47.573955385673116" lon="13.04105128810944"></trkpt><trkpt lat="47.573955385673116" lon="13.041051288109442"></trkpt><trkpt lat="47.5739741" lon="13.0410793"></trkpt><trkpt lat="47.5739836" lon="13.0412167"></trkpt><trkpt lat="47.5740276" lon="13.0413231"></trkpt><trkpt lat="47.5741214" lon="13.041414"></trkpt><trkpt lat="47.5741558" lon="13.041507"></trkpt><trkpt lat="47.574133" lon="13.0416246"></trkpt><trkpt lat="47.5741858" lon="13.0418567"></trkpt><trkpt lat="47.5742724" lon="13.0419859"></trkpt><trkpt lat="47.5743475" lon="13.0421349"></trkpt><trkpt lat="47.5744198" lon="13.0423841"></trkpt><trkpt lat="47.5743967" lon="13.0424219"></trkpt><trkpt lat="47.5743786" lon="13.0424762"></trkpt><trkpt lat="47.5743563" lon="13.0425593"></trkpt><trkpt lat="47.574352" lon="13.0426238"></trkpt><trkpt lat="47.5743645" lon="13.0426973"></trkpt><trkpt lat="47.5743917" lon="13.0427583"></trkpt><trkpt lat="47.5744053" lon="13.0427959"></trkpt><trkpt lat="47.5743655" lon="13.0428126"></trkpt><trkpt lat="47.5742955" lon="13.0428402"></trkpt><trkpt lat="47.5742453" lon="13.0428814"></trkpt><trkpt lat="47.57421018372693" lon="13.042940771843128"></trkpt><trkpt lat="47.5741968" lon="13.0429634"></trkpt><trkpt lat="47.5741637" lon="13.0429756"></trkpt><trkpt lat="47.5741288" lon="13.0429873"></trkpt><trkpt lat="47.574081" lon="13.0430268"></trkpt><trkpt lat="47.5740058" lon="13.0430953"></trkpt><trkpt lat="47.5739026" lon="13.0431322"></trkpt><trkpt lat="47.5738331" lon="13.0431932"></trkpt><trkpt lat="47.5737585" lon="13.0432106"></trkpt><trkpt lat="47.5737144" lon="13.0432266"></trkpt><trkpt lat="47.5735232" lon="13.0434487"></trkpt><trkpt lat="47.5734912" lon="13.043449"></trkpt><trkpt lat="47.573431" lon="13.0435127"></trkpt><trkpt lat="47.5734012" lon="13.0436286"></trkpt><trkpt lat="47.5733776" lon="13.043653"></trkpt><trkpt lat="47.5732803" lon="13.0437538"></trkpt><trkpt lat="47.5732364" lon="13.0439023"></trkpt><trkpt lat="47.5730601" lon="13.0442032"></trkpt><trkpt lat="47.5729987" lon="13.0442612"></trkpt><trkpt lat="47.5729348" lon="13.044292"></trkpt><trkpt lat="47.5728868" lon="13.0442788"></trkpt><trkpt lat="47.5728558" lon="13.0442603"></trkpt><trkpt lat="47.5728241" lon="13.0442315"></trkpt><trkpt lat="47.5728057" lon="13.0442149"></trkpt><trkpt lat="47.5727782" lon="13.0442215"></trkpt><trkpt lat="47.5727468" lon="13.0442108"></trkpt><trkpt lat="47.57274161585969" lon="13.044208555858727"></trkpt><trkpt lat="47.572717" lon="13.0441979"></trkpt><trkpt lat="47.5726748" lon="13.0442099"></trkpt><trkpt lat="47.5725922" lon="13.0442595"></trkpt><trkpt lat="47.5725526" lon="13.0442812"></trkpt><trkpt lat="47.5725035" lon="13.0442948"></trkpt><trkpt lat="47.5724413" lon="13.0443697"></trkpt><trkpt lat="47.5723803" lon="13.0444521"></trkpt><trkpt lat="47.5723166" lon="13.0444621"></trkpt><trkpt lat="47.5722873" lon="13.0444812"></trkpt><trkpt lat="47.5722569" lon="13.0445508"></trkpt><trkpt lat="47.5721704" lon="13.0446162"></trkpt><trkpt lat="47.5719084" lon="13.0448723"></trkpt><trkpt lat="47.5718368" lon="13.0449626"></trkpt><trkpt lat="47.5717755" lon="13.0449967"></trkpt><trkpt lat="47.5717227" lon="13.0449361"></trkpt><trkpt lat="47.5716026" lon="13.0450129"></trkpt><trkpt lat="47.5715757" lon="13.045081"></trkpt><trkpt lat="47.5715159" lon="13.0451308"></trkpt><trkpt lat="47.5714019" lon="13.0451786"></trkpt><trkpt lat="47.5713332" lon="13.0451822"></trkpt><trkpt lat="47.5712637" lon="13.0453631"></trkpt><trkpt lat="47.5711993" lon="13.0454408"></trkpt><trkpt lat="47.571185889068914" lon="13.045470348018663"></trkpt><trkpt lat="47.5711383" lon="13.0455752"></trkpt><trkpt lat="47.5710937" lon="13.0457641"></trkpt><trkpt lat="47.571059" lon="13.0458049"></trkpt><trkpt lat="47.5710497" lon="13.0458633"></trkpt><trkpt lat="47.5709841" lon="13.0459409"></trkpt><trkpt lat="47.5709784" lon="13.0459935"></trkpt><trkpt lat="47.5709086" lon="13.046143"></trkpt><trkpt lat="47.5708718" lon="13.0462695"></trkpt><trkpt lat="47.5708186" lon="13.0463624"></trkpt><trkpt lat="47.5707032" lon="13.0464315"></trkpt><trkpt lat="47.5706572" lon="13.0464414"></trkpt><trkpt lat="47.5705748" lon="13.0464792"></trkpt><trkpt lat="47.5705115" lon="13.0464564"></trkpt><trkpt lat="47.5704999" lon="13.0464065"></trkpt><trkpt lat="47.5703973" lon="13.0463146"></trkpt><trkpt lat="47.5701772" lon="13.0460908"></trkpt><trkpt lat="47.5700614" lon="13.0459192"></trkpt><trkpt lat="47.5698645" lon="13.0458848"></trkpt><trkpt lat="47.56984033633322" lon="13.046005774901941"></trkpt><trkpt lat="47.56984033633322" lon="13.046005774901943"></trkpt><trkpt lat="47.56984033633322" lon="13.046005774901941"></trkpt><trkpt lat="47.5698182" lon="13.0461166"></trkpt><trkpt lat="47.5699051" lon="13.0465028"></trkpt><trkpt lat="47.5698645" lon="13.0468461"></trkpt><trkpt lat="47.5697313" lon="13.0469491"></trkpt><trkpt lat="47.569575" lon="13.0472066"></trkpt><trkpt lat="47.5691928" lon="13.0476186"></trkpt><trkpt lat="47.56889998743191" lon="13.04767648841274"></trkpt><trkpt lat="47.56889998743191" lon="13.047676488412742"></trkpt><trkpt lat="47.56889998743191" lon="13.04767648841274"></trkpt><trkpt lat="47.5688453" lon="13.0476873"></trkpt><trkpt lat="47.5683415" lon="13.0480306"></trkpt><trkpt lat="47.5681272" lon="13.0483739"></trkpt><trkpt lat="47.5679535" lon="13.0488202"></trkpt><trkpt lat="47.5678492" lon="13.0490091"></trkpt><trkpt lat="47.56749247842447" lon="13.04906931582151"></trkpt><trkpt lat="47.5674748" lon="13.0490723"></trkpt><trkpt lat="47.5673859" lon="13.0489747"></trkpt><trkpt lat="47.567218" lon="13.0489601"></trkpt><trkpt lat="47.5670904" lon="13.0490667"></trkpt><trkpt lat="47.5669234" lon="13.0494204"></trkpt><trkpt lat="47.5668608" lon="13.0493521"></trkpt><trkpt lat="47.5668337" lon="13.0494267"></trkpt><trkpt lat="47.5666565" lon="13.0499865"></trkpt><trkpt lat="47.5665173" lon="13.0503223"></trkpt><trkpt lat="47.5664593" lon="13.0504339"></trkpt><trkpt lat="47.566368216055224" lon="13.050361850869244"></trkpt><trkpt lat="47.5662856" lon="13.0502965"></trkpt><trkpt lat="47.5660621" lon="13.0502914"></trkpt><trkpt lat="47.5659414" lon="13.0504237"></trkpt><trkpt lat="47.5658559" lon="13.0503223"></trkpt><trkpt lat="47.5657439" lon="13.0504088"></trkpt><trkpt lat="47.5655327" lon="13.0502622"></trkpt><trkpt lat="47.5653937" lon="13.0502364"></trkpt><trkpt lat="47.5652432" lon="13.0502107"></trkpt><trkpt lat="47.5651949" lon="13.0500218"></trkpt><trkpt lat="47.5650779" lon="13.0501741"></trkpt><trkpt lat="47.5647701" lon="13.0497711"></trkpt><trkpt lat="47.5645829" lon="13.0498931"></trkpt><trkpt lat="47.5645366" lon="13.0500905"></trkpt><trkpt lat="47.5644208" lon="13.0501764"></trkpt><trkpt lat="47.5642934" lon="13.0502364"></trkpt><trkpt lat="47.5641022" lon="13.0501764"></trkpt><trkpt lat="47.5641022" lon="13.0503824"></trkpt><trkpt lat="47.5639574" lon="13.0503652"></trkpt><trkpt lat="47.5637837" lon="13.0503824"></trkpt><trkpt lat="47.5635984" lon="13.0507772"></trkpt><trkpt lat="47.5634478" lon="13.0511205"></trkpt><trkpt lat="47.5632161" lon="13.0515239"></trkpt><trkpt lat="47.5630871" lon="13.0517931"></trkpt><trkpt lat="47.562996699917974" lon="13.051765793138975"></trkpt><trkpt lat="47.5629613" lon="13.0517551"></trkpt><trkpt lat="47.562915" lon="13.051893"></trkpt><trkpt lat="47.5626833" lon="13.0519788"></trkpt><trkpt lat="47.5625502" lon="13.0519808"></trkpt><trkpt lat="47.5626141" lon="13.0522153"></trkpt><trkpt lat="47.5624279" lon="13.052314"></trkpt><trkpt lat="47.5624413" lon="13.0525224"></trkpt><trkpt lat="47.5623345" lon="13.0525202"></trkpt><trkpt lat="47.5623905" lon="13.0529328"></trkpt><trkpt lat="47.5623068" lon="13.0532663"></trkpt><trkpt lat="47.5621857202248" lon="13.053921603377965"></trkpt><trkpt lat="47.5621736" lon="13.0539872"></trkpt><trkpt lat="47.5622779" lon="13.0541417"></trkpt><trkpt lat="47.5622199" lon="13.0543992"></trkpt><trkpt lat="47.5622199" lon="13.0549142"></trkpt><trkpt lat="47.5623474" lon="13.0556009"></trkpt><trkpt lat="47.5624053" lon="13.0559013"></trkpt><trkpt lat="47.5623396" lon="13.0562446"></trkpt><trkpt lat="47.5622315" lon="13.056442"></trkpt><trkpt lat="47.56222389326401" lon="13.056593937993831"></trkpt><trkpt lat="47.5622199" lon="13.0566737"></trkpt><trkpt lat="47.562191" lon="13.0568197"></trkpt><trkpt lat="47.5621841" lon="13.0570715"></trkpt><trkpt lat="47.5620224" lon="13.0571479"></trkpt><trkpt lat="47.561929" lon="13.0569135"></trkpt><trkpt lat="47.5617798" lon="13.0568883"></trkpt><trkpt lat="47.5616176" lon="13.0567424"></trkpt><trkpt lat="47.56134919216587" lon="13.056571914017542"></trkpt><trkpt lat="47.5612122" lon="13.0564849"></trkpt><trkpt lat="47.56094" lon="13.056442"></trkpt><trkpt lat="47.5604766" lon="13.0562532"></trkpt><trkpt lat="47.5603318" lon="13.0560558"></trkpt><trkpt lat="47.5599526" lon="13.0558374"></trkpt><trkpt lat="47.559816690300565" lon="13.055654731040642"></trkpt><trkpt lat="47.559816690300565" lon="13.055654731040644"></trkpt><trkpt lat="47.559816690300565" lon="13.055654731040642"></trkpt><trkpt lat="47.5596259" lon="13.0553983"></trkpt><trkpt lat="47.5595499" lon="13.0551116"></trkpt><trkpt lat="47.5592869" lon="13.0551361"></trkpt><trkpt lat="47.5590376" lon="13.0549908"></trkpt><trkpt lat="47.5589481" lon="13.0549527"></trkpt><trkpt lat="47.558923" lon="13.0548746"></trkpt><trkpt lat="47.5588517" lon="13.0548623"></trkpt><trkpt lat="47.5587969" lon="13.0548112"></trkpt><trkpt lat="47.5587729" lon="13.0547494"></trkpt><trkpt lat="47.5587272" lon="13.0547447"></trkpt><trkpt lat="47.5585942" lon="13.0547426"></trkpt><trkpt lat="47.5583741" lon="13.054425"></trkpt><trkpt lat="47.55830405619706" lon="13.054357602164147"></trkpt><trkpt lat="47.55830405619706" lon="13.05435760216415"></trkpt><trkpt lat="47.55830405619706" lon="13.054357602164147"></trkpt><trkpt lat="47.5581385" lon="13.0541983"></trkpt><trkpt lat="47.5580436" lon="13.0541169"></trkpt><trkpt lat="47.5578919" lon="13.0539956"></trkpt><trkpt lat="47.5578369" lon="13.0538751"></trkpt><trkpt lat="47.5577719" lon="13.0537497"></trkpt><trkpt lat="47.557595" lon="13.0535973"></trkpt><trkpt lat="47.5574428" lon="13.0533493"></trkpt><trkpt lat="47.5573693" lon="13.0531124"></trkpt><trkpt lat="47.5573617" lon="13.0529844"></trkpt><trkpt lat="47.5573363" lon="13.0529092"></trkpt><trkpt lat="47.5572871" lon="13.0528291"></trkpt><trkpt lat="47.5572029" lon="13.0526607"></trkpt><trkpt lat="47.5571393" lon="13.0525967"></trkpt><trkpt lat="47.5570726" lon="13.0526171"></trkpt><trkpt lat="47.55706215807053" lon="13.052608694506528"></trkpt><trkpt lat="47.5569721" lon="13.0525362"></trkpt><trkpt lat="47.5569299" lon="13.0525224"></trkpt><trkpt lat="47.5568707" lon="13.0524365"></trkpt><trkpt lat="47.5566885" lon="13.0522964"></trkpt><trkpt lat="47.5566143" lon="13.0521279"></trkpt><trkpt lat="47.5565101" lon="13.0521453"></trkpt><trkpt lat="47.556501" lon="13.0521693"></trkpt><trkpt lat="47.5564322" lon="13.0521734"></trkpt><trkpt lat="47.5564216" lon="13.052214"></trkpt><trkpt lat="47.5563881" lon="13.0522174"></trkpt><trkpt lat="47.5562671" lon="13.052155"></trkpt><trkpt lat="47.5561216" lon="13.0520962"></trkpt><trkpt lat="47.5559668" lon="13.0520847"></trkpt><trkpt lat="47.5559181" lon="13.0520389"></trkpt><trkpt lat="47.5558689" lon="13.0520675"></trkpt><trkpt lat="47.555831" lon="13.0520814"></trkpt><trkpt lat="47.5557537" lon="13.052203"></trkpt><trkpt lat="47.5556646" lon="13.0522177"></trkpt><trkpt lat="47.5555694" lon="13.0522068"></trkpt><trkpt lat="47.55540772094041" lon="13.052017393824746"></trkpt><trkpt lat="47.55540772094041" lon="13.052017393824748"></trkpt><trkpt lat="47.55540772094041" lon="13.052017393824746"></trkpt><trkpt lat="47.5553968" lon="13.0520046"></trkpt><trkpt lat="47.5551941" lon="13.0515239"></trkpt><trkpt lat="47.5551651" lon="13.0512922"></trkpt><trkpt lat="47.554948" lon="13.0509592"></trkpt><trkpt lat="47.5548596" lon="13.0507836"></trkpt><trkpt lat="47.5548335" lon="13.0505498"></trkpt><trkpt lat="47.5546966" lon="13.050369"></trkpt><trkpt lat="47.5544874" lon="13.0501334"></trkpt><trkpt lat="47.554275041279915" lon="13.050184472830693"></trkpt><trkpt lat="47.5541452" lon="13.0502157"></trkpt><trkpt lat="47.554088" lon="13.0501209"></trkpt><trkpt lat="47.5540162" lon="13.0500788"></trkpt><trkpt lat="47.5539197" lon="13.0500476"></trkpt><trkpt lat="47.5538436" lon="13.0499827"></trkpt><trkpt lat="47.5537338" lon="13.0498827"></trkpt><trkpt lat="47.5534175" lon="13.0497339"></trkpt><trkpt lat="47.553364" lon="13.0496624"></trkpt><trkpt lat="47.5533152" lon="13.0495372"></trkpt><trkpt lat="47.5532153" lon="13.0494672"></trkpt><trkpt lat="47.5531216" lon="13.0492618"></trkpt><trkpt lat="47.5530081" lon="13.0491683"></trkpt><trkpt lat="47.5528946" lon="13.0490259"></trkpt><trkpt lat="47.5528277656396" lon="13.048832354748104"></trkpt><trkpt lat="47.5528264" lon="13.0488284"></trkpt><trkpt lat="47.5527637" lon="13.0487402"></trkpt><trkpt lat="47.5526385" lon="13.0484716"></trkpt><trkpt lat="47.5524858" lon="13.0480884"></trkpt><trkpt lat="47.5522861" lon="13.0479877"></trkpt><trkpt lat="47.5519134" lon="13.0476101"></trkpt><trkpt lat="47.5516315" lon="13.0474984"></trkpt><trkpt lat="47.5515551" lon="13.0474386"></trkpt><trkpt lat="47.5515844" lon="13.0473297"></trkpt><trkpt lat="47.55162657172098" lon="13.04715733458589"></trkpt><trkpt lat="47.55162657172098" lon="13.047157334585888"></trkpt><trkpt lat="47.55162657172098" lon="13.04715733458589"></trkpt><trkpt lat="47.5516486" lon="13.0470673"></trkpt><trkpt lat="47.5516691" lon="13.0469668"></trkpt><trkpt lat="47.5515853" lon="13.046699"></trkpt><trkpt lat="47.551595" lon="13.0466253"></trkpt><trkpt lat="47.5515727" lon="13.0464973"></trkpt><trkpt lat="47.5515157" lon="13.0463779"></trkpt><trkpt lat="47.5515242" lon="13.0462373"></trkpt><trkpt lat="47.5515028" lon="13.0459885"></trkpt><trkpt lat="47.5515106" lon="13.045826"></trkpt><trkpt lat="47.5514587" lon="13.04554"></trkpt><trkpt lat="47.5514594" lon="13.0453079"></trkpt><trkpt lat="47.5514806" lon="13.0449237"></trkpt><trkpt lat="47.55144163276736" lon="13.04458401594172"></trkpt><trkpt lat="47.5514311" lon="13.0444922"></trkpt><trkpt lat="47.5513619" lon="13.0442591"></trkpt><trkpt lat="47.5512205" lon="13.043878"></trkpt><trkpt lat="47.5511193" lon="13.0435211"></trkpt><trkpt lat="47.5508196" lon="13.0428544"></trkpt><trkpt lat="47.550794" lon="13.0427324"></trkpt><trkpt lat="47.5506957" lon="13.0425236"></trkpt><trkpt lat="47.5505818" lon="13.0423878"></trkpt><trkpt lat="47.55052470673938" lon="13.042338498930496"></trkpt><trkpt lat="47.550351" lon="13.0421885"></trkpt><trkpt lat="47.5503159" lon="13.0420834"></trkpt><trkpt lat="47.5501305" lon="13.0419626"></trkpt><trkpt lat="47.5500321" lon="13.041848"></trkpt><trkpt lat="47.5500318" lon="13.0417831"></trkpt><trkpt lat="47.5499699" lon="13.0417561"></trkpt><trkpt lat="47.5496445" lon="13.0416791"></trkpt><trkpt lat="47.5495817" lon="13.0415897"></trkpt><trkpt lat="47.5495411" lon="13.041493"></trkpt><trkpt lat="47.5494549" lon="13.0414399"></trkpt><trkpt lat="47.5493479" lon="13.0413654"></trkpt><trkpt lat="47.5492965" lon="13.0412825"></trkpt><trkpt lat="47.5492431" lon="13.0412758"></trkpt><trkpt lat="47.549183" lon="13.0411798"></trkpt><trkpt lat="47.5490665" lon="13.0410617"></trkpt><trkpt lat="47.54901925891587" lon="13.041000195929191"></trkpt><trkpt lat="47.5487747" lon="13.0406818"></trkpt><trkpt lat="47.5486604" lon="13.0407634"></trkpt><trkpt lat="47.5484428" lon="13.0403177"></trkpt><trkpt lat="47.548316" lon="13.0402741"></trkpt><trkpt lat="47.5482344" lon="13.0399459"></trkpt><trkpt lat="47.5481557" lon="13.039911"></trkpt><trkpt lat="47.5481209" lon="13.0396793"></trkpt><trkpt lat="47.5479819" lon="13.0394475"></trkpt><trkpt lat="47.5479239" lon="13.0392244"></trkpt><trkpt lat="47.547866" lon="13.0391214"></trkpt><trkpt lat="47.547849165915764" lon="13.039065346853148"></trkpt><trkpt lat="47.547849165915764" lon="13.03906534685315"></trkpt><trkpt lat="47.547849165915764" lon="13.039065346853148"></trkpt><trkpt lat="47.5478196" lon="13.0389669"></trkpt><trkpt lat="47.5473946" lon="13.0387322"></trkpt><trkpt lat="47.5472858" lon="13.0388017"></trkpt><trkpt lat="47.5471831" lon="13.0388685"></trkpt><trkpt lat="47.5471415" lon="13.0389493"></trkpt><trkpt lat="47.547084" lon="13.0389972"></trkpt><trkpt lat="47.5469665" lon="13.0390068"></trkpt><trkpt lat="47.5469304" lon="13.0390258"></trkpt><trkpt lat="47.5468918" lon="13.0390997"></trkpt><trkpt lat="47.5468146" lon="13.0390115"></trkpt><trkpt lat="47.546686" lon="13.0389498"></trkpt><trkpt lat="47.5466279" lon="13.0389288"></trkpt><trkpt lat="47.5465272" lon="13.0388261"></trkpt><trkpt lat="47.5463191" lon="13.0384776"></trkpt><trkpt lat="47.54621652039961" lon="13.038373275643945"></trkpt><trkpt lat="47.5461486" lon="13.0383042"></trkpt><trkpt lat="47.5460012" lon="13.0380601"></trkpt><trkpt lat="47.5458585" lon="13.0377972"></trkpt><trkpt lat="47.5457126" lon="13.0372924"></trkpt><trkpt lat="47.5457129" lon="13.0372233"></trkpt><trkpt lat="47.5456474" lon="13.0371328"></trkpt><trkpt lat="47.5455764" lon="13.0371728"></trkpt><trkpt lat="47.5455002" lon="13.0371425"></trkpt><trkpt lat="47.5454395" lon="13.0370631"></trkpt><trkpt lat="47.5454092" lon="13.0370515"></trkpt><trkpt lat="47.5453819" lon="13.0369976"></trkpt><trkpt lat="47.5453284" lon="13.0370009"></trkpt><trkpt lat="47.5452898" lon="13.0369639"></trkpt><trkpt lat="47.5450761" lon="13.036757"></trkpt><trkpt lat="47.5449591" lon="13.0366064"></trkpt><trkpt lat="47.54492448545716" lon="13.03652348524859"></trkpt><trkpt lat="47.54492448545716" lon="13.036523485248589"></trkpt><trkpt lat="47.54492448545716" lon="13.03652348524859"></trkpt><trkpt lat="47.544864" lon="13.0363786"></trkpt><trkpt lat="47.5447689" lon="13.0359409"></trkpt><trkpt lat="47.5447122" lon="13.0357641"></trkpt><trkpt lat="47.5446353" lon="13.0355782"></trkpt><trkpt lat="47.5446459" lon="13.0354776"></trkpt><trkpt lat="47.5444652" lon="13.0351302"></trkpt><trkpt lat="47.5440886" lon="13.0345723"></trkpt><trkpt lat="47.5439611" lon="13.0345552"></trkpt><trkpt lat="47.54391927388858" lon="13.03442842002326"></trkpt><trkpt lat="47.54391927388858" lon="13.034428420023259"></trkpt><trkpt lat="47.54391927388858" lon="13.03442842002326"></trkpt><trkpt lat="47.5438165" lon="13.0341169"></trkpt><trkpt lat="47.5434259" lon="13.0339082"></trkpt><trkpt lat="47.5433354" lon="13.0337898"></trkpt><trkpt lat="47.5432297" lon="13.0335321"></trkpt><trkpt lat="47.5428024" lon="13.0335252"></trkpt><trkpt lat="47.54234834547254" lon="13.033277098154482"></trkpt><trkpt lat="47.5422056" lon="13.0331991"></trkpt><trkpt lat="47.5419738" lon="13.0330274"></trkpt><trkpt lat="47.541771" lon="13.0328386"></trkpt><trkpt lat="47.5416088" lon="13.0328557"></trkpt><trkpt lat="47.5413944" lon="13.0327871"></trkpt><trkpt lat="47.5411293" lon="13.0324988"></trkpt><trkpt lat="47.5408769" lon="13.0322674"></trkpt><trkpt lat="47.540783451109284" lon="13.03214519760445"></trkpt><trkpt lat="47.5407053" lon="13.032043"></trkpt><trkpt lat="47.5406122" lon="13.0319784"></trkpt><trkpt lat="47.540455" lon="13.0318589"></trkpt><trkpt lat="47.5403631" lon="13.0318086"></trkpt><trkpt lat="47.5402646" lon="13.031697"></trkpt><trkpt lat="47.5396656" lon="13.0311706"></trkpt><trkpt lat="47.5395438" lon="13.0310238"></trkpt><trkpt lat="47.5394779" lon="13.0310024"></trkpt><trkpt lat="47.5392691" lon="13.0308046"></trkpt><trkpt lat="47.539253676253416" lon="13.030787192552546"></trkpt><trkpt lat="47.5388609" lon="13.0303439"></trkpt><trkpt lat="47.5387113" lon="13.029976"></trkpt><trkpt lat="47.538533" lon="13.0295407"></trkpt><trkpt lat="47.5381142" lon="13.0292945"></trkpt><trkpt lat="47.537884579317435" lon="13.029159567018342"></trkpt><trkpt lat="47.5377325" lon="13.0290702"></trkpt><trkpt lat="47.5376865" lon="13.0289762"></trkpt><trkpt lat="47.5375668" lon="13.0288712"></trkpt><trkpt lat="47.5374867" lon="13.0287655"></trkpt><trkpt lat="47.5373885" lon="13.0284757"></trkpt><trkpt lat="47.5373035" lon="13.0281395"></trkpt><trkpt lat="47.5373318" lon="13.0278081"></trkpt><trkpt lat="47.5375441" lon="13.0273967"></trkpt><trkpt lat="47.5376314" lon="13.0269716"></trkpt><trkpt lat="47.53762285658674" lon="13.026948168265221"></trkpt><trkpt lat="47.53762285658674" lon="13.026948168265223"></trkpt><trkpt lat="47.53762285658674" lon="13.026948168265221"></trkpt><trkpt lat="47.5375564" lon="13.0267659"></trkpt><trkpt lat="47.5374248" lon="13.0266622"></trkpt><trkpt lat="47.53739" lon="13.0264668"></trkpt><trkpt lat="47.5373053" lon="13.0261356"></trkpt><trkpt lat="47.537218" lon="13.0256764"></trkpt><trkpt lat="47.5370876" lon="13.0255206"></trkpt><trkpt lat="47.5371498" lon="13.025393"></trkpt><trkpt lat="47.5371591" lon="13.0251797"></trkpt><trkpt lat="47.5372436" lon="13.025103"></trkpt><trkpt lat="47.5374134" lon="13.0252234"></trkpt><trkpt lat="47.5377168" lon="13.0252087"></trkpt><trkpt lat="47.53777122658911" lon="13.02512217061332"></trkpt><trkpt lat="47.53777122658911" lon="13.025122170613319"></trkpt><trkpt lat="47.53777122658911" lon="13.02512217061332"></trkpt><trkpt lat="47.5379372" lon="13.0248583"></trkpt><trkpt lat="47.5384042" lon="13.0242246"></trkpt><trkpt lat="47.5386416" lon="13.0238734"></trkpt><trkpt lat="47.5389443" lon="13.0235637"></trkpt><trkpt lat="47.53914579856277" lon="13.023475583767546"></trkpt><trkpt lat="47.539296" lon="13.0234099"></trkpt><trkpt lat="47.5394132" lon="13.023142"></trkpt><trkpt lat="47.5398156" lon="13.0229368"></trkpt><trkpt lat="47.5403778" lon="13.0220432"></trkpt><trkpt lat="47.54048958671937" lon="13.021930636384516"></trkpt><trkpt lat="47.54048958671937" lon="13.021930636384514"></trkpt><trkpt lat="47.54048958671937" lon="13.021930636384516"></trkpt><trkpt lat="47.5408958" lon="13.0215216"></trkpt><trkpt lat="47.5410753" lon="13.0205888"></trkpt><trkpt lat="47.5414229" lon="13.0200389"></trkpt><trkpt lat="47.54155869009918" lon="13.019850771024677"></trkpt><trkpt lat="47.54155869009918" lon="13.019850771024675"></trkpt><trkpt lat="47.54155869009918" lon="13.019850771024677"></trkpt><trkpt lat="47.5417869" lon="13.0195346"></trkpt><trkpt lat="47.5425394" lon="13.0181863"></trkpt><trkpt lat="47.5426" lon="13.0178284"></trkpt><trkpt lat="47.54261744096147" lon="13.017785451750036"></trkpt><trkpt lat="47.54261744096147" lon="13.017785451750038"></trkpt><trkpt lat="47.54261744096147" lon="13.017785451750036"></trkpt><trkpt lat="47.5427853" lon="13.0173721"></trkpt><trkpt lat="47.5429832" lon="13.0170079"></trkpt><trkpt lat="47.5431053" lon="13.0170757"></trkpt><trkpt lat="47.543477" lon="13.0165538"></trkpt><trkpt lat="47.5437837" lon="13.0164143"></trkpt><trkpt lat="47.54395168027605" lon="13.016072597311489"></trkpt><trkpt lat="47.54395168027605" lon="13.016072597311487"></trkpt><trkpt lat="47.54395168027605" lon="13.016072597311489"></trkpt><trkpt lat="47.543968" lon="13.0160394"></trkpt><trkpt lat="47.5442115" lon="13.0160445"></trkpt><trkpt lat="47.5443647" lon="13.0157781"></trkpt><trkpt lat="47.5447119" lon="13.0154722"></trkpt><trkpt lat="47.5450709" lon="13.0153274"></trkpt><trkpt lat="47.5454264" lon="13.0153322"></trkpt><trkpt lat="47.54560196777618" lon="13.015328111746479"></trkpt><trkpt lat="47.5457356" lon="13.015325"></trkpt><trkpt lat="47.5462365" lon="13.0149418"></trkpt><trkpt lat="47.5467155" lon="13.0141119"></trkpt><trkpt lat="47.54704653895479" lon="13.013952258241883"></trkpt><trkpt lat="47.5471717" lon="13.0138919"></trkpt><trkpt lat="47.5473776" lon="13.0136144"></trkpt><trkpt lat="47.5479213" lon="13.0133223"></trkpt><trkpt lat="47.548398" lon="13.0128568"></trkpt><trkpt lat="47.5486476625243" lon="13.012743894765869"></trkpt><trkpt lat="47.549003" lon="13.0125832"></trkpt><trkpt lat="47.5493547" lon="13.0124771"></trkpt><trkpt lat="47.5495828" lon="13.0127276"></trkpt><trkpt lat="47.549582" lon="13.0129003"></trkpt><trkpt lat="47.5496386" lon="13.0130288"></trkpt><trkpt lat="47.5496594" lon="13.0130342"></trkpt><trkpt lat="47.5496827" lon="13.0130322"></trkpt><trkpt lat="47.5498099" lon="13.012834"></trkpt><trkpt lat="47.5498065" lon="13.0126375"></trkpt><trkpt lat="47.5498652" lon="13.0125575"></trkpt><trkpt lat="47.5499914" lon="13.0125682"></trkpt><trkpt lat="47.55008678982033" lon="13.012560307546963"></trkpt><trkpt lat="47.55008678982033" lon="13.012560307546964"></trkpt><trkpt lat="47.55008678982033" lon="13.012560307546963"></trkpt><trkpt lat="47.5502017" lon="13.0125508"></trkpt><trkpt lat="47.5505866" lon="13.0123777"></trkpt><trkpt lat="47.5508971" lon="13.0121504"></trkpt><trkpt lat="47.5510653" lon="13.0118957"></trkpt><trkpt lat="47.5514017" lon="13.0116413"></trkpt><trkpt lat="47.55173682632033" lon="13.011566064300823"></trkpt><trkpt lat="47.5518213" lon="13.0115471"></trkpt><trkpt lat="47.5521725" lon="13.0116291"></trkpt><trkpt lat="47.5524274" lon="13.0117852"></trkpt><trkpt lat="47.552799" lon="13.0118569"></trkpt><trkpt lat="47.5534146" lon="13.0121836"></trkpt><trkpt lat="47.55346382764936" lon="13.012180961042844"></trkpt><trkpt lat="47.5536142" lon="13.0121729"></trkpt><trkpt lat="47.5538843" lon="13.0120836"></trkpt><trkpt lat="47.5539794" lon="13.0120994"></trkpt><trkpt lat="47.5542559" lon="13.0120486"></trkpt><trkpt lat="47.5546083" lon="13.0121177"></trkpt><trkpt lat="47.5548776" lon="13.0122201"></trkpt><trkpt lat="47.5551259" lon="13.0122146"></trkpt><trkpt lat="47.55522762846677" lon="13.012293387006606"></trkpt><trkpt lat="47.55522762846677" lon="13.012293387006604"></trkpt><trkpt lat="47.55522762846677" lon="13.012293387006606"></trkpt><trkpt lat="47.5552372" lon="13.0123008"></trkpt><trkpt lat="47.555401" lon="13.0125373"></trkpt><trkpt lat="47.5556933" lon="13.0127735"></trkpt><trkpt lat="47.5558099" lon="13.012858"></trkpt><trkpt lat="47.5559157" lon="13.0129746"></trkpt><trkpt lat="47.5560701" lon="13.0131232"></trkpt><trkpt lat="47.5562166" lon="13.0131821"></trkpt><trkpt lat="47.5564233" lon="13.0133484"></trkpt><trkpt lat="47.5565901" lon="13.0134224"></trkpt><trkpt lat="47.556810539337775" lon="13.01341499421319"></trkpt><trkpt lat="47.5570604" lon="13.0134066"></trkpt><trkpt lat="47.5570799" lon="13.0133894"></trkpt><trkpt lat="47.5571107" lon="13.0133477"></trkpt><trkpt lat="47.557153" lon="13.0132741"></trkpt><trkpt lat="47.55722" lon="13.0131773"></trkpt><trkpt lat="47.5573303" lon="13.0130878"></trkpt><trkpt lat="47.557591" lon="13.0129433"></trkpt><trkpt lat="47.5576564" lon="13.0129252"></trkpt><trkpt lat="47.5576906" lon="13.0129521"></trkpt><trkpt lat="47.5577146" lon="13.0130282"></trkpt><trkpt lat="47.557744" lon="13.0131231"></trkpt><trkpt lat="47.5577771" lon="13.0132534"></trkpt><trkpt lat="47.5578709" lon="13.0134007"></trkpt><trkpt lat="47.5579775" lon="13.013615"></trkpt><trkpt lat="47.5581477" lon="13.0137544"></trkpt><trkpt lat="47.55819838171109" lon="13.013852712678402"></trkpt><trkpt lat="47.55819838171109" lon="13.013852712678403"></trkpt><trkpt lat="47.55819838171109" lon="13.013852712678402"></trkpt><trkpt lat="47.5582507" lon="13.0139542"></trkpt><trkpt lat="47.5582194" lon="13.0140719"></trkpt><trkpt lat="47.5583083" lon="13.0142096"></trkpt><trkpt lat="47.5583147" lon="13.0143025"></trkpt><trkpt lat="47.5583501" lon="13.0144384"></trkpt><trkpt lat="47.5584475" lon="13.014544"></trkpt><trkpt lat="47.5585232" lon="13.014655"></trkpt><trkpt lat="47.5585323" lon="13.0147306"></trkpt><trkpt lat="47.5585451" lon="13.0148438"></trkpt><trkpt lat="47.5585953" lon="13.0149809"></trkpt><trkpt lat="47.5586113" lon="13.0151083"></trkpt><trkpt lat="47.5585965" lon="13.0152706"></trkpt><trkpt lat="47.5585647" lon="13.0153894"></trkpt><trkpt lat="47.5585474" lon="13.0154974"></trkpt><trkpt lat="47.5585707" lon="13.0155664"></trkpt><trkpt lat="47.5586122" lon="13.0156194"></trkpt><trkpt lat="47.558731" lon="13.015693"></trkpt><trkpt lat="47.5588534" lon="13.0157747"></trkpt><trkpt lat="47.558993886846984" lon="13.015921734359608"></trkpt><trkpt lat="47.5590508" lon="13.0159813"></trkpt><trkpt lat="47.5591285" lon="13.0160112"></trkpt><trkpt lat="47.5592199" lon="13.016002"></trkpt><trkpt lat="47.5593112" lon="13.0160009"></trkpt><trkpt lat="47.5594589" lon="13.0160202"></trkpt><trkpt lat="47.5595363" lon="13.0160392"></trkpt><trkpt lat="47.5596174" lon="13.0160744"></trkpt><trkpt lat="47.5597053" lon="13.0162027"></trkpt><trkpt lat="47.5597312" lon="13.0162802"></trkpt><trkpt lat="47.5597498" lon="13.0163953"></trkpt><trkpt lat="47.5597397" lon="13.0165793"></trkpt><trkpt lat="47.559711" lon="13.0169234"></trkpt><trkpt lat="47.5597041" lon="13.0171012"></trkpt><trkpt lat="47.5596675" lon="13.0172933"></trkpt><trkpt lat="47.5596438" lon="13.0173854"></trkpt><trkpt lat="47.5596309" lon="13.0174774"></trkpt><trkpt lat="47.5596396" lon="13.0175451"></trkpt><trkpt lat="47.5596736" lon="13.0176075"></trkpt><trkpt lat="47.5597381" lon="13.0176501"></trkpt><trkpt lat="47.55974096473601" lon="13.01765062704342"></trkpt><trkpt lat="47.5598392" lon="13.0176687"></trkpt><trkpt lat="47.5600162" lon="13.0177248"></trkpt><trkpt lat="47.5603235" lon="13.0178237"></trkpt><trkpt lat="47.5606351" lon="13.01777"></trkpt><trkpt lat="47.5608265" lon="13.0177853"></trkpt><trkpt lat="47.5609462" lon="13.0178511"></trkpt><trkpt lat="47.5610676" lon="13.0178821"></trkpt><trkpt lat="47.5611516" lon="13.0178885"></trkpt><trkpt lat="47.5612356" lon="13.0178734"></trkpt><trkpt lat="47.56151248196596" lon="13.01782362593049"></trkpt><trkpt lat="47.5617407" lon="13.0177826"></trkpt><trkpt lat="47.5620671" lon="13.0178285"></trkpt><trkpt lat="47.5623971" lon="13.0178422"></trkpt><trkpt lat="47.5625286" lon="13.0177613"></trkpt><trkpt lat="47.5626673" lon="13.0177099"></trkpt><trkpt lat="47.5627473" lon="13.0176571"></trkpt><trkpt lat="47.5628779" lon="13.0176525"></trkpt><trkpt lat="47.5630978" lon="13.0176224"></trkpt><trkpt lat="47.56328400070548" lon="13.017574224261915"></trkpt><trkpt lat="47.5632868" lon="13.0175735"></trkpt><trkpt lat="47.5633897" lon="13.0175834"></trkpt><trkpt lat="47.5634782" lon="13.0176093"></trkpt><trkpt lat="47.563597" lon="13.0177431"></trkpt><trkpt lat="47.5636311" lon="13.0179264"></trkpt><trkpt lat="47.5636324" lon="13.0185033"></trkpt><trkpt lat="47.5636552" lon="13.0185769"></trkpt><trkpt lat="47.5637131" lon="13.0186519"></trkpt><trkpt lat="47.5637798" lon="13.0187597"></trkpt><trkpt lat="47.5641452" lon="13.0192607"></trkpt><trkpt lat="47.5642334" lon="13.019249"></trkpt><trkpt lat="47.5643113" lon="13.0191281"></trkpt><trkpt lat="47.56432483195909" lon="13.019103395580462"></trkpt><trkpt lat="47.56432483195909" lon="13.019103395580464"></trkpt><trkpt lat="47.56432483195909" lon="13.019103395580462"></trkpt><trkpt lat="47.5643979" lon="13.01897"></trkpt><trkpt lat="47.5645059" lon="13.0188042"></trkpt><trkpt lat="47.5647553" lon="13.018582"></trkpt><trkpt lat="47.564937" lon="13.0184536"></trkpt><trkpt lat="47.5649903" lon="13.0184558"></trkpt><trkpt lat="47.5650579" lon="13.0184379"></trkpt><trkpt lat="47.5651812" lon="13.0183477"></trkpt><trkpt lat="47.5652252" lon="13.0182311"></trkpt><trkpt lat="47.5652464" lon="13.0181411"></trkpt><trkpt lat="47.5652857" lon="13.0180205"></trkpt><trkpt lat="47.5654411" lon="13.0177528"></trkpt><trkpt lat="47.5654821" lon="13.0176823"></trkpt><trkpt lat="47.5655285" lon="13.0176622"></trkpt><trkpt lat="47.5656015" lon="13.0176664"></trkpt><trkpt lat="47.5656974" lon="13.0176881"></trkpt><trkpt lat="47.56569794336981" lon="13.017688297080356"></trkpt><trkpt lat="47.56569794336981" lon="13.017688297080358"></trkpt><trkpt lat="47.56569794336981" lon="13.017688297080356"></trkpt><trkpt lat="47.5657848" lon="13.0177198"></trkpt><trkpt lat="47.565848" lon="13.0177151"></trkpt><trkpt lat="47.5658801" lon="13.0177039"></trkpt><trkpt lat="47.5659161" lon="13.0176834"></trkpt><trkpt lat="47.5659901" lon="13.0176475"></trkpt><trkpt lat="47.5660476" lon="13.0176365"></trkpt><trkpt lat="47.5660773" lon="13.0176046"></trkpt><trkpt lat="47.5661292" lon="13.0175701"></trkpt><trkpt lat="47.5662064" lon="13.0175638"></trkpt><trkpt lat="47.5663326" lon="13.0174871"></trkpt><trkpt lat="47.5664259" lon="13.0174544"></trkpt><trkpt lat="47.5664973" lon="13.0174284"></trkpt><trkpt lat="47.5667363" lon="13.0171599"></trkpt><trkpt lat="47.566856" lon="13.0170002"></trkpt><trkpt lat="47.5669335" lon="13.0169093"></trkpt><trkpt lat="47.5670844" lon="13.016747"></trkpt><trkpt lat="47.567253771367824" lon="13.016528008779192"></trkpt><trkpt lat="47.5672834" lon="13.0164897"></trkpt><trkpt lat="47.5674016" lon="13.0163747"></trkpt><trkpt lat="47.5675109" lon="13.0162889"></trkpt><trkpt lat="47.5675514" lon="13.016209"></trkpt><trkpt lat="47.567617" lon="13.0160726"></trkpt><trkpt lat="47.5676717" lon="13.0160026"></trkpt><trkpt lat="47.567762" lon="13.0159252"></trkpt><trkpt lat="47.5678989" lon="13.0158414"></trkpt><trkpt lat="47.567949" lon="13.0158101"></trkpt><trkpt lat="47.5680544" lon="13.0156423"></trkpt><trkpt lat="47.5680984" lon="13.0155421"></trkpt><trkpt lat="47.5682127" lon="13.0153517"></trkpt><trkpt lat="47.5683043" lon="13.0152294"></trkpt><trkpt lat="47.5684722" lon="13.0150308"></trkpt><trkpt lat="47.5685968" lon="13.0148805"></trkpt><trkpt lat="47.56862009328771" lon="13.014845792727597"></trkpt><trkpt lat="47.56862009328771" lon="13.014845792727598"></trkpt><trkpt lat="47.56862009328771" lon="13.014845792727597"></trkpt><trkpt lat="47.5686819" lon="13.0147537"></trkpt><trkpt lat="47.5687353" lon="13.0147042"></trkpt><trkpt lat="47.5688143" lon="13.0146564"></trkpt><trkpt lat="47.5689731" lon="13.014428"></trkpt><trkpt lat="47.5690807" lon="13.0143007"></trkpt><trkpt lat="47.5692907" lon="13.0140367"></trkpt><trkpt lat="47.569373" lon="13.0139612"></trkpt><trkpt lat="47.5694469" lon="13.0138838"></trkpt><trkpt lat="47.5696145" lon="13.0136526"></trkpt><trkpt lat="47.5697576" lon="13.0134056"></trkpt><trkpt lat="47.56997639694726" lon="13.013121361846938"></trkpt><trkpt lat="47.56997639694726" lon="13.013121361846936"></trkpt><trkpt lat="47.56997639694726" lon="13.013121361846938"></trkpt><trkpt lat="47.570222" lon="13.0128023"></trkpt><trkpt lat="47.5703368" lon="13.0126708"></trkpt><trkpt lat="47.570394" lon="13.0125038"></trkpt><trkpt lat="47.570475" lon="13.0122165"></trkpt><trkpt lat="47.5704861" lon="13.012177"></trkpt><trkpt lat="47.5704931" lon="13.0121256"></trkpt><trkpt lat="47.5705199" lon="13.0119299"></trkpt><trkpt lat="47.5705321" lon="13.0118472"></trkpt><trkpt lat="47.5706499" lon="13.0116557"></trkpt><trkpt lat="47.5708215" lon="13.0114312"></trkpt><trkpt lat="47.5709475" lon="13.0112571"></trkpt><trkpt lat="47.5710342" lon="13.0111042"></trkpt><trkpt lat="47.57104929516791" lon="13.011081882427488"></trkpt><trkpt lat="47.57104929516791" lon="13.011081882427487"></trkpt><trkpt lat="47.57104929516791" lon="13.011081882427488"></trkpt><trkpt lat="47.5710783" lon="13.011039"></trkpt><trkpt lat="47.5712154" lon="13.0109183"></trkpt><trkpt lat="47.5712772" lon="13.0108783"></trkpt><trkpt lat="47.5713464" lon="13.0108521"></trkpt><trkpt lat="47.5714838" lon="13.0107273"></trkpt><trkpt lat="47.5717153" lon="13.0105619"></trkpt><trkpt lat="47.5718716" lon="13.010475"></trkpt><trkpt lat="47.5722831" lon="13.0103133"></trkpt><trkpt lat="47.572486" lon="13.0102482"></trkpt><trkpt lat="47.5725994" lon="13.0102187"></trkpt><trkpt lat="47.57270723416675" lon="13.010164270308229"></trkpt><trkpt lat="47.57270723416675" lon="13.01016427030823"></trkpt><trkpt lat="47.57270723416675" lon="13.010164270308229"></trkpt><trkpt lat="47.5727151" lon="13.0101603"></trkpt><trkpt lat="47.5728644" lon="13.0101326"></trkpt><trkpt lat="47.5729933" lon="13.0101157"></trkpt><trkpt lat="47.5731645" lon="13.0101302"></trkpt><trkpt lat="47.5732333" lon="13.010129"></trkpt><trkpt lat="47.573297" lon="13.0100999"></trkpt><trkpt lat="47.5733146" lon="13.0100918"></trkpt><trkpt lat="47.5733346" lon="13.0100918"></trkpt><trkpt lat="47.5734651" lon="13.010092"></trkpt><trkpt lat="47.5735297" lon="13.0100848"></trkpt><trkpt lat="47.5737218" lon="13.0100467"></trkpt><trkpt lat="47.5738729" lon="13.0099817"></trkpt><trkpt lat="47.5739609" lon="13.0099221"></trkpt><trkpt lat="47.574008" lon="13.0098813"></trkpt><trkpt lat="47.5740916" lon="13.0097763"></trkpt><trkpt lat="47.5741458" lon="13.0097286"></trkpt><trkpt lat="47.5742275" lon="13.0096646"></trkpt><trkpt lat="47.5743194" lon="13.0096245"></trkpt><trkpt lat="47.5743577" lon="13.0096034"></trkpt><trkpt lat="47.5744121" lon="13.009532"></trkpt><trkpt lat="47.574416729182566" lon="13.009526719838641"></trkpt><trkpt lat="47.574416729182566" lon="13.009526719838643"></trkpt><trkpt lat="47.574416729182566" lon="13.009526719838641"></trkpt><trkpt lat="47.5744825" lon="13.0094517"></trkpt><trkpt lat="47.5746171" lon="13.0093537"></trkpt><trkpt lat="47.5747178" lon="13.0093308"></trkpt><trkpt lat="47.5748231" lon="13.0093265"></trkpt><trkpt lat="47.5749178" lon="13.0093069"></trkpt><trkpt lat="47.5749866" lon="13.0092932"></trkpt><trkpt lat="47.5750867" lon="13.0092915"></trkpt><trkpt lat="47.5752272" lon="13.009246"></trkpt><trkpt lat="47.5754555" lon="13.0091151"></trkpt><trkpt lat="47.5755155" lon="13.0090907"></trkpt><trkpt lat="47.5756252" lon="13.0090886"></trkpt><trkpt lat="47.5756985" lon="13.0091099"></trkpt><trkpt lat="47.5757708" lon="13.0091516"></trkpt><trkpt lat="47.5758246" lon="13.0091547"></trkpt><trkpt lat="47.5760752" lon="13.0091602"></trkpt><trkpt lat="47.57614076522832" lon="13.009171668505283"></trkpt><trkpt lat="47.576257" lon="13.009192"></trkpt><trkpt lat="47.5765909" lon="13.009295"></trkpt><trkpt lat="47.5769068" lon="13.0093575"></trkpt><trkpt lat="47.5771595" lon="13.0094077"></trkpt><trkpt lat="47.577343" lon="13.0094861"></trkpt><trkpt lat="47.577781" lon="13.0095634"></trkpt><trkpt lat="47.57791676717561" lon="13.009596777582104"></trkpt><trkpt lat="47.5781239" lon="13.0096477"></trkpt><trkpt lat="47.5784946" lon="13.00989"></trkpt><trkpt lat="47.5786606" lon="13.0100259"></trkpt><trkpt lat="47.5788808" lon="13.0101174"></trkpt><trkpt lat="47.5790157" lon="13.0101602"></trkpt><trkpt lat="47.5791974" lon="13.010383"></trkpt><trkpt lat="47.579298" lon="13.0105317"></trkpt><trkpt lat="47.57953331322682" lon="13.010707943592253"></trkpt><trkpt lat="47.5799318" lon="13.0110064"></trkpt><trkpt lat="47.5805868" lon="13.0116748"></trkpt><trkpt lat="47.5807855" lon="13.0118949"></trkpt><trkpt lat="47.5809414" lon="13.0120149"></trkpt><trkpt lat="47.5810093" lon="13.0120725"></trkpt><trkpt lat="47.58102687537372" lon="13.012167048337012"></trkpt><trkpt lat="47.5810338" lon="13.0122043"></trkpt><trkpt lat="47.5810644" lon="13.0123337"></trkpt><trkpt lat="47.5811861" lon="13.0124654"></trkpt><trkpt lat="47.5813616" lon="13.0125642"></trkpt><trkpt lat="47.5815582" lon="13.0126371"></trkpt><trkpt lat="47.5816742" lon="13.0127096"></trkpt><trkpt lat="47.5817534" lon="13.0128438"></trkpt><trkpt lat="47.58204" lon="13.0132608"></trkpt><trkpt lat="47.5821541" lon="13.0133102"></trkpt><trkpt lat="47.5823082" lon="13.0133355"></trkpt><trkpt lat="47.582433" lon="13.0133935"></trkpt><trkpt lat="47.58249133445461" lon="13.013467439004216"></trkpt><trkpt lat="47.58249133445461" lon="13.013467439004215"></trkpt><trkpt lat="47.58249133445461" lon="13.013467439004216"></trkpt><trkpt lat="47.5826087" lon="13.0136162"></trkpt><trkpt lat="47.5828123" lon="13.0137613"></trkpt><trkpt lat="47.5828805" lon="13.0139537"></trkpt><trkpt lat="47.5829056" lon="13.0142148"></trkpt><trkpt lat="47.582972" lon="13.014345"></trkpt><trkpt lat="47.5831227" lon="13.0145114"></trkpt><trkpt lat="47.5832673" lon="13.0149553"></trkpt><trkpt lat="47.583303" lon="13.0150625"></trkpt><trkpt lat="47.5833647" lon="13.0150812"></trkpt><trkpt lat="47.5834546" lon="13.0150237"></trkpt><trkpt lat="47.5835455" lon="13.0149387"></trkpt><trkpt lat="47.58362588364862" lon="13.014941382248963"></trkpt><trkpt lat="47.5837373" lon="13.0149451"></trkpt><trkpt lat="47.5839898" lon="13.0150431"></trkpt><trkpt lat="47.5841965" lon="13.0151771"></trkpt><trkpt lat="47.5844122" lon="13.0152729"></trkpt><trkpt lat="47.5847919" lon="13.0155447"></trkpt><trkpt lat="47.5849691" lon="13.0156416"></trkpt><trkpt lat="47.5852179" lon="13.0158967"></trkpt><trkpt lat="47.58527103633383" lon="13.015964752095703"></trkpt><trkpt lat="47.58527103633383" lon="13.015964752095705"></trkpt><trkpt lat="47.58527103633383" lon="13.015964752095703"></trkpt><trkpt lat="47.5855289" lon="13.016295"></trkpt><trkpt lat="47.5856773" lon="13.0164925"></trkpt><trkpt lat="47.5856937" lon="13.0166736"></trkpt><trkpt lat="47.5856983" lon="13.0167813"></trkpt><trkpt lat="47.585835" lon="13.0168053"></trkpt><trkpt lat="47.5858502" lon="13.0168795"></trkpt><trkpt lat="47.5858671" lon="13.0169528"></trkpt><trkpt lat="47.585892" lon="13.0170446"></trkpt><trkpt lat="47.5859281" lon="13.0171355"></trkpt><trkpt lat="47.5861215" lon="13.0174119"></trkpt><trkpt lat="47.5862047" lon="13.017568"></trkpt><trkpt lat="47.5862721" lon="13.0176712"></trkpt><trkpt lat="47.5863561" lon="13.0176693"></trkpt><trkpt lat="47.5864379" lon="13.0176004"></trkpt><trkpt lat="47.5863561" lon="13.0176693"></trkpt><trkpt lat="47.5862721" lon="13.0176712"></trkpt><trkpt lat="47.5862047" lon="13.017568"></trkpt><trkpt lat="47.5861215" lon="13.0174119"></trkpt><trkpt lat="47.586181" lon="13.0173112"></trkpt><trkpt lat="47.5862045" lon="13.0172388"></trkpt><trkpt lat="47.5861882" lon="13.0171905"></trkpt><trkpt lat="47.5861575" lon="13.0171208"></trkpt><trkpt lat="47.5861521" lon="13.0170645"></trkpt><trkpt lat="47.5861665" lon="13.0170108"></trkpt><trkpt lat="47.5862226" lon="13.0169277"></trkpt><trkpt lat="47.5864216" lon="13.0167132"></trkpt><trkpt lat="47.5864792" lon="13.0167446"></trkpt><trkpt lat="47.5865955" lon="13.0168329"></trkpt><trkpt lat="47.586678" lon="13.0169079"></trkpt><trkpt lat="47.5867063" lon="13.0169397"></trkpt><trkpt lat="47.58674" lon="13.016992"></trkpt><trkpt lat="47.5867656" lon="13.0170573"></trkpt><trkpt lat="47.5867792" lon="13.0171416"></trkpt><trkpt lat="47.5867835" lon="13.0172547"></trkpt><trkpt lat="47.5867835" lon="13.0173786"></trkpt><trkpt lat="47.5867875" lon="13.0174991"></trkpt><trkpt lat="47.5867969" lon="13.017593"></trkpt><trkpt lat="47.5868193" lon="13.0177041"></trkpt><trkpt lat="47.5868622" lon="13.0178878"></trkpt><trkpt lat="47.5869294" lon="13.0181678"></trkpt><trkpt lat="47.5869874" lon="13.0183286"></trkpt><trkpt lat="47.5870739" lon="13.0184524"></trkpt><trkpt lat="47.5871153" lon="13.0184913"></trkpt><trkpt lat="47.5871788" lon="13.0185339"></trkpt><trkpt lat="47.5874538" lon="13.0186701"></trkpt><trkpt lat="47.5879748" lon="13.0190349"></trkpt><trkpt lat="47.58810921622686" lon="13.019109279341297"></trkpt><trkpt lat="47.5886955" lon="13.0194337"></trkpt><trkpt lat="47.5888462" lon="13.0195376"></trkpt><trkpt lat="47.5889751" lon="13.0196631"></trkpt><trkpt lat="47.5890528" lon="13.0197466"></trkpt><trkpt lat="47.5891322" lon="13.0198516"></trkpt><trkpt lat="47.5893867" lon="13.0203793"></trkpt><trkpt lat="47.5894654" lon="13.0206335"></trkpt><trkpt lat="47.58946584633479" lon="13.020686649077078"></trkpt><trkpt lat="47.5894692" lon="13.021086"></trkpt><trkpt lat="47.5894307" lon="13.0213309"></trkpt><trkpt lat="47.5894629" lon="13.0213648"></trkpt><trkpt lat="47.5895668" lon="13.0214743"></trkpt><trkpt lat="47.5896299" lon="13.0215528"></trkpt><trkpt lat="47.5898097" lon="13.0217422"></trkpt><trkpt lat="47.5899787" lon="13.0217427"></trkpt><trkpt lat="47.5901046" lon="13.0216875"></trkpt><trkpt lat="47.590405" lon="13.0215272"></trkpt><trkpt lat="47.59068032853764" lon="13.021557847701898"></trkpt><trkpt lat="47.5909548" lon="13.0215884"></trkpt><trkpt lat="47.592447382723414" lon="13.021389817632292"></trkpt><trkpt lat="47.5925565" lon="13.0213753"></trkpt><trkpt lat="47.592901" lon="13.0212572"></trkpt><trkpt lat="47.5935601" lon="13.0209"></trkpt><trkpt lat="47.5941291" lon="13.0204014"></trkpt><trkpt lat="47.5944233" lon="13.0203679"></trkpt><trkpt lat="47.59432350657941" lon="13.02027345857586"></trkpt><trkpt lat="47.59432350657941" lon="13.020273458575858"></trkpt></trkseg></trk></gpx>
