<?xml version="1.0" encoding="UTF-8"?>
<gpx version="1.1" creator="Good Shit" xmlns="http://www.topografix.com/GPX/1/1"><trk><name>Harilaiu Study Trail — Harilaiu full peninsula loop via Kiipsaare</name><trkseg><trkpt lat="58.4738151" lon="21.9020141"></trkpt><trkpt lat="58.4741772" lon="21.9014037"></trkpt><trkpt lat="58.4745168" lon="21.900812"></trkpt><trkpt lat="58.474646" lon="21.9004848"></trkpt><trkpt lat="58.4747366" lon="21.9001524"></trkpt><trkpt lat="58.4748029" lon="21.8998278"></trkpt><trkpt lat="58.4748669" lon="21.8993519"></trkpt><trkpt lat="58.4748912" lon="21.8990827"></trkpt><trkpt lat="58.4748979" lon="21.898784"></trkpt><trkpt lat="58.4749165" lon="21.8975983"></trkpt><trkpt lat="58.4749195" lon="21.8959759"></trkpt><trkpt lat="58.4749205" lon="21.8952235"></trkpt><trkpt lat="58.4749324" lon="21.8949404"></trkpt><trkpt lat="58.474952" lon="21.8946546"></trkpt><trkpt lat="58.4750245" lon="21.8938827"></trkpt><trkpt lat="58.4751739" lon="21.8926739"></trkpt><trkpt lat="58.4752814" lon="21.8921167"></trkpt><trkpt lat="58.4755645" lon="21.8909972"></trkpt><trkpt lat="58.4758082" lon="21.8900464"></trkpt><trkpt lat="58.4758974" lon="21.8896855"></trkpt><trkpt lat="58.476211" lon="21.8881955"></trkpt><trkpt lat="58.4764796" lon="21.8859834"></trkpt><trkpt lat="58.4768714" lon="21.8830506"></trkpt><trkpt lat="58.4771736" lon="21.8814022"></trkpt><trkpt lat="58.4776302" lon="21.8785644"></trkpt><trkpt lat="58.4780203" lon="21.8773444"></trkpt><trkpt lat="58.4784805" lon="21.8754178"></trkpt><trkpt lat="58.4785067" lon="21.8753083"></trkpt><trkpt lat="58.4792408" lon="21.8739128"></trkpt><trkpt lat="58.4794883" lon="21.8729839"></trkpt><trkpt lat="58.4799308" lon="21.8716095"></trkpt><trkpt lat="58.4814417" lon="21.8676126"></trkpt><trkpt lat="58.481847" lon="21.8665405"></trkpt><trkpt lat="58.4829608" lon="21.8646162"></trkpt><trkpt lat="58.4830829" lon="21.8644342"></trkpt><trkpt lat="58.4834493" lon="21.8640253"></trkpt><trkpt lat="58.4837281" lon="21.8634774"></trkpt><trkpt lat="58.48447" lon="21.861813"></trkpt><trkpt lat="58.4847833" lon="21.8612082"></trkpt><trkpt lat="58.4850723" lon="21.8608181"></trkpt><trkpt lat="58.4857101" lon="21.8601363"></trkpt><trkpt lat="58.4859811" lon="21.8599187"></trkpt><trkpt lat="58.4865306" lon="21.8593167"></trkpt><trkpt lat="58.4866883" lon="21.8591827"></trkpt><trkpt lat="58.4869502" lon="21.8590387"></trkpt><trkpt lat="58.4871668" lon="21.85897"></trkpt><trkpt lat="58.4876224" lon="21.8587647"></trkpt><trkpt lat="58.4881022" lon="21.8586446"></trkpt><trkpt lat="58.4885673" lon="21.8585058"></trkpt><trkpt lat="58.4890208" lon="21.8584597"></trkpt><trkpt lat="58.489165" lon="21.8584451"></trkpt><trkpt lat="58.489174" lon="21.858425"></trkpt><trkpt lat="58.4896564" lon="21.8573456"></trkpt><trkpt lat="58.4901173" lon="21.8564538"></trkpt><trkpt lat="58.4908215" lon="21.8549911"></trkpt><trkpt lat="58.4916223" lon="21.8539946"></trkpt><trkpt lat="58.4921016" lon="21.8533708"></trkpt><trkpt lat="58.4922538" lon="21.8529397"></trkpt><trkpt lat="58.4923936" lon="21.8524549"></trkpt><trkpt lat="58.4928319" lon="21.8505748"></trkpt><trkpt lat="58.4932103" lon="21.8488488"></trkpt><trkpt lat="58.4936241" lon="21.846553"></trkpt><trkpt lat="58.493797" lon="21.8453538"></trkpt><trkpt lat="58.4940078" lon="21.8444708"></trkpt><trkpt lat="58.4941295" lon="21.8439866"></trkpt><trkpt lat="58.4942224" lon="21.8437012"></trkpt><trkpt lat="58.4946623" lon="21.8427937"></trkpt><trkpt lat="58.494885" lon="21.8426322"></trkpt><trkpt lat="58.4950226" lon="21.8424558"></trkpt><trkpt lat="58.494885" lon="21.8426322"></trkpt><trkpt lat="58.4946623" lon="21.8427937"></trkpt><trkpt lat="58.4942224" lon="21.8437012"></trkpt><trkpt lat="58.4941295" lon="21.8439866"></trkpt><trkpt lat="58.4940078" lon="21.8444708"></trkpt><trkpt lat="58.4936594" lon="21.844248"></trkpt><trkpt lat="58.4935172" lon="21.8440461"></trkpt><trkpt lat="58.4932228" lon="21.8437203"></trkpt><trkpt lat="58.492904" lon="21.8436305"></trkpt><trkpt lat="58.4926785" lon="21.8435057"></trkpt><trkpt lat="58.4924299" lon="21.8435138"></trkpt><trkpt lat="58.4921186" lon="21.8437555"></trkpt><trkpt lat="58.4917941" lon="21.8439502"></trkpt><trkpt lat="58.4915738" lon="21.8439173"></trkpt><trkpt lat="58.4913234" lon="21.8439984"></trkpt><trkpt lat="58.4911114" lon="21.8441982"></trkpt><trkpt lat="58.4909257" lon="21.844241"></trkpt><trkpt lat="58.4906238" lon="21.8442815"></trkpt><trkpt lat="58.4897331" lon="21.8447833"></trkpt><trkpt lat="58.4890129" lon="21.8448974"></trkpt><trkpt lat="58.4882285" lon="21.8448272"></trkpt><trkpt lat="58.4866321" lon="21.8445025"></trkpt><trkpt lat="58.4852191" lon="21.8442918"></trkpt><trkpt lat="58.4845952" lon="21.8439759"></trkpt><trkpt lat="58.4834987" lon="21.8433176"></trkpt><trkpt lat="58.4831161" lon="21.842902"></trkpt><trkpt lat="58.4821498" lon="21.8425629"></trkpt><trkpt lat="58.4819085" lon="21.8424365"></trkpt><trkpt lat="58.4817644" lon="21.8425453"></trkpt><trkpt lat="58.4815633" lon="21.8427241"></trkpt><trkpt lat="58.4812817" lon="21.8431192"></trkpt><trkpt lat="58.4808697" lon="21.8433791"></trkpt><trkpt lat="58.4803237" lon="21.8432738"></trkpt><trkpt lat="58.4796584" lon="21.8427296"></trkpt><trkpt lat="58.4792436" lon="21.8420538"></trkpt><trkpt lat="58.4790768" lon="21.8418696"></trkpt><trkpt lat="58.4789254" lon="21.8417446"></trkpt><trkpt lat="58.4788261" lon="21.8415169"></trkpt><trkpt lat="58.4787775" lon="21.8414705"></trkpt><trkpt lat="58.4786654" lon="21.8415118"></trkpt><trkpt lat="58.4785214" lon="21.8416458"></trkpt><trkpt lat="58.4784401" lon="21.841893"></trkpt><trkpt lat="58.4782983" lon="21.8429982"></trkpt><trkpt lat="58.4781763" lon="21.8442831"></trkpt><trkpt lat="58.4780157" lon="21.8447395"></trkpt><trkpt lat="58.4777358" lon="21.8467932"></trkpt><trkpt lat="58.47741" lon="21.8484519"></trkpt><trkpt lat="58.4771714" lon="21.8498211"></trkpt><trkpt lat="58.4771301" lon="21.8503389"></trkpt><trkpt lat="58.4770291" lon="21.8510147"></trkpt><trkpt lat="58.4763683" lon="21.8526647"></trkpt><trkpt lat="58.475777" lon="21.8539962"></trkpt><trkpt lat="58.4751098" lon="21.8548806"></trkpt><trkpt lat="58.4749951" lon="21.855107"></trkpt><trkpt lat="58.4749331" lon="21.8555061"></trkpt><trkpt lat="58.4748466" lon="21.8557469"></trkpt><trkpt lat="58.4744181" lon="21.8564048"></trkpt><trkpt lat="58.4738165" lon="21.8569081"></trkpt><trkpt lat="58.4728861" lon="21.8575048"></trkpt><trkpt lat="58.4724349" lon="21.8579686"></trkpt><trkpt lat="58.4719311" lon="21.8583424"></trkpt><trkpt lat="58.4706754" lon="21.8597696"></trkpt><trkpt lat="58.470337" lon="21.8603951"></trkpt><trkpt lat="58.4700118" lon="21.8608732"></trkpt><trkpt lat="58.4697111" lon="21.8611114"></trkpt><trkpt lat="58.4692676" lon="21.8613024"></trkpt><trkpt lat="58.4691853" lon="21.8614316"></trkpt><trkpt lat="58.4690972" lon="21.8616731"></trkpt><trkpt lat="58.4690619" lon="21.8618528"></trkpt><trkpt lat="58.4690678" lon="21.862027"></trkpt><trkpt lat="58.4692" lon="21.8626842"></trkpt><trkpt lat="58.4695378" lon="21.8639592"></trkpt><trkpt lat="58.4695701" lon="21.8645939"></trkpt><trkpt lat="58.4699226" lon="21.8667396"></trkpt><trkpt lat="58.4700263" lon="21.8673951"></trkpt><trkpt lat="58.4702613" lon="21.8682218"></trkpt><trkpt lat="58.4703138" lon="21.8687137"></trkpt><trkpt lat="58.4703717" lon="21.8689946"></trkpt><trkpt lat="58.4705204" lon="21.869249"></trkpt><trkpt lat="58.4708374" lon="21.8697744"></trkpt><trkpt lat="58.4708921" lon="21.8701442"></trkpt><trkpt lat="58.4709779" lon="21.8704368"></trkpt><trkpt lat="58.4711354" lon="21.8707059"></trkpt><trkpt lat="58.4714663" lon="21.8709499"></trkpt><trkpt lat="58.4720583" lon="21.8714928"></trkpt><trkpt lat="58.4724525" lon="21.8718469"></trkpt><trkpt lat="58.4728476" lon="21.8722267"></trkpt><trkpt lat="58.4730629" lon="21.8727509"></trkpt><trkpt lat="58.4732863" lon="21.8732528"></trkpt><trkpt lat="58.473352" lon="21.8734004"></trkpt><trkpt lat="58.4736136" lon="21.8741639"></trkpt><trkpt lat="58.4738018" lon="21.8748924"></trkpt><trkpt lat="58.4739807" lon="21.8760772"></trkpt><trkpt lat="58.4741001" lon="21.8772796"></trkpt><trkpt lat="58.4741092" lon="21.8781748"></trkpt><trkpt lat="58.4740358" lon="21.8797019"></trkpt><trkpt lat="58.4740348" lon="21.8799066"></trkpt><trkpt lat="58.4740266" lon="21.8815362"></trkpt><trkpt lat="58.4740955" lon="21.8828176"></trkpt><trkpt lat="58.4743696" lon="21.8847915"></trkpt><trkpt lat="58.4749621" lon="21.8858727"></trkpt><trkpt lat="58.4750303" lon="21.8863348"></trkpt><trkpt lat="58.4750054" lon="21.887038"></trkpt><trkpt lat="58.4750041" lon="21.8883732"></trkpt><trkpt lat="58.4751647" lon="21.8908921"></trkpt><trkpt lat="58.4751739" lon="21.8926739"></trkpt><trkpt lat="58.4750245" lon="21.8938827"></trkpt><trkpt lat="58.474952" lon="21.8946546"></trkpt><trkpt lat="58.4749324" lon="21.8949404"></trkpt><trkpt lat="58.4749205" lon="21.8952235"></trkpt><trkpt lat="58.4749195" lon="21.8959759"></trkpt><trkpt lat="58.4749165" lon="21.8975983"></trkpt><trkpt lat="58.4748979" lon="21.898784"></trkpt><trkpt lat="58.4748912" lon="21.8990827"></trkpt><trkpt lat="58.4748669" lon="21.8993519"></trkpt><trkpt lat="58.4748029" lon="21.8998278"></trkpt><trkpt lat="58.4747366" lon="21.9001524"></trkpt><trkpt lat="58.474646" lon="21.9004848"></trkpt><trkpt lat="58.4745168" lon="21.900812"></trkpt><trkpt lat="58.4741772" lon="21.9014037"></trkpt><trkpt lat="58.4738151" lon="21.9020141"></trkpt></trkseg></trk></gpx>
