<?xml version="1.0" encoding="UTF-8"?>
<gpx version="1.1" creator="Good Shit" xmlns="http://www.topografix.com/GPX/1/1"><trk><name>Gravlev Ådal Ruten — Gravlev Ådal Ruten</name><trkseg><trkpt lat="56.8318024" lon="9.8123387"></trkpt><trkpt lat="56.8318077" lon="9.8123695"></trkpt><trkpt lat="56.8318082" lon="9.8125249"></trkpt><trkpt lat="56.8318111" lon="9.8128789"></trkpt><trkpt lat="56.8318231" lon="9.8129529"></trkpt><trkpt lat="56.8318612" lon="9.8130052"></trkpt><trkpt lat="56.8321158" lon="9.8130159"></trkpt><trkpt lat="56.8323105" lon="9.8130501"></trkpt><trkpt lat="56.832343" lon="9.813022"></trkpt><trkpt lat="56.8323804" lon="9.813077"></trkpt><trkpt lat="56.8324999" lon="9.813168"></trkpt><trkpt lat="56.8326857" lon="9.813174"></trkpt><trkpt lat="56.8329997" lon="9.8130649"></trkpt><trkpt lat="56.8332674" lon="9.8130244"></trkpt><trkpt lat="56.8335659" lon="9.8130325"></trkpt><trkpt lat="56.8338413" lon="9.8130911"></trkpt><trkpt lat="56.834126" lon="9.8131933"></trkpt><trkpt lat="56.8341565" lon="9.8132043"></trkpt><trkpt lat="56.8341864" lon="9.8132381"></trkpt><trkpt lat="56.8344456" lon="9.8135314"></trkpt><trkpt lat="56.8345612" lon="9.8136209"></trkpt><trkpt lat="56.834653" lon="9.813697"></trkpt><trkpt lat="56.8347231" lon="9.8137251"></trkpt><trkpt lat="56.8348789" lon="9.8137876"></trkpt><trkpt lat="56.8350412" lon="9.8138701"></trkpt><trkpt lat="56.8351108" lon="9.8139396"></trkpt><trkpt lat="56.8351911" lon="9.8140878"></trkpt><trkpt lat="56.8352743" lon="9.8141796"></trkpt><trkpt lat="56.835387" lon="9.8142478"></trkpt><trkpt lat="56.8358551" lon="9.8143929"></trkpt><trkpt lat="56.8364482" lon="9.8147017"></trkpt><trkpt lat="56.8375588" lon="9.8155653"></trkpt><trkpt lat="56.8379183" lon="9.8158899"></trkpt><trkpt lat="56.8381369" lon="9.8161554"></trkpt><trkpt lat="56.8384557" lon="9.816636"></trkpt><trkpt lat="56.8385998" lon="9.816821"></trkpt><trkpt lat="56.8388933" lon="9.8171322"></trkpt><trkpt lat="56.839216" lon="9.8173789"></trkpt><trkpt lat="56.8393275" lon="9.8175399"></trkpt><trkpt lat="56.8393803" lon="9.8178188"></trkpt><trkpt lat="56.8394918" lon="9.8181407"></trkpt><trkpt lat="56.8395333" lon="9.818218"></trkpt><trkpt lat="56.8395857" lon="9.8182587"></trkpt><trkpt lat="56.8396157" lon="9.818255"></trkpt><trkpt lat="56.8396537" lon="9.8182319"></trkpt><trkpt lat="56.8396917" lon="9.8181647"></trkpt><trkpt lat="56.8397532" lon="9.8181317"></trkpt><trkpt lat="56.8398257" lon="9.8181377"></trkpt><trkpt lat="56.8399052" lon="9.8181356"></trkpt><trkpt lat="56.8401198" lon="9.8181299"></trkpt><trkpt lat="56.8402002" lon="9.8180746"></trkpt><trkpt lat="56.8402477" lon="9.81793"></trkpt><trkpt lat="56.8402853" lon="9.8176992"></trkpt><trkpt lat="56.8403474" lon="9.8173881"></trkpt><trkpt lat="56.8404874" lon="9.8167041"></trkpt><trkpt lat="56.84059" lon="9.8163495"></trkpt><trkpt lat="56.8406949" lon="9.8161666"></trkpt><trkpt lat="56.8408768" lon="9.8159413"></trkpt><trkpt lat="56.841047" lon="9.8158125"></trkpt><trkpt lat="56.8411996" lon="9.8157589"></trkpt><trkpt lat="56.8413618" lon="9.815754"></trkpt><trkpt lat="56.8414049" lon="9.8159627"></trkpt><trkpt lat="56.8415516" lon="9.8160593"></trkpt><trkpt lat="56.8420974" lon="9.8165743"></trkpt><trkpt lat="56.8421443" lon="9.8165421"></trkpt><trkpt lat="56.8424366" lon="9.8153328"></trkpt><trkpt lat="56.8424723" lon="9.8153386"></trkpt><trkpt lat="56.8425273" lon="9.8153599"></trkpt><trkpt lat="56.8425874" lon="9.8153776"></trkpt><trkpt lat="56.8426279" lon="9.815386"></trkpt><trkpt lat="56.8426999" lon="9.8153946"></trkpt><trkpt lat="56.8427269" lon="9.8153826"></trkpt><trkpt lat="56.8427444" lon="9.8153524"></trkpt><trkpt lat="56.8427477" lon="9.8152961"></trkpt><trkpt lat="56.842736" lon="9.8152522"></trkpt><trkpt lat="56.8426853" lon="9.8151643"></trkpt><trkpt lat="56.8426112" lon="9.8150529"></trkpt><trkpt lat="56.8426013" lon="9.8150348"></trkpt><trkpt lat="56.8425958" lon="9.8150076"></trkpt><trkpt lat="56.8426052" lon="9.8149747"></trkpt><trkpt lat="56.8426234" lon="9.8149638"></trkpt><trkpt lat="56.8426539" lon="9.814974"></trkpt><trkpt lat="56.8427185" lon="9.8150195"></trkpt><trkpt lat="56.8428443" lon="9.8151188"></trkpt><trkpt lat="56.8428803" lon="9.8152853"></trkpt><trkpt lat="56.8429291" lon="9.8154334"></trkpt><trkpt lat="56.8429808" lon="9.8155228"></trkpt><trkpt lat="56.8430438" lon="9.8155935"></trkpt><trkpt lat="56.8432328" lon="9.8157915"></trkpt><trkpt lat="56.84385" lon="9.8163928"></trkpt><trkpt lat="56.8440579" lon="9.8165989"></trkpt><trkpt lat="56.844429" lon="9.8169951"></trkpt><trkpt lat="56.844659" lon="9.8173515"></trkpt><trkpt lat="56.8447604" lon="9.8176052"></trkpt><trkpt lat="56.8447845" lon="9.8176658"></trkpt><trkpt lat="56.8451157" lon="9.8184997"></trkpt><trkpt lat="56.8451781" lon="9.8186683"></trkpt><trkpt lat="56.8454256" lon="9.819381"></trkpt><trkpt lat="56.8454769" lon="9.8194964"></trkpt><trkpt lat="56.8456149" lon="9.8197418"></trkpt><trkpt lat="56.845611" lon="9.8198735"></trkpt><trkpt lat="56.8455982" lon="9.8202633"></trkpt><trkpt lat="56.8455862" lon="9.820529"></trkpt><trkpt lat="56.8456037" lon="9.8207092"></trkpt><trkpt lat="56.8456416" lon="9.8210991"></trkpt><trkpt lat="56.8456954" lon="9.8213519"></trkpt><trkpt lat="56.8458061" lon="9.8217136"></trkpt><trkpt lat="56.8458757" lon="9.8219201"></trkpt><trkpt lat="56.846072" lon="9.8225236"></trkpt><trkpt lat="56.8461954" lon="9.822734"></trkpt><trkpt lat="56.8462212" lon="9.8227778"></trkpt><trkpt lat="56.8465279" lon="9.8233803"></trkpt><trkpt lat="56.8469267" lon="9.8242024"></trkpt><trkpt lat="56.8470961" lon="9.8244923"></trkpt><trkpt lat="56.8472852" lon="9.8247667"></trkpt><trkpt lat="56.8473923" lon="9.8249528"></trkpt><trkpt lat="56.8477307" lon="9.8257111"></trkpt><trkpt lat="56.8479445" lon="9.8261193"></trkpt><trkpt lat="56.8481836" lon="9.8264916"></trkpt><trkpt lat="56.8483005" lon="9.8266842"></trkpt><trkpt lat="56.8485819" lon="9.8272359"></trkpt><trkpt lat="56.8488008" lon="9.8276101"></trkpt><trkpt lat="56.8493215" lon="9.8284719"></trkpt><trkpt lat="56.8495307" lon="9.8288876"></trkpt><trkpt lat="56.8496718" lon="9.8292154"></trkpt><trkpt lat="56.8499863" lon="9.8300933"></trkpt><trkpt lat="56.8504008" lon="9.8312904"></trkpt><trkpt lat="56.8507469" lon="9.8322916"></trkpt><trkpt lat="56.8507921" lon="9.8325439"></trkpt><trkpt lat="56.8509585" lon="9.8339277"></trkpt><trkpt lat="56.8510681" lon="9.834839"></trkpt><trkpt lat="56.8511702" lon="9.8354613"></trkpt><trkpt lat="56.8513421" lon="9.8363212"></trkpt><trkpt lat="56.8515971" lon="9.8376949"></trkpt><trkpt lat="56.8516451" lon="9.8378489"></trkpt><trkpt lat="56.8516847" lon="9.8379246"></trkpt><trkpt lat="56.8517211" lon="9.8386879"></trkpt><trkpt lat="56.8517266" lon="9.8388096"></trkpt><trkpt lat="56.8517661" lon="9.8400459"></trkpt><trkpt lat="56.8517558" lon="9.8402189"></trkpt><trkpt lat="56.8517133" lon="9.8404522"></trkpt><trkpt lat="56.8502231" lon="9.841328"></trkpt><trkpt lat="56.8499849" lon="9.8413036"></trkpt><trkpt lat="56.8498412" lon="9.841261"></trkpt><trkpt lat="56.8497303" lon="9.8412555"></trkpt><trkpt lat="56.8494611" lon="9.841273"></trkpt><trkpt lat="56.8491052" lon="9.8411827"></trkpt><trkpt lat="56.849067" lon="9.8410517"></trkpt><trkpt lat="56.8490556" lon="9.8410409"></trkpt><trkpt lat="56.8490125" lon="9.8408729"></trkpt><trkpt lat="56.8489949" lon="9.8406915"></trkpt><trkpt lat="56.848839" lon="9.8402496"></trkpt><trkpt lat="56.8486547" lon="9.8398056"></trkpt><trkpt lat="56.8484795" lon="9.8396283"></trkpt><trkpt lat="56.8484175" lon="9.8393697"></trkpt><trkpt lat="56.8482697" lon="9.839086"></trkpt><trkpt lat="56.848179" lon="9.8393339"></trkpt><trkpt lat="56.8479538" lon="9.8401791"></trkpt><trkpt lat="56.8478613" lon="9.8403969"></trkpt><trkpt lat="56.8475162" lon="9.8405902"></trkpt><trkpt lat="56.8473011" lon="9.8406827"></trkpt><trkpt lat="56.847217" lon="9.8407189"></trkpt><trkpt lat="56.8470836" lon="9.8410185"></trkpt><trkpt lat="56.8469414" lon="9.8414956"></trkpt><trkpt lat="56.8468004" lon="9.8416094"></trkpt><trkpt lat="56.8465364" lon="9.842103"></trkpt><trkpt lat="56.8463369" lon="9.8423819"></trkpt><trkpt lat="56.8460907" lon="9.8426808"></trkpt><trkpt lat="56.8460729" lon="9.8424141"></trkpt><trkpt lat="56.8460754" lon="9.8418648"></trkpt><trkpt lat="56.8461137" lon="9.8410429"></trkpt><trkpt lat="56.8460754" lon="9.8403976"></trkpt><trkpt lat="56.8460833" lon="9.8400213"></trkpt><trkpt lat="56.8461548" lon="9.8392763"></trkpt><trkpt lat="56.8461542" lon="9.8388388"></trkpt><trkpt lat="56.8461541" lon="9.8384209"></trkpt><trkpt lat="56.8460965" lon="9.8373009"></trkpt><trkpt lat="56.846092" lon="9.8366779"></trkpt><trkpt lat="56.846074" lon="9.8364325"></trkpt><trkpt lat="56.8460243" lon="9.836185"></trkpt><trkpt lat="56.8459172" lon="9.8358178"></trkpt><trkpt lat="56.8458168" lon="9.8355332"></trkpt><trkpt lat="56.845546" lon="9.8349783"></trkpt><trkpt lat="56.8452437" lon="9.8342358"></trkpt><trkpt lat="56.845105" lon="9.8339284"></trkpt><trkpt lat="56.8449516" lon="9.8336747"></trkpt><trkpt lat="56.8448703" lon="9.8335819"></trkpt><trkpt lat="56.8447959" lon="9.8335386"></trkpt><trkpt lat="56.844136" lon="9.8333138"></trkpt><trkpt lat="56.8437975" lon="9.8331632"></trkpt><trkpt lat="56.8436599" lon="9.8330745"></trkpt><trkpt lat="56.8429888" lon="9.8324856"></trkpt><trkpt lat="56.8428138" lon="9.832332"></trkpt><trkpt lat="56.84278" lon="9.8322618"></trkpt><trkpt lat="56.8427394" lon="9.8319834"></trkpt><trkpt lat="56.8427123" lon="9.8318782"></trkpt><trkpt lat="56.8426762" lon="9.8318287"></trkpt><trkpt lat="56.8422915" lon="9.8315502"></trkpt><trkpt lat="56.8421775" lon="9.8315152"></trkpt><trkpt lat="56.8421042" lon="9.8315213"></trkpt><trkpt lat="56.8419418" lon="9.8316348"></trkpt><trkpt lat="56.8418887" lon="9.8316224"></trkpt><trkpt lat="56.8418073" lon="9.8316206"></trkpt><trkpt lat="56.8417682" lon="9.8315272"></trkpt><trkpt lat="56.8416221" lon="9.8312499"></trkpt><trkpt lat="56.8414875" lon="9.8309594"></trkpt><trkpt lat="56.8414222" lon="9.8307908"></trkpt><trkpt lat="56.8413772" lon="9.8306549"></trkpt><trkpt lat="56.8413283" lon="9.8305058"></trkpt><trkpt lat="56.8412801" lon="9.8303761"></trkpt><trkpt lat="56.8412229" lon="9.8302576"></trkpt><trkpt lat="56.8411825" lon="9.830177"></trkpt><trkpt lat="56.8411296" lon="9.8300983"></trkpt><trkpt lat="56.8410245" lon="9.8299548"></trkpt><trkpt lat="56.8402454" lon="9.829146"></trkpt><trkpt lat="56.8401601" lon="9.8290429"></trkpt><trkpt lat="56.8400979" lon="9.8289424"></trkpt><trkpt lat="56.840059" lon="9.8288373"></trkpt><trkpt lat="56.8399786" lon="9.8285173"></trkpt><trkpt lat="56.839953" lon="9.8284367"></trkpt><trkpt lat="56.8399194" lon="9.8283657"></trkpt><trkpt lat="56.8398821" lon="9.8283153"></trkpt><trkpt lat="56.8398102" lon="9.8282568"></trkpt><trkpt lat="56.8396734" lon="9.8281765"></trkpt><trkpt lat="56.8390172" lon="9.8277797"></trkpt><trkpt lat="56.8386244" lon="9.8275704"></trkpt><trkpt lat="56.8385837" lon="9.8275448"></trkpt><trkpt lat="56.838551" lon="9.8275194"></trkpt><trkpt lat="56.8384459" lon="9.827422"></trkpt><trkpt lat="56.8383397" lon="9.8273403"></trkpt><trkpt lat="56.8383185" lon="9.8273309"></trkpt><trkpt lat="56.8382383" lon="9.8272836"></trkpt><trkpt lat="56.8381965" lon="9.8272313"></trkpt><trkpt lat="56.8381127" lon="9.8270671"></trkpt><trkpt lat="56.8379719" lon="9.8268686"></trkpt><trkpt lat="56.8378918" lon="9.8267612"></trkpt><trkpt lat="56.8377949" lon="9.8266449"></trkpt><trkpt lat="56.8376014" lon="9.8264312"></trkpt><trkpt lat="56.8374672" lon="9.8262431"></trkpt><trkpt lat="56.8373046" lon="9.8259996"></trkpt><trkpt lat="56.8372439" lon="9.8259196"></trkpt><trkpt lat="56.8371842" lon="9.8258632"></trkpt><trkpt lat="56.837069" lon="9.8257971"></trkpt><trkpt lat="56.8369915" lon="9.8257331"></trkpt><trkpt lat="56.8364834" lon="9.8252424"></trkpt><trkpt lat="56.8362932" lon="9.825077"></trkpt><trkpt lat="56.8362319" lon="9.8251158"></trkpt><trkpt lat="56.836124" lon="9.825026"></trkpt><trkpt lat="56.8360967" lon="9.8250287"></trkpt><trkpt lat="56.8360738" lon="9.8250465"></trkpt><trkpt lat="56.8360568" lon="9.8250832"></trkpt><trkpt lat="56.8360435" lon="9.8251491"></trkpt><trkpt lat="56.8360075" lon="9.8252141"></trkpt><trkpt lat="56.8359319" lon="9.825377"></trkpt><trkpt lat="56.8358401" lon="9.8255399"></trkpt><trkpt lat="56.8357699" lon="9.8257571"></trkpt><trkpt lat="56.8357267" lon="9.8259397"></trkpt><trkpt lat="56.8356376" lon="9.8260434"></trkpt><trkpt lat="56.8354972" lon="9.8261619"></trkpt><trkpt lat="56.8353972" lon="9.8263889"></trkpt><trkpt lat="56.8353405" lon="9.8266308"></trkpt><trkpt lat="56.8352838" lon="9.8267937"></trkpt><trkpt lat="56.8352433" lon="9.8270208"></trkpt><trkpt lat="56.8351759" lon="9.8272189"></trkpt><trkpt lat="56.8351006" lon="9.8270916"></trkpt><trkpt lat="56.8348382" lon="9.827065"></trkpt><trkpt lat="56.8346291" lon="9.8269406"></trkpt><trkpt lat="56.8345021" lon="9.8268795"></trkpt><trkpt lat="56.8342163" lon="9.8268574"></trkpt><trkpt lat="56.8339667" lon="9.8268795"></trkpt><trkpt lat="56.8338621" lon="9.8268979"></trkpt><trkpt lat="56.8338419" lon="9.8268611"></trkpt><trkpt lat="56.8338087" lon="9.8268738"></trkpt><trkpt lat="56.8337706" lon="9.8267029"></trkpt><trkpt lat="56.8336595" lon="9.8265506"></trkpt><trkpt lat="56.8335013" lon="9.8264694"></trkpt><trkpt lat="56.8333986" lon="9.8264491"></trkpt><trkpt lat="56.8330543" lon="9.8266575"></trkpt><trkpt lat="56.8330008" lon="9.8266978"></trkpt><trkpt lat="56.8329398" lon="9.8267438"></trkpt><trkpt lat="56.832787" lon="9.8268303"></trkpt><trkpt lat="56.8327118" lon="9.8268574"></trkpt><trkpt lat="56.8326782" lon="9.826713"></trkpt><trkpt lat="56.8326625" lon="9.8266337"></trkpt><trkpt lat="56.8326538" lon="9.8265899"></trkpt><trkpt lat="56.8325645" lon="9.8264214"></trkpt><trkpt lat="56.8325468" lon="9.8262342"></trkpt><trkpt lat="56.8324867" lon="9.8260234"></trkpt><trkpt lat="56.8325261" lon="9.8259678"></trkpt><trkpt lat="56.8325754" lon="9.825883"></trkpt><trkpt lat="56.8326056" lon="9.8257974"></trkpt><trkpt lat="56.8326261" lon="9.8256665"></trkpt><trkpt lat="56.8326397" lon="9.8254048"></trkpt><trkpt lat="56.8326554" lon="9.8252316"></trkpt><trkpt lat="56.8326823" lon="9.8250404"></trkpt><trkpt lat="56.832729" lon="9.8248761"></trkpt><trkpt lat="56.8327775" lon="9.8247604"></trkpt><trkpt lat="56.8328575" lon="9.8246317"></trkpt><trkpt lat="56.8329369" lon="9.8245441"></trkpt><trkpt lat="56.8330218" lon="9.8244815"></trkpt><trkpt lat="56.833264" lon="9.8244027"></trkpt><trkpt lat="56.8334559" lon="9.8243532"></trkpt><trkpt lat="56.833556" lon="9.8243313"></trkpt><trkpt lat="56.8336506" lon="9.8243056"></trkpt><trkpt lat="56.8337418" lon="9.8242601"></trkpt><trkpt lat="56.8337286" lon="9.8242091"></trkpt><trkpt lat="56.8337222" lon="9.8241448"></trkpt><trkpt lat="56.833731" lon="9.8240734"></trkpt><trkpt lat="56.8337377" lon="9.823964"></trkpt><trkpt lat="56.8337214" lon="9.8239029"></trkpt><trkpt lat="56.8337263" lon="9.823795"></trkpt><trkpt lat="56.833756" lon="9.823618"></trkpt><trkpt lat="56.8337989" lon="9.8234725"></trkpt><trkpt lat="56.8339266" lon="9.8233075"></trkpt><trkpt lat="56.8340154" lon="9.8232432"></trkpt><trkpt lat="56.834132" lon="9.8232311"></trkpt><trkpt lat="56.8343507" lon="9.8233549"></trkpt><trkpt lat="56.8343893" lon="9.8230181"></trkpt><trkpt lat="56.8344285" lon="9.8227237"></trkpt><trkpt lat="56.8343178" lon="9.8224692"></trkpt><trkpt lat="56.8342583" lon="9.8223425"></trkpt><trkpt lat="56.834176" lon="9.8221845"></trkpt><trkpt lat="56.8340961" lon="9.8220459"></trkpt><trkpt lat="56.8339581" lon="9.8218249"></trkpt><trkpt lat="56.8339251" lon="9.8217897"></trkpt><trkpt lat="56.833237" lon="9.821428"></trkpt><trkpt lat="56.8322304" lon="9.820935"></trkpt><trkpt lat="56.8320045" lon="9.8210074"></trkpt><trkpt lat="56.8319122" lon="9.8210827"></trkpt><trkpt lat="56.8318677" lon="9.821161"></trkpt><trkpt lat="56.8318411" lon="9.8211884"></trkpt><trkpt lat="56.8317905" lon="9.8212406"></trkpt><trkpt lat="56.8316364" lon="9.821333"></trkpt><trkpt lat="56.8313707" lon="9.8214791"></trkpt><trkpt lat="56.8313348" lon="9.8214761"></trkpt><trkpt lat="56.8312296" lon="9.8215327"></trkpt><trkpt lat="56.8311212" lon="9.8215238"></trkpt><trkpt lat="56.8309076" lon="9.8214895"></trkpt><trkpt lat="56.8308269" lon="9.8215267"></trkpt><trkpt lat="56.8307249" lon="9.8216013"></trkpt><trkpt lat="56.8306894" lon="9.8216609"></trkpt><trkpt lat="56.8306655" lon="9.8217009"></trkpt><trkpt lat="56.830527" lon="9.8216922"></trkpt><trkpt lat="56.8304082" lon="9.8219253"></trkpt><trkpt lat="56.8303347" lon="9.8220735"></trkpt><trkpt lat="56.8302054" lon="9.8218319"></trkpt><trkpt lat="56.8299728" lon="9.8213632"></trkpt><trkpt lat="56.8297178" lon="9.8208689"></trkpt><trkpt lat="56.8295847" lon="9.8206307"></trkpt><trkpt lat="56.8295149" lon="9.8204672"></trkpt><trkpt lat="56.8294643" lon="9.8204242"></trkpt><trkpt lat="56.8293806" lon="9.820333"></trkpt><trkpt lat="56.8293131" lon="9.8202271"></trkpt><trkpt lat="56.8292361" lon="9.8201238"></trkpt><trkpt lat="56.8291862" lon="9.8200635"></trkpt><trkpt lat="56.8291304" lon="9.8200232"></trkpt><trkpt lat="56.8290768" lon="9.8199978"></trkpt><trkpt lat="56.8290453" lon="9.8199936"></trkpt><trkpt lat="56.8290269" lon="9.8199911"></trkpt><trkpt lat="56.828958" lon="9.8200004"></trkpt><trkpt lat="56.8288993" lon="9.8200259"></trkpt><trkpt lat="56.8287444" lon="9.8201118"></trkpt><trkpt lat="56.8286757" lon="9.8201481"></trkpt><trkpt lat="56.8286328" lon="9.8202091"></trkpt><trkpt lat="56.8285875" lon="9.8202783"></trkpt><trkpt lat="56.8285638" lon="9.8202752"></trkpt><trkpt lat="56.8285531" lon="9.8202304"></trkpt><trkpt lat="56.8285584" lon="9.8201507"></trkpt><trkpt lat="56.8285523" lon="9.8200599"></trkpt><trkpt lat="56.8285247" lon="9.8199354"></trkpt><trkpt lat="56.8284857" lon="9.8198376"></trkpt><trkpt lat="56.8284322" lon="9.8197369"></trkpt><trkpt lat="56.8283473" lon="9.8197034"></trkpt><trkpt lat="56.8281591" lon="9.8196474"></trkpt><trkpt lat="56.8280444" lon="9.8196418"></trkpt><trkpt lat="56.8279365" lon="9.8195985"></trkpt><trkpt lat="56.8278738" lon="9.8195775"></trkpt><trkpt lat="56.8278371" lon="9.8195146"></trkpt><trkpt lat="56.8278455" lon="9.8193832"></trkpt><trkpt lat="56.8278577" lon="9.8192342"></trkpt><trkpt lat="56.8269938" lon="9.8191971"></trkpt><trkpt lat="56.8269048" lon="9.8191933"></trkpt><trkpt lat="56.8263726" lon="9.8191705"></trkpt><trkpt lat="56.8256798" lon="9.8191523"></trkpt><trkpt lat="56.825663" lon="9.8190379"></trkpt><trkpt lat="56.8256584" lon="9.8188729"></trkpt><trkpt lat="56.8256791" lon="9.8187681"></trkpt><trkpt lat="56.8257081" lon="9.818687"></trkpt><trkpt lat="56.8257938" lon="9.8186171"></trkpt><trkpt lat="56.825917" lon="9.8184968"></trkpt><trkpt lat="56.8259973" lon="9.8184255"></trkpt><trkpt lat="56.8260524" lon="9.8183402"></trkpt><trkpt lat="56.8260524" lon="9.8182256"></trkpt><trkpt lat="56.8260424" lon="9.8181445"></trkpt><trkpt lat="56.8260365" lon="9.8180683"></trkpt><trkpt lat="56.8259991" lon="9.8179349"></trkpt><trkpt lat="56.8259088" lon="9.8179253"></trkpt><trkpt lat="56.8258404" lon="9.8179403"></trkpt><trkpt lat="56.8257268" lon="9.8178153"></trkpt><trkpt lat="56.8257195" lon="9.817758"></trkpt><trkpt lat="56.8257943" lon="9.8175288"></trkpt><trkpt lat="56.8258305" lon="9.8173039"></trkpt><trkpt lat="56.8258715" lon="9.8170395"></trkpt><trkpt lat="56.8258956" lon="9.8168587"></trkpt><trkpt lat="56.8259704" lon="9.8166912"></trkpt><trkpt lat="56.8260596" lon="9.8165457"></trkpt><trkpt lat="56.8261199" lon="9.81644"></trkpt><trkpt lat="56.8261537" lon="9.8162813"></trkpt><trkpt lat="56.8261682" lon="9.8161182"></trkpt><trkpt lat="56.8261802" lon="9.8157391"></trkpt><trkpt lat="56.8261754" lon="9.815479"></trkpt><trkpt lat="56.8261537" lon="9.8151969"></trkpt><trkpt lat="56.8261223" lon="9.8149544"></trkpt><trkpt lat="56.8261151" lon="9.8148574"></trkpt><trkpt lat="56.8260958" lon="9.8147605"></trkpt><trkpt lat="56.826262" lon="9.8145501"></trkpt><trkpt lat="56.8264861" lon="9.8143558"></trkpt><trkpt lat="56.8266399" lon="9.8142915"></trkpt><trkpt lat="56.8267852" lon="9.8142314"></trkpt><trkpt lat="56.8268503" lon="9.8142132"></trkpt><trkpt lat="56.8269543" lon="9.8141964"></trkpt><trkpt lat="56.8270308" lon="9.8142188"></trkpt><trkpt lat="56.827105" lon="9.8142439"></trkpt><trkpt lat="56.8271461" lon="9.8141591"></trkpt><trkpt lat="56.8271823" lon="9.8140989"></trkpt><trkpt lat="56.8269942" lon="9.8137949"></trkpt><trkpt lat="56.8268901" lon="9.8136266"></trkpt><trkpt lat="56.8267336" lon="9.8133989"></trkpt><trkpt lat="56.8266482" lon="9.8132742"></trkpt><trkpt lat="56.8266948" lon="9.813133"></trkpt><trkpt lat="56.8265859" lon="9.8130463"></trkpt><trkpt lat="56.8263126" lon="9.8127419"></trkpt><trkpt lat="56.8260954" lon="9.8124924"></trkpt><trkpt lat="56.825909" lon="9.8122403"></trkpt><trkpt lat="56.8257711" lon="9.8121545"></trkpt><trkpt lat="56.8256859" lon="9.8121545"></trkpt><trkpt lat="56.8255597" lon="9.812125"></trkpt><trkpt lat="56.8254311" lon="9.8119421"></trkpt><trkpt lat="56.8254148" lon="9.8118974"></trkpt><trkpt lat="56.8253882" lon="9.8118421"></trkpt><trkpt lat="56.8253651" lon="9.8117841"></trkpt><trkpt lat="56.8253542" lon="9.8117553"></trkpt><trkpt lat="56.8251752" lon="9.8112886"></trkpt><trkpt lat="56.8249844" lon="9.8107522"></trkpt><trkpt lat="56.8249227" lon="9.8104464"></trkpt><trkpt lat="56.8249057" lon="9.8103154"></trkpt><trkpt lat="56.8249139" lon="9.8101567"></trkpt><trkpt lat="56.824958" lon="9.8096524"></trkpt><trkpt lat="56.8249831" lon="9.8092868"></trkpt><trkpt lat="56.8249571" lon="9.8089558"></trkpt><trkpt lat="56.8249404" lon="9.8089014"></trkpt><trkpt lat="56.8249022" lon="9.808806"></trkpt><trkpt lat="56.8248394" lon="9.8087148"></trkpt><trkpt lat="56.8247222" lon="9.8086103"></trkpt><trkpt lat="56.8246027" lon="9.808515"></trkpt><trkpt lat="56.8245175" lon="9.8083899"></trkpt><trkpt lat="56.8244086" lon="9.8082439"></trkpt><trkpt lat="56.8243114" lon="9.8081559"></trkpt><trkpt lat="56.824283" lon="9.807947"></trkpt><trkpt lat="56.824248" lon="9.8076815"></trkpt><trkpt lat="56.8242268" lon="9.8075541"></trkpt><trkpt lat="56.8241502" lon="9.8072434"></trkpt><trkpt lat="56.8240892" lon="9.8070202"></trkpt><trkpt lat="56.8239857" lon="9.8066419"></trkpt><trkpt lat="56.823865" lon="9.8063757"></trkpt><trkpt lat="56.8237934" lon="9.806162"></trkpt><trkpt lat="56.8238055" lon="9.8060418"></trkpt><trkpt lat="56.8243326" lon="9.8047961"></trkpt><trkpt lat="56.824615" lon="9.8041165"></trkpt><trkpt lat="56.8248676" lon="9.80349"></trkpt><trkpt lat="56.8250363" lon="9.8028994"></trkpt><trkpt lat="56.824712" lon="9.8025218"></trkpt><trkpt lat="56.8247311" lon="9.8024971"></trkpt><trkpt lat="56.82474" lon="9.8024577"></trkpt><trkpt lat="56.8247209" lon="9.8023321"></trkpt><trkpt lat="56.8246922" lon="9.8022239"></trkpt><trkpt lat="56.8246447" lon="9.8021447"></trkpt><trkpt lat="56.8246362" lon="9.8020679"></trkpt><trkpt lat="56.8246428" lon="9.8019803"></trkpt><trkpt lat="56.8246782" lon="9.8019392"></trkpt><trkpt lat="56.8247158" lon="9.8019277"></trkpt><trkpt lat="56.8248939" lon="9.8019194"></trkpt><trkpt lat="56.8249576" lon="9.8019638"></trkpt><trkpt lat="56.8249729" lon="9.8020403"></trkpt><trkpt lat="56.8250121" lon="9.802198"></trkpt><trkpt lat="56.8251247" lon="9.8022141"></trkpt><trkpt lat="56.8252201" lon="9.8022912"></trkpt><trkpt lat="56.8252325" lon="9.8022948"></trkpt><trkpt lat="56.8252345" lon="9.802282"></trkpt><trkpt lat="56.8251464" lon="9.8020127"></trkpt><trkpt lat="56.8251474" lon="9.8019669"></trkpt><trkpt lat="56.8251722" lon="9.8019415"></trkpt><trkpt lat="56.8252493" lon="9.8019637"></trkpt><trkpt lat="56.8252823" lon="9.8019848"></trkpt><trkpt lat="56.8253142" lon="9.8019837"></trkpt><trkpt lat="56.8253503" lon="9.8019379"></trkpt><trkpt lat="56.8254997" lon="9.8014703"></trkpt><trkpt lat="56.8254095" lon="9.8013378"></trkpt><trkpt lat="56.825337" lon="9.8012346"></trkpt><trkpt lat="56.8253067" lon="9.8010944"></trkpt><trkpt lat="56.8252979" lon="9.8008516"></trkpt><trkpt lat="56.8252871" lon="9.8006551"></trkpt><trkpt lat="56.8252655" lon="9.800298"></trkpt><trkpt lat="56.8252603" lon="9.7998304"></trkpt><trkpt lat="56.8252436" lon="9.7992689"></trkpt><trkpt lat="56.8252641" lon="9.7991261"></trkpt><trkpt lat="56.8254341" lon="9.798897"></trkpt><trkpt lat="56.825629" lon="9.7986663"></trkpt><trkpt lat="56.8257382" lon="9.7985661"></trkpt><trkpt lat="56.8257634" lon="9.7984071"></trkpt><trkpt lat="56.8257765" lon="9.7982075"></trkpt><trkpt lat="56.8258044" lon="9.7980589"></trkpt><trkpt lat="56.8258713" lon="9.7975445"></trkpt><trkpt lat="56.8259524" lon="9.7972352"></trkpt><trkpt lat="56.8259345" lon="9.7971215"></trkpt><trkpt lat="56.8259265" lon="9.7969994"></trkpt><trkpt lat="56.8259281" lon="9.7968891"></trkpt><trkpt lat="56.8259614" lon="9.7967916"></trkpt><trkpt lat="56.8260194" lon="9.7967691"></trkpt><trkpt lat="56.8260841" lon="9.7967782"></trkpt><trkpt lat="56.8262575" lon="9.7966662"></trkpt><trkpt lat="56.8263936" lon="9.796611"></trkpt><trkpt lat="56.8265029" lon="9.7965153"></trkpt><trkpt lat="56.8265553" lon="9.7964751"></trkpt><trkpt lat="56.8267836" lon="9.7962253"></trkpt><trkpt lat="56.8270324" lon="9.7959825"></trkpt><trkpt lat="56.8271021" lon="9.7959638"></trkpt><trkpt lat="56.8271894" lon="9.7960161"></trkpt><trkpt lat="56.8272569" lon="9.7961086"></trkpt><trkpt lat="56.8272885" lon="9.796228"></trkpt><trkpt lat="56.8272929" lon="9.7964077"></trkpt><trkpt lat="56.8272841" lon="9.7966866"></trkpt><trkpt lat="56.8273009" lon="9.7968489"></trkpt><trkpt lat="56.827356" lon="9.7970863"></trkpt><trkpt lat="56.8274201" lon="9.7974762"></trkpt><trkpt lat="56.8273758" lon="9.7975181"></trkpt><trkpt lat="56.8273204" lon="9.797556"></trkpt><trkpt lat="56.8272886" lon="9.7975712"></trkpt><trkpt lat="56.8273059" lon="9.797848"></trkpt><trkpt lat="56.8273266" lon="9.7981537"></trkpt><trkpt lat="56.8273505" lon="9.7983715"></trkpt><trkpt lat="56.8273643" lon="9.7985335"></trkpt><trkpt lat="56.8273345" lon="9.79868"></trkpt><trkpt lat="56.8273048" lon="9.7987584"></trkpt><trkpt lat="56.8274122" lon="9.7988272"></trkpt><trkpt lat="56.8274466" lon="9.798833"></trkpt><trkpt lat="56.8274888" lon="9.7988219"></trkpt><trkpt lat="56.8278576" lon="9.7987206"></trkpt><trkpt lat="56.8281135" lon="9.7986732"></trkpt><trkpt lat="56.8283201" lon="9.798631"></trkpt><trkpt lat="56.8285376" lon="9.7985866"></trkpt><trkpt lat="56.828738" lon="9.7985472"></trkpt><trkpt lat="56.8288342" lon="9.7985536"></trkpt><trkpt lat="56.8289107" lon="9.7985872"></trkpt><trkpt lat="56.8289559" lon="9.7986234"></trkpt><trkpt lat="56.8290057" lon="9.7986405"></trkpt><trkpt lat="56.8291461" lon="9.7998291"></trkpt><trkpt lat="56.8293755" lon="9.801354"></trkpt><trkpt lat="56.8294587" lon="9.8023153"></trkpt><trkpt lat="56.8295985" lon="9.8039142"></trkpt><trkpt lat="56.829719" lon="9.8050647"></trkpt><trkpt lat="56.8297421" lon="9.8053617"></trkpt><trkpt lat="56.8297489" lon="9.8054313"></trkpt><trkpt lat="56.8301927" lon="9.8057842"></trkpt><trkpt lat="56.8305597" lon="9.8060592"></trkpt><trkpt lat="56.8306802" lon="9.8061645"></trkpt><trkpt lat="56.8307069" lon="9.8062541"></trkpt><trkpt lat="56.8306493" lon="9.8064881"></trkpt><trkpt lat="56.830453" lon="9.8071297"></trkpt><trkpt lat="56.8303687" lon="9.8073676"></trkpt><trkpt lat="56.8302646" lon="9.8074748"></trkpt><trkpt lat="56.8301752" lon="9.80779"></trkpt><trkpt lat="56.8301664" lon="9.8078155"></trkpt><trkpt lat="56.8301449" lon="9.8079405"></trkpt><trkpt lat="56.829821" lon="9.8081106"></trkpt><trkpt lat="56.8297065" lon="9.8082354"></trkpt><trkpt lat="56.8297693" lon="9.8085489"></trkpt><trkpt lat="56.8300512" lon="9.8094896"></trkpt><trkpt lat="56.8301887" lon="9.809875"></trkpt><trkpt lat="56.8303918" lon="9.8102661"></trkpt><trkpt lat="56.8305089" lon="9.8104574"></trkpt><trkpt lat="56.830594" lon="9.8105973"></trkpt><trkpt lat="56.8306148" lon="9.8107109"></trkpt><trkpt lat="56.8305243" lon="9.8109352"></trkpt><trkpt lat="56.8305181" lon="9.8110863"></trkpt><trkpt lat="56.8305745" lon="9.8114344"></trkpt><trkpt lat="56.8305532" lon="9.8116337"></trkpt><trkpt lat="56.8304667" lon="9.8117871"></trkpt><trkpt lat="56.8300908" lon="9.8120986"></trkpt><trkpt lat="56.8300525" lon="9.8122588"></trkpt><trkpt lat="56.8300696" lon="9.8123787"></trkpt><trkpt lat="56.8301271" lon="9.8124126"></trkpt><trkpt lat="56.8301774" lon="9.8124303"></trkpt><trkpt lat="56.8303642" lon="9.8124515"></trkpt><trkpt lat="56.8305072" lon="9.8124402"></trkpt><trkpt lat="56.8306306" lon="9.81246"></trkpt><trkpt lat="56.830664" lon="9.8124616"></trkpt><trkpt lat="56.8308026" lon="9.8124648"></trkpt><trkpt lat="56.8309733" lon="9.8124057"></trkpt><trkpt lat="56.8311662" lon="9.8124015"></trkpt><trkpt lat="56.8315499" lon="9.8122341"></trkpt><trkpt lat="56.8318024" lon="9.8123387"></trkpt></trkseg></trk></gpx>
