<?xml version="1.0" encoding="UTF-8"?>
<gpx version="1.1" creator="Good Shit" xmlns="http://www.topografix.com/GPX/1/1"><trk><name>Rago to Grisryggen and Litlverivassfossen viewpoint — Rago and Litlverivassfossen viewpoint return</name><trkseg><trkpt lat="67.44177161000448" lon="15.743104886157193"></trkpt><trkpt lat="67.44177161000448" lon="15.74310488615719"></trkpt><trkpt lat="67.4417916" lon="15.7431448"></trkpt><trkpt lat="67.4417497" lon="15.7432765"></trkpt><trkpt lat="67.4417264" lon="15.743361"></trkpt><trkpt lat="67.4417249" lon="15.7435425"></trkpt><trkpt lat="67.4418236" lon="15.7441625"></trkpt><trkpt lat="67.4418897" lon="15.744567"></trkpt><trkpt lat="67.4419101" lon="15.7448199"></trkpt><trkpt lat="67.4419213" lon="15.7451226"></trkpt><trkpt lat="67.4419228" lon="15.7454562"></trkpt><trkpt lat="67.4419079" lon="15.7456883"></trkpt><trkpt lat="67.4418454" lon="15.7464159"></trkpt><trkpt lat="67.4418474" lon="15.7467262"></trkpt><trkpt lat="67.4418927" lon="15.7470388"></trkpt><trkpt lat="67.4419699" lon="15.7474498"></trkpt><trkpt lat="67.44198374728813" lon="15.747637602775448"></trkpt><trkpt lat="67.44198374728813" lon="15.747637602775447"></trkpt><trkpt lat="67.44198374728813" lon="15.747637602775448"></trkpt><trkpt lat="67.4420508" lon="15.748547"></trkpt><trkpt lat="67.4420599" lon="15.7491873"></trkpt><trkpt lat="67.4421702" lon="15.7501371"></trkpt><trkpt lat="67.44221521319069" lon="15.75228109988603"></trkpt><trkpt lat="67.4422181" lon="15.7524186"></trkpt><trkpt lat="67.4422372" lon="15.7524733"></trkpt><trkpt lat="67.4422762" lon="15.7525854"></trkpt><trkpt lat="67.4423312" lon="15.7527342"></trkpt><trkpt lat="67.4424879" lon="15.7533675"></trkpt><trkpt lat="67.4425038" lon="15.7533866"></trkpt><trkpt lat="67.4425987" lon="15.7535004"></trkpt><trkpt lat="67.4427025" lon="15.7531468"></trkpt><trkpt lat="67.4428346" lon="15.7524832"></trkpt><trkpt lat="67.4428201" lon="15.7521523"></trkpt><trkpt lat="67.4428313" lon="15.7519738"></trkpt><trkpt lat="67.4429393" lon="15.7517697"></trkpt><trkpt lat="67.4430337" lon="15.751752"></trkpt><trkpt lat="67.4431125" lon="15.7520602"></trkpt><trkpt lat="67.44320525529146" lon="15.75199488444074"></trkpt><trkpt lat="67.4432156" lon="15.7519876"></trkpt><trkpt lat="67.4432916" lon="15.7516242"></trkpt><trkpt lat="67.4433754" lon="15.7505586"></trkpt><trkpt lat="67.443454" lon="15.7503768"></trkpt><trkpt lat="67.4435299" lon="15.7504064"></trkpt><trkpt lat="67.4437401" lon="15.7509319"></trkpt><trkpt lat="67.443793" lon="15.7512859"></trkpt><trkpt lat="67.4437895" lon="15.7515009"></trkpt><trkpt lat="67.4439433330443" lon="15.75300745341242"></trkpt><trkpt lat="67.4439433330443" lon="15.753007453412417"></trkpt><trkpt lat="67.4439433330443" lon="15.75300745341242"></trkpt><trkpt lat="67.4439996" lon="15.7535585"></trkpt><trkpt lat="67.4439759" lon="15.7540147"></trkpt><trkpt lat="67.4439732" lon="15.754531"></trkpt><trkpt lat="67.4441066" lon="15.7554369"></trkpt><trkpt lat="67.4442397" lon="15.7557253"></trkpt><trkpt lat="67.4446087" lon="15.7561397"></trkpt><trkpt lat="67.44474546998097" lon="15.756752097813445"></trkpt><trkpt lat="67.44474546998097" lon="15.756752097813441"></trkpt><trkpt lat="67.44474546998097" lon="15.756752097813445"></trkpt><trkpt lat="67.4448495" lon="15.7572179"></trkpt><trkpt lat="67.4449358" lon="15.7579368"></trkpt><trkpt lat="67.4452156" lon="15.7593713"></trkpt><trkpt lat="67.44508303804412" lon="15.761090767610028"></trkpt><trkpt lat="67.44508303804412" lon="15.76109076761003"></trkpt><trkpt lat="67.44508303804412" lon="15.761090767610028"></trkpt><trkpt lat="67.4450049" lon="15.7621043"></trkpt><trkpt lat="67.4449983" lon="15.7624773"></trkpt><trkpt lat="67.4454727" lon="15.7634508"></trkpt><trkpt lat="67.4454973" lon="15.7638176"></trkpt><trkpt lat="67.4452996" lon="15.7641521"></trkpt><trkpt lat="67.4450458" lon="15.7638591"></trkpt><trkpt lat="67.44502189329627" lon="15.763893555254539"></trkpt><trkpt lat="67.44502189329627" lon="15.76389355525454"></trkpt><trkpt lat="67.44502189329627" lon="15.763893555254539"></trkpt><trkpt lat="67.4448552" lon="15.7641338"></trkpt><trkpt lat="67.444621" lon="15.7651949"></trkpt><trkpt lat="67.4444029" lon="15.7654255"></trkpt><trkpt lat="67.4441533" lon="15.7654981"></trkpt><trkpt lat="67.4437871" lon="15.7656047"></trkpt><trkpt lat="67.44372126790687" lon="15.766349476771405"></trkpt><trkpt lat="67.44372126790687" lon="15.766349476771403"></trkpt><trkpt lat="67.44372126790687" lon="15.766349476771405"></trkpt><trkpt lat="67.4435943" lon="15.7677859"></trkpt><trkpt lat="67.4435945" lon="15.7685907"></trkpt><trkpt lat="67.4437649" lon="15.7696166"></trkpt><trkpt lat="67.44388583140265" lon="15.770909350998942"></trkpt><trkpt lat="67.44388583140265" lon="15.77090935099894"></trkpt><trkpt lat="67.44388583140265" lon="15.770909350998942"></trkpt><trkpt lat="67.4438923" lon="15.7709785"></trkpt><trkpt lat="67.4436149" lon="15.7725601"></trkpt><trkpt lat="67.4436235" lon="15.7735496"></trkpt><trkpt lat="67.4434749" lon="15.7751083"></trkpt><trkpt lat="67.44341398171618" lon="15.77530063481701"></trkpt><trkpt lat="67.44341398171618" lon="15.775300634817006"></trkpt><trkpt lat="67.44341398171618" lon="15.77530063481701"></trkpt><trkpt lat="67.4431436" lon="15.7761543"></trkpt><trkpt lat="67.4429182" lon="15.7762298"></trkpt><trkpt lat="67.4427835" lon="15.7768674"></trkpt><trkpt lat="67.4429688" lon="15.7787216"></trkpt><trkpt lat="67.4429522" lon="15.7790403"></trkpt><trkpt lat="67.44294386648977" lon="15.779055075482443"></trkpt><trkpt lat="67.44294386648977" lon="15.77905507548244"></trkpt><trkpt lat="67.44294386648977" lon="15.779055075482443"></trkpt><trkpt lat="67.442735" lon="15.7794254"></trkpt><trkpt lat="67.4427158" lon="15.7798195"></trkpt><trkpt lat="67.4425992" lon="15.7801127"></trkpt><trkpt lat="67.4425249" lon="15.7801541"></trkpt><trkpt lat="67.4419979" lon="15.7815191"></trkpt><trkpt lat="67.4418533" lon="15.7822698"></trkpt><trkpt lat="67.44177950130667" lon="15.78247296855463"></trkpt><trkpt lat="67.44177950130667" lon="15.782472968554629"></trkpt><trkpt lat="67.44177950130667" lon="15.78247296855463"></trkpt><trkpt lat="67.4415294" lon="15.7831615"></trkpt><trkpt lat="67.4414216" lon="15.7842385"></trkpt><trkpt lat="67.4412871" lon="15.784429"></trkpt><trkpt lat="67.44063" lon="15.7837599"></trkpt><trkpt lat="67.44057571869294" lon="15.783792618019888"></trkpt><trkpt lat="67.4402008" lon="15.7840186"></trkpt><trkpt lat="67.4401184" lon="15.7842653"></trkpt><trkpt lat="67.4399785" lon="15.7843511"></trkpt><trkpt lat="67.4397419" lon="15.7842975"></trkpt><trkpt lat="67.4394948" lon="15.7844161"></trkpt><trkpt lat="67.4390458" lon="15.7841772"></trkpt><trkpt lat="67.43886420146183" lon="15.783965608344678"></trkpt><trkpt lat="67.43886420146183" lon="15.783965608344673"></trkpt><trkpt lat="67.43886420146183" lon="15.783965608344678"></trkpt><trkpt lat="67.4387025" lon="15.7837772"></trkpt><trkpt lat="67.438155" lon="15.7844799"></trkpt><trkpt lat="67.4373967" lon="15.7841002"></trkpt><trkpt lat="67.4372946" lon="15.7842492"></trkpt><trkpt lat="67.4371070330703" lon="15.784324042708096"></trkpt><trkpt lat="67.4366628" lon="15.7845013"></trkpt><trkpt lat="67.4366109" lon="15.7846606"></trkpt><trkpt lat="67.4364178" lon="15.7847804"></trkpt><trkpt lat="67.4362304" lon="15.7850412"></trkpt><trkpt lat="67.4360871" lon="15.7850753"></trkpt><trkpt lat="67.4359881" lon="15.7854371"></trkpt><trkpt lat="67.4360703" lon="15.786099"></trkpt><trkpt lat="67.4360349" lon="15.7863253"></trkpt><trkpt lat="67.436058" lon="15.7865886"></trkpt><trkpt lat="67.4360432" lon="15.7868065"></trkpt><trkpt lat="67.43602033773973" lon="15.786831840854829"></trkpt><trkpt lat="67.43602033773973" lon="15.78683184085483"></trkpt><trkpt lat="67.43602033773973" lon="15.786831840854829"></trkpt><trkpt lat="67.4359814" lon="15.786875"></trkpt><trkpt lat="67.4360183" lon="15.7874094"></trkpt><trkpt lat="67.4361193" lon="15.7876378"></trkpt><trkpt lat="67.4360996" lon="15.7879538"></trkpt><trkpt lat="67.4359205" lon="15.7883751"></trkpt><trkpt lat="67.4359102" lon="15.7888723"></trkpt><trkpt lat="67.4359737" lon="15.7890315"></trkpt><trkpt lat="67.4358467" lon="15.7899827"></trkpt><trkpt lat="67.4357739" lon="15.7900041"></trkpt><trkpt lat="67.4356603" lon="15.7904129"></trkpt><trkpt lat="67.4355585" lon="15.7908775"></trkpt><trkpt lat="67.43551850306304" lon="15.790931970674086"></trkpt><trkpt lat="67.43551850306304" lon="15.790931970674091"></trkpt><trkpt lat="67.43551850306304" lon="15.790931970674086"></trkpt><trkpt lat="67.4354452" lon="15.7910318"></trkpt><trkpt lat="67.4353512" lon="15.7909455"></trkpt><trkpt lat="67.435198" lon="15.7915051"></trkpt><trkpt lat="67.4351045" lon="15.7919525"></trkpt><trkpt lat="67.4349425" lon="15.7921643"></trkpt><trkpt lat="67.434748" lon="15.7922547"></trkpt><trkpt lat="67.4347131" lon="15.7925361"></trkpt><trkpt lat="67.4346091" lon="15.7925485"></trkpt><trkpt lat="67.43454" lon="15.7924818"></trkpt><trkpt lat="67.434414" lon="15.7933744"></trkpt><trkpt lat="67.4344584" lon="15.7937773"></trkpt><trkpt lat="67.43444480840326" lon="15.793815140624181"></trkpt><trkpt lat="67.43444480840326" lon="15.793815140624188"></trkpt><trkpt lat="67.43444480840326" lon="15.793815140624181"></trkpt><trkpt lat="67.4343778" lon="15.7940017"></trkpt><trkpt lat="67.4344128" lon="15.7945007"></trkpt><trkpt lat="67.4343676" lon="15.7950585"></trkpt><trkpt lat="67.4344061" lon="15.7965471"></trkpt><trkpt lat="67.4343205" lon="15.7978188"></trkpt><trkpt lat="67.43436434768996" lon="15.798431157839596"></trkpt><trkpt lat="67.43436434768996" lon="15.798431157839598"></trkpt><trkpt lat="67.43436434768996" lon="15.798431157839596"></trkpt><trkpt lat="67.4343902" lon="15.7987922"></trkpt><trkpt lat="67.434403" lon="15.8010704"></trkpt><trkpt lat="67.4342066" lon="15.80222"></trkpt><trkpt lat="67.43416802135972" lon="15.802975596418381"></trkpt><trkpt lat="67.4341443" lon="15.8034402"></trkpt><trkpt lat="67.4341947" lon="15.8037006"></trkpt><trkpt lat="67.4340981" lon="15.8039615"></trkpt><trkpt lat="67.4341287" lon="15.8045996"></trkpt><trkpt lat="67.4342667" lon="15.8053529"></trkpt><trkpt lat="67.4342148" lon="15.8059031"></trkpt><trkpt lat="67.4342855" lon="15.8065129"></trkpt><trkpt lat="67.43429525882402" lon="15.807466150235703"></trkpt><trkpt lat="67.4342996" lon="15.8078902"></trkpt><trkpt lat="67.4342358" lon="15.8090972"></trkpt><trkpt lat="67.4343264" lon="15.8095571"></trkpt><trkpt lat="67.434281" lon="15.8096397"></trkpt><trkpt lat="67.4342164" lon="15.8095105"></trkpt><trkpt lat="67.4341973" lon="15.8096742"></trkpt><trkpt lat="67.4342357" lon="15.8099522"></trkpt><trkpt lat="67.4342057" lon="15.8105588"></trkpt><trkpt lat="67.4342473" lon="15.8107616"></trkpt><trkpt lat="67.43407496764462" lon="15.81210284762783"></trkpt><trkpt lat="67.43407496764462" lon="15.812102847627832"></trkpt><trkpt lat="67.43407496764462" lon="15.81210284762783"></trkpt><trkpt lat="67.4340612" lon="15.81221"></trkpt><trkpt lat="67.4341" lon="15.8124982"></trkpt><trkpt lat="67.4340512" lon="15.81298"></trkpt><trkpt lat="67.4338816" lon="15.8137869"></trkpt><trkpt lat="67.4339559" lon="15.8143329"></trkpt><trkpt lat="67.4338329" lon="15.8159772"></trkpt><trkpt lat="67.43373846186581" lon="15.816664464063393"></trkpt><trkpt lat="67.43373846186581" lon="15.816664464063392"></trkpt><trkpt lat="67.43373846186581" lon="15.816664464063393"></trkpt><trkpt lat="67.4337006" lon="15.81694"></trkpt><trkpt lat="67.4333451" lon="15.8181467"></trkpt><trkpt lat="67.4334" lon="15.8188336"></trkpt><trkpt lat="67.4335092" lon="15.8188286"></trkpt><trkpt lat="67.433622" lon="15.8194629"></trkpt><trkpt lat="67.433554" lon="15.8198565"></trkpt><trkpt lat="67.4335686" lon="15.8201107"></trkpt><trkpt lat="67.4337533" lon="15.8208933"></trkpt><trkpt lat="67.43375562094559" lon="15.820990368714016"></trkpt><trkpt lat="67.43375562094559" lon="15.820990368714018"></trkpt><trkpt lat="67.43375562094559" lon="15.820990368714016"></trkpt><trkpt lat="67.4337725" lon="15.8216963"></trkpt><trkpt lat="67.4336965" lon="15.8227819"></trkpt><trkpt lat="67.4337439" lon="15.8248062"></trkpt><trkpt lat="67.4336579" lon="15.8254774"></trkpt><trkpt lat="67.4336456754683" lon="15.825668553528251"></trkpt><trkpt lat="67.4336456754683" lon="15.82566855352825"></trkpt><trkpt lat="67.4336456754683" lon="15.825668553528251"></trkpt><trkpt lat="67.4335874" lon="15.8265798"></trkpt><trkpt lat="67.4334349" lon="15.8274254"></trkpt><trkpt lat="67.433398" lon="15.8284306"></trkpt><trkpt lat="67.433229" lon="15.8296034"></trkpt><trkpt lat="67.43320731728998" lon="15.830212978825148"></trkpt><trkpt lat="67.4331797" lon="15.8309894"></trkpt><trkpt lat="67.4331159" lon="15.8322769"></trkpt><trkpt lat="67.4331508" lon="15.8328596"></trkpt><trkpt lat="67.433122" lon="15.8333263"></trkpt><trkpt lat="67.4331427" lon="15.8340042"></trkpt><trkpt lat="67.43309083131345" lon="15.83480711721255"></trkpt><trkpt lat="67.43309083131345" lon="15.834807117212552"></trkpt><trkpt lat="67.43309083131345" lon="15.83480711721255"></trkpt><trkpt lat="67.4330808" lon="15.8349624"></trkpt><trkpt lat="67.4331036" lon="15.8358442"></trkpt><trkpt lat="67.4331033" lon="15.8362596"></trkpt><trkpt lat="67.433069" lon="15.836896"></trkpt><trkpt lat="67.4330499" lon="15.8371189"></trkpt><trkpt lat="67.433081" lon="15.8376627"></trkpt><trkpt lat="67.4331549" lon="15.8382455"></trkpt><trkpt lat="67.4332333" lon="15.8385747"></trkpt><trkpt lat="67.4332805" lon="15.8389536"></trkpt><trkpt lat="67.43329801336799" lon="15.839197088530856"></trkpt><trkpt lat="67.43329801336799" lon="15.839197088530854"></trkpt><trkpt lat="67.43329801336799" lon="15.839197088530856"></trkpt><trkpt lat="67.4332805" lon="15.8389536"></trkpt><trkpt lat="67.4332333" lon="15.8385747"></trkpt><trkpt lat="67.4331549" lon="15.8382455"></trkpt><trkpt lat="67.433081" lon="15.8376627"></trkpt><trkpt lat="67.4330499" lon="15.8371189"></trkpt><trkpt lat="67.433069" lon="15.836896"></trkpt><trkpt lat="67.4331033" lon="15.8362596"></trkpt><trkpt lat="67.4331036" lon="15.8358442"></trkpt><trkpt lat="67.4330808" lon="15.8349624"></trkpt><trkpt lat="67.43309083131345" lon="15.83480711721255"></trkpt><trkpt lat="67.43309083131345" lon="15.834807117212552"></trkpt><trkpt lat="67.43309083131345" lon="15.83480711721255"></trkpt><trkpt lat="67.4331427" lon="15.8340042"></trkpt><trkpt lat="67.433122" lon="15.8333263"></trkpt><trkpt lat="67.4331508" lon="15.8328596"></trkpt><trkpt lat="67.4331159" lon="15.8322769"></trkpt><trkpt lat="67.4331797" lon="15.8309894"></trkpt><trkpt lat="67.43320731728998" lon="15.830212978825148"></trkpt><trkpt lat="67.433229" lon="15.8296034"></trkpt><trkpt lat="67.433398" lon="15.8284306"></trkpt><trkpt lat="67.4334349" lon="15.8274254"></trkpt><trkpt lat="67.4335874" lon="15.8265798"></trkpt><trkpt lat="67.4336456754683" lon="15.825668553528251"></trkpt><trkpt lat="67.4336456754683" lon="15.82566855352825"></trkpt><trkpt lat="67.4336456754683" lon="15.825668553528251"></trkpt><trkpt lat="67.4336579" lon="15.8254774"></trkpt><trkpt lat="67.4337439" lon="15.8248062"></trkpt><trkpt lat="67.4336965" lon="15.8227819"></trkpt><trkpt lat="67.4337725" lon="15.8216963"></trkpt><trkpt lat="67.43375562094559" lon="15.820990368714016"></trkpt><trkpt lat="67.43375562094559" lon="15.820990368714018"></trkpt><trkpt lat="67.43375562094559" lon="15.820990368714016"></trkpt><trkpt lat="67.4337533" lon="15.8208933"></trkpt><trkpt lat="67.4335686" lon="15.8201107"></trkpt><trkpt lat="67.433554" lon="15.8198565"></trkpt><trkpt lat="67.433622" lon="15.8194629"></trkpt><trkpt lat="67.4335092" lon="15.8188286"></trkpt><trkpt lat="67.4334" lon="15.8188336"></trkpt><trkpt lat="67.4333451" lon="15.8181467"></trkpt><trkpt lat="67.4337006" lon="15.81694"></trkpt><trkpt lat="67.43373846186581" lon="15.816664464063393"></trkpt><trkpt lat="67.43373846186581" lon="15.816664464063392"></trkpt><trkpt lat="67.43373846186581" lon="15.816664464063393"></trkpt><trkpt lat="67.4338329" lon="15.8159772"></trkpt><trkpt lat="67.4339559" lon="15.8143329"></trkpt><trkpt lat="67.4338816" lon="15.8137869"></trkpt><trkpt lat="67.4340512" lon="15.81298"></trkpt><trkpt lat="67.4341" lon="15.8124982"></trkpt><trkpt lat="67.4340612" lon="15.81221"></trkpt><trkpt lat="67.43407496764462" lon="15.81210284762783"></trkpt><trkpt lat="67.43407496764462" lon="15.812102847627832"></trkpt><trkpt lat="67.43407496764462" lon="15.81210284762783"></trkpt><trkpt lat="67.4342473" lon="15.8107616"></trkpt><trkpt lat="67.4342057" lon="15.8105588"></trkpt><trkpt lat="67.4342357" lon="15.8099522"></trkpt><trkpt lat="67.4341973" lon="15.8096742"></trkpt><trkpt lat="67.4342164" lon="15.8095105"></trkpt><trkpt lat="67.434281" lon="15.8096397"></trkpt><trkpt lat="67.4343264" lon="15.8095571"></trkpt><trkpt lat="67.4342358" lon="15.8090972"></trkpt><trkpt lat="67.4342996" lon="15.8078902"></trkpt><trkpt lat="67.43429525882402" lon="15.807466150235703"></trkpt><trkpt lat="67.4342855" lon="15.8065129"></trkpt><trkpt lat="67.4342148" lon="15.8059031"></trkpt><trkpt lat="67.4342667" lon="15.8053529"></trkpt><trkpt lat="67.4341287" lon="15.8045996"></trkpt><trkpt lat="67.4340981" lon="15.8039615"></trkpt><trkpt lat="67.4341947" lon="15.8037006"></trkpt><trkpt lat="67.4341443" lon="15.8034402"></trkpt><trkpt lat="67.43416802135972" lon="15.802975596418381"></trkpt><trkpt lat="67.4342066" lon="15.80222"></trkpt><trkpt lat="67.434403" lon="15.8010704"></trkpt><trkpt lat="67.4343902" lon="15.7987922"></trkpt><trkpt lat="67.43436434768996" lon="15.798431157839596"></trkpt><trkpt lat="67.43436434768996" lon="15.798431157839598"></trkpt><trkpt lat="67.43436434768996" lon="15.798431157839596"></trkpt><trkpt lat="67.4343205" lon="15.7978188"></trkpt><trkpt lat="67.4344061" lon="15.7965471"></trkpt><trkpt lat="67.4343676" lon="15.7950585"></trkpt><trkpt lat="67.4344128" lon="15.7945007"></trkpt><trkpt lat="67.4343778" lon="15.7940017"></trkpt><trkpt lat="67.43444480840326" lon="15.793815140624181"></trkpt><trkpt lat="67.43444480840326" lon="15.793815140624188"></trkpt><trkpt lat="67.43444480840326" lon="15.793815140624181"></trkpt><trkpt lat="67.4344584" lon="15.7937773"></trkpt><trkpt lat="67.434414" lon="15.7933744"></trkpt><trkpt lat="67.43454" lon="15.7924818"></trkpt><trkpt lat="67.4346091" lon="15.7925485"></trkpt><trkpt lat="67.4347131" lon="15.7925361"></trkpt><trkpt lat="67.434748" lon="15.7922547"></trkpt><trkpt lat="67.4349425" lon="15.7921643"></trkpt><trkpt lat="67.4351045" lon="15.7919525"></trkpt><trkpt lat="67.435198" lon="15.7915051"></trkpt><trkpt lat="67.4353512" lon="15.7909455"></trkpt><trkpt lat="67.4354452" lon="15.7910318"></trkpt><trkpt lat="67.43551850306304" lon="15.790931970674086"></trkpt><trkpt lat="67.43551850306304" lon="15.790931970674091"></trkpt><trkpt lat="67.43551850306304" lon="15.790931970674086"></trkpt><trkpt lat="67.4355585" lon="15.7908775"></trkpt><trkpt lat="67.4356603" lon="15.7904129"></trkpt><trkpt lat="67.4357739" lon="15.7900041"></trkpt><trkpt lat="67.4358467" lon="15.7899827"></trkpt><trkpt lat="67.4359737" lon="15.7890315"></trkpt><trkpt lat="67.4359102" lon="15.7888723"></trkpt><trkpt lat="67.4359205" lon="15.7883751"></trkpt><trkpt lat="67.4360996" lon="15.7879538"></trkpt><trkpt lat="67.4361193" lon="15.7876378"></trkpt><trkpt lat="67.4360183" lon="15.7874094"></trkpt><trkpt lat="67.4359814" lon="15.786875"></trkpt><trkpt lat="67.43602033773973" lon="15.786831840854829"></trkpt><trkpt lat="67.43602033773973" lon="15.78683184085483"></trkpt><trkpt lat="67.43602033773973" lon="15.786831840854829"></trkpt><trkpt lat="67.4360432" lon="15.7868065"></trkpt><trkpt lat="67.436058" lon="15.7865886"></trkpt><trkpt lat="67.4360349" lon="15.7863253"></trkpt><trkpt lat="67.4360703" lon="15.786099"></trkpt><trkpt lat="67.4359881" lon="15.7854371"></trkpt><trkpt lat="67.4360871" lon="15.7850753"></trkpt><trkpt lat="67.4362304" lon="15.7850412"></trkpt><trkpt lat="67.4364178" lon="15.7847804"></trkpt><trkpt lat="67.4366109" lon="15.7846606"></trkpt><trkpt lat="67.4366628" lon="15.7845013"></trkpt><trkpt lat="67.4371070330703" lon="15.784324042708096"></trkpt><trkpt lat="67.4372946" lon="15.7842492"></trkpt><trkpt lat="67.4373967" lon="15.7841002"></trkpt><trkpt lat="67.438155" lon="15.7844799"></trkpt><trkpt lat="67.4387025" lon="15.7837772"></trkpt><trkpt lat="67.43886420146183" lon="15.783965608344678"></trkpt><trkpt lat="67.43886420146183" lon="15.783965608344673"></trkpt><trkpt lat="67.43886420146183" lon="15.783965608344678"></trkpt><trkpt lat="67.4390458" lon="15.7841772"></trkpt><trkpt lat="67.4394948" lon="15.7844161"></trkpt><trkpt lat="67.4397419" lon="15.7842975"></trkpt><trkpt lat="67.4399785" lon="15.7843511"></trkpt><trkpt lat="67.4401184" lon="15.7842653"></trkpt><trkpt lat="67.4402008" lon="15.7840186"></trkpt><trkpt lat="67.44057571869294" lon="15.783792618019888"></trkpt><trkpt lat="67.44063" lon="15.7837599"></trkpt><trkpt lat="67.4412871" lon="15.784429"></trkpt><trkpt lat="67.4414216" lon="15.7842385"></trkpt><trkpt lat="67.4415294" lon="15.7831615"></trkpt><trkpt lat="67.44177950130667" lon="15.78247296855463"></trkpt><trkpt lat="67.44177950130667" lon="15.782472968554629"></trkpt><trkpt lat="67.44177950130667" lon="15.78247296855463"></trkpt><trkpt lat="67.4418533" lon="15.7822698"></trkpt><trkpt lat="67.4419979" lon="15.7815191"></trkpt><trkpt lat="67.4425249" lon="15.7801541"></trkpt><trkpt lat="67.4425992" lon="15.7801127"></trkpt><trkpt lat="67.4427158" lon="15.7798195"></trkpt><trkpt lat="67.442735" lon="15.7794254"></trkpt><trkpt lat="67.44294386648977" lon="15.779055075482443"></trkpt><trkpt lat="67.44294386648977" lon="15.77905507548244"></trkpt><trkpt lat="67.44294386648977" lon="15.779055075482443"></trkpt><trkpt lat="67.4429522" lon="15.7790403"></trkpt><trkpt lat="67.4429688" lon="15.7787216"></trkpt><trkpt lat="67.4427835" lon="15.7768674"></trkpt><trkpt lat="67.4429182" lon="15.7762298"></trkpt><trkpt lat="67.4431436" lon="15.7761543"></trkpt><trkpt lat="67.44341398171618" lon="15.77530063481701"></trkpt><trkpt lat="67.44341398171618" lon="15.775300634817006"></trkpt><trkpt lat="67.44341398171618" lon="15.77530063481701"></trkpt><trkpt lat="67.4434749" lon="15.7751083"></trkpt><trkpt lat="67.4436235" lon="15.7735496"></trkpt><trkpt lat="67.4436149" lon="15.7725601"></trkpt><trkpt lat="67.4438923" lon="15.7709785"></trkpt><trkpt lat="67.44388583140265" lon="15.770909350998942"></trkpt><trkpt lat="67.44388583140265" lon="15.77090935099894"></trkpt><trkpt lat="67.44388583140265" lon="15.770909350998942"></trkpt><trkpt lat="67.4437649" lon="15.7696166"></trkpt><trkpt lat="67.4435945" lon="15.7685907"></trkpt><trkpt lat="67.4435943" lon="15.7677859"></trkpt><trkpt lat="67.44372126790687" lon="15.766349476771405"></trkpt><trkpt lat="67.44372126790687" lon="15.766349476771403"></trkpt><trkpt lat="67.44372126790687" lon="15.766349476771405"></trkpt><trkpt lat="67.4437871" lon="15.7656047"></trkpt><trkpt lat="67.4441533" lon="15.7654981"></trkpt><trkpt lat="67.4444029" lon="15.7654255"></trkpt><trkpt lat="67.444621" lon="15.7651949"></trkpt><trkpt lat="67.4448552" lon="15.7641338"></trkpt><trkpt lat="67.44502189329627" lon="15.763893555254539"></trkpt><trkpt lat="67.44502189329627" lon="15.76389355525454"></trkpt><trkpt lat="67.44502189329627" lon="15.763893555254539"></trkpt><trkpt lat="67.4450458" lon="15.7638591"></trkpt><trkpt lat="67.4452996" lon="15.7641521"></trkpt><trkpt lat="67.4454973" lon="15.7638176"></trkpt><trkpt lat="67.4454727" lon="15.7634508"></trkpt><trkpt lat="67.4449983" lon="15.7624773"></trkpt><trkpt lat="67.4450049" lon="15.7621043"></trkpt><trkpt lat="67.44508303804412" lon="15.761090767610028"></trkpt><trkpt lat="67.44508303804412" lon="15.76109076761003"></trkpt><trkpt lat="67.44508303804412" lon="15.761090767610028"></trkpt><trkpt lat="67.4452156" lon="15.7593713"></trkpt><trkpt lat="67.4449358" lon="15.7579368"></trkpt><trkpt lat="67.4448495" lon="15.7572179"></trkpt><trkpt lat="67.44474546998097" lon="15.756752097813445"></trkpt><trkpt lat="67.44474546998097" lon="15.756752097813441"></trkpt><trkpt lat="67.44474546998097" lon="15.756752097813445"></trkpt><trkpt lat="67.4446087" lon="15.7561397"></trkpt><trkpt lat="67.4442397" lon="15.7557253"></trkpt><trkpt lat="67.4441066" lon="15.7554369"></trkpt><trkpt lat="67.4439732" lon="15.754531"></trkpt><trkpt lat="67.4439759" lon="15.7540147"></trkpt><trkpt lat="67.4439996" lon="15.7535585"></trkpt><trkpt lat="67.4439433330443" lon="15.75300745341242"></trkpt><trkpt lat="67.4439433330443" lon="15.753007453412417"></trkpt><trkpt lat="67.4439433330443" lon="15.75300745341242"></trkpt><trkpt lat="67.4437895" lon="15.7515009"></trkpt><trkpt lat="67.443793" lon="15.7512859"></trkpt><trkpt lat="67.4437401" lon="15.7509319"></trkpt><trkpt lat="67.4435299" lon="15.7504064"></trkpt><trkpt lat="67.443454" lon="15.7503768"></trkpt><trkpt lat="67.4433754" lon="15.7505586"></trkpt><trkpt lat="67.4432916" lon="15.7516242"></trkpt><trkpt lat="67.4432156" lon="15.7519876"></trkpt><trkpt lat="67.44320525529146" lon="15.75199488444074"></trkpt><trkpt lat="67.4431125" lon="15.7520602"></trkpt><trkpt lat="67.4430337" lon="15.751752"></trkpt><trkpt lat="67.4429393" lon="15.7517697"></trkpt><trkpt lat="67.4428313" lon="15.7519738"></trkpt><trkpt lat="67.4428201" lon="15.7521523"></trkpt><trkpt lat="67.4428346" lon="15.7524832"></trkpt><trkpt lat="67.4427025" lon="15.7531468"></trkpt><trkpt lat="67.4425987" lon="15.7535004"></trkpt><trkpt lat="67.4425038" lon="15.7533866"></trkpt><trkpt lat="67.4424879" lon="15.7533675"></trkpt><trkpt lat="67.4423312" lon="15.7527342"></trkpt><trkpt lat="67.4422762" lon="15.7525854"></trkpt><trkpt lat="67.4422372" lon="15.7524733"></trkpt><trkpt lat="67.4422181" lon="15.7524186"></trkpt><trkpt lat="67.44221521319069" lon="15.75228109988603"></trkpt><trkpt lat="67.4421702" lon="15.7501371"></trkpt><trkpt lat="67.4420599" lon="15.7491873"></trkpt><trkpt lat="67.4420508" lon="15.748547"></trkpt><trkpt lat="67.44198374728813" lon="15.747637602775448"></trkpt><trkpt lat="67.44198374728813" lon="15.747637602775447"></trkpt><trkpt lat="67.44198374728813" lon="15.747637602775448"></trkpt><trkpt lat="67.4419699" lon="15.7474498"></trkpt><trkpt lat="67.4418927" lon="15.7470388"></trkpt><trkpt lat="67.4418474" lon="15.7467262"></trkpt><trkpt lat="67.4418454" lon="15.7464159"></trkpt><trkpt lat="67.4419079" lon="15.7456883"></trkpt><trkpt lat="67.4419228" lon="15.7454562"></trkpt><trkpt lat="67.4419213" lon="15.7451226"></trkpt><trkpt lat="67.4419101" lon="15.7448199"></trkpt><trkpt lat="67.4418897" lon="15.744567"></trkpt><trkpt lat="67.4418236" lon="15.7441625"></trkpt><trkpt lat="67.4417249" lon="15.7435425"></trkpt><trkpt lat="67.4417264" lon="15.743361"></trkpt><trkpt lat="67.4417497" lon="15.7432765"></trkpt><trkpt lat="67.4417916" lon="15.7431448"></trkpt><trkpt lat="67.44177161000448" lon="15.74310488615719"></trkpt><trkpt lat="67.44177161000448" lon="15.743104886157193"></trkpt></trkseg></trk></gpx>
