<?xml version="1.0" encoding="UTF-8"?>
<gpx version="1.1" creator="Good Shit" xmlns="http://www.topografix.com/GPX/1/1"><trk><name>Kevo Canyon Trail — Kevo Canyon Trail — Sulaoja to Kenesjärvi</name><trkseg><trkpt lat="69.3933364" lon="26.1137116"></trkpt><trkpt lat="69.3933636" lon="26.113912"></trkpt><trkpt lat="69.3933843" lon="26.1140802"></trkpt><trkpt lat="69.3934506" lon="26.1143081"></trkpt><trkpt lat="69.393498" lon="26.114347"></trkpt><trkpt lat="69.3935383" lon="26.1143585"></trkpt><trkpt lat="69.3936101" lon="26.1143789"></trkpt><trkpt lat="69.3936402" lon="26.1143866"></trkpt><trkpt lat="69.3936755" lon="26.1143962"></trkpt><trkpt lat="69.3936885" lon="26.1144001"></trkpt><trkpt lat="69.393757" lon="26.1143753"></trkpt><trkpt lat="69.3938193" lon="26.1142939"></trkpt><trkpt lat="69.3939165" lon="26.114117"></trkpt><trkpt lat="69.39398" lon="26.1139931"></trkpt><trkpt lat="69.3940099" lon="26.1139754"></trkpt><trkpt lat="69.3940398" lon="26.1139825"></trkpt><trkpt lat="69.3940547" lon="26.1140533"></trkpt><trkpt lat="69.3940635" lon="26.1142727"></trkpt><trkpt lat="69.3941207" lon="26.1145983"></trkpt><trkpt lat="69.3941643" lon="26.1146974"></trkpt><trkpt lat="69.3943113" lon="26.1148425"></trkpt><trkpt lat="69.3944757" lon="26.114754"></trkpt><trkpt lat="69.3945193" lon="26.1147611"></trkpt><trkpt lat="69.3946078" lon="26.1151362"></trkpt><trkpt lat="69.3946588" lon="26.1151893"></trkpt><trkpt lat="69.3946925" lon="26.1151504"></trkpt><trkpt lat="69.3947859" lon="26.1148283"></trkpt><trkpt lat="69.3948307" lon="26.1145275"></trkpt><trkpt lat="69.3949665" lon="26.114078"></trkpt><trkpt lat="69.39502" lon="26.1140108"></trkpt><trkpt lat="69.3950985" lon="26.1136533"></trkpt><trkpt lat="69.395162" lon="26.1135259"></trkpt><trkpt lat="69.3952642" lon="26.1135153"></trkpt><trkpt lat="69.3954298" lon="26.1137489"></trkpt><trkpt lat="69.3955456" lon="26.1140356"></trkpt><trkpt lat="69.395644" lon="26.1144355"></trkpt><trkpt lat="69.3956602" lon="26.1148602"></trkpt><trkpt lat="69.3957761" lon="26.1153628"></trkpt><trkpt lat="69.3958695" lon="26.1156459"></trkpt><trkpt lat="69.3960451" lon="26.116014"></trkpt><trkpt lat="69.396065" lon="26.1161131"></trkpt><trkpt lat="69.3960687" lon="26.1163396"></trkpt><trkpt lat="69.3960874" lon="26.1165519"></trkpt><trkpt lat="69.396207" lon="26.1169908"></trkpt><trkpt lat="69.3962331" lon="26.1171854"></trkpt><trkpt lat="69.3962718" lon="26.1172491"></trkpt><trkpt lat="69.3964511" lon="26.1176172"></trkpt><trkpt lat="69.3968073" lon="26.1183817"></trkpt><trkpt lat="69.3970066" lon="26.1190117"></trkpt><trkpt lat="69.3970501" lon="26.1193408"></trkpt><trkpt lat="69.3971236" lon="26.1197514"></trkpt><trkpt lat="69.3973104" lon="26.1205866"></trkpt><trkpt lat="69.3973216" lon="26.1210042"></trkpt><trkpt lat="69.3975471" lon="26.1214042"></trkpt><trkpt lat="69.3977463" lon="26.1219457"></trkpt><trkpt lat="69.3977799" lon="26.1222182"></trkpt><trkpt lat="69.3979941" lon="26.1224553"></trkpt><trkpt lat="69.3981062" lon="26.1224411"></trkpt><trkpt lat="69.3981685" lon="26.1224801"></trkpt><trkpt lat="69.3982357" lon="26.1226889"></trkpt><trkpt lat="69.398308" lon="26.1229649"></trkpt><trkpt lat="69.3983341" lon="26.1231738"></trkpt><trkpt lat="69.3985147" lon="26.1236232"></trkpt><trkpt lat="69.3986629" lon="26.1237648"></trkpt><trkpt lat="69.3988096" lon="26.1241534"></trkpt><trkpt lat="69.3988709" lon="26.1244125"></trkpt><trkpt lat="69.3989393" lon="26.1244408"></trkpt><trkpt lat="69.3990813" lon="26.1247593"></trkpt><trkpt lat="69.3992507" lon="26.1253221"></trkpt><trkpt lat="69.3992781" lon="26.1255875"></trkpt><trkpt lat="69.399496" lon="26.1265254"></trkpt><trkpt lat="69.3996411" lon="26.1270164"></trkpt><trkpt lat="69.3996578" lon="26.1273248"></trkpt><trkpt lat="69.3997245" lon="26.1277361"></trkpt><trkpt lat="69.3997746" lon="26.1283055"></trkpt><trkpt lat="69.3999611" lon="26.129302"></trkpt><trkpt lat="69.4000084" lon="26.1305674"></trkpt><trkpt lat="69.4001503" lon="26.1313266"></trkpt><trkpt lat="69.4001475" lon="26.1318881"></trkpt><trkpt lat="69.400384" lon="26.1325208"></trkpt><trkpt lat="69.4004925" lon="26.133106"></trkpt><trkpt lat="69.4005092" lon="26.1333986"></trkpt><trkpt lat="69.4003172" lon="26.1351306"></trkpt><trkpt lat="69.4003367" lon="26.1357633"></trkpt><trkpt lat="69.4003812" lon="26.1361192"></trkpt><trkpt lat="69.4005315" lon="26.1362378"></trkpt><trkpt lat="69.4006929" lon="26.1366491"></trkpt><trkpt lat="69.4007875" lon="26.1367361"></trkpt><trkpt lat="69.4014608" lon="26.1373292"></trkpt><trkpt lat="69.401561" lon="26.1377405"></trkpt><trkpt lat="69.4017363" lon="26.1378354"></trkpt><trkpt lat="69.4021759" lon="26.1384997"></trkpt><trkpt lat="69.4022955" lon="26.1388398"></trkpt><trkpt lat="69.4025376" lon="26.1390533"></trkpt><trkpt lat="69.4027156" lon="26.1397888"></trkpt><trkpt lat="69.4030912" lon="26.140635"></trkpt><trkpt lat="69.4033555" lon="26.1409434"></trkpt><trkpt lat="69.4035892" lon="26.141845"></trkpt><trkpt lat="69.4038062" lon="26.1422088"></trkpt><trkpt lat="69.4043015" lon="26.1441227"></trkpt><trkpt lat="69.4043905" lon="26.1445577"></trkpt><trkpt lat="69.4044489" lon="26.1447712"></trkpt><trkpt lat="69.4046075" lon="26.1447554"></trkpt><trkpt lat="69.4047521" lon="26.1451508"></trkpt><trkpt lat="69.4047772" lon="26.1456649"></trkpt><trkpt lat="69.4045852" lon="26.1461157"></trkpt><trkpt lat="69.4044717" lon="26.1466637"></trkpt><trkpt lat="69.4044764" lon="26.1468103"></trkpt><trkpt lat="69.4044461" lon="26.147381"></trkpt><trkpt lat="69.4044815" lon="26.1477442"></trkpt><trkpt lat="69.4045274" lon="26.1479883"></trkpt><trkpt lat="69.4045564" lon="26.148305"></trkpt><trkpt lat="69.4046412" lon="26.1486816"></trkpt><trkpt lat="69.4047548" lon="26.1492368"></trkpt><trkpt lat="69.4050631" lon="26.1512729"></trkpt><trkpt lat="69.4051226" lon="26.1513267"></trkpt><trkpt lat="69.4051957" lon="26.1513037"></trkpt><trkpt lat="69.4053663" lon="26.1515423"></trkpt><trkpt lat="69.4054828" lon="26.1515192"></trkpt><trkpt lat="69.4057265" lon="26.151958"></trkpt><trkpt lat="69.4059323" lon="26.1521351"></trkpt><trkpt lat="69.4059838" lon="26.1523429"></trkpt><trkpt lat="69.4060623" lon="26.1524661"></trkpt><trkpt lat="69.4062518" lon="26.1530281"></trkpt><trkpt lat="69.4064224" lon="26.1534515"></trkpt><trkpt lat="69.4065605" lon="26.15446"></trkpt><trkpt lat="69.4071671" lon="26.156223"></trkpt><trkpt lat="69.4073647" lon="26.1566695"></trkpt><trkpt lat="69.4076924" lon="26.1568004"></trkpt><trkpt lat="69.4086671" lon="26.1577852"></trkpt><trkpt lat="69.4088648" lon="26.1586013"></trkpt><trkpt lat="69.4091463" lon="26.1591094"></trkpt><trkpt lat="69.4092655" lon="26.1596791"></trkpt><trkpt lat="69.4095092" lon="26.1603257"></trkpt><trkpt lat="69.4096987" lon="26.1612804"></trkpt><trkpt lat="69.4100127" lon="26.1616807"></trkpt><trkpt lat="69.4102185" lon="26.1617346"></trkpt><trkpt lat="69.4104811" lon="26.1621965"></trkpt><trkpt lat="69.4111877" lon="26.1640287"></trkpt><trkpt lat="69.4114963" lon="26.165068"></trkpt><trkpt lat="69.4115424" lon="26.1654991"></trkpt><trkpt lat="69.4117481" lon="26.166038"></trkpt><trkpt lat="69.4117833" lon="26.1662536"></trkpt><trkpt lat="69.4120242" lon="26.1664999"></trkpt><trkpt lat="69.4123464" lon="26.1671389"></trkpt><trkpt lat="69.4124113" lon="26.1674391"></trkpt><trkpt lat="69.4127903" lon="26.1682244"></trkpt><trkpt lat="69.4130015" lon="26.169025"></trkpt><trkpt lat="69.4132152" lon="26.1693288"></trkpt><trkpt lat="69.4133101" lon="26.1694638"></trkpt><trkpt lat="69.4134779" lon="26.169995"></trkpt><trkpt lat="69.4137946" lon="26.1706186"></trkpt><trkpt lat="69.4145877" lon="26.1724894"></trkpt><trkpt lat="69.4148882" lon="26.1734517"></trkpt><trkpt lat="69.4153429" lon="26.174337"></trkpt><trkpt lat="69.4154756" lon="26.1743909"></trkpt><trkpt lat="69.4157949" lon="26.1749606"></trkpt><trkpt lat="69.4162469" lon="26.1765926"></trkpt><trkpt lat="69.4165393" lon="26.1780169"></trkpt><trkpt lat="69.4168424" lon="26.1790408"></trkpt><trkpt lat="69.4170887" lon="26.1794642"></trkpt><trkpt lat="69.4173945" lon="26.1802879"></trkpt><trkpt lat="69.4175109" lon="26.1807421"></trkpt><trkpt lat="69.4180847" lon="26.1821972"></trkpt><trkpt lat="69.4181686" lon="26.1826822"></trkpt><trkpt lat="69.4186638" lon="26.1828361"></trkpt><trkpt lat="69.4189101" lon="26.1834058"></trkpt><trkpt lat="69.4190616" lon="26.1839293"></trkpt><trkpt lat="69.4191546" lon="26.184588"></trkpt><trkpt lat="69.4192503" lon="26.1847949"></trkpt><trkpt lat="69.4193632" lon="26.1854318"></trkpt><trkpt lat="69.4195775" lon="26.1858509"></trkpt><trkpt lat="69.4197918" lon="26.1866457"></trkpt><trkpt lat="69.4199009" lon="26.1874459"></trkpt><trkpt lat="69.4200119" lon="26.1884693"></trkpt><trkpt lat="69.4203123" lon="26.1895962"></trkpt><trkpt lat="69.4205075" lon="26.1900534"></trkpt><trkpt lat="69.4213456" lon="26.1913653"></trkpt><trkpt lat="69.421468" lon="26.1917573"></trkpt><trkpt lat="69.4220076" lon="26.1926827"></trkpt><trkpt lat="69.4221511" lon="26.1927644"></trkpt><trkpt lat="69.4223826" lon="26.1931999"></trkpt><trkpt lat="69.4226141" lon="26.1934339"></trkpt><trkpt lat="69.4228705" lon="26.1939892"></trkpt><trkpt lat="69.4234349" lon="26.1954263"></trkpt><trkpt lat="69.4235956" lon="26.1956713"></trkpt><trkpt lat="69.4236741" lon="26.1959598"></trkpt><trkpt lat="69.4239897" lon="26.1967165"></trkpt><trkpt lat="69.4241064" lon="26.1970322"></trkpt><trkpt lat="69.4242461" lon="26.197239"></trkpt><trkpt lat="69.4248602" lon="26.1989157"></trkpt><trkpt lat="69.4249941" lon="26.1994383"></trkpt><trkpt lat="69.4258473" lon="26.2017028"></trkpt><trkpt lat="69.4261592" lon="26.2029875"></trkpt><trkpt lat="69.4263581" lon="26.2034993"></trkpt><trkpt lat="69.4271826" lon="26.2053828"></trkpt><trkpt lat="69.4274869" lon="26.2060344"></trkpt><trkpt lat="69.4277475" lon="26.2063032"></trkpt><trkpt lat="69.4280068" lon="26.207493"></trkpt><trkpt lat="69.428227" lon="26.2080649"></trkpt><trkpt lat="69.428761" lon="26.210062"></trkpt><trkpt lat="69.4291069" lon="26.2107175"></trkpt><trkpt lat="69.4293249" lon="26.2115123"></trkpt><trkpt lat="69.4300766" lon="26.2132924"></trkpt><trkpt lat="69.4304792" lon="26.2150097"></trkpt><trkpt lat="69.4307326" lon="26.2157729"></trkpt><trkpt lat="69.4309089" lon="26.2169141"></trkpt><trkpt lat="69.4312396" lon="26.2183827"></trkpt><trkpt lat="69.4326794" lon="26.223049"></trkpt><trkpt lat="69.4330231" lon="26.2247335"></trkpt><trkpt lat="69.4331175" lon="26.2257018"></trkpt><trkpt lat="69.433333" lon="26.2266949"></trkpt><trkpt lat="69.4333664" lon="26.2269675"></trkpt><trkpt lat="69.4333501" lon="26.2274512"></trkpt><trkpt lat="69.4334433" lon="26.2281168"></trkpt><trkpt lat="69.43357" lon="26.2291235"></trkpt><trkpt lat="69.4337518" lon="26.2303908"></trkpt><trkpt lat="69.4341997" lon="26.2320973"></trkpt><trkpt lat="69.4342645" lon="26.2324806"></trkpt><trkpt lat="69.4345463" lon="26.2333663"></trkpt><trkpt lat="69.4349329" lon="26.234552"></trkpt><trkpt lat="69.4349989" lon="26.2346663"></trkpt><trkpt lat="69.4351031" lon="26.2349494"></trkpt><trkpt lat="69.4352417" lon="26.2351399"></trkpt><trkpt lat="69.4353861" lon="26.2356516"></trkpt><trkpt lat="69.4355936" lon="26.2361198"></trkpt><trkpt lat="69.4356681" lon="26.2364981"></trkpt><trkpt lat="69.4357341" lon="26.2367365"></trkpt><trkpt lat="69.4359999" lon="26.2379053"></trkpt><trkpt lat="69.4361271" lon="26.2383108"></trkpt><trkpt lat="69.4362456" lon="26.2388661"></trkpt><trkpt lat="69.4364617" lon="26.2393587"></trkpt><trkpt lat="69.4366299" lon="26.2398405"></trkpt><trkpt lat="69.436825" lon="26.2406707"></trkpt><trkpt lat="69.4369636" lon="26.2410299"></trkpt><trkpt lat="69.4371318" lon="26.2412831"></trkpt><trkpt lat="69.4372399" lon="26.2417458"></trkpt><trkpt lat="69.4373469" lon="26.2418955"></trkpt><trkpt lat="69.4375171" lon="26.2423636"></trkpt><trkpt lat="69.4377609" lon="26.242742"></trkpt><trkpt lat="69.4378106" lon="26.2430659"></trkpt><trkpt lat="69.4378565" lon="26.2431412"></trkpt><trkpt lat="69.4379047" lon="26.2430062"></trkpt><trkpt lat="69.4380803" lon="26.2432223"></trkpt><trkpt lat="69.438179" lon="26.2434455"></trkpt><trkpt lat="69.4383994" lon="26.244046"></trkpt><trkpt lat="69.4385224" lon="26.2448005"></trkpt><trkpt lat="69.4385805" lon="26.2450661"></trkpt><trkpt lat="69.4387076" lon="26.2453586"></trkpt><trkpt lat="69.4389144" lon="26.2460476"></trkpt><trkpt lat="69.439055" lon="26.2466597"></trkpt><trkpt lat="69.4391483" lon="26.2468136"></trkpt><trkpt lat="69.4393484" lon="26.247391"></trkpt><trkpt lat="69.4396336" lon="26.2478375"></trkpt><trkpt lat="69.439708" lon="26.2480723"></trkpt><trkpt lat="69.4399297" lon="26.2486035"></trkpt><trkpt lat="69.4401054" lon="26.2490192"></trkpt><trkpt lat="69.4401825" lon="26.2493503"></trkpt><trkpt lat="69.440634" lon="26.2505666"></trkpt><trkpt lat="69.4407773" lon="26.2506898"></trkpt><trkpt lat="69.4408502" lon="26.2508284"></trkpt><trkpt lat="69.44098" lon="26.2513827"></trkpt><trkpt lat="69.4411233" lon="26.2520525"></trkpt><trkpt lat="69.4411503" lon="26.2527684"></trkpt><trkpt lat="69.4412044" lon="26.2530764"></trkpt><trkpt lat="69.4412233" lon="26.253342"></trkpt><trkpt lat="69.441276" lon="26.253546"></trkpt><trkpt lat="69.4412882" lon="26.2538"></trkpt><trkpt lat="69.4414153" lon="26.2543428"></trkpt><trkpt lat="69.4415126" lon="26.2548586"></trkpt><trkpt lat="69.4415978" lon="26.2555976"></trkpt><trkpt lat="69.4416059" lon="26.255844"></trkpt><trkpt lat="69.4416599" lon="26.2562982"></trkpt><trkpt lat="69.4417491" lon="26.2565561"></trkpt><trkpt lat="69.4418248" lon="26.257376"></trkpt><trkpt lat="69.4419328" lon="26.2578439"></trkpt><trkpt lat="69.4420114" lon="26.2581843"></trkpt><trkpt lat="69.4420276" lon="26.2588964"></trkpt><trkpt lat="69.4420641" lon="26.2594699"></trkpt><trkpt lat="69.4421263" lon="26.2598433"></trkpt><trkpt lat="69.4422668" lon="26.2602667"></trkpt><trkpt lat="69.4423912" lon="26.2609096"></trkpt><trkpt lat="69.4425034" lon="26.2617333"></trkpt><trkpt lat="69.4426196" lon="26.2622183"></trkpt><trkpt lat="69.4427926" lon="26.2626456"></trkpt><trkpt lat="69.4429035" lon="26.2631036"></trkpt><trkpt lat="69.4431062" lon="26.2643008"></trkpt><trkpt lat="69.4432941" lon="26.2648473"></trkpt><trkpt lat="69.4433441" lon="26.2652169"></trkpt><trkpt lat="69.4434963" lon="26.2657905"></trkpt><trkpt lat="69.4435785" lon="26.2669336"></trkpt><trkpt lat="69.4438403" lon="26.2680877"></trkpt><trkpt lat="69.443999" lon="26.2684143"></trkpt><trkpt lat="69.4443144" lon="26.2688661"></trkpt><trkpt lat="69.4446106" lon="26.2694105"></trkpt><trkpt lat="69.4447062" lon="26.2694486"></trkpt><trkpt lat="69.4449394" lon="26.2697044"></trkpt><trkpt lat="69.4450349" lon="26.2699875"></trkpt><trkpt lat="69.4451745" lon="26.2701236"></trkpt><trkpt lat="69.4454707" lon="26.270472"></trkpt><trkpt lat="69.4455796" lon="26.2709347"></trkpt><trkpt lat="69.4457497" lon="26.2712613"></trkpt><trkpt lat="69.4464741" lon="26.2720398"></trkpt><trkpt lat="69.4469079" lon="26.2722902"></trkpt><trkpt lat="69.4470971" lon="26.2728073"></trkpt><trkpt lat="69.4471717" lon="26.2728672"></trkpt><trkpt lat="69.4475806" lon="26.2734932"></trkpt><trkpt lat="69.4477832" lon="26.2738906"></trkpt><trkpt lat="69.4478042" lon="26.2742336"></trkpt><trkpt lat="69.4479208" lon="26.2748868"></trkpt><trkpt lat="69.4481883" lon="26.2759265"></trkpt><trkpt lat="69.4482973" lon="26.2764818"></trkpt><trkpt lat="69.4487884" lon="26.2769989"></trkpt><trkpt lat="69.4493502" lon="26.2777393"></trkpt><trkpt lat="69.4496827" lon="26.2777556"></trkpt><trkpt lat="69.449933" lon="26.2774018"></trkpt><trkpt lat="69.4499877" lon="26.2774096"></trkpt><trkpt lat="69.4500477" lon="26.2774181"></trkpt><trkpt lat="69.4502712" lon="26.2778482"></trkpt><trkpt lat="69.4504853" lon="26.2786647"></trkpt><trkpt lat="69.450877" lon="26.2787409"></trkpt><trkpt lat="69.4513298" lon="26.279024"></trkpt><trkpt lat="69.4516604" lon="26.2800038"></trkpt><trkpt lat="69.4519413" lon="26.2803359"></trkpt><trkpt lat="69.4525832" lon="26.2814791"></trkpt><trkpt lat="69.4532462" lon="26.2831176"></trkpt><trkpt lat="69.4536895" lon="26.2844785"></trkpt><trkpt lat="69.4537802" lon="26.2849412"></trkpt><trkpt lat="69.4539832" lon="26.2858936"></trkpt><trkpt lat="69.4540751" lon="26.2860556"></trkpt><trkpt lat="69.4541367" lon="26.2863735"></trkpt><trkpt lat="69.4541759" lon="26.2868194"></trkpt><trkpt lat="69.454236" lon="26.2871243"></trkpt><trkpt lat="69.4542664" lon="26.2875549"></trkpt><trkpt lat="69.4543272" lon="26.2882241"></trkpt><trkpt lat="69.4543327" lon="26.2884619"></trkpt><trkpt lat="69.4544179" lon="26.2888508"></trkpt><trkpt lat="69.4544336" lon="26.2890925"></trkpt><trkpt lat="69.4543943" lon="26.2896482"></trkpt><trkpt lat="69.4544122" lon="26.2899699"></trkpt><trkpt lat="69.4544626" lon="26.2902769"></trkpt><trkpt lat="69.4545124" lon="26.2905953"></trkpt><trkpt lat="69.4545125" lon="26.2908668"></trkpt><trkpt lat="69.4544817" lon="26.2911518"></trkpt><trkpt lat="69.4544953" lon="26.2914957"></trkpt><trkpt lat="69.4545243" lon="26.2917513"></trkpt><trkpt lat="69.4546269" lon="26.2920124"></trkpt><trkpt lat="69.4545618" lon="26.2921478"></trkpt><trkpt lat="69.4545491" lon="26.292668"></trkpt><trkpt lat="69.4544684" lon="26.2937206"></trkpt><trkpt lat="69.4544642" lon="26.2942167"></trkpt><trkpt lat="69.4545703" lon="26.2954023"></trkpt><trkpt lat="69.4547359" lon="26.2960314"></trkpt><trkpt lat="69.4551902" lon="26.2975195"></trkpt><trkpt lat="69.4555086" lon="26.299056"></trkpt><trkpt lat="69.4557045" lon="26.3001225"></trkpt><trkpt lat="69.4557931" lon="26.3006047"></trkpt><trkpt lat="69.4561413" lon="26.3018024"></trkpt><trkpt lat="69.4563153" lon="26.3022621"></trkpt><trkpt lat="69.4563366" lon="26.3032058"></trkpt><trkpt lat="69.45643" lon="26.3037382"></trkpt><trkpt lat="69.4564427" lon="26.3043915"></trkpt><trkpt lat="69.4565998" lon="26.3051779"></trkpt><trkpt lat="69.4566337" lon="26.3062909"></trkpt><trkpt lat="69.4567187" lon="26.3073435"></trkpt><trkpt lat="69.4568333" lon="26.3079242"></trkpt><trkpt lat="69.4570906" lon="26.308527"></trkpt><trkpt lat="69.4572758" lon="26.310026"></trkpt><trkpt lat="69.4572684" lon="26.3108706"></trkpt><trkpt lat="69.4573055" lon="26.311504"></trkpt><trkpt lat="69.4573203" lon="26.3122641"></trkpt><trkpt lat="69.4575277" lon="26.3137209"></trkpt><trkpt lat="69.4576463" lon="26.3150722"></trkpt><trkpt lat="69.457624" lon="26.3157056"></trkpt><trkpt lat="69.457461" lon="26.3172046"></trkpt><trkpt lat="69.4573055" lon="26.3177958"></trkpt><trkpt lat="69.457298" lon="26.3183025"></trkpt><trkpt lat="69.4574314" lon="26.3191048"></trkpt><trkpt lat="69.4573351" lon="26.3200338"></trkpt><trkpt lat="69.4573129" lon="26.3206672"></trkpt><trkpt lat="69.4571351" lon="26.3221663"></trkpt><trkpt lat="69.4572017" lon="26.3227363"></trkpt><trkpt lat="69.4572091" lon="26.3236231"></trkpt><trkpt lat="69.4573351" lon="26.3248266"></trkpt><trkpt lat="69.4572684" lon="26.3254811"></trkpt><trkpt lat="69.4574092" lon="26.3268957"></trkpt><trkpt lat="69.4573721" lon="26.3278669"></trkpt><trkpt lat="69.4573944" lon="26.3283314"></trkpt><trkpt lat="69.4575944" lon="26.3287325"></trkpt><trkpt lat="69.4576981" lon="26.3301471"></trkpt><trkpt lat="69.4580241" lon="26.3311606"></trkpt><trkpt lat="69.4583945" lon="26.3319207"></trkpt><trkpt lat="69.4585056" lon="26.3326807"></trkpt><trkpt lat="69.4588168" lon="26.3335253"></trkpt><trkpt lat="69.4590316" lon="26.3343698"></trkpt><trkpt lat="69.4594687" lon="26.3357633"></trkpt><trkpt lat="69.459765" lon="26.3374524"></trkpt><trkpt lat="69.4602819" lon="26.3391878"></trkpt><trkpt lat="69.4606569" lon="26.3406804"></trkpt><trkpt lat="69.4606531" lon="26.3407511"></trkpt><trkpt lat="69.4607947" lon="26.341485"></trkpt><trkpt lat="69.4609725" lon="26.3419073"></trkpt><trkpt lat="69.4611058" lon="26.3423296"></trkpt><trkpt lat="69.4614318" lon="26.3428996"></trkpt><trkpt lat="69.4617799" lon="26.3431952"></trkpt><trkpt lat="69.4619725" lon="26.3441031"></trkpt><trkpt lat="69.4621206" lon="26.3442509"></trkpt><trkpt lat="69.4623354" lon="26.3449476"></trkpt><trkpt lat="69.4624688" lon="26.3459189"></trkpt><trkpt lat="69.4630263" lon="26.3479268"></trkpt><trkpt lat="69.4630997" lon="26.3479505"></trkpt><trkpt lat="69.4635946" lon="26.3476079"></trkpt><trkpt lat="69.463839" lon="26.3477768"></trkpt><trkpt lat="69.4640464" lon="26.3484314"></trkpt><trkpt lat="69.4642908" lon="26.3488325"></trkpt><trkpt lat="69.464476" lon="26.349677"></trkpt><trkpt lat="69.4645059" lon="26.3496842"></trkpt><trkpt lat="69.4645904" lon="26.3497046"></trkpt><trkpt lat="69.4647044" lon="26.3497322"></trkpt><trkpt lat="69.4648157" lon="26.3497692"></trkpt><trkpt lat="69.464881" lon="26.3498719"></trkpt><trkpt lat="69.4649684" lon="26.3501346"></trkpt><trkpt lat="69.4650255" lon="26.3505158"></trkpt><trkpt lat="69.4651574" lon="26.3508805"></trkpt><trkpt lat="69.4653944" lon="26.3510072"></trkpt><trkpt lat="69.4656861" lon="26.3515538"></trkpt><trkpt lat="69.4659202" lon="26.3522318"></trkpt><trkpt lat="69.466237" lon="26.3526152"></trkpt><trkpt lat="69.4664098" lon="26.3530806"></trkpt><trkpt lat="69.4665049" lon="26.3530782"></trkpt><trkpt lat="69.4667497" lon="26.3534862"></trkpt><trkpt lat="69.4673243" lon="26.3550386"></trkpt><trkpt lat="69.4676061" lon="26.3566671"></trkpt><trkpt lat="69.4678256" lon="26.3573546"></trkpt><trkpt lat="69.4685012" lon="26.3598304"></trkpt><trkpt lat="69.4690257" lon="26.3614906"></trkpt><trkpt lat="69.469711" lon="26.3633035"></trkpt><trkpt lat="69.4698638" lon="26.3640191"></trkpt><trkpt lat="69.4702134" lon="26.3645755"></trkpt><trkpt lat="69.4703543" lon="26.3650736"></trkpt><trkpt lat="69.4706024" lon="26.3651439"></trkpt><trkpt lat="69.4708522" lon="26.365529"></trkpt><trkpt lat="69.4712219" lon="26.3662217"></trkpt><trkpt lat="69.471305" lon="26.3665681"></trkpt><trkpt lat="69.4715488" lon="26.3670672"></trkpt><trkpt lat="69.4716729" lon="26.3675601"></trkpt><trkpt lat="69.4719148" lon="26.3682974"></trkpt><trkpt lat="69.4726987" lon="26.3702304"></trkpt><trkpt lat="69.4730022" lon="26.3712549"></trkpt><trkpt lat="69.4731149" lon="26.3716801"></trkpt><trkpt lat="69.4737998" lon="26.374265"></trkpt><trkpt lat="69.4740404" lon="26.3749226"></trkpt><trkpt lat="69.4742075" lon="26.3757506"></trkpt><trkpt lat="69.4748416" lon="26.3786714"></trkpt><trkpt lat="69.4753576" lon="26.3808585"></trkpt><trkpt lat="69.4757558" lon="26.3823734"></trkpt><trkpt lat="69.4763119" lon="26.3844829"></trkpt><trkpt lat="69.4767452" lon="26.3859348"></trkpt><trkpt lat="69.4772107" lon="26.3877534"></trkpt><trkpt lat="69.4777167" lon="26.3898143"></trkpt><trkpt lat="69.4780413" lon="26.3909176"></trkpt><trkpt lat="69.478473" lon="26.3926015"></trkpt><trkpt lat="69.478801" lon="26.3940749"></trkpt><trkpt lat="69.479196" lon="26.3950257"></trkpt><trkpt lat="69.4793346" lon="26.3955774"></trkpt><trkpt lat="69.4794627" lon="26.3959602"></trkpt><trkpt lat="69.479575" lon="26.3965793"></trkpt><trkpt lat="69.4796766" lon="26.3969541"></trkpt><trkpt lat="69.4798052" lon="26.3973768"></trkpt><trkpt lat="69.4801882" lon="26.3991205"></trkpt><trkpt lat="69.4802651" lon="26.3997244"></trkpt><trkpt lat="69.480416" lon="26.4003471"></trkpt><trkpt lat="69.4805776" lon="26.4013059"></trkpt><trkpt lat="69.480749" lon="26.4018344"></trkpt><trkpt lat="69.4808589" lon="26.402225"></trkpt><trkpt lat="69.4810866" lon="26.4037552"></trkpt><trkpt lat="69.4810834" lon="26.4043004"></trkpt><trkpt lat="69.4812193" lon="26.4048152"></trkpt><trkpt lat="69.4813735" lon="26.406089"></trkpt><trkpt lat="69.4817246" lon="26.4085757"></trkpt><trkpt lat="69.4820864" lon="26.4102938"></trkpt><trkpt lat="69.4822339" lon="26.4106066"></trkpt><trkpt lat="69.4823226" lon="26.411454"></trkpt><trkpt lat="69.4827218" lon="26.4137985"></trkpt><trkpt lat="69.483271" lon="26.4157934"></trkpt><trkpt lat="69.4835455" lon="26.4174477"></trkpt><trkpt lat="69.4840343" lon="26.4198047"></trkpt><trkpt lat="69.4842366" lon="26.420993"></trkpt><trkpt lat="69.4843431" lon="26.4214192"></trkpt><trkpt lat="69.4844927" lon="26.4221975"></trkpt><trkpt lat="69.4845567" lon="26.4226702"></trkpt><trkpt lat="69.485411" lon="26.4265746"></trkpt><trkpt lat="69.485509" lon="26.4271569"></trkpt><trkpt lat="69.4855535" lon="26.4275864"></trkpt><trkpt lat="69.4857282" lon="26.428415"></trkpt><trkpt lat="69.4858527" lon="26.4286666"></trkpt><trkpt lat="69.4858814" lon="26.4291023"></trkpt><trkpt lat="69.4864456" lon="26.431524"></trkpt><trkpt lat="69.4865995" lon="26.4319676"></trkpt><trkpt lat="69.48754" lon="26.4367039"></trkpt><trkpt lat="69.4875815" lon="26.4371846"></trkpt><trkpt lat="69.4876799" lon="26.4376465"></trkpt><trkpt lat="69.4877636" lon="26.4380909"></trkpt><trkpt lat="69.4878889" lon="26.4383295"></trkpt><trkpt lat="69.4880234" lon="26.4386376"></trkpt><trkpt lat="69.4881424" lon="26.4387095"></trkpt><trkpt lat="69.4881752" lon="26.4387651"></trkpt><trkpt lat="69.4881784" lon="26.4391447"></trkpt><trkpt lat="69.4882491" lon="26.4398188"></trkpt><trkpt lat="69.4883276" lon="26.4400983"></trkpt><trkpt lat="69.4884118" lon="26.4407062"></trkpt><trkpt lat="69.4890369" lon="26.4438576"></trkpt><trkpt lat="69.4893156" lon="26.4457598"></trkpt><trkpt lat="69.4896404" lon="26.4474978"></trkpt><trkpt lat="69.4899128" lon="26.4489003"></trkpt><trkpt lat="69.4904489" lon="26.4520211"></trkpt><trkpt lat="69.4911854" lon="26.4556661"></trkpt><trkpt lat="69.491477" lon="26.4577842"></trkpt><trkpt lat="69.4915318" lon="26.4589393"></trkpt><trkpt lat="69.4917418" lon="26.4597742"></trkpt><trkpt lat="69.4920614" lon="26.4628784"></trkpt><trkpt lat="69.4930737" lon="26.4699062"></trkpt><trkpt lat="69.4931151" lon="26.4709998"></trkpt><trkpt lat="69.4932999" lon="26.4724622"></trkpt><trkpt lat="69.4935835" lon="26.4740758"></trkpt><trkpt lat="69.4937379" lon="26.4743576"></trkpt><trkpt lat="69.4938923" lon="26.4754179"></trkpt><trkpt lat="69.4940504" lon="26.4774157"></trkpt><trkpt lat="69.4951128" lon="26.4849044"></trkpt><trkpt lat="69.4959965" lon="26.4942466"></trkpt><trkpt lat="69.4969303" lon="26.508881"></trkpt><trkpt lat="69.4974551" lon="26.5118423"></trkpt><trkpt lat="69.4976302" lon="26.5135719"></trkpt><trkpt lat="69.4977472" lon="26.5157167"></trkpt><trkpt lat="69.4979457" lon="26.5171558"></trkpt><trkpt lat="69.4980685" lon="26.518761"></trkpt><trkpt lat="69.4983665" lon="26.52144"></trkpt><trkpt lat="69.4983417" lon="26.5221916"></trkpt><trkpt lat="69.4983863" lon="26.5225192"></trkpt><trkpt lat="69.4983726" lon="26.5231707"></trkpt><trkpt lat="69.4983249" lon="26.5236894"></trkpt><trkpt lat="69.4983477" lon="26.5239996"></trkpt><trkpt lat="69.498353" lon="26.5243913"></trkpt><trkpt lat="69.4984227" lon="26.5242888"></trkpt><trkpt lat="69.49846" lon="26.5242656"></trkpt><trkpt lat="69.4986041" lon="26.5241113"></trkpt><trkpt lat="69.4986395" lon="26.5241155"></trkpt><trkpt lat="69.4986708" lon="26.5241631"></trkpt><trkpt lat="69.498681" lon="26.5246983"></trkpt><trkpt lat="69.4986657" lon="26.5249694"></trkpt><trkpt lat="69.498723" lon="26.5251084"></trkpt><trkpt lat="69.4987525" lon="26.5254389"></trkpt><trkpt lat="69.4987844" lon="26.5256307"></trkpt><trkpt lat="69.4988163" lon="26.5259017"></trkpt><trkpt lat="69.4988509" lon="26.5264833"></trkpt><trkpt lat="69.4988623" lon="26.5275668"></trkpt><trkpt lat="69.4988877" lon="26.5280153"></trkpt><trkpt lat="69.4989083" lon="26.5281538"></trkpt><trkpt lat="69.4989099" lon="26.528369"></trkpt><trkpt lat="69.4989429" lon="26.5289539"></trkpt><trkpt lat="69.4989736" lon="26.5291696"></trkpt><trkpt lat="69.4989937" lon="26.5294083"></trkpt><trkpt lat="69.4989759" lon="26.5295928"></trkpt><trkpt lat="69.4990119" lon="26.5301851"></trkpt><trkpt lat="69.4990427" lon="26.5303655"></trkpt><trkpt lat="69.4990596" lon="26.5306362"></trkpt><trkpt lat="69.4990571" lon="26.5310286"></trkpt><trkpt lat="69.4990671" lon="26.5314301"></trkpt><trkpt lat="69.4991034" lon="26.5318197"></trkpt><trkpt lat="69.49915" lon="26.5320551"></trkpt><trkpt lat="69.4991239" lon="26.5325342"></trkpt><trkpt lat="69.4992376" lon="26.5333766"></trkpt><trkpt lat="69.4994633" lon="26.5348819"></trkpt><trkpt lat="69.4997593" lon="26.5363616"></trkpt><trkpt lat="69.4998373" lon="26.5366413"></trkpt><trkpt lat="69.4998773" lon="26.5370564"></trkpt><trkpt lat="69.4999511" lon="26.5375797"></trkpt><trkpt lat="69.5000275" lon="26.5387617"></trkpt><trkpt lat="69.5000783" lon="26.5393437"></trkpt><trkpt lat="69.5001812" lon="26.539955"></trkpt><trkpt lat="69.5002998" lon="26.5403948"></trkpt><trkpt lat="69.5003967" lon="26.5407836"></trkpt><trkpt lat="69.5005636" lon="26.5411511"></trkpt><trkpt lat="69.5006834" lon="26.5417182"></trkpt><trkpt lat="69.5008079" lon="26.5414238"></trkpt><trkpt lat="69.5009077" lon="26.5413365"></trkpt><trkpt lat="69.5011449" lon="26.5412492"></trkpt><trkpt lat="69.5012826" lon="26.5411612"></trkpt><trkpt lat="69.5014123" lon="26.5412447"></trkpt><trkpt lat="69.501528" lon="26.5413401"></trkpt><trkpt lat="69.5016338" lon="26.5413222"></trkpt><trkpt lat="69.5018054" lon="26.5415841"></trkpt><trkpt lat="69.5018821" lon="26.5416815"></trkpt><trkpt lat="69.5020988" lon="26.5419359"></trkpt><trkpt lat="69.5022537" lon="26.5422883"></trkpt><trkpt lat="69.5024383" lon="26.5424"></trkpt><trkpt lat="69.5025969" lon="26.5426474"></trkpt><trkpt lat="69.502743" lon="26.5427859"></trkpt><trkpt lat="69.5028564" lon="26.5430098"></trkpt><trkpt lat="69.502992" lon="26.5432691"></trkpt><trkpt lat="69.5031207" lon="26.5434192"></trkpt><trkpt lat="69.5033584" lon="26.5435409"></trkpt><trkpt lat="69.5036675" lon="26.5442692"></trkpt><trkpt lat="69.5037982" lon="26.5444285"></trkpt><trkpt lat="69.5039196" lon="26.5446935"></trkpt><trkpt lat="69.5040438" lon="26.5448353"></trkpt><trkpt lat="69.5045691" lon="26.5463147"></trkpt><trkpt lat="69.5047177" lon="26.5465979"></trkpt><trkpt lat="69.504931" lon="26.5470925"></trkpt><trkpt lat="69.5050803" lon="26.5474282"></trkpt><trkpt lat="69.5053015" lon="26.547521"></trkpt><trkpt lat="69.505376" lon="26.5476854"></trkpt><trkpt lat="69.5054485" lon="26.5477228"></trkpt><trkpt lat="69.5055764" lon="26.5476016"></trkpt><trkpt lat="69.5058431" lon="26.5476126"></trkpt><trkpt lat="69.5059433" lon="26.5473065"></trkpt><trkpt lat="69.5059733" lon="26.5472874"></trkpt><trkpt lat="69.5063385" lon="26.5470549"></trkpt><trkpt lat="69.5063953" lon="26.5471885"></trkpt><trkpt lat="69.5064896" lon="26.5473864"></trkpt><trkpt lat="69.5066278" lon="26.5474082"></trkpt><trkpt lat="69.5067059" lon="26.5473601"></trkpt><trkpt lat="69.5068196" lon="26.547237"></trkpt><trkpt lat="69.5068802" lon="26.5472344"></trkpt><trkpt lat="69.5069408" lon="26.5473284"></trkpt><trkpt lat="69.5070304" lon="26.5473535"></trkpt><trkpt lat="69.50709" lon="26.5473786"></trkpt><trkpt lat="69.5071565" lon="26.5474931"></trkpt><trkpt lat="69.5072935" lon="26.5478959"></trkpt><trkpt lat="69.507378" lon="26.5480304"></trkpt><trkpt lat="69.5074718" lon="26.548278"></trkpt><trkpt lat="69.5075544" lon="26.5486221"></trkpt><trkpt lat="69.5076025" lon="26.548815"></trkpt><trkpt lat="69.5076525" lon="26.5488837"></trkpt><trkpt lat="69.5077718" lon="26.5487683"></trkpt><trkpt lat="69.5078863" lon="26.5485857"></trkpt><trkpt lat="69.5079725" lon="26.5485504"></trkpt><trkpt lat="69.5080458" lon="26.5486716"></trkpt><trkpt lat="69.5081171" lon="26.5487393"></trkpt><trkpt lat="69.5081735" lon="26.5487503"></trkpt><trkpt lat="69.5082862" lon="26.5483923"></trkpt><trkpt lat="69.5083799" lon="26.5483732"></trkpt><trkpt lat="69.5084235" lon="26.5485557"></trkpt><trkpt lat="69.5086431" lon="26.5487665"></trkpt><trkpt lat="69.5088496" lon="26.5491451"></trkpt><trkpt lat="69.5088935" lon="26.549292"></trkpt><trkpt lat="69.508967" lon="26.5493963"></trkpt><trkpt lat="69.5090434" lon="26.5496771"></trkpt><trkpt lat="69.5091633" lon="26.5499874"></trkpt><trkpt lat="69.5092233" lon="26.5500859"></trkpt><trkpt lat="69.5092833" lon="26.5502694"></trkpt><trkpt lat="69.5093615" lon="26.5504596"></trkpt><trkpt lat="69.5095537" lon="26.550749"></trkpt><trkpt lat="69.5096443" lon="26.5509676"></trkpt><trkpt lat="69.5096754" lon="26.5511437"></trkpt><trkpt lat="69.5097464" lon="26.5517852"></trkpt><trkpt lat="69.5098421" lon="26.5519807"></trkpt><trkpt lat="69.5099377" lon="26.552082"></trkpt><trkpt lat="69.5100704" lon="26.552332"></trkpt><trkpt lat="69.5101952" lon="26.5527376"></trkpt><trkpt lat="69.5103593" lon="26.553128"></trkpt><trkpt lat="69.5104338" lon="26.5532453"></trkpt><trkpt lat="69.5105035" lon="26.5534192"></trkpt><trkpt lat="69.5106629" lon="26.5536075"></trkpt><trkpt lat="69.5107674" lon="26.5538008"></trkpt><trkpt lat="69.5108667" lon="26.5538762"></trkpt><trkpt lat="69.5109165" lon="26.5539657"></trkpt><trkpt lat="69.5110771" lon="26.5540231"></trkpt><trkpt lat="69.5112477" lon="26.5543069"></trkpt><trkpt lat="69.5112719" lon="26.5547101"></trkpt><trkpt lat="69.5113435" lon="26.5553294"></trkpt><trkpt lat="69.5114423" lon="26.5557433"></trkpt><trkpt lat="69.5115604" lon="26.5559883"></trkpt><trkpt lat="69.5116239" lon="26.5562474"></trkpt><trkpt lat="69.5116679" lon="26.5573505"></trkpt><trkpt lat="69.5116775" lon="26.5583126"></trkpt><trkpt lat="69.5117961" lon="26.5587862"></trkpt><trkpt lat="69.5121225" lon="26.5597646"></trkpt><trkpt lat="69.5121453" lon="26.5602948"></trkpt><trkpt lat="69.5121982" lon="26.5605643"></trkpt><trkpt lat="69.5123933" lon="26.5608988"></trkpt><trkpt lat="69.5130455" lon="26.5616003"></trkpt><trkpt lat="69.5132342" lon="26.5623051"></trkpt><trkpt lat="69.513349" lon="26.562522"></trkpt><trkpt lat="69.5134755" lon="26.5632801"></trkpt><trkpt lat="69.5138695" lon="26.5644448"></trkpt><trkpt lat="69.5141412" lon="26.5650271"></trkpt><trkpt lat="69.5142935" lon="26.5655558"></trkpt><trkpt lat="69.5145422" lon="26.5656979"></trkpt><trkpt lat="69.5146738" lon="26.5657957"></trkpt><trkpt lat="69.5147683" lon="26.5658659"></trkpt><trkpt lat="69.5148769" lon="26.5661114"></trkpt><trkpt lat="69.5150668" lon="26.5662794"></trkpt><trkpt lat="69.5151036" lon="26.5665016"></trkpt><trkpt lat="69.515064" lon="26.5668475"></trkpt><trkpt lat="69.5153262" lon="26.5683346"></trkpt><trkpt lat="69.5155432" lon="26.5693282"></trkpt><trkpt lat="69.5156183" lon="26.5698066"></trkpt><trkpt lat="69.5156483" lon="26.5702068"></trkpt><trkpt lat="69.5157909" lon="26.570564"></trkpt><trkpt lat="69.5161778" lon="26.5729394"></trkpt><trkpt lat="69.5163585" lon="26.5730807"></trkpt><trkpt lat="69.5165476" lon="26.573733"></trkpt><trkpt lat="69.5168787" lon="26.5747616"></trkpt><trkpt lat="69.5169253" lon="26.5749063"></trkpt><trkpt lat="69.5171828" lon="26.5762762"></trkpt><trkpt lat="69.5174836" lon="26.577608"></trkpt><trkpt lat="69.5175765" lon="26.5783865"></trkpt><trkpt lat="69.5177157" lon="26.5786924"></trkpt><trkpt lat="69.5177855" lon="26.5790156"></trkpt><trkpt lat="69.5178826" lon="26.5793248"></trkpt><trkpt lat="69.5179676" lon="26.5801536"></trkpt><trkpt lat="69.5180432" lon="26.5804317"></trkpt><trkpt lat="69.5181134" lon="26.5808463"></trkpt><trkpt lat="69.5185345" lon="26.5820263"></trkpt><trkpt lat="69.5185867" lon="26.5823945"></trkpt><trkpt lat="69.5187931" lon="26.5831037"></trkpt><trkpt lat="69.5189179" lon="26.5834063"></trkpt><trkpt lat="69.5189787" lon="26.5837011"></trkpt><trkpt lat="69.5190481" lon="26.58383"></trkpt><trkpt lat="69.5191176" lon="26.5840755"></trkpt><trkpt lat="69.5192591" lon="26.5844581"></trkpt><trkpt lat="69.5193667" lon="26.5846696"></trkpt><trkpt lat="69.519645" lon="26.5852077"></trkpt><trkpt lat="69.5197387" lon="26.5854449"></trkpt><trkpt lat="69.5198604" lon="26.5856125"></trkpt><trkpt lat="69.5200765" lon="26.5859952"></trkpt><trkpt lat="69.5202284" lon="26.5864586"></trkpt><trkpt lat="69.5207188" lon="26.5877283"></trkpt><trkpt lat="69.5208493" lon="26.5878746"></trkpt><trkpt lat="69.5209703" lon="26.588129"></trkpt><trkpt lat="69.5210812" lon="26.5882964"></trkpt><trkpt lat="69.5211443" lon="26.5885793"></trkpt><trkpt lat="69.5212875" lon="26.5887424"></trkpt><trkpt lat="69.5213596" lon="26.5887751"></trkpt><trkpt lat="69.5214937" lon="26.5891087"></trkpt><trkpt lat="69.5215974" lon="26.5891379"></trkpt><trkpt lat="69.521678" lon="26.5892832"></trkpt><trkpt lat="69.5219362" lon="26.5896024"></trkpt><trkpt lat="69.5222253" lon="26.5903549"></trkpt><trkpt lat="69.5223318" lon="26.5906517"></trkpt><trkpt lat="69.5224079" lon="26.5909341"></trkpt><trkpt lat="69.5224891" lon="26.5910783"></trkpt><trkpt lat="69.5228639" lon="26.5918879"></trkpt><trkpt lat="69.5230257" lon="26.5918857"></trkpt><trkpt lat="69.5231763" lon="26.5920881"></trkpt><trkpt lat="69.5232072" lon="26.5920776"></trkpt><trkpt lat="69.523266" lon="26.592076"></trkpt><trkpt lat="69.5233077" lon="26.592144"></trkpt><trkpt lat="69.5233396" lon="26.5921649"></trkpt><trkpt lat="69.5233569" lon="26.5921436"></trkpt><trkpt lat="69.5234451" lon="26.5921844"></trkpt><trkpt lat="69.523473" lon="26.5923151"></trkpt><trkpt lat="69.5234839" lon="26.5924617"></trkpt><trkpt lat="69.5234761" lon="26.5925469"></trkpt><trkpt lat="69.5234976" lon="26.5927131"></trkpt><trkpt lat="69.5235616" lon="26.5929001"></trkpt><trkpt lat="69.5235851" lon="26.5929114"></trkpt><trkpt lat="69.5235988" lon="26.5929409"></trkpt><trkpt lat="69.523606" lon="26.5930263"></trkpt><trkpt lat="69.5236153" lon="26.5930669"></trkpt><trkpt lat="69.5236645" lon="26.5931157"></trkpt><trkpt lat="69.5237223" lon="26.5933184"></trkpt><trkpt lat="69.5238046" lon="26.5934261"></trkpt><trkpt lat="69.523852" lon="26.5935494"></trkpt><trkpt lat="69.5239244" lon="26.5936447"></trkpt><trkpt lat="69.5239588" lon="26.5937515"></trkpt><trkpt lat="69.5240679" lon="26.5937693"></trkpt><trkpt lat="69.5241659" lon="26.593776"></trkpt><trkpt lat="69.5241776" lon="26.5938673"></trkpt><trkpt lat="69.5242079" lon="26.5939419"></trkpt><trkpt lat="69.5243251" lon="26.5940741"></trkpt><trkpt lat="69.5243749" lon="26.5941435"></trkpt><trkpt lat="69.5243865" lon="26.5942474"></trkpt><trkpt lat="69.5244121" lon="26.5943677"></trkpt><trkpt lat="69.5244232" lon="26.5945154"></trkpt><trkpt lat="69.5245626" lon="26.5949669"></trkpt><trkpt lat="69.524636" lon="26.5954296"></trkpt><trkpt lat="69.5246453" lon="26.5955867"></trkpt><trkpt lat="69.5246603" lon="26.5956794"></trkpt><trkpt lat="69.5246703" lon="26.5957014"></trkpt><trkpt lat="69.5247048" lon="26.5957032"></trkpt><trkpt lat="69.5247277" lon="26.5957429"></trkpt><trkpt lat="69.5247281" lon="26.5958293"></trkpt><trkpt lat="69.5247408" lon="26.5959215"></trkpt><trkpt lat="69.5248201" lon="26.5961761"></trkpt><trkpt lat="69.5248629" lon="26.5964771"></trkpt><trkpt lat="69.5249898" lon="26.5968118"></trkpt><trkpt lat="69.5250232" lon="26.5969401"></trkpt><trkpt lat="69.525049" lon="26.5971256"></trkpt><trkpt lat="69.5250771" lon="26.5972311"></trkpt><trkpt lat="69.5250898" lon="26.597331"></trkpt><trkpt lat="69.5251353" lon="26.5973851"></trkpt><trkpt lat="69.5251975" lon="26.5975535"></trkpt><trkpt lat="69.5252779" lon="26.5978682"></trkpt><trkpt lat="69.525284" lon="26.5979881"></trkpt><trkpt lat="69.5252987" lon="26.5980753"></trkpt><trkpt lat="69.5253815" lon="26.598316"></trkpt><trkpt lat="69.5254093" lon="26.598394"></trkpt><trkpt lat="69.5254446" lon="26.5984557"></trkpt><trkpt lat="69.5254858" lon="26.5986635"></trkpt><trkpt lat="69.5255478" lon="26.5989419"></trkpt><trkpt lat="69.525571" lon="26.5990102"></trkpt><trkpt lat="69.5255958" lon="26.5990359"></trkpt><trkpt lat="69.5256155" lon="26.5990898"></trkpt><trkpt lat="69.5256323" lon="26.599187"></trkpt><trkpt lat="69.525649" lon="26.5993422"></trkpt><trkpt lat="69.5257038" lon="26.5995227"></trkpt><trkpt lat="69.525709" lon="26.5996"></trkpt><trkpt lat="69.5257415" lon="26.5997128"></trkpt><trkpt lat="69.5257773" lon="26.5997678"></trkpt><trkpt lat="69.5257882" lon="26.5998395"></trkpt><trkpt lat="69.5258251" lon="26.5999029"></trkpt><trkpt lat="69.5258768" lon="26.6000711"></trkpt><trkpt lat="69.5259079" lon="26.60009"></trkpt><trkpt lat="69.5259472" lon="26.6001928"></trkpt><trkpt lat="69.5259649" lon="26.6003238"></trkpt><trkpt lat="69.5260093" lon="26.6005418"></trkpt><trkpt lat="69.5260793" lon="26.6007729"></trkpt><trkpt lat="69.526099" lon="26.6010012"></trkpt><trkpt lat="69.5261572" lon="26.6013927"></trkpt><trkpt lat="69.5262504" lon="26.6016878"></trkpt><trkpt lat="69.5263631" lon="26.60226"></trkpt><trkpt lat="69.5264697" lon="26.6027068"></trkpt><trkpt lat="69.5265674" lon="26.6032618"></trkpt><trkpt lat="69.5265961" lon="26.6033848"></trkpt><trkpt lat="69.5266616" lon="26.6035559"></trkpt><trkpt lat="69.5266907" lon="26.60374"></trkpt><trkpt lat="69.5267266" lon="26.6040616"></trkpt><trkpt lat="69.5267297" lon="26.6044714"></trkpt><trkpt lat="69.526697" lon="26.6047401"></trkpt><trkpt lat="69.5267033" lon="26.6048649"></trkpt><trkpt lat="69.5266639" lon="26.6056301"></trkpt><trkpt lat="69.5266909" lon="26.6058317"></trkpt><trkpt lat="69.5267064" lon="26.6062401"></trkpt><trkpt lat="69.5266995" lon="26.6063356"></trkpt><trkpt lat="69.5266724" lon="26.6064414"></trkpt><trkpt lat="69.5266596" lon="26.6066406"></trkpt><trkpt lat="69.5266617" lon="26.6067869"></trkpt><trkpt lat="69.5266582" lon="26.606903"></trkpt><trkpt lat="69.5266544" lon="26.6070674"></trkpt><trkpt lat="69.526632" lon="26.6071329"></trkpt><trkpt lat="69.5266206" lon="26.6074358"></trkpt><trkpt lat="69.5267064" lon="26.6095963"></trkpt><trkpt lat="69.5264612" lon="26.6104414"></trkpt><trkpt lat="69.5264205" lon="26.6105818"></trkpt><trkpt lat="69.5263678" lon="26.6108875"></trkpt><trkpt lat="69.5263353" lon="26.6110997"></trkpt><trkpt lat="69.5263097" lon="26.6114931"></trkpt><trkpt lat="69.5262369" lon="26.6118289"></trkpt><trkpt lat="69.5262238" lon="26.6119659"></trkpt><trkpt lat="69.5261846" lon="26.612068"></trkpt><trkpt lat="69.5261308" lon="26.6123215"></trkpt><trkpt lat="69.5260874" lon="26.6124789"></trkpt><trkpt lat="69.5260754" lon="26.6126458"></trkpt><trkpt lat="69.526056" lon="26.6130104"></trkpt><trkpt lat="69.5260989" lon="26.6131867"></trkpt><trkpt lat="69.5260868" lon="26.6134657"></trkpt><trkpt lat="69.5261556" lon="26.6139999"></trkpt><trkpt lat="69.52616" lon="26.6142867"></trkpt><trkpt lat="69.5259968" lon="26.6160015"></trkpt><trkpt lat="69.5260693" lon="26.6170467"></trkpt><trkpt lat="69.5260282" lon="26.6175945"></trkpt><trkpt lat="69.5261012" lon="26.6178814"></trkpt><trkpt lat="69.526124" lon="26.6186769"></trkpt><trkpt lat="69.5262791" lon="26.6197203"></trkpt><trkpt lat="69.5262563" lon="26.6204506"></trkpt><trkpt lat="69.5262654" lon="26.6208549"></trkpt><trkpt lat="69.5263293" lon="26.6211288"></trkpt><trkpt lat="69.5264981" lon="26.6213636"></trkpt><trkpt lat="69.5265311" lon="26.6214272"></trkpt><trkpt lat="69.5266279" lon="26.6217906"></trkpt><trkpt lat="69.526697" lon="26.6219293"></trkpt><trkpt lat="69.5268537" lon="26.6219679"></trkpt><trkpt lat="69.5268225" lon="26.6224085"></trkpt><trkpt lat="69.5269021" lon="26.6224628"></trkpt><trkpt lat="69.5270196" lon="26.6227555"></trkpt><trkpt lat="69.527122" lon="26.6228855"></trkpt><trkpt lat="69.5272972" lon="26.6228122"></trkpt><trkpt lat="69.5273407" lon="26.6229534"></trkpt><trkpt lat="69.5273804" lon="26.6229889"></trkpt><trkpt lat="69.5275208" lon="26.6230208"></trkpt><trkpt lat="69.5275589" lon="26.6230609"></trkpt><trkpt lat="69.5275868" lon="26.6232485"></trkpt><trkpt lat="69.5276451" lon="26.6232912"></trkpt><trkpt lat="69.5276755" lon="26.6233859"></trkpt><trkpt lat="69.527705" lon="26.6234827"></trkpt><trkpt lat="69.5277383" lon="26.6234945"></trkpt><trkpt lat="69.5277653" lon="26.6234363"></trkpt><trkpt lat="69.5277852" lon="26.6234301"></trkpt><trkpt lat="69.5277939" lon="26.6234777"></trkpt><trkpt lat="69.527787" lon="26.62374"></trkpt><trkpt lat="69.5278165" lon="26.6238579"></trkpt><trkpt lat="69.527854" lon="26.6239835"></trkpt><trkpt lat="69.5279424" lon="26.6239822"></trkpt><trkpt lat="69.5279701" lon="26.6240312"></trkpt><trkpt lat="69.5279862" lon="26.6241378"></trkpt><trkpt lat="69.528035" lon="26.6241337"></trkpt><trkpt lat="69.5280649" lon="26.6241589"></trkpt><trkpt lat="69.5280948" lon="26.6241535"></trkpt><trkpt lat="69.5281179" lon="26.6242727"></trkpt><trkpt lat="69.5281465" lon="26.624261"></trkpt><trkpt lat="69.5281701" lon="26.6243613"></trkpt><trkpt lat="69.5282045" lon="26.624419"></trkpt><trkpt lat="69.528222" lon="26.6245191"></trkpt><trkpt lat="69.5282553" lon="26.624544"></trkpt><trkpt lat="69.5283139" lon="26.6245104"></trkpt><trkpt lat="69.5283781" lon="26.6246355"></trkpt><trkpt lat="69.528434" lon="26.6247098"></trkpt><trkpt lat="69.5284951" lon="26.6247883"></trkpt><trkpt lat="69.5285403" lon="26.6247982"></trkpt><trkpt lat="69.5285683" lon="26.6248173"></trkpt><trkpt lat="69.5286141" lon="26.6249533"></trkpt><trkpt lat="69.5286241" lon="26.6250696"></trkpt><trkpt lat="69.5290426" lon="26.6257763"></trkpt><trkpt lat="69.5290938" lon="26.6259929"></trkpt><trkpt lat="69.5291254" lon="26.6261697"></trkpt><trkpt lat="69.5291993" lon="26.6263527"></trkpt><trkpt lat="69.5292584" lon="26.6264035"></trkpt><trkpt lat="69.5292795" lon="26.6265356"></trkpt><trkpt lat="69.5293173" lon="26.6266276"></trkpt><trkpt lat="69.5293443" lon="26.6267311"></trkpt><trkpt lat="69.5294019" lon="26.6267644"></trkpt><trkpt lat="69.5294356" lon="26.6269363"></trkpt><trkpt lat="69.5294949" lon="26.6269641"></trkpt><trkpt lat="69.5295129" lon="26.6270665"></trkpt><trkpt lat="69.5295572" lon="26.6272242"></trkpt><trkpt lat="69.5295713" lon="26.6273115"></trkpt><trkpt lat="69.5296797" lon="26.6275473"></trkpt><trkpt lat="69.5297264" lon="26.6277372"></trkpt><trkpt lat="69.5298366" lon="26.6278666"></trkpt><trkpt lat="69.5298877" lon="26.6278349"></trkpt><trkpt lat="69.5299845" lon="26.6278657"></trkpt><trkpt lat="69.5300234" lon="26.6280286"></trkpt><trkpt lat="69.5300826" lon="26.6281498"></trkpt><trkpt lat="69.530117" lon="26.628326"></trkpt><trkpt lat="69.5301245" lon="26.6287063"></trkpt><trkpt lat="69.530166" lon="26.6289541"></trkpt><trkpt lat="69.5302174" lon="26.6292404"></trkpt><trkpt lat="69.5302749" lon="26.6294663"></trkpt><trkpt lat="69.5303169" lon="26.629884"></trkpt><trkpt lat="69.5303543" lon="26.6302284"></trkpt><trkpt lat="69.5304074" lon="26.6304672"></trkpt><trkpt lat="69.5304029" lon="26.630769"></trkpt><trkpt lat="69.5303812" lon="26.6308633"></trkpt><trkpt lat="69.5303773" lon="26.6311413"></trkpt><trkpt lat="69.53036" lon="26.631259"></trkpt><trkpt lat="69.5303492" lon="26.6315146"></trkpt><trkpt lat="69.5303581" lon="26.6318297"></trkpt><trkpt lat="69.5303769" lon="26.6319321"></trkpt><trkpt lat="69.5303591" lon="26.6321679"></trkpt><trkpt lat="69.5303832" lon="26.6323051"></trkpt><trkpt lat="69.5304041" lon="26.6325566"></trkpt><trkpt lat="69.5304745" lon="26.6331153"></trkpt><trkpt lat="69.5304877" lon="26.6333854"></trkpt><trkpt lat="69.5305298" lon="26.6335965"></trkpt><trkpt lat="69.5305821" lon="26.6337547"></trkpt><trkpt lat="69.53062" lon="26.633799"></trkpt><trkpt lat="69.5306854" lon="26.6338354"></trkpt><trkpt lat="69.5307199" lon="26.633921"></trkpt><trkpt lat="69.5307707" lon="26.6339696"></trkpt><trkpt lat="69.5308839" lon="26.634122"></trkpt><trkpt lat="69.5310207" lon="26.6342251"></trkpt><trkpt lat="69.5311451" lon="26.634246"></trkpt><trkpt lat="69.5311979" lon="26.6343439"></trkpt><trkpt lat="69.5312785" lon="26.6343959"></trkpt><trkpt lat="69.5313127" lon="26.634428"></trkpt><trkpt lat="69.5313423" lon="26.63461"></trkpt><trkpt lat="69.5314649" lon="26.6349097"></trkpt><trkpt lat="69.5314922" lon="26.6352196"></trkpt><trkpt lat="69.5315186" lon="26.6354304"></trkpt><trkpt lat="69.5316177" lon="26.63579"></trkpt><trkpt lat="69.5316529" lon="26.6360845"></trkpt><trkpt lat="69.5317399" lon="26.6361898"></trkpt><trkpt lat="69.531795" lon="26.6363167"></trkpt><trkpt lat="69.5318487" lon="26.6364897"></trkpt><trkpt lat="69.5319012" lon="26.6367896"></trkpt><trkpt lat="69.532082" lon="26.6372019"></trkpt><trkpt lat="69.5321303" lon="26.637504"></trkpt><trkpt lat="69.5321667" lon="26.6377016"></trkpt><trkpt lat="69.5321985" lon="26.6382559"></trkpt><trkpt lat="69.5322323" lon="26.6384643"></trkpt><trkpt lat="69.5322937" lon="26.6386603"></trkpt><trkpt lat="69.5323518" lon="26.6390088"></trkpt><trkpt lat="69.5323688" lon="26.6391031"></trkpt><trkpt lat="69.5324244" lon="26.639196"></trkpt><trkpt lat="69.5324595" lon="26.6393943"></trkpt><trkpt lat="69.5325594" lon="26.6395486"></trkpt><trkpt lat="69.5326483" lon="26.6397537"></trkpt><trkpt lat="69.5329276" lon="26.6401455"></trkpt><trkpt lat="69.5336098" lon="26.641297"></trkpt><trkpt lat="69.5343924" lon="26.6432485"></trkpt><trkpt lat="69.5347547" lon="26.6436464"></trkpt><trkpt lat="69.5349993" lon="26.6437078"></trkpt><trkpt lat="69.5353162" lon="26.6443332"></trkpt><trkpt lat="69.5354806" lon="26.644444"></trkpt><trkpt lat="69.5356569" lon="26.6450211"></trkpt><trkpt lat="69.5358332" lon="26.6454299"></trkpt><trkpt lat="69.536114" lon="26.6460413"></trkpt><trkpt lat="69.5363665" lon="26.6463768"></trkpt><trkpt lat="69.5364777" lon="26.6464936"></trkpt><trkpt lat="69.5371567" lon="26.6450988"></trkpt><trkpt lat="69.5372916" lon="26.6445844"></trkpt><trkpt lat="69.5388089" lon="26.6424946"></trkpt><trkpt lat="69.5394158" lon="26.6419802"></trkpt><trkpt lat="69.5397248" lon="26.6413212"></trkpt><trkpt lat="69.5402923" lon="26.6410318"></trkpt></trkseg><trkseg><trkpt lat="69.5402923" lon="26.6410318"></trkpt><trkpt lat="69.5405958" lon="26.6411122"></trkpt><trkpt lat="69.5410678" lon="26.6409193"></trkpt><trkpt lat="69.5415229" lon="26.6414015"></trkpt><trkpt lat="69.5419218" lon="26.6428965"></trkpt><trkpt lat="69.5421409" lon="26.6432984"></trkpt><trkpt lat="69.5424556" lon="26.6434913"></trkpt><trkpt lat="69.5427927" lon="26.6432984"></trkpt><trkpt lat="69.543214" lon="26.6434752"></trkpt><trkpt lat="69.5437253" lon="26.6434109"></trkpt><trkpt lat="69.5440849" lon="26.6436842"></trkpt><trkpt lat="69.544377" lon="26.6437485"></trkpt><trkpt lat="69.5445389" lon="26.6441255"></trkpt><trkpt lat="69.5446786" lon="26.6442804"></trkpt><trkpt lat="69.5447478" lon="26.6445362"></trkpt><trkpt lat="69.5448765" lon="26.6446324"></trkpt><trkpt lat="69.5450291" lon="26.6448824"></trkpt><trkpt lat="69.5452758" lon="26.6450315"></trkpt><trkpt lat="69.5454918" lon="26.6455772"></trkpt><trkpt lat="69.545602" lon="26.6456853"></trkpt><trkpt lat="69.545788" lon="26.6461576"></trkpt><trkpt lat="69.5459633" lon="26.646562"></trkpt><trkpt lat="69.5462091" lon="26.6471684"></trkpt><trkpt lat="69.5463277" lon="26.6474884"></trkpt><trkpt lat="69.5463992" lon="26.6478084"></trkpt><trkpt lat="69.5465304" lon="26.6480782"></trkpt><trkpt lat="69.5466634" lon="26.6486514"></trkpt><trkpt lat="69.5468263" lon="26.6495034"></trkpt><trkpt lat="69.5470004" lon="26.6499696"></trkpt><trkpt lat="69.5471408" lon="26.6507572"></trkpt><trkpt lat="69.5476352" lon="26.6516414"></trkpt><trkpt lat="69.54777" lon="26.652429"></trkpt><trkpt lat="69.5480003" lon="26.6529917"></trkpt><trkpt lat="69.548107" lon="26.6540687"></trkpt><trkpt lat="69.5483766" lon="26.654985"></trkpt><trkpt lat="69.5484328" lon="26.6554833"></trkpt><trkpt lat="69.5486069" lon="26.6563031"></trkpt><trkpt lat="69.5486181" lon="26.6568818"></trkpt><trkpt lat="69.5488703" lon="26.6580515"></trkpt><trkpt lat="69.5489224" lon="26.6583654"></trkpt><trkpt lat="69.5489391" lon="26.6585117"></trkpt><trkpt lat="69.5489799" lon="26.6587163"></trkpt><trkpt lat="69.5490351" lon="26.6588782"></trkpt><trkpt lat="69.5490514" lon="26.6589767"></trkpt><trkpt lat="69.5490784" lon="26.6590466"></trkpt><trkpt lat="69.5491427" lon="26.6594853"></trkpt><trkpt lat="69.549185" lon="26.6596598"></trkpt><trkpt lat="69.5492145" lon="26.6599455"></trkpt><trkpt lat="69.5492717" lon="26.6603661"></trkpt><trkpt lat="69.5492701" lon="26.6605644"></trkpt><trkpt lat="69.54925" lon="26.6607945"></trkpt><trkpt lat="69.5492271" lon="26.6609981"></trkpt><trkpt lat="69.5492037" lon="26.6611581"></trkpt><trkpt lat="69.5492061" lon="26.6612758"></trkpt><trkpt lat="69.5492258" lon="26.6614458"></trkpt><trkpt lat="69.5492273" lon="26.6616393"></trkpt><trkpt lat="69.5492529" lon="26.6618116"></trkpt><trkpt lat="69.5492896" lon="26.6619422"></trkpt><trkpt lat="69.5493745" lon="26.6621416"></trkpt><trkpt lat="69.5493905" lon="26.6622631"></trkpt><trkpt lat="69.5494102" lon="26.6624613"></trkpt><trkpt lat="69.5494422" lon="26.6626937"></trkpt><trkpt lat="69.5495224" lon="26.6630636"></trkpt><trkpt lat="69.5495602" lon="26.6632114"></trkpt><trkpt lat="69.5496394" lon="26.6632848"></trkpt><trkpt lat="69.5497695" lon="26.6635371"></trkpt><trkpt lat="69.5498318" lon="26.6635734"></trkpt><trkpt lat="69.5498925" lon="26.6636841"></trkpt><trkpt lat="69.549933" lon="26.6637236"></trkpt><trkpt lat="69.5500151" lon="26.6638477"></trkpt><trkpt lat="69.5500985" lon="26.664076"></trkpt><trkpt lat="69.5501976" lon="26.6642405"></trkpt><trkpt lat="69.5502461" lon="26.664447"></trkpt><trkpt lat="69.5503003" lon="26.6645477"></trkpt><trkpt lat="69.5503522" lon="26.6647126"></trkpt><trkpt lat="69.550454" lon="26.664914"></trkpt><trkpt lat="69.5505197" lon="26.6649777"></trkpt><trkpt lat="69.5505484" lon="26.6650547"></trkpt><trkpt lat="69.5506504" lon="26.6653076"></trkpt><trkpt lat="69.5507207" lon="26.6654499"></trkpt><trkpt lat="69.5507893" lon="26.6657562"></trkpt><trkpt lat="69.5508876" lon="26.6659646"></trkpt><trkpt lat="69.5509029" lon="26.6660349"></trkpt><trkpt lat="69.5509107" lon="26.6661527"></trkpt><trkpt lat="69.5510521" lon="26.666645"></trkpt><trkpt lat="69.5510792" lon="26.6668787"></trkpt><trkpt lat="69.5511949" lon="26.6674617"></trkpt><trkpt lat="69.5512679" lon="26.6678338"></trkpt><trkpt lat="69.5513032" lon="26.667981"></trkpt><trkpt lat="69.5513275" lon="26.6681495"></trkpt><trkpt lat="69.5513556" lon="26.66828"></trkpt><trkpt lat="69.5513926" lon="26.6684792"></trkpt><trkpt lat="69.5514073" lon="26.6686679"></trkpt><trkpt lat="69.5514475" lon="26.6687795"></trkpt><trkpt lat="69.5514655" lon="26.668981"></trkpt><trkpt lat="69.5515094" lon="26.6691428"></trkpt><trkpt lat="69.5515228" lon="26.6692596"></trkpt><trkpt lat="69.5516468" lon="26.6697653"></trkpt><trkpt lat="69.5516785" lon="26.6699272"></trkpt><trkpt lat="69.5517332" lon="26.6699969"></trkpt><trkpt lat="69.5517731" lon="26.6701618"></trkpt><trkpt lat="69.5518269" lon="26.6702923"></trkpt><trkpt lat="69.5519047" lon="26.670497"></trkpt><trkpt lat="69.5519396" lon="26.6707505"></trkpt><trkpt lat="69.5519653" lon="26.6708323"></trkpt><trkpt lat="69.5519948" lon="26.6709658"></trkpt><trkpt lat="69.5520317" lon="26.6710305"></trkpt><trkpt lat="69.5520546" lon="26.67121"></trkpt><trkpt lat="69.5521929" lon="26.6716884"></trkpt><trkpt lat="69.5522109" lon="26.6718787"></trkpt><trkpt lat="69.5522456" lon="26.6721219"></trkpt><trkpt lat="69.5522982" lon="26.6724656"></trkpt><trkpt lat="69.5523814" lon="26.6728053"></trkpt><trkpt lat="69.5524146" lon="26.6729862"></trkpt><trkpt lat="69.5524949" lon="26.6732214"></trkpt><trkpt lat="69.5525215" lon="26.6734672"></trkpt><trkpt lat="69.5526337" lon="26.6739881"></trkpt><trkpt lat="69.5526731" lon="26.6742485"></trkpt><trkpt lat="69.5527671" lon="26.6745565"></trkpt><trkpt lat="69.5527986" lon="26.6747735"></trkpt><trkpt lat="69.5528036" lon="26.6751035"></trkpt><trkpt lat="69.5528283" lon="26.6753161"></trkpt><trkpt lat="69.5528739" lon="26.6754938"></trkpt><trkpt lat="69.552925" lon="26.6757192"></trkpt><trkpt lat="69.5529452" lon="26.6758707"></trkpt><trkpt lat="69.5529488" lon="26.6760486"></trkpt><trkpt lat="69.5529773" lon="26.6762861"></trkpt><trkpt lat="69.5529823" lon="26.6765371"></trkpt><trkpt lat="69.5530021" lon="26.6767299"></trkpt><trkpt lat="69.5530327" lon="26.6768311"></trkpt><trkpt lat="69.5530545" lon="26.6769557"></trkpt><trkpt lat="69.5530559" lon="26.6770592"></trkpt><trkpt lat="69.553132" lon="26.677378"></trkpt><trkpt lat="69.553184" lon="26.6776492"></trkpt><trkpt lat="69.5532471" lon="26.6778675"></trkpt><trkpt lat="69.5533973" lon="26.6781892"></trkpt><trkpt lat="69.5534972" lon="26.678486"></trkpt><trkpt lat="69.5535658" lon="26.6787404"></trkpt><trkpt lat="69.5536144" lon="26.6790193"></trkpt><trkpt lat="69.5536267" lon="26.679172"></trkpt><trkpt lat="69.5536519" lon="26.6792771"></trkpt><trkpt lat="69.5537983" lon="26.6796734"></trkpt><trkpt lat="69.5539314" lon="26.6799413"></trkpt><trkpt lat="69.5540405" lon="26.6802726"></trkpt><trkpt lat="69.5542143" lon="26.680713"></trkpt><trkpt lat="69.5543424" lon="26.6808497"></trkpt><trkpt lat="69.55438" lon="26.6808541"></trkpt><trkpt lat="69.5545059" lon="26.6810782"></trkpt><trkpt lat="69.554554" lon="26.6811297"></trkpt><trkpt lat="69.5546371" lon="26.6811494"></trkpt><trkpt lat="69.5547739" lon="26.6812206"></trkpt><trkpt lat="69.5549254" lon="26.6813312"></trkpt><trkpt lat="69.5551293" lon="26.681662"></trkpt><trkpt lat="69.5551871" lon="26.6817864"></trkpt><trkpt lat="69.5553096" lon="26.6821393"></trkpt><trkpt lat="69.5553515" lon="26.6822813"></trkpt><trkpt lat="69.55541" lon="26.682381"></trkpt><trkpt lat="69.5554733" lon="26.6824587"></trkpt><trkpt lat="69.5555169" lon="26.682532"></trkpt><trkpt lat="69.5556086" lon="26.6826476"></trkpt><trkpt lat="69.5556614" lon="26.6827811"></trkpt><trkpt lat="69.5556958" lon="26.6829146"></trkpt><trkpt lat="69.5557794" lon="26.6830678"></trkpt><trkpt lat="69.5558533" lon="26.683363"></trkpt><trkpt lat="69.5559152" lon="26.6836689"></trkpt><trkpt lat="69.5559595" lon="26.6838586"></trkpt><trkpt lat="69.5559983" lon="26.6840907"></trkpt><trkpt lat="69.5560582" lon="26.6843856"></trkpt><trkpt lat="69.556099" lon="26.6845277"></trkpt><trkpt lat="69.556218" lon="26.6848429"></trkpt><trkpt lat="69.5563574" lon="26.6851369"></trkpt><trkpt lat="69.5563824" lon="26.6852327"></trkpt><trkpt lat="69.556437" lon="26.685519"></trkpt><trkpt lat="69.5564831" lon="26.6856484"></trkpt><trkpt lat="69.5566021" lon="26.6858068"></trkpt><trkpt lat="69.5566758" lon="26.6858654"></trkpt><trkpt lat="69.5567273" lon="26.6859346"></trkpt><trkpt lat="69.55694" lon="26.6862682"></trkpt><trkpt lat="69.5571072" lon="26.6863263"></trkpt><trkpt lat="69.5571998" lon="26.6863574"></trkpt><trkpt lat="69.5572592" lon="26.6863408"></trkpt><trkpt lat="69.5574254" lon="26.6861566"></trkpt><trkpt lat="69.5575176" lon="26.6861522"></trkpt><trkpt lat="69.5577759" lon="26.6862537"></trkpt><trkpt lat="69.5579076" lon="26.6862827"></trkpt><trkpt lat="69.5580849" lon="26.6865148"></trkpt><trkpt lat="69.5584294" lon="26.6878637"></trkpt><trkpt lat="69.5585712" lon="26.6894447"></trkpt><trkpt lat="69.5586776" lon="26.6899959"></trkpt><trkpt lat="69.5590018" lon="26.6910112"></trkpt><trkpt lat="69.5591133" lon="26.6915769"></trkpt><trkpt lat="69.5591386" lon="26.6925341"></trkpt><trkpt lat="69.5590423" lon="26.6939556"></trkpt><trkpt lat="69.5590423" lon="26.6955801"></trkpt><trkpt lat="69.5589917" lon="26.6966534"></trkpt><trkpt lat="69.559174" lon="26.6979443"></trkpt><trkpt lat="69.5593311" lon="26.6983359"></trkpt><trkpt lat="69.5602986" lon="26.7000764"></trkpt><trkpt lat="69.5605518" lon="26.7002215"></trkpt><trkpt lat="69.5611698" lon="26.7010918"></trkpt><trkpt lat="69.5617928" lon="26.7012078"></trkpt><trkpt lat="69.5621726" lon="26.7014544"></trkpt><trkpt lat="69.5625677" lon="26.7023246"></trkpt><trkpt lat="69.5635705" lon="26.7038331"></trkpt><trkpt lat="69.5638997" lon="26.7038911"></trkpt><trkpt lat="69.5642035" lon="26.7043988"></trkpt><trkpt lat="69.5643504" lon="26.7045728"></trkpt><trkpt lat="69.5648568" lon="26.7058057"></trkpt><trkpt lat="69.5658747" lon="26.7076623"></trkpt><trkpt lat="69.566062" lon="26.7081554"></trkpt><trkpt lat="69.5661431" lon="26.7088226"></trkpt><trkpt lat="69.5666646" lon="26.7112013"></trkpt><trkpt lat="69.5668368" lon="26.7127678"></trkpt><trkpt lat="69.567014" lon="26.71329"></trkpt><trkpt lat="69.5671153" lon="26.7143053"></trkpt><trkpt lat="69.5672723" lon="26.7144648"></trkpt><trkpt lat="69.5676166" lon="26.7151465"></trkpt><trkpt lat="69.5678394" lon="26.7158283"></trkpt><trkpt lat="69.5680014" lon="26.7159878"></trkpt><trkpt lat="69.5681533" lon="26.716684"></trkpt><trkpt lat="69.5684774" lon="26.7172207"></trkpt><trkpt lat="69.5686495" lon="26.7177718"></trkpt><trkpt lat="69.5693837" lon="26.7205277"></trkpt><trkpt lat="69.5697381" lon="26.7221667"></trkpt><trkpt lat="69.5701431" lon="26.7234576"></trkpt><trkpt lat="69.5705431" lon="26.7241248"></trkpt><trkpt lat="69.5709633" lon="26.7252706"></trkpt><trkpt lat="69.5713177" lon="26.7268806"></trkpt><trkpt lat="69.5720568" lon="26.7306373"></trkpt><trkpt lat="69.5724264" lon="26.7325374"></trkpt><trkpt lat="69.5725985" lon="26.7333206"></trkpt><trkpt lat="69.5730339" lon="26.7343649"></trkpt><trkpt lat="69.5731351" lon="26.7349306"></trkpt><trkpt lat="69.5732769" lon="26.7352352"></trkpt><trkpt lat="69.5733325" lon="26.7358299"></trkpt><trkpt lat="69.5733427" lon="26.7367146"></trkpt><trkpt lat="69.5733882" lon="26.7375704"></trkpt><trkpt lat="69.5733882" lon="26.7381651"></trkpt><trkpt lat="69.5733933" lon="26.7387888"></trkpt><trkpt lat="69.5733325" lon="26.7405728"></trkpt><trkpt lat="69.5731301" lon="26.7430821"></trkpt><trkpt lat="69.5731301" lon="26.7449822"></trkpt><trkpt lat="69.5730643" lon="26.7462585"></trkpt><trkpt lat="69.5731149" lon="26.7467662"></trkpt><trkpt lat="69.5729377" lon="26.7487388"></trkpt><trkpt lat="69.5730645" lon="26.749274"></trkpt><trkpt lat="69.5731927" lon="26.7501925"></trkpt><trkpt lat="69.5732248" lon="26.7513867"></trkpt><trkpt lat="69.5735197" lon="26.7537933"></trkpt><trkpt lat="69.5739237" lon="26.7548772"></trkpt><trkpt lat="69.5740391" lon="26.756108"></trkpt><trkpt lat="69.573975" lon="26.7566224"></trkpt><trkpt lat="69.573975" lon="26.7572838"></trkpt><trkpt lat="69.5740519" lon="26.7576512"></trkpt><trkpt lat="69.573975" lon="26.7587351"></trkpt><trkpt lat="69.5741481" lon="26.7597639"></trkpt><trkpt lat="69.5740455" lon="26.7607559"></trkpt><trkpt lat="69.5741288" lon="26.7613254"></trkpt><trkpt lat="69.5740583" lon="26.7623358"></trkpt><trkpt lat="69.5740819" lon="26.7624802"></trkpt><trkpt lat="69.5742186" lon="26.7628135"></trkpt><trkpt lat="69.574334" lon="26.7628135"></trkpt><trkpt lat="69.5743934" lon="26.7629005"></trkpt><trkpt lat="69.5744045" lon="26.7631625"></trkpt><trkpt lat="69.5743356" lon="26.763942"></trkpt><trkpt lat="69.5743515" lon="26.7640469"></trkpt><trkpt lat="69.574452" lon="26.7643458"></trkpt><trkpt lat="69.5745007" lon="26.7645771"></trkpt><trkpt lat="69.5745199" lon="26.7650364"></trkpt><trkpt lat="69.5742957" lon="26.7659937"></trkpt><trkpt lat="69.5742692" lon="26.7665733"></trkpt><trkpt lat="69.5741032" lon="26.7675165"></trkpt><trkpt lat="69.574104" lon="26.7679433"></trkpt><trkpt lat="69.5741801" lon="26.7683432"></trkpt><trkpt lat="69.5746225" lon="26.7688392"></trkpt><trkpt lat="69.5748148" lon="26.769868"></trkpt><trkpt lat="69.5748213" lon="26.7703824"></trkpt><trkpt lat="69.5747571" lon="26.7706947"></trkpt><trkpt lat="69.5747507" lon="26.7715949"></trkpt><trkpt lat="69.5748533" lon="26.7721276"></trkpt><trkpt lat="69.5749524" lon="26.7723357"></trkpt><trkpt lat="69.574968" lon="26.7724996"></trkpt><trkpt lat="69.57502" lon="26.7730462"></trkpt><trkpt lat="69.5749926" lon="26.7732473"></trkpt><trkpt lat="69.5748982" lon="26.7734136"></trkpt><trkpt lat="69.574534" lon="26.7735082"></trkpt><trkpt lat="69.574465" lon="26.7734916"></trkpt><trkpt lat="69.5744344" lon="26.7735149"></trkpt><trkpt lat="69.5744148" lon="26.7735654"></trkpt><trkpt lat="69.574381" lon="26.7735701"></trkpt><trkpt lat="69.5743457" lon="26.7736226"></trkpt><trkpt lat="69.5743083" lon="26.7736419"></trkpt><trkpt lat="69.5742598" lon="26.773721"></trkpt><trkpt lat="69.5742016" lon="26.7738287"></trkpt><trkpt lat="69.5741727" lon="26.7739165"></trkpt><trkpt lat="69.5741662" lon="26.7740653"></trkpt><trkpt lat="69.5741777" lon="26.7742699"></trkpt><trkpt lat="69.5741889" lon="26.7744278"></trkpt><trkpt lat="69.5742018" lon="26.7744789"></trkpt><trkpt lat="69.5742287" lon="26.7745299"></trkpt><trkpt lat="69.5743011" lon="26.7745552"></trkpt><trkpt lat="69.5743839" lon="26.7746603"></trkpt><trkpt lat="69.5745453" lon="26.7747986"></trkpt><trkpt lat="69.5747529" lon="26.7752685"></trkpt><trkpt lat="69.5749017" lon="26.7757455"></trkpt><trkpt lat="69.5750807" lon="26.7760534"></trkpt><trkpt lat="69.5751642" lon="26.776221"></trkpt><trkpt lat="69.5766651" lon="26.7802208"></trkpt><trkpt lat="69.577388" lon="26.7827095"></trkpt><trkpt lat="69.5775911" lon="26.7831522"></trkpt><trkpt lat="69.5777284" lon="26.7836768"></trkpt><trkpt lat="69.5778714" lon="26.7839555"></trkpt><trkpt lat="69.578003" lon="26.7843325"></trkpt><trkpt lat="69.578269" lon="26.7846194"></trkpt><trkpt lat="69.5788324" lon="26.7856195"></trkpt><trkpt lat="69.5794244" lon="26.7862178"></trkpt><trkpt lat="69.5801194" lon="26.7867343"></trkpt><trkpt lat="69.5804826" lon="26.7870539"></trkpt><trkpt lat="69.5807171" lon="26.7874228"></trkpt><trkpt lat="69.58078" lon="26.7876031"></trkpt><trkpt lat="69.5807526" lon="26.7878143"></trkpt><trkpt lat="69.5807463" lon="26.7879655"></trkpt><trkpt lat="69.580707" lon="26.7882642"></trkpt><trkpt lat="69.5807" lon="26.7884064"></trkpt><trkpt lat="69.5807125" lon="26.7885481"></trkpt><trkpt lat="69.5807772" lon="26.7887753"></trkpt><trkpt lat="69.5808715" lon="26.789018"></trkpt><trkpt lat="69.5809782" lon="26.7893319"></trkpt><trkpt lat="69.5811072" lon="26.7897764"></trkpt><trkpt lat="69.5813219" lon="26.7901441"></trkpt><trkpt lat="69.5814205" lon="26.790497"></trkpt><trkpt lat="69.5814794" lon="26.7906007"></trkpt><trkpt lat="69.5817313" lon="26.7909434"></trkpt><trkpt lat="69.5817472" lon="26.7910013"></trkpt><trkpt lat="69.58176" lon="26.7911504"></trkpt><trkpt lat="69.5817654" lon="26.7914632"></trkpt><trkpt lat="69.5818003" lon="26.7916024"></trkpt><trkpt lat="69.5819023" lon="26.7918554"></trkpt><trkpt lat="69.5819144" lon="26.7922562"></trkpt><trkpt lat="69.5819357" lon="26.792509"></trkpt><trkpt lat="69.5821181" lon="26.7930144"></trkpt><trkpt lat="69.5823279" lon="26.7931713"></trkpt><trkpt lat="69.5829207" lon="26.7932061"></trkpt><trkpt lat="69.5831639" lon="26.7933107"></trkpt><trkpt lat="69.5835074" lon="26.7936244"></trkpt><trkpt lat="69.5836929" lon="26.7941386"></trkpt><trkpt lat="69.5839148" lon="26.7942606"></trkpt><trkpt lat="69.584234" lon="26.7946614"></trkpt><trkpt lat="69.585231" lon="26.7956026"></trkpt><trkpt lat="69.5853739" lon="26.795681"></trkpt><trkpt lat="69.5858481" lon="26.7958292"></trkpt><trkpt lat="69.5869697" lon="26.7968575"></trkpt><trkpt lat="69.5872372" lon="26.7969882"></trkpt><trkpt lat="69.5876779" lon="26.7973717"></trkpt><trkpt lat="69.5879058" lon="26.798034"></trkpt><trkpt lat="69.5881794" lon="26.7983651"></trkpt><trkpt lat="69.588307" lon="26.7986178"></trkpt><trkpt lat="69.5884144" lon="26.7991353"></trkpt><trkpt lat="69.5885198" lon="26.8011189"></trkpt><trkpt lat="69.5885958" lon="26.8013803"></trkpt><trkpt lat="69.5890517" lon="26.8022605"></trkpt><trkpt lat="69.5891611" lon="26.8030099"></trkpt><trkpt lat="69.5895184" lon="26.8037907"></trkpt><trkpt lat="69.5898035" lon="26.8047586"></trkpt><trkpt lat="69.590156" lon="26.805221"></trkpt><trkpt lat="69.5903697" lon="26.8058339"></trkpt><trkpt lat="69.5904185" lon="26.8061135"></trkpt><trkpt lat="69.5903322" lon="26.8064684"></trkpt><trkpt lat="69.590471" lon="26.8071889"></trkpt><trkpt lat="69.5906622" lon="26.8077051"></trkpt><trkpt lat="69.5908835" lon="26.8078771"></trkpt><trkpt lat="69.591356" lon="26.8079416"></trkpt><trkpt lat="69.5916222" lon="26.808146"></trkpt><trkpt lat="69.5917317" lon="26.8079144"></trkpt><trkpt lat="69.5918002" lon="26.8077434"></trkpt><trkpt lat="69.5919001" lon="26.8075231"></trkpt><trkpt lat="69.5920321" lon="26.8073765"></trkpt><trkpt lat="69.5922072" lon="26.8073179"></trkpt><trkpt lat="69.5923647" lon="26.8073824"></trkpt><trkpt lat="69.5926478" lon="26.8076918"></trkpt><trkpt lat="69.5927706" lon="26.8077387"></trkpt><trkpt lat="69.593043" lon="26.807699"></trkpt><trkpt lat="69.5931036" lon="26.8077165"></trkpt><trkpt lat="69.59327" lon="26.8079474"></trkpt><trkpt lat="69.5933892" lon="26.8081158"></trkpt><trkpt lat="69.5934769" lon="26.8082021"></trkpt><trkpt lat="69.5935183" lon="26.8082869"></trkpt><trkpt lat="69.5936569" lon="26.808864"></trkpt><trkpt lat="69.5939062" lon="26.8092877"></trkpt><trkpt lat="69.5940355" lon="26.8097908"></trkpt><trkpt lat="69.5946079" lon="26.8105189"></trkpt><trkpt lat="69.5947833" lon="26.8104395"></trkpt><trkpt lat="69.5949218" lon="26.8107837"></trkpt><trkpt lat="69.5951387" lon="26.8110882"></trkpt><trkpt lat="69.595351" lon="26.8108632"></trkpt><trkpt lat="69.5957486" lon="26.8111504"></trkpt><trkpt lat="69.5965505" lon="26.8110302"></trkpt><trkpt lat="69.5967549" lon="26.8113008"></trkpt><trkpt lat="69.5970065" lon="26.811406"></trkpt><trkpt lat="69.5973314" lon="26.8117969"></trkpt><trkpt lat="69.5975567" lon="26.8116315"></trkpt><trkpt lat="69.5977297" lon="26.8117518"></trkpt><trkpt lat="69.5979184" lon="26.8121577"></trkpt><trkpt lat="69.5980084" lon="26.8122109"></trkpt><trkpt lat="69.5980573" lon="26.8123295"></trkpt><trkpt lat="69.5982508" lon="26.8122985"></trkpt><trkpt lat="69.5983208" lon="26.8123975"></trkpt><trkpt lat="69.5983954" lon="26.812346"></trkpt><trkpt lat="69.5984943" lon="26.8123935"></trkpt><trkpt lat="69.5985904" lon="26.8123379"></trkpt><trkpt lat="69.5986431" lon="26.8124002"></trkpt><trkpt lat="69.5988302" lon="26.8122178"></trkpt><trkpt lat="69.5988665" lon="26.8122484"></trkpt><trkpt lat="69.5989547" lon="26.8122531"></trkpt><trkpt lat="69.5989975" lon="26.8121982"></trkpt><trkpt lat="69.5990326" lon="26.812188"></trkpt><trkpt lat="69.5991201" lon="26.8122121"></trkpt><trkpt lat="69.5992699" lon="26.8121767"></trkpt><trkpt lat="69.599392" lon="26.8121502"></trkpt><trkpt lat="69.5995369" lon="26.8121631"></trkpt><trkpt lat="69.5996044" lon="26.812214"></trkpt><trkpt lat="69.5996537" lon="26.8121666"></trkpt><trkpt lat="69.5997072" lon="26.8121799"></trkpt><trkpt lat="69.5998247" lon="26.8120722"></trkpt><trkpt lat="69.5998915" lon="26.8120412"></trkpt><trkpt lat="69.5999408" lon="26.8120449"></trkpt><trkpt lat="69.59999" lon="26.8120284"></trkpt><trkpt lat="69.6000435" lon="26.812052"></trkpt><trkpt lat="69.600145" lon="26.8119274"></trkpt><trkpt lat="69.600206" lon="26.81189"></trkpt><trkpt lat="69.6002578" lon="26.8117698"></trkpt><trkpt lat="69.6003019" lon="26.8117662"></trkpt><trkpt lat="69.6003191" lon="26.8117019"></trkpt><trkpt lat="69.6003649" lon="26.8116058"></trkpt><trkpt lat="69.6003874" lon="26.8114822"></trkpt><trkpt lat="69.6004128" lon="26.811421"></trkpt><trkpt lat="69.6005738" lon="26.8113599"></trkpt><trkpt lat="69.6006585" lon="26.8112769"></trkpt><trkpt lat="69.600691" lon="26.811203"></trkpt><trkpt lat="69.6007256" lon="26.8111862"></trkpt><trkpt lat="69.600758" lon="26.8112564"></trkpt><trkpt lat="69.6008651" lon="26.8113081"></trkpt><trkpt lat="69.6009274" lon="26.8112712"></trkpt><trkpt lat="69.6009393" lon="26.8111962"></trkpt><trkpt lat="69.6009694" lon="26.8110848"></trkpt><trkpt lat="69.6010029" lon="26.8110116"></trkpt><trkpt lat="69.6010537" lon="26.8110011"></trkpt><trkpt lat="69.6011059" lon="26.8109663"></trkpt><trkpt lat="69.6011701" lon="26.8108938"></trkpt><trkpt lat="69.6011991" lon="26.8109245"></trkpt><trkpt lat="69.6012444" lon="26.8109212"></trkpt><trkpt lat="69.6012818" lon="26.8108326"></trkpt><trkpt lat="69.6013277" lon="26.8108006"></trkpt><trkpt lat="69.6014406" lon="26.8106193"></trkpt><trkpt lat="69.6014806" lon="26.810508"></trkpt><trkpt lat="69.6014968" lon="26.8104512"></trkpt><trkpt lat="69.6015529" lon="26.8103255"></trkpt><trkpt lat="69.6015704" lon="26.8102282"></trkpt><trkpt lat="69.6016174" lon="26.8100985"></trkpt><trkpt lat="69.6017133" lon="26.8099968"></trkpt><trkpt lat="69.6017501" lon="26.8099801"></trkpt><trkpt lat="69.6017897" lon="26.8098617"></trkpt><trkpt lat="69.6018504" lon="26.8098291"></trkpt><trkpt lat="69.6019124" lon="26.8097642"></trkpt><trkpt lat="69.6019604" lon="26.8097721"></trkpt><trkpt lat="69.6020267" lon="26.8097072"></trkpt><trkpt lat="69.6020876" lon="26.8096505"></trkpt><trkpt lat="69.6021104" lon="26.8095856"></trkpt><trkpt lat="69.6021574" lon="26.8093993"></trkpt><trkpt lat="69.6022326" lon="26.8092495"></trkpt><trkpt lat="69.6023078" lon="26.809047"></trkpt><trkpt lat="69.6023358" lon="26.8089423"></trkpt><trkpt lat="69.6023843" lon="26.8088717"></trkpt><trkpt lat="69.6024099" lon="26.808796"></trkpt><trkpt lat="69.6024495" lon="26.8087784"></trkpt><trkpt lat="69.6024905" lon="26.8087405"></trkpt><trkpt lat="69.6025978" lon="26.8084595"></trkpt><trkpt lat="69.6026843" lon="26.8082389"></trkpt><trkpt lat="69.6027722" lon="26.8080426"></trkpt><trkpt lat="69.6028636" lon="26.8077897"></trkpt><trkpt lat="69.6029275" lon="26.8076964"></trkpt><trkpt lat="69.6029483" lon="26.807595"></trkpt><trkpt lat="69.6030114" lon="26.8075056"></trkpt><trkpt lat="69.6030607" lon="26.807426"></trkpt><trkpt lat="69.6031341" lon="26.8073638"></trkpt><trkpt lat="69.6032377" lon="26.807255"></trkpt><trkpt lat="69.6032807" lon="26.8072756"></trkpt><trkpt lat="69.6033462" lon="26.8072563"></trkpt><trkpt lat="69.6033906" lon="26.8072529"></trkpt><trkpt lat="69.603435" lon="26.8072253"></trkpt><trkpt lat="69.603485" lon="26.8072482"></trkpt><trkpt lat="69.6035252" lon="26.8072267"></trkpt><trkpt lat="69.6036394" lon="26.8071599"></trkpt><trkpt lat="69.6036958" lon="26.8070411"></trkpt><trkpt lat="69.6037222" lon="26.8069824"></trkpt><trkpt lat="69.6037771" lon="26.8069346"></trkpt><trkpt lat="69.6038352" lon="26.8069037"></trkpt><trkpt lat="69.6038603" lon="26.8068549"></trkpt><trkpt lat="69.6039022" lon="26.806834"></trkpt><trkpt lat="69.6039399" lon="26.8068022"></trkpt><trkpt lat="69.6039756" lon="26.8068073"></trkpt><trkpt lat="69.6040148" lon="26.8068542"></trkpt><trkpt lat="69.604043" lon="26.807076"></trkpt><trkpt lat="69.6040589" lon="26.8072346"></trkpt><trkpt lat="69.6040818" lon="26.8074012"></trkpt><trkpt lat="69.6040942" lon="26.8074595"></trkpt><trkpt lat="69.6041275" lon="26.8075098"></trkpt><trkpt lat="69.6041601" lon="26.8075347"></trkpt><trkpt lat="69.6041986" lon="26.8075911"></trkpt><trkpt lat="69.6042926" lon="26.8076993"></trkpt><trkpt lat="69.6043281" lon="26.807759"></trkpt><trkpt lat="69.6043438" lon="26.8078017"></trkpt><trkpt lat="69.6043476" lon="26.8078669"></trkpt><trkpt lat="69.6043637" lon="26.8079601"></trkpt><trkpt lat="69.6044364" lon="26.8080884"></trkpt><trkpt lat="69.6044605" lon="26.808207"></trkpt><trkpt lat="69.6044885" lon="26.8082645"></trkpt><trkpt lat="69.6045284" lon="26.8082748"></trkpt><trkpt lat="69.6045513" lon="26.8083167"></trkpt><trkpt lat="69.6045881" lon="26.8083105"></trkpt><trkpt lat="69.6046752" lon="26.8083323"></trkpt><trkpt lat="69.6046968" lon="26.8082878"></trkpt><trkpt lat="69.6047245" lon="26.8082818"></trkpt><trkpt lat="69.6047395" lon="26.8082664"></trkpt><trkpt lat="69.6047858" lon="26.8083493"></trkpt><trkpt lat="69.6048455" lon="26.8084637"></trkpt><trkpt lat="69.6048857" lon="26.8084627"></trkpt><trkpt lat="69.6049503" lon="26.808574"></trkpt><trkpt lat="69.6050221" lon="26.8085825"></trkpt><trkpt lat="69.6050443" lon="26.8086336"></trkpt><trkpt lat="69.6051227" lon="26.8087164"></trkpt><trkpt lat="69.6052232" lon="26.8088574"></trkpt><trkpt lat="69.6053437" lon="26.8088495"></trkpt><trkpt lat="69.6053958" lon="26.8089189"></trkpt><trkpt lat="69.6054607" lon="26.8088978"></trkpt><trkpt lat="69.6055054" lon="26.8089558"></trkpt><trkpt lat="69.6055586" lon="26.8090558"></trkpt><trkpt lat="69.6056957" lon="26.8090964"></trkpt><trkpt lat="69.6057321" lon="26.8091635"></trkpt><trkpt lat="69.60581" lon="26.80922"></trkpt><trkpt lat="69.6058492" lon="26.8092412"></trkpt><trkpt lat="69.605886" lon="26.8092886"></trkpt><trkpt lat="69.6059031" lon="26.8092869"></trkpt><trkpt lat="69.6059607" lon="26.809368"></trkpt><trkpt lat="69.6060653" lon="26.8093421"></trkpt><trkpt lat="69.6061979" lon="26.8093793"></trkpt><trkpt lat="69.6063593" lon="26.809424"></trkpt><trkpt lat="69.6064276" lon="26.8094993"></trkpt><trkpt lat="69.6064712" lon="26.8095661"></trkpt><trkpt lat="69.6066481" lon="26.8096259"></trkpt><trkpt lat="69.6067921" lon="26.8095401"></trkpt><trkpt lat="69.6068557" lon="26.8094179"></trkpt><trkpt lat="69.6069914" lon="26.8094164"></trkpt><trkpt lat="69.6071053" lon="26.8096768"></trkpt><trkpt lat="69.6073357" lon="26.8104674"></trkpt><trkpt lat="69.6075862" lon="26.8108124"></trkpt><trkpt lat="69.6077615" lon="26.8108555"></trkpt><trkpt lat="69.6082324" lon="26.8113155"></trkpt><trkpt lat="69.6082474" lon="26.8120774"></trkpt><trkpt lat="69.6084177" lon="26.8127099"></trkpt><trkpt lat="69.6087032" lon="26.8132131"></trkpt><trkpt lat="69.6087733" lon="26.8137162"></trkpt><trkpt lat="69.6086781" lon="26.8153694"></trkpt><trkpt lat="69.6093693" lon="26.8190494"></trkpt><trkpt lat="69.6095554" lon="26.8193139"></trkpt><trkpt lat="69.6098001" lon="26.8199982"></trkpt><trkpt lat="69.6100705" lon="26.8209901"></trkpt><trkpt lat="69.6100956" lon="26.8215795"></trkpt><trkpt lat="69.610336" lon="26.8224708"></trkpt><trkpt lat="69.6103761" lon="26.8239658"></trkpt><trkpt lat="69.6105463" lon="26.8250583"></trkpt><trkpt lat="69.610957" lon="26.8260215"></trkpt><trkpt lat="69.611588" lon="26.8264671"></trkpt><trkpt lat="69.612204" lon="26.827344"></trkpt><trkpt lat="69.6124932" lon="26.8284865"></trkpt><trkpt lat="69.6126602" lon="26.828928"></trkpt><trkpt lat="69.6128134" lon="26.82909"></trkpt><trkpt lat="69.6129322" lon="26.8290931"></trkpt><trkpt lat="69.6131317" lon="26.829165"></trkpt><trkpt lat="69.6132064" lon="26.8294076"></trkpt><trkpt lat="69.613365" lon="26.8294036"></trkpt><trkpt lat="69.6136763" lon="26.8296297"></trkpt><trkpt lat="69.6138466" lon="26.8298884"></trkpt><trkpt lat="69.6141971" lon="26.8300897"></trkpt><trkpt lat="69.614343" lon="26.830039"></trkpt><trkpt lat="69.6144325" lon="26.8300924"></trkpt><trkpt lat="69.6145021" lon="26.8300068"></trkpt><trkpt lat="69.6146328" lon="26.8301184"></trkpt><trkpt lat="69.6148981" lon="26.8304922"></trkpt><trkpt lat="69.6150226" lon="26.8308345"></trkpt><trkpt lat="69.6152587" lon="26.8310097"></trkpt><trkpt lat="69.6157043" lon="26.8308084"></trkpt><trkpt lat="69.6167007" lon="26.8317285"></trkpt><trkpt lat="69.6175018" lon="26.8327778"></trkpt><trkpt lat="69.619169" lon="26.8351354"></trkpt><trkpt lat="69.6196195" lon="26.8357823"></trkpt><trkpt lat="69.6198849" lon="26.8358685"></trkpt><trkpt lat="69.6207709" lon="26.8365585"></trkpt><trkpt lat="69.6219373" lon="26.8357679"></trkpt><trkpt lat="69.6230385" lon="26.8357104"></trkpt><trkpt lat="69.6232637" lon="26.835926"></trkpt><trkpt lat="69.623534" lon="26.8358973"></trkpt><trkpt lat="69.6237643" lon="26.8361129"></trkpt><trkpt lat="69.6241196" lon="26.8369179"></trkpt><trkpt lat="69.62449" lon="26.8375073"></trkpt><trkpt lat="69.6251056" lon="26.8387292"></trkpt><trkpt lat="69.6251757" lon="26.8391749"></trkpt><trkpt lat="69.6261016" lon="26.8418774"></trkpt><trkpt lat="69.626587" lon="26.8421937"></trkpt><trkpt lat="69.6278331" lon="26.8438181"></trkpt><trkpt lat="69.6286738" lon="26.8446231"></trkpt><trkpt lat="69.628914" lon="26.8446087"></trkpt><trkpt lat="69.6293594" lon="26.8449681"></trkpt><trkpt lat="69.6296196" lon="26.8448818"></trkpt><trkpt lat="69.6299636" lon="26.8447557"></trkpt><trkpt lat="69.6300062" lon="26.8447717"></trkpt><trkpt lat="69.6300387" lon="26.844992"></trkpt><trkpt lat="69.6300833" lon="26.8452906"></trkpt><trkpt lat="69.630095" lon="26.845735"></trkpt><trkpt lat="69.6301614" lon="26.8459424"></trkpt><trkpt lat="69.6302228" lon="26.8460112"></trkpt><trkpt lat="69.6303102" lon="26.8462359"></trkpt><trkpt lat="69.63021" lon="26.8473688"></trkpt><trkpt lat="69.6298748" lon="26.8482025"></trkpt><trkpt lat="69.6297347" lon="26.8494963"></trkpt><trkpt lat="69.6297947" lon="26.8511351"></trkpt><trkpt lat="69.6307454" lon="26.8578483"></trkpt><trkpt lat="69.6308805" lon="26.859559"></trkpt><trkpt lat="69.6312608" lon="26.8615715"></trkpt><trkpt lat="69.631611" lon="26.8623909"></trkpt><trkpt lat="69.6317311" lon="26.8650216"></trkpt><trkpt lat="69.6318312" lon="26.8660423"></trkpt><trkpt lat="69.6319563" lon="26.8663441"></trkpt><trkpt lat="69.6324966" lon="26.8664448"></trkpt><trkpt lat="69.6330419" lon="26.8676667"></trkpt><trkpt lat="69.6334922" lon="26.8690323"></trkpt><trkpt lat="69.6335773" lon="26.8700961"></trkpt><trkpt lat="69.6337574" lon="26.8708724"></trkpt><trkpt lat="69.6338424" lon="26.8731149"></trkpt><trkpt lat="69.6341676" lon="26.8754581"></trkpt><trkpt lat="69.6346279" lon="26.8773269"></trkpt><trkpt lat="69.6352082" lon="26.8795263"></trkpt><trkpt lat="69.6355083" lon="26.88013"></trkpt><trkpt lat="69.6356734" lon="26.8807338"></trkpt><trkpt lat="69.6359185" lon="26.8823007"></trkpt><trkpt lat="69.6360936" lon="26.8829045"></trkpt><trkpt lat="69.6363287" lon="26.8848883"></trkpt><trkpt lat="69.6367139" lon="26.8866421"></trkpt><trkpt lat="69.636924" lon="26.8881227"></trkpt><trkpt lat="69.637024" lon="26.8893734"></trkpt><trkpt lat="69.6371691" lon="26.8897902"></trkpt><trkpt lat="69.6373992" lon="26.8910553"></trkpt><trkpt lat="69.6375292" lon="26.8914146"></trkpt><trkpt lat="69.6376192" lon="26.8921047"></trkpt><trkpt lat="69.6375592" lon="26.8927084"></trkpt><trkpt lat="69.6375492" lon="26.8933553"></trkpt><trkpt lat="69.6376793" lon="26.8942897"></trkpt><trkpt lat="69.6378393" lon="26.8948503"></trkpt><trkpt lat="69.6379344" lon="26.8954541"></trkpt><trkpt lat="69.6378994" lon="26.8970066"></trkpt><trkpt lat="69.6380694" lon="26.8979267"></trkpt><trkpt lat="69.6381981" lon="26.8993303"></trkpt><trkpt lat="69.6378593" lon="26.9002554"></trkpt><trkpt lat="69.6377343" lon="26.901348"></trkpt><trkpt lat="69.6377643" lon="26.9018511"></trkpt><trkpt lat="69.6376843" lon="26.9023974"></trkpt><trkpt lat="69.6377343" lon="26.9028718"></trkpt><trkpt lat="69.6381681" lon="26.9035087"></trkpt><trkpt lat="69.6382745" lon="26.9036768"></trkpt><trkpt lat="69.6384596" lon="26.9039786"></trkpt><trkpt lat="69.6385996" lon="26.903993"></trkpt><trkpt lat="69.6387397" lon="26.9047693"></trkpt><trkpt lat="69.6392848" lon="26.9057468"></trkpt><trkpt lat="69.63972" lon="26.9068825"></trkpt><trkpt lat="69.6402151" lon="26.9073281"></trkpt><trkpt lat="69.6407202" lon="26.9082912"></trkpt><trkpt lat="69.6411103" lon="26.9087944"></trkpt><trkpt lat="69.6412754" lon="26.90878"></trkpt><trkpt lat="69.6412154" lon="26.9094988"></trkpt><trkpt lat="69.6413054" lon="26.910275"></trkpt><trkpt lat="69.6414754" lon="26.9101313"></trkpt><trkpt lat="69.6417855" lon="26.9095419"></trkpt><trkpt lat="69.6420505" lon="26.9098006"></trkpt><trkpt lat="69.6421355" lon="26.9100019"></trkpt><trkpt lat="69.6424556" lon="26.9103038"></trkpt><trkpt lat="69.6434337" lon="26.9119081"></trkpt><trkpt lat="69.6435168" lon="26.9128223"></trkpt><trkpt lat="69.6436658" lon="26.9143145"></trkpt><trkpt lat="69.6439064" lon="26.914982"></trkpt><trkpt lat="69.6441308" lon="26.9151195"></trkpt><trkpt lat="69.6446374" lon="26.9157547"></trkpt><trkpt lat="69.6448515" lon="26.9165372"></trkpt><trkpt lat="69.6450074" lon="26.9169087"></trkpt><trkpt lat="69.6458509" lon="26.9179371"></trkpt><trkpt lat="69.6463059" lon="26.9178508"></trkpt><trkpt lat="69.6465209" lon="26.9180377"></trkpt><trkpt lat="69.6471759" lon="26.9173908"></trkpt><trkpt lat="69.6474009" lon="26.917362"></trkpt><trkpt lat="69.6476908" lon="26.9175489"></trkpt><trkpt lat="69.6478658" lon="26.9178796"></trkpt><trkpt lat="69.6480981" lon="26.9182761"></trkpt><trkpt lat="69.6483708" lon="26.9194608"></trkpt><trkpt lat="69.6484708" lon="26.9201508"></trkpt><trkpt lat="69.6484758" lon="26.921114"></trkpt><trkpt lat="69.6485458" lon="26.9215165"></trkpt><trkpt lat="69.6487157" lon="26.9217753"></trkpt><trkpt lat="69.6488457" lon="26.9221203"></trkpt><trkpt lat="69.6489457" lon="26.9226953"></trkpt><trkpt lat="69.649276" lon="26.923317"></trkpt><trkpt lat="69.6494504" lon="26.9240385"></trkpt><trkpt lat="69.6496463" lon="26.9242247"></trkpt><trkpt lat="69.6496883" lon="26.9241851"></trkpt><trkpt lat="69.6496733" lon="26.9235948"></trkpt><trkpt lat="69.6497997" lon="26.9230901"></trkpt><trkpt lat="69.6500405" lon="26.9224509"></trkpt><trkpt lat="69.6503616" lon="26.9222075"></trkpt><trkpt lat="69.6506417" lon="26.9219961"></trkpt><trkpt lat="69.6507724" lon="26.9219156"></trkpt><trkpt lat="69.650935" lon="26.9219268"></trkpt><trkpt lat="69.6510445" lon="26.9217622"></trkpt><trkpt lat="69.6511789" lon="26.9217869"></trkpt><trkpt lat="69.651223" lon="26.9217199"></trkpt><trkpt lat="69.651328" lon="26.9209941"></trkpt><trkpt lat="69.6513972" lon="26.9207977"></trkpt><trkpt lat="69.6515152" lon="26.9202946"></trkpt><trkpt lat="69.6518151" lon="26.9198058"></trkpt><trkpt lat="69.6519201" lon="26.9194465"></trkpt><trkpt lat="69.6520214" lon="26.9193667"></trkpt><trkpt lat="69.6521787" lon="26.9193329"></trkpt><trkpt lat="69.6522811" lon="26.9191733"></trkpt><trkpt lat="69.6524" lon="26.9188685"></trkpt><trkpt lat="69.6525549" lon="26.9186846"></trkpt><trkpt lat="69.6527898" lon="26.9186846"></trkpt><trkpt lat="69.6531799" lon="26.9187043"></trkpt><trkpt lat="69.6533318" lon="26.9186538"></trkpt><trkpt lat="69.6534216" lon="26.9185573"></trkpt><trkpt lat="69.6536106" lon="26.9182378"></trkpt><trkpt lat="69.6537235" lon="26.9182583"></trkpt><trkpt lat="69.653812" lon="26.9180556"></trkpt><trkpt lat="69.6539126" lon="26.9180026"></trkpt><trkpt lat="69.6540785" lon="26.9178168"></trkpt><trkpt lat="69.6542837" lon="26.9174181"></trkpt><trkpt lat="69.6543401" lon="26.9174016"></trkpt><trkpt lat="69.654413" lon="26.9175979"></trkpt><trkpt lat="69.6546089" lon="26.917803"></trkpt><trkpt lat="69.6547091" lon="26.9177789"></trkpt><trkpt lat="69.655059" lon="26.9172039"></trkpt><trkpt lat="69.6554188" lon="26.917132"></trkpt><trkpt lat="69.6556137" lon="26.9174052"></trkpt><trkpt lat="69.6559286" lon="26.9173189"></trkpt><trkpt lat="69.6562784" lon="26.9174339"></trkpt><trkpt lat="69.6564783" lon="26.9177502"></trkpt><trkpt lat="69.6567732" lon="26.9179083"></trkpt><trkpt lat="69.657203" lon="26.9178939"></trkpt><trkpt lat="69.6575828" lon="26.9181814"></trkpt><trkpt lat="69.6581038" lon="26.919111"></trkpt><trkpt lat="69.6582217" lon="26.9195667"></trkpt><trkpt lat="69.6581976" lon="26.9200899"></trkpt><trkpt lat="69.6581735" lon="26.9204968"></trkpt><trkpt lat="69.6583136" lon="26.9212243"></trkpt><trkpt lat="69.6584446" lon="26.9213076"></trkpt><trkpt lat="69.6585558" lon="26.9212317"></trkpt><trkpt lat="69.6586382" lon="26.9211755"></trkpt><trkpt lat="69.6588337" lon="26.9215456"></trkpt><trkpt lat="69.6589772" lon="26.9215141"></trkpt><trkpt lat="69.659258" lon="26.9213619"></trkpt><trkpt lat="69.6595471" lon="26.9212628"></trkpt><trkpt lat="69.6596981" lon="26.9211485"></trkpt><trkpt lat="69.6599566" lon="26.920729"></trkpt><trkpt lat="69.6602577" lon="26.920447"></trkpt><trkpt lat="69.6606949" lon="26.9203233"></trkpt><trkpt lat="69.6610295" lon="26.9209262"></trkpt><trkpt lat="69.6612233" lon="26.9211895"></trkpt><trkpt lat="69.6614756" lon="26.921254"></trkpt><trkpt lat="69.6615376" lon="26.9211581"></trkpt><trkpt lat="69.6616087" lon="26.9209701"></trkpt><trkpt lat="69.6618287" lon="26.9207057"></trkpt><trkpt lat="69.6619759" lon="26.9206231"></trkpt><trkpt lat="69.6621451" lon="26.9207041"></trkpt><trkpt lat="69.6622824" lon="26.9206628"></trkpt><trkpt lat="69.662557" lon="26.9204306"></trkpt><trkpt lat="69.662789" lon="26.9202891"></trkpt><trkpt lat="69.6630562" lon="26.9199836"></trkpt><trkpt lat="69.66366" lon="26.9194005"></trkpt><trkpt lat="69.6637751" lon="26.9194288"></trkpt><trkpt lat="69.6638709" lon="26.9196287"></trkpt><trkpt lat="69.6640895" lon="26.9198106"></trkpt><trkpt lat="69.6643599" lon="26.9194963"></trkpt><trkpt lat="69.6644537" lon="26.9190756"></trkpt><trkpt lat="69.6646069" lon="26.9187736"></trkpt><trkpt lat="69.6646941" lon="26.9188518"></trkpt><trkpt lat="69.6649646" lon="26.9195262"></trkpt><trkpt lat="69.6650495" lon="26.919653"></trkpt><trkpt lat="69.6651103" lon="26.9196067"></trkpt><trkpt lat="69.6651711" lon="26.9194076"></trkpt><trkpt lat="69.6653193" lon="26.9194374"></trkpt><trkpt lat="69.6654958" lon="26.9192769"></trkpt><trkpt lat="69.6656186" lon="26.9193189"></trkpt><trkpt lat="69.6656989" lon="26.9194374"></trkpt><trkpt lat="69.6659183" lon="26.9199591"></trkpt><trkpt lat="69.6660507" lon="26.9199219"></trkpt><trkpt lat="69.6662734" lon="26.9201705"></trkpt><trkpt lat="69.6664696" lon="26.9201754"></trkpt><trkpt lat="69.6665768" lon="26.9202955"></trkpt><trkpt lat="69.6666044" lon="26.9204429"></trkpt><trkpt lat="69.6670037" lon="26.9220404"></trkpt><trkpt lat="69.6671754" lon="26.9224719"></trkpt><trkpt lat="69.6672375" lon="26.9229881"></trkpt><trkpt lat="69.6673523" lon="26.9251444"></trkpt><trkpt lat="69.6673666" lon="26.9256176"></trkpt><trkpt lat="69.6669927" lon="26.9263231"></trkpt><trkpt lat="69.6671076" lon="26.9266969"></trkpt><trkpt lat="69.6671725" lon="26.9279332"></trkpt><trkpt lat="69.6673324" lon="26.9297301"></trkpt><trkpt lat="69.6674672" lon="26.930607"></trkpt><trkpt lat="69.667677" lon="26.9312107"></trkpt><trkpt lat="69.6677569" lon="26.9316132"></trkpt><trkpt lat="69.6677719" lon="26.9320876"></trkpt><trkpt lat="69.6679567" lon="26.9327201"></trkpt><trkpt lat="69.6681166" lon="26.9336545"></trkpt><trkpt lat="69.6682115" lon="26.9349196"></trkpt><trkpt lat="69.6683563" lon="26.9351927"></trkpt><trkpt lat="69.6685211" lon="26.9364002"></trkpt><trkpt lat="69.6685899" lon="26.9366492"></trkpt><trkpt lat="69.6689657" lon="26.9380102"></trkpt><trkpt lat="69.6689806" lon="26.938614"></trkpt><trkpt lat="69.6691005" lon="26.9390165"></trkpt><trkpt lat="69.6693652" lon="26.9394334"></trkpt><trkpt lat="69.6697698" lon="26.9411297"></trkpt><trkpt lat="69.6699646" lon="26.9415753"></trkpt><trkpt lat="69.6702043" lon="26.942711"></trkpt><trkpt lat="69.6706038" lon="26.9434297"></trkpt><trkpt lat="69.6710433" lon="26.9447954"></trkpt><trkpt lat="69.6713829" lon="26.9452123"></trkpt><trkpt lat="69.6715877" lon="26.9458304"></trkpt><trkpt lat="69.6719023" lon="26.9461898"></trkpt><trkpt lat="69.6722968" lon="26.9462473"></trkpt><trkpt lat="69.6724966" lon="26.9463767"></trkpt><trkpt lat="69.6726309" lon="26.9468986"></trkpt><trkpt lat="69.6727862" lon="26.9468762"></trkpt><trkpt lat="69.6728306" lon="26.9470734"></trkpt><trkpt lat="69.6725792" lon="26.9479223"></trkpt><trkpt lat="69.6725619" lon="26.9483806"></trkpt><trkpt lat="69.6722119" lon="26.9490505"></trkpt><trkpt lat="69.6720294" lon="26.9496803"></trkpt><trkpt lat="69.6717175" lon="26.9503155"></trkpt><trkpt lat="69.6715263" lon="26.9516729"></trkpt><trkpt lat="69.6711182" lon="26.9545706"></trkpt><trkpt lat="69.6706388" lon="26.9592425"></trkpt><trkpt lat="69.6706438" lon="26.9606657"></trkpt><trkpt lat="69.6712131" lon="26.9625201"></trkpt><trkpt lat="69.671343" lon="26.9634545"></trkpt><trkpt lat="69.6713729" lon="26.9642883"></trkpt><trkpt lat="69.6712481" lon="26.9658264"></trkpt><trkpt lat="69.6711032" lon="26.9664877"></trkpt><trkpt lat="69.6710533" lon="26.9671489"></trkpt><trkpt lat="69.6706438" lon="26.9684571"></trkpt><trkpt lat="69.6701044" lon="26.9696215"></trkpt><trkpt lat="69.6697598" lon="26.9699665"></trkpt><trkpt lat="69.6690356" lon="26.9713753"></trkpt><trkpt lat="69.6687109" lon="26.9722091"></trkpt><trkpt lat="69.6685511" lon="26.9729853"></trkpt><trkpt lat="69.6685961" lon="26.975386"></trkpt><trkpt lat="69.6685761" lon="26.9782323"></trkpt><trkpt lat="69.6685071" lon="26.9794424"></trkpt><trkpt lat="69.6685166" lon="26.979977"></trkpt><trkpt lat="69.6685911" lon="26.9813517"></trkpt><trkpt lat="69.6684762" lon="26.9821999"></trkpt><trkpt lat="69.6684162" lon="26.9834937"></trkpt><trkpt lat="69.6690156" lon="26.9869006"></trkpt><trkpt lat="69.6693303" lon="26.9893588"></trkpt><trkpt lat="69.66955" lon="26.9901638"></trkpt><trkpt lat="69.6699246" lon="26.9907963"></trkpt><trkpt lat="69.6702442" lon="26.9915007"></trkpt><trkpt lat="69.6706787" lon="26.992162"></trkpt><trkpt lat="69.6708735" lon="26.9922338"></trkpt><trkpt lat="69.6711682" lon="26.9926507"></trkpt><trkpt lat="69.6713779" lon="26.9935276"></trkpt><trkpt lat="69.6715028" lon="26.9946633"></trkpt><trkpt lat="69.6715386" lon="26.9947941"></trkpt><trkpt lat="69.6719872" lon="26.9964314"></trkpt><trkpt lat="69.6719472" lon="26.9975814"></trkpt><trkpt lat="69.6718324" lon="26.998904"></trkpt><trkpt lat="69.6715427" lon="27.0003846"></trkpt><trkpt lat="69.6713816" lon="27.0030007"></trkpt><trkpt lat="69.6714272" lon="27.0034196"></trkpt><trkpt lat="69.6714978" lon="27.0042372"></trkpt><trkpt lat="69.6715923" lon="27.0046423"></trkpt><trkpt lat="69.6716869" lon="27.0049752"></trkpt><trkpt lat="69.6717176" lon="27.0051562"></trkpt><trkpt lat="69.6718109" lon="27.0054042"></trkpt><trkpt lat="69.6719271" lon="27.0057535"></trkpt><trkpt lat="69.6719763" lon="27.0058918"></trkpt><trkpt lat="69.6719961" lon="27.006023"></trkpt><trkpt lat="69.6719845" lon="27.0062014"></trkpt><trkpt lat="69.6719723" lon="27.0063544"></trkpt><trkpt lat="69.6719527" lon="27.0066977"></trkpt><trkpt lat="69.6719656" lon="27.0072408"></trkpt><trkpt lat="69.6719845" lon="27.0074679"></trkpt><trkpt lat="69.6720532" lon="27.0079396"></trkpt><trkpt lat="69.672104" lon="27.0081114"></trkpt><trkpt lat="69.672152" lon="27.0083629"></trkpt><trkpt lat="69.6721919" lon="27.0090162"></trkpt><trkpt lat="69.6722082" lon="27.0092253"></trkpt><trkpt lat="69.6722009" lon="27.009437"></trkpt><trkpt lat="69.6722226" lon="27.0098135"></trkpt><trkpt lat="69.6722397" lon="27.0099474"></trkpt><trkpt lat="69.672333" lon="27.0104674"></trkpt><trkpt lat="69.6724485" lon="27.0112122"></trkpt><trkpt lat="69.672502" lon="27.0121267"></trkpt><trkpt lat="69.6725665" lon="27.0129917"></trkpt><trkpt lat="69.6725845" lon="27.0131551"></trkpt><trkpt lat="69.6726189" lon="27.0132924"></trkpt><trkpt lat="69.6726297" lon="27.0134897"></trkpt><trkpt lat="69.6726713" lon="27.0136818"></trkpt><trkpt lat="69.6727631" lon="27.01406"></trkpt><trkpt lat="69.6728198" lon="27.0141892"></trkpt><trkpt lat="69.6728784" lon="27.0143652"></trkpt><trkpt lat="69.6730046" lon="27.0146076"></trkpt><trkpt lat="69.6731235" lon="27.0148213"></trkpt><trkpt lat="69.6731907" lon="27.0148441"></trkpt><trkpt lat="69.6733041" lon="27.0148774"></trkpt><trkpt lat="69.6734753" lon="27.0146449"></trkpt><trkpt lat="69.6737699" lon="27.0141274"></trkpt><trkpt lat="69.6738748" lon="27.0141705"></trkpt><trkpt lat="69.6740296" lon="27.0145586"></trkpt><trkpt lat="69.6740895" lon="27.0149037"></trkpt><trkpt lat="69.6741245" lon="27.0158812"></trkpt><trkpt lat="69.6743192" lon="27.0167437"></trkpt><trkpt lat="69.6743142" lon="27.017405"></trkpt><trkpt lat="69.6742293" lon="27.0183393"></trkpt><trkpt lat="69.6741994" lon="27.0189144"></trkpt><trkpt lat="69.6742942" lon="27.0195325"></trkpt><trkpt lat="69.6746737" lon="27.0210994"></trkpt><trkpt lat="69.6748535" lon="27.0215594"></trkpt><trkpt lat="69.6750532" lon="27.0223105"></trkpt><trkpt lat="69.675218" lon="27.0229394"></trkpt><trkpt lat="69.6753578" lon="27.0235432"></trkpt><trkpt lat="69.6753828" lon="27.0239313"></trkpt><trkpt lat="69.6756174" lon="27.0252107"></trkpt><trkpt lat="69.675937" lon="27.0263464"></trkpt><trkpt lat="69.6759719" lon="27.0271658"></trkpt><trkpt lat="69.6760219" lon="27.027942"></trkpt><trkpt lat="69.6763963" lon="27.0293652"></trkpt><trkpt lat="69.676611" lon="27.0306302"></trkpt><trkpt lat="69.6767135" lon="27.0311995"></trkpt><trkpt lat="69.6767345" lon="27.0313778"></trkpt><trkpt lat="69.6768149" lon="27.0316699"></trkpt><trkpt lat="69.6769201" lon="27.0322634"></trkpt><trkpt lat="69.6770191" lon="27.0327845"></trkpt><trkpt lat="69.6771402" lon="27.0333162"></trkpt><trkpt lat="69.6772012" lon="27.0336826"></trkpt><trkpt lat="69.6772425" lon="27.0340206"></trkpt><trkpt lat="69.6772997" lon="27.0344086"></trkpt><trkpt lat="69.6774348" lon="27.0348566"></trkpt><trkpt lat="69.6775084" lon="27.0357833"></trkpt><trkpt lat="69.6774522" lon="27.0371319"></trkpt><trkpt lat="69.677321" lon="27.0376849"></trkpt><trkpt lat="69.6773023" lon="27.0383457"></trkpt><trkpt lat="69.6774428" lon="27.0396943"></trkpt><trkpt lat="69.6777004" lon="27.041043"></trkpt><trkpt lat="69.6778925" lon="27.041461"></trkpt><trkpt lat="69.6779721" lon="27.0424995"></trkpt><trkpt lat="69.6779299" lon="27.043012"></trkpt><trkpt lat="69.6779346" lon="27.0435379"></trkpt><trkpt lat="69.6781313" lon="27.0439965"></trkpt><trkpt lat="69.6782718" lon="27.0453451"></trkpt><trkpt lat="69.6783093" lon="27.0459385"></trkpt><trkpt lat="69.6783093" lon="27.046451"></trkpt><trkpt lat="69.6784837" lon="27.0469981"></trkpt><trkpt lat="69.6785705" lon="27.0484976"></trkpt><trkpt lat="69.6786862" lon="27.0490975"></trkpt><trkpt lat="69.6787961" lon="27.0504803"></trkpt><trkpt lat="69.6792937" lon="27.0528962"></trkpt><trkpt lat="69.6796177" lon="27.0549955"></trkpt><trkpt lat="69.6795772" lon="27.0560952"></trkpt><trkpt lat="69.6798318" lon="27.0584777"></trkpt><trkpt lat="69.6798029" lon="27.0592775"></trkpt><trkpt lat="69.6799128" lon="27.0601105"></trkpt><trkpt lat="69.6798897" lon="27.0610269"></trkpt><trkpt lat="69.6799823" lon="27.0615434"></trkpt><trkpt lat="69.6804104" lon="27.0625264"></trkpt><trkpt lat="69.6804972" lon="27.0629929"></trkpt><trkpt lat="69.6806187" lon="27.064809"></trkpt><trkpt lat="69.6811105" lon="27.0664251"></trkpt><trkpt lat="69.6816254" lon="27.068691"></trkpt><trkpt lat="69.6818336" lon="27.0704738"></trkpt><trkpt lat="69.6820014" lon="27.070957"></trkpt><trkpt lat="69.6823138" lon="27.0711902"></trkpt><trkpt lat="69.6825972" lon="27.0712441"></trkpt><trkpt lat="69.6826725" lon="27.0712962"></trkpt><trkpt lat="69.6830659" lon="27.0719733"></trkpt><trkpt lat="69.6843559" lon="27.0752556"></trkpt><trkpt lat="69.6844774" lon="27.0757554"></trkpt><trkpt lat="69.6839656" lon="27.0778921"></trkpt></trkseg></trk></gpx>
