<?xml version="1.0" encoding="UTF-8"?>
<gpx version="1.1" creator="Good Shit" xmlns="http://www.topografix.com/GPX/1/1"><trk><name>Altschlosspfad Eppenbrunn — Altschlosspfad Eppenbrunn loop</name><trkseg><trkpt lat="49.11627822714417" lon="7.549973648564688"></trkpt><trkpt lat="49.11627822714417" lon="7.549973648564686"></trkpt><trkpt lat="49.1163411" lon="7.5497905"></trkpt><trkpt lat="49.1163514" lon="7.5497545"></trkpt><trkpt lat="49.1163786" lon="7.5496584"></trkpt><trkpt lat="49.1164418" lon="7.5496003"></trkpt><trkpt lat="49.1165055" lon="7.5495263"></trkpt><trkpt lat="49.1166019" lon="7.549406"></trkpt><trkpt lat="49.1170632" lon="7.5488215"></trkpt><trkpt lat="49.1173064" lon="7.5485274"></trkpt><trkpt lat="49.1175488" lon="7.5482035"></trkpt><trkpt lat="49.11759622509779" lon="7.54812506269677"></trkpt><trkpt lat="49.11759622509779" lon="7.548125062696769"></trkpt><trkpt lat="49.11759622509779" lon="7.54812506269677"></trkpt><trkpt lat="49.1178103" lon="7.547771"></trkpt><trkpt lat="49.1180621" lon="7.5473129"></trkpt><trkpt lat="49.1182454" lon="7.5468098"></trkpt><trkpt lat="49.1184475" lon="7.5463039"></trkpt><trkpt lat="49.1185987416202" lon="7.545874068494655"></trkpt><trkpt lat="49.1185987416202" lon="7.545874068494653"></trkpt><trkpt lat="49.1185987416202" lon="7.545874068494655"></trkpt><trkpt lat="49.1186298" lon="7.5457858"></trkpt><trkpt lat="49.1187617" lon="7.5454456"></trkpt><trkpt lat="49.1189157" lon="7.5451683"></trkpt><trkpt lat="49.1190479" lon="7.5449547"></trkpt><trkpt lat="49.1192059" lon="7.5448206"></trkpt><trkpt lat="49.1193419" lon="7.5446501"></trkpt><trkpt lat="49.1194429" lon="7.5444907"></trkpt><trkpt lat="49.1195183" lon="7.5443003"></trkpt><trkpt lat="49.119578" lon="7.5442091"></trkpt><trkpt lat="49.1196249" lon="7.5441523"></trkpt><trkpt lat="49.1197599" lon="7.5440248"></trkpt><trkpt lat="49.1198343" lon="7.5440079"></trkpt><trkpt lat="49.1199019" lon="7.5440279"></trkpt><trkpt lat="49.11990720664396" lon="7.544050309199342"></trkpt><trkpt lat="49.11990720664396" lon="7.544050309199343"></trkpt><trkpt lat="49.11990720664396" lon="7.544050309199342"></trkpt><trkpt lat="49.1199019" lon="7.5440279"></trkpt><trkpt lat="49.1199318" lon="7.5439462"></trkpt><trkpt lat="49.1199616" lon="7.5438966"></trkpt><trkpt lat="49.1200037" lon="7.5438631"></trkpt><trkpt lat="49.1200939" lon="7.5437913"></trkpt><trkpt lat="49.120138" lon="7.5437742"></trkpt><trkpt lat="49.1201644" lon="7.5437585"></trkpt><trkpt lat="49.1201845" lon="7.5437276"></trkpt><trkpt lat="49.1201845" lon="7.5436619"></trkpt><trkpt lat="49.1201977" lon="7.5435399"></trkpt><trkpt lat="49.1202249" lon="7.5434847"></trkpt><trkpt lat="49.120193" lon="7.5432139"></trkpt><trkpt lat="49.1201561" lon="7.5430216"></trkpt><trkpt lat="49.1200941" lon="7.5428921"></trkpt><trkpt lat="49.1199966" lon="7.5426905"></trkpt><trkpt lat="49.1198025" lon="7.5423643"></trkpt><trkpt lat="49.1197009" lon="7.5422001"></trkpt><trkpt lat="49.1196019" lon="7.5420225"></trkpt><trkpt lat="49.119557706420146" lon="7.541954603303289"></trkpt><trkpt lat="49.119557706420146" lon="7.541954603303287"></trkpt><trkpt lat="49.119557706420146" lon="7.541954603303289"></trkpt><trkpt lat="49.1194891" lon="7.5418492"></trkpt><trkpt lat="49.1194236" lon="7.5416851"></trkpt><trkpt lat="49.1193477" lon="7.541477"></trkpt><trkpt lat="49.1192427" lon="7.541264"></trkpt><trkpt lat="49.1191467" lon="7.541063"></trkpt><trkpt lat="49.1190935" lon="7.5409394"></trkpt><trkpt lat="49.1190332" lon="7.5408506"></trkpt><trkpt lat="49.1189768" lon="7.540796"></trkpt><trkpt lat="49.1189001" lon="7.5407546"></trkpt><trkpt lat="49.1187753" lon="7.5407006"></trkpt><trkpt lat="49.1186678" lon="7.5406661"></trkpt><trkpt lat="49.1185879" lon="7.5405948"></trkpt><trkpt lat="49.1184931" lon="7.5404459"></trkpt><trkpt lat="49.118434" lon="7.540351"></trkpt><trkpt lat="49.1183705" lon="7.540223"></trkpt><trkpt lat="49.1183457" lon="7.5401267"></trkpt><trkpt lat="49.11834111269821" lon="7.54001998031876"></trkpt><trkpt lat="49.1183404" lon="7.5400034"></trkpt><trkpt lat="49.1183436" lon="7.5398535"></trkpt><trkpt lat="49.1183439" lon="7.5397405"></trkpt><trkpt lat="49.1183304" lon="7.539641"></trkpt><trkpt lat="49.1183141" lon="7.5395662"></trkpt><trkpt lat="49.1182829" lon="7.5394958"></trkpt><trkpt lat="49.1182277" lon="7.5395732"></trkpt><trkpt lat="49.1181815" lon="7.5396278"></trkpt><trkpt lat="49.1181309" lon="7.5396631"></trkpt><trkpt lat="49.1180718" lon="7.5396667"></trkpt><trkpt lat="49.1179983" lon="7.5396605"></trkpt><trkpt lat="49.1178868" lon="7.5396348"></trkpt><trkpt lat="49.1177766" lon="7.5396156"></trkpt><trkpt lat="49.1175826" lon="7.539592"></trkpt><trkpt lat="49.1174565" lon="7.5395742"></trkpt><trkpt lat="49.1173812" lon="7.5395569"></trkpt><trkpt lat="49.1172617" lon="7.5395823"></trkpt><trkpt lat="49.1171644" lon="7.5396238"></trkpt><trkpt lat="49.1171836" lon="7.5397499"></trkpt><trkpt lat="49.1172117" lon="7.5399105"></trkpt><trkpt lat="49.1172617" lon="7.5399967"></trkpt><trkpt lat="49.117274730832754" lon="7.54001163838812"></trkpt><trkpt lat="49.117274730832754" lon="7.540011638388121"></trkpt><trkpt lat="49.117274730832754" lon="7.54001163838812"></trkpt><trkpt lat="49.1172617" lon="7.5399967"></trkpt><trkpt lat="49.1172117" lon="7.5399105"></trkpt><trkpt lat="49.1171748" lon="7.5399041"></trkpt><trkpt lat="49.1170909" lon="7.539848"></trkpt><trkpt lat="49.116967" lon="7.5397375"></trkpt><trkpt lat="49.1168302" lon="7.5396044"></trkpt><trkpt lat="49.1165349" lon="7.5392741"></trkpt><trkpt lat="49.1163058" lon="7.5390163"></trkpt><trkpt lat="49.116165852619815" lon="7.538842219112451"></trkpt><trkpt lat="49.116165852619815" lon="7.538842219112448"></trkpt><trkpt lat="49.116165852619815" lon="7.538842219112451"></trkpt><trkpt lat="49.1160598" lon="7.5387103"></trkpt><trkpt lat="49.1158739" lon="7.5384584"></trkpt><trkpt lat="49.1156593" lon="7.5381906"></trkpt><trkpt lat="49.1154516" lon="7.5379412"></trkpt><trkpt lat="49.1153112" lon="7.537753"></trkpt><trkpt lat="49.1151866" lon="7.5375943"></trkpt><trkpt lat="49.1150207" lon="7.5374204"></trkpt><trkpt lat="49.1149197" lon="7.5373051"></trkpt><trkpt lat="49.1147992" lon="7.537199"></trkpt><trkpt lat="49.114728552037974" lon="7.537145902666622"></trkpt><trkpt lat="49.114728552037974" lon="7.53714590266662"></trkpt><trkpt lat="49.114728552037974" lon="7.537145902666622"></trkpt><trkpt lat="49.1146406" lon="7.5370798"></trkpt><trkpt lat="49.1145545" lon="7.5370248"></trkpt><trkpt lat="49.1144724" lon="7.5369481"></trkpt><trkpt lat="49.1143491" lon="7.5368907"></trkpt><trkpt lat="49.1140557" lon="7.5367977"></trkpt><trkpt lat="49.1138409" lon="7.5367297"></trkpt><trkpt lat="49.1136574" lon="7.5366077"></trkpt><trkpt lat="49.1135485" lon="7.53654"></trkpt><trkpt lat="49.1134352" lon="7.5364659"></trkpt><trkpt lat="49.1131948" lon="7.5362929"></trkpt><trkpt lat="49.113043915303834" lon="7.536177595827228"></trkpt><trkpt lat="49.113043915303834" lon="7.536177595827227"></trkpt><trkpt lat="49.113043915303834" lon="7.536177595827228"></trkpt><trkpt lat="49.1130133" lon="7.5361542"></trkpt><trkpt lat="49.1127839" lon="7.536031"></trkpt><trkpt lat="49.1125926" lon="7.5359479"></trkpt><trkpt lat="49.1123988" lon="7.5358776"></trkpt><trkpt lat="49.1121449" lon="7.5357856"></trkpt><trkpt lat="49.1117914" lon="7.5356564"></trkpt><trkpt lat="49.111583" lon="7.5355858"></trkpt><trkpt lat="49.1113728" lon="7.5355517"></trkpt><trkpt lat="49.11130213939948" lon="7.535550618617832"></trkpt><trkpt lat="49.1111441" lon="7.5355482"></trkpt><trkpt lat="49.1109269" lon="7.5355279"></trkpt><trkpt lat="49.110742" lon="7.5355321"></trkpt><trkpt lat="49.110548" lon="7.5355664"></trkpt><trkpt lat="49.1104225" lon="7.5356099"></trkpt><trkpt lat="49.1103025" lon="7.5356578"></trkpt><trkpt lat="49.1100278" lon="7.5358089"></trkpt><trkpt lat="49.1098574" lon="7.5359012"></trkpt><trkpt lat="49.1097781" lon="7.5359532"></trkpt><trkpt lat="49.109736" lon="7.5359827"></trkpt><trkpt lat="49.1097051" lon="7.5359972"></trkpt><trkpt lat="49.1096534" lon="7.5359867"></trkpt><trkpt lat="49.1095911" lon="7.5359586"></trkpt><trkpt lat="49.10956594754129" lon="7.535930190670661"></trkpt><trkpt lat="49.10956594754129" lon="7.535930190670662"></trkpt><trkpt lat="49.10956594754129" lon="7.535930190670661"></trkpt><trkpt lat="49.109527" lon="7.5358862"></trkpt><trkpt lat="49.1094399" lon="7.5358089"></trkpt><trkpt lat="49.1093462" lon="7.5357333"></trkpt><trkpt lat="49.1092917" lon="7.5356863"></trkpt><trkpt lat="49.1092256" lon="7.5356578"></trkpt><trkpt lat="49.1091118" lon="7.5356542"></trkpt><trkpt lat="49.1088629" lon="7.5356494"></trkpt><trkpt lat="49.1087062" lon="7.5356515"></trkpt><trkpt lat="49.108557" lon="7.5356249"></trkpt><trkpt lat="49.1083902" lon="7.5355688"></trkpt><trkpt lat="49.1082703" lon="7.5354942"></trkpt><trkpt lat="49.108194" lon="7.5354732"></trkpt><trkpt lat="49.1080547" lon="7.535335"></trkpt><trkpt lat="49.1078901" lon="7.5351658"></trkpt><trkpt lat="49.10788830229308" lon="7.535163605035399"></trkpt><trkpt lat="49.10788830229308" lon="7.535163605035398"></trkpt><trkpt lat="49.10788830229308" lon="7.535163605035399"></trkpt><trkpt lat="49.1077738" lon="7.5350238"></trkpt><trkpt lat="49.1076325" lon="7.5348755"></trkpt><trkpt lat="49.1074735" lon="7.5346979"></trkpt><trkpt lat="49.1073375" lon="7.534592"></trkpt><trkpt lat="49.1072131" lon="7.5345085"></trkpt><trkpt lat="49.1071101" lon="7.5344297"></trkpt><trkpt lat="49.1069897" lon="7.5343587"></trkpt><trkpt lat="49.106884" lon="7.5342838"></trkpt><trkpt lat="49.1067975" lon="7.5342125"></trkpt><trkpt lat="49.1067211" lon="7.5341419"></trkpt><trkpt lat="49.106693" lon="7.5340972"></trkpt><trkpt lat="49.1066939" lon="7.534018"></trkpt><trkpt lat="49.1067053" lon="7.5339389"></trkpt><trkpt lat="49.1067176" lon="7.5338825"></trkpt><trkpt lat="49.1066825" lon="7.5338128"></trkpt><trkpt lat="49.1066482" lon="7.5337284"></trkpt><trkpt lat="49.10648803335759" lon="7.533578661569702"></trkpt><trkpt lat="49.10648803335759" lon="7.533578661569704"></trkpt><trkpt lat="49.10648803335759" lon="7.533578661569702"></trkpt><trkpt lat="49.1064086" lon="7.5335044"></trkpt><trkpt lat="49.1062067" lon="7.5333676"></trkpt><trkpt lat="49.1061617" lon="7.5333032"></trkpt><trkpt lat="49.1060943" lon="7.5332066"></trkpt><trkpt lat="49.1060728" lon="7.5330056"></trkpt><trkpt lat="49.1061256" lon="7.5327134"></trkpt><trkpt lat="49.1059959" lon="7.5325683"></trkpt><trkpt lat="49.105836" lon="7.5324738"></trkpt><trkpt lat="49.1055991" lon="7.5323349"></trkpt><trkpt lat="49.1053666" lon="7.5322089"></trkpt><trkpt lat="49.1052596" lon="7.5321007"></trkpt><trkpt lat="49.10524573708298" lon="7.532085795737104"></trkpt><trkpt lat="49.10524573708298" lon="7.532085795737102"></trkpt><trkpt lat="49.10524573708298" lon="7.532085795737104"></trkpt><trkpt lat="49.1051531" lon="7.5319862"></trkpt><trkpt lat="49.1050286" lon="7.5318062"></trkpt><trkpt lat="49.1049476" lon="7.5316912"></trkpt><trkpt lat="49.1048548" lon="7.5316124"></trkpt><trkpt lat="49.1046263" lon="7.5314686"></trkpt><trkpt lat="49.1043249" lon="7.5313527"></trkpt><trkpt lat="49.1040925" lon="7.5311919"></trkpt><trkpt lat="49.1038835" lon="7.5310421"></trkpt><trkpt lat="49.1037746" lon="7.5309724"></trkpt><trkpt lat="49.10365643478098" lon="7.530976772808778"></trkpt><trkpt lat="49.1036557" lon="7.5309768"></trkpt><trkpt lat="49.1035302" lon="7.5310533"></trkpt><trkpt lat="49.1034866" lon="7.5311226"></trkpt><trkpt lat="49.1034234" lon="7.5311696"></trkpt><trkpt lat="49.1033835" lon="7.531132"></trkpt><trkpt lat="49.1033562" lon="7.5310891"></trkpt><trkpt lat="49.1031538" lon="7.5309464"></trkpt><trkpt lat="49.1030834" lon="7.5308679"></trkpt><trkpt lat="49.1029934" lon="7.53075"></trkpt><trkpt lat="49.1028843" lon="7.5306049"></trkpt><trkpt lat="49.102649" lon="7.5302992"></trkpt><trkpt lat="49.1025278" lon="7.5301317"></trkpt><trkpt lat="49.1024414" lon="7.5300305"></trkpt><trkpt lat="49.1023364" lon="7.5299048"></trkpt><trkpt lat="49.1022381" lon="7.5297198"></trkpt><trkpt lat="49.102237151417846" lon="7.52971754817292"></trkpt><trkpt lat="49.102237151417846" lon="7.5297175481729175"></trkpt><trkpt lat="49.102237151417846" lon="7.52971754817292"></trkpt><trkpt lat="49.102137" lon="7.5294798"></trkpt><trkpt lat="49.1020607" lon="7.529528"></trkpt><trkpt lat="49.1019232" lon="7.5296134"></trkpt><trkpt lat="49.1018755" lon="7.529589"></trkpt><trkpt lat="49.1017499" lon="7.5295508"></trkpt><trkpt lat="49.1016173" lon="7.5295347"></trkpt><trkpt lat="49.1014136" lon="7.5295213"></trkpt><trkpt lat="49.1012916" lon="7.5294998"></trkpt><trkpt lat="49.1011519" lon="7.5294368"></trkpt><trkpt lat="49.1010641" lon="7.5294113"></trkpt><trkpt lat="49.1009623" lon="7.5293966"></trkpt><trkpt lat="49.100655" lon="7.5293443"></trkpt><trkpt lat="49.100615065953235" lon="7.529339657096214"></trkpt><trkpt lat="49.100615065953235" lon="7.529339657096215"></trkpt><trkpt lat="49.100615065953235" lon="7.529339657096214"></trkpt><trkpt lat="49.1003402" lon="7.5293077"></trkpt><trkpt lat="49.0999964" lon="7.5292437"></trkpt><trkpt lat="49.0998006" lon="7.529241"></trkpt><trkpt lat="49.0995449" lon="7.5292124"></trkpt><trkpt lat="49.0991498" lon="7.529129"></trkpt><trkpt lat="49.0989956" lon="7.5290662"></trkpt><trkpt lat="49.098856946586196" lon="7.529046059530257"></trkpt><trkpt lat="49.098856946586196" lon="7.529046059530258"></trkpt><trkpt lat="49.098856946586196" lon="7.529046059530257"></trkpt><trkpt lat="49.0987278" lon="7.5290273"></trkpt><trkpt lat="49.0984431" lon="7.5290371"></trkpt><trkpt lat="49.0983017" lon="7.5290465"></trkpt><trkpt lat="49.0981616" lon="7.5290546"></trkpt><trkpt lat="49.0979663" lon="7.5290398"></trkpt><trkpt lat="49.0977037" lon="7.5289688"></trkpt><trkpt lat="49.0973498" lon="7.5288625"></trkpt><trkpt lat="49.0972357" lon="7.5288481"></trkpt><trkpt lat="49.0971575" lon="7.5288373"></trkpt><trkpt lat="49.0971285" lon="7.5288306"></trkpt><trkpt lat="49.0971133" lon="7.5288529"></trkpt><trkpt lat="49.0971277" lon="7.5289232"></trkpt><trkpt lat="49.0971496" lon="7.5289741"></trkpt><trkpt lat="49.09715967604223" lon="7.528987108457147"></trkpt><trkpt lat="49.09715967604223" lon="7.52898710845715"></trkpt><trkpt lat="49.09715967604223" lon="7.528987108457147"></trkpt><trkpt lat="49.0971953" lon="7.5290331"></trkpt><trkpt lat="49.0971926" lon="7.5290962"></trkpt><trkpt lat="49.0972135" lon="7.5291694"></trkpt><trkpt lat="49.0972005" lon="7.5292544"></trkpt><trkpt lat="49.0972128" lon="7.5293523"></trkpt><trkpt lat="49.0972286" lon="7.5294623"></trkpt><trkpt lat="49.0972462" lon="7.5295387"></trkpt><trkpt lat="49.0972339" lon="7.5296178"></trkpt><trkpt lat="49.0972204" lon="7.5296856"></trkpt><trkpt lat="49.0972515" lon="7.529819"></trkpt><trkpt lat="49.0972822" lon="7.5299008"></trkpt><trkpt lat="49.0972989" lon="7.5300591"></trkpt><trkpt lat="49.0973735" lon="7.5302535"></trkpt><trkpt lat="49.0974368" lon="7.5304762"></trkpt><trkpt lat="49.0974736" lon="7.5306224"></trkpt><trkpt lat="49.0974807" lon="7.5307819"></trkpt><trkpt lat="49.0975492" lon="7.530916"></trkpt><trkpt lat="49.0975931" lon="7.5309858"></trkpt><trkpt lat="49.0976739" lon="7.5312674"></trkpt><trkpt lat="49.0977265" lon="7.5314042"></trkpt><trkpt lat="49.09775439794537" lon="7.531448437208632"></trkpt><trkpt lat="49.09775439794537" lon="7.531448437208633"></trkpt><trkpt lat="49.09775439794537" lon="7.531448437208632"></trkpt><trkpt lat="49.0978508" lon="7.5316013"></trkpt><trkpt lat="49.097939" lon="7.5316402"></trkpt><trkpt lat="49.0980953" lon="7.5317851"></trkpt><trkpt lat="49.0982639" lon="7.532056"></trkpt><trkpt lat="49.0983518" lon="7.5322276"></trkpt><trkpt lat="49.0984519" lon="7.532343"></trkpt><trkpt lat="49.0984747" lon="7.5324368"></trkpt><trkpt lat="49.0985976" lon="7.5326809"></trkpt><trkpt lat="49.0987451" lon="7.5328901"></trkpt><trkpt lat="49.098818" lon="7.53298"></trkpt><trkpt lat="49.0988646" lon="7.5330631"></trkpt><trkpt lat="49.0989587" lon="7.5331947"></trkpt><trkpt lat="49.0990314" lon="7.5333233"></trkpt><trkpt lat="49.099055268519955" lon="7.533366896582363"></trkpt><trkpt lat="49.099055268519955" lon="7.533366896582362"></trkpt><trkpt lat="49.099055268519955" lon="7.533366896582363"></trkpt><trkpt lat="49.0991196" lon="7.5334844"></trkpt><trkpt lat="49.0992413" lon="7.5336532"></trkpt><trkpt lat="49.0993501" lon="7.5337994"></trkpt><trkpt lat="49.0994039" lon="7.5339806"></trkpt><trkpt lat="49.0994775" lon="7.5341414"></trkpt><trkpt lat="49.0995705" lon="7.5343868"></trkpt><trkpt lat="49.0996601" lon="7.5345518"></trkpt><trkpt lat="49.0997282" lon="7.5346409"></trkpt><trkpt lat="49.0998419" lon="7.5347503"></trkpt><trkpt lat="49.0999464" lon="7.5349058"></trkpt><trkpt lat="49.1000122" lon="7.5349836"></trkpt><trkpt lat="49.1000678" lon="7.5350387"></trkpt><trkpt lat="49.1001474" lon="7.5350909"></trkpt><trkpt lat="49.100224972874685" lon="7.53510766287407"></trkpt><trkpt lat="49.1002344" lon="7.5351097"></trkpt><trkpt lat="49.1002951" lon="7.5351017"></trkpt><trkpt lat="49.1004082" lon="7.5349474"></trkpt><trkpt lat="49.1004908" lon="7.5348347"></trkpt><trkpt lat="49.1006274" lon="7.5347816"></trkpt><trkpt lat="49.1007448" lon="7.5347611"></trkpt><trkpt lat="49.1008124" lon="7.5347705"></trkpt><trkpt lat="49.1009842" lon="7.5348482"></trkpt><trkpt lat="49.1011423" lon="7.5350171"></trkpt><trkpt lat="49.1012479" lon="7.5351084"></trkpt><trkpt lat="49.1013969" lon="7.5352988"></trkpt><trkpt lat="49.1015331" lon="7.5355375"></trkpt><trkpt lat="49.1016138" lon="7.5356984"></trkpt><trkpt lat="49.101654316834285" lon="7.535803293582099"></trkpt><trkpt lat="49.101654316834285" lon="7.5358032935821"></trkpt><trkpt lat="49.101654316834285" lon="7.535803293582099"></trkpt><trkpt lat="49.1016858" lon="7.5358848"></trkpt><trkpt lat="49.1017604" lon="7.5359841"></trkpt><trkpt lat="49.1018395" lon="7.5361772"></trkpt><trkpt lat="49.1019532" lon="7.5364544"></trkpt><trkpt lat="49.1019914" lon="7.5366077"></trkpt><trkpt lat="49.1020253" lon="7.5367195"></trkpt><trkpt lat="49.1020537" lon="7.5367847"></trkpt><trkpt lat="49.1020766" lon="7.5369282"></trkpt><trkpt lat="49.1021135" lon="7.5370746"></trkpt><trkpt lat="49.1021377" lon="7.5370956"></trkpt><trkpt lat="49.1022933" lon="7.5371547"></trkpt><trkpt lat="49.1023473" lon="7.5371888"></trkpt><trkpt lat="49.1024427" lon="7.5370663"></trkpt><trkpt lat="49.1024997" lon="7.536959"></trkpt><trkpt lat="49.1025665" lon="7.5369"></trkpt><trkpt lat="49.1026703" lon="7.5369522"></trkpt><trkpt lat="49.102836919213615" lon="7.536967683094823"></trkpt><trkpt lat="49.1028597" lon="7.5369698"></trkpt><trkpt lat="49.1031265" lon="7.5371782"></trkpt><trkpt lat="49.103239" lon="7.5372621"></trkpt><trkpt lat="49.1033567" lon="7.5374378"></trkpt><trkpt lat="49.1034386" lon="7.5376056"></trkpt><trkpt lat="49.1034735" lon="7.5377342"></trkpt><trkpt lat="49.1035516" lon="7.5378348"></trkpt><trkpt lat="49.1036082" lon="7.5380023"></trkpt><trkpt lat="49.1037228" lon="7.5383082"></trkpt><trkpt lat="49.1038457" lon="7.5386488"></trkpt><trkpt lat="49.1039338" lon="7.5387441"></trkpt><trkpt lat="49.104025027279064" lon="7.538999263296921"></trkpt><trkpt lat="49.104025027279064" lon="7.538999263296922"></trkpt><trkpt lat="49.104025027279064" lon="7.538999263296921"></trkpt><trkpt lat="49.1040407" lon="7.5390431"></trkpt><trkpt lat="49.1041333" lon="7.5391689"></trkpt><trkpt lat="49.1041263" lon="7.5392437"></trkpt><trkpt lat="49.1041241" lon="7.539432"></trkpt><trkpt lat="49.1042107" lon="7.539502"></trkpt><trkpt lat="49.1042389" lon="7.5395702"></trkpt><trkpt lat="49.1042885" lon="7.5396901"></trkpt><trkpt lat="49.1043643" lon="7.5397587"></trkpt><trkpt lat="49.1043971" lon="7.5398317"></trkpt><trkpt lat="49.1044364" lon="7.5398532"></trkpt><trkpt lat="49.1044858" lon="7.5400235"></trkpt><trkpt lat="49.1045172" lon="7.5400567"></trkpt><trkpt lat="49.1045149" lon="7.540089"></trkpt><trkpt lat="49.104607" lon="7.5404003"></trkpt><trkpt lat="49.1046913" lon="7.5406256"></trkpt><trkpt lat="49.1047914" lon="7.5410011"></trkpt><trkpt lat="49.1048376" lon="7.5412254"></trkpt><trkpt lat="49.104879780169476" lon="7.541355886092201"></trkpt><trkpt lat="49.1048825" lon="7.5413643"></trkpt><trkpt lat="49.1049125" lon="7.5415269"></trkpt><trkpt lat="49.1049898" lon="7.5417709"></trkpt><trkpt lat="49.105013" lon="7.5418389"></trkpt><trkpt lat="49.10503" lon="7.541916"></trkpt><trkpt lat="49.1050799" lon="7.5418363"></trkpt><trkpt lat="49.105132" lon="7.5417441"></trkpt><trkpt lat="49.1051952" lon="7.5415644"></trkpt><trkpt lat="49.105231" lon="7.5413644"></trkpt><trkpt lat="49.1052637" lon="7.5410575"></trkpt><trkpt lat="49.1052865" lon="7.5406069"></trkpt><trkpt lat="49.1053059" lon="7.540293"></trkpt><trkpt lat="49.105332392229265" lon="7.5400726785490315"></trkpt><trkpt lat="49.105332392229265" lon="7.540072678549032"></trkpt><trkpt lat="49.105332392229265" lon="7.5400726785490315"></trkpt><trkpt lat="49.1053375" lon="7.5400302"></trkpt><trkpt lat="49.1053884" lon="7.5397915"></trkpt><trkpt lat="49.1054351" lon="7.5396238"></trkpt><trkpt lat="49.1054902" lon="7.5394857"></trkpt><trkpt lat="49.1055614" lon="7.5393905"></trkpt><trkpt lat="49.1057129" lon="7.5391047"></trkpt><trkpt lat="49.1057642" lon="7.5389841"></trkpt><trkpt lat="49.1058456" lon="7.5388502"></trkpt><trkpt lat="49.105952" lon="7.5387052"></trkpt><trkpt lat="49.1060381" lon="7.5386783"></trkpt><trkpt lat="49.1061162" lon="7.5386502"></trkpt><trkpt lat="49.1063306" lon="7.5391483"></trkpt><trkpt lat="49.1064922" lon="7.5395103"></trkpt><trkpt lat="49.106495434648345" lon="7.5395170314896856"></trkpt><trkpt lat="49.106495434648345" lon="7.539517031489685"></trkpt><trkpt lat="49.106495434648345" lon="7.5395170314896856"></trkpt><trkpt lat="49.1067229" lon="7.5399904"></trkpt><trkpt lat="49.1070074" lon="7.5406766"></trkpt><trkpt lat="49.1072076" lon="7.5411384"></trkpt><trkpt lat="49.1074007" lon="7.5417548"></trkpt><trkpt lat="49.10743831689593" lon="7.541840583666262"></trkpt><trkpt lat="49.10743831689593" lon="7.54184058366626"></trkpt><trkpt lat="49.10743831689593" lon="7.541840583666262"></trkpt><trkpt lat="49.1076289" lon="7.5422752"></trkpt><trkpt lat="49.1078087" lon="7.5426718"></trkpt><trkpt lat="49.1080594" lon="7.5433246"></trkpt><trkpt lat="49.1081854" lon="7.5434793"></trkpt><trkpt lat="49.1082841" lon="7.5435342"></trkpt><trkpt lat="49.1083629" lon="7.5435251"></trkpt><trkpt lat="49.108429" lon="7.5435102"></trkpt><trkpt lat="49.1084682" lon="7.5434724"></trkpt><trkpt lat="49.1085069" lon="7.5434017"></trkpt><trkpt lat="49.1085367" lon="7.5433025"></trkpt><trkpt lat="49.108539951801085" lon="7.543287196535237"></trkpt><trkpt lat="49.108539951801085" lon="7.543287196535239"></trkpt><trkpt lat="49.108539951801085" lon="7.543287196535237"></trkpt><trkpt lat="49.1085806" lon="7.5430959"></trkpt><trkpt lat="49.108622" lon="7.5428604"></trkpt><trkpt lat="49.1086649" lon="7.5426185"></trkpt><trkpt lat="49.1087088" lon="7.5424898"></trkpt><trkpt lat="49.1087766" lon="7.5423561"></trkpt><trkpt lat="49.1088475" lon="7.5422645"></trkpt><trkpt lat="49.1089311" lon="7.5421818"></trkpt><trkpt lat="49.1090266" lon="7.5421143"></trkpt><trkpt lat="49.1091425" lon="7.5420584"></trkpt><trkpt lat="49.109304" lon="7.5420445"></trkpt><trkpt lat="49.1094631" lon="7.5420933"></trkpt><trkpt lat="49.1096692" lon="7.5422162"></trkpt><trkpt lat="49.1097851" lon="7.5423342"></trkpt><trkpt lat="49.109804665962834" lon="7.542372839080247"></trkpt><trkpt lat="49.109804665962834" lon="7.542372839080246"></trkpt><trkpt lat="49.109804665962834" lon="7.542372839080247"></trkpt><trkpt lat="49.1099042" lon="7.5425694"></trkpt><trkpt lat="49.110059" lon="7.5428384"></trkpt><trkpt lat="49.1101672" lon="7.5431232"></trkpt><trkpt lat="49.1102838" lon="7.5434124"></trkpt><trkpt lat="49.1103704" lon="7.5438114"></trkpt><trkpt lat="49.1104629" lon="7.5444698"></trkpt><trkpt lat="49.11049194169109" lon="7.544842648935173"></trkpt><trkpt lat="49.1105155" lon="7.5451451"></trkpt><trkpt lat="49.110564" lon="7.5458323"></trkpt><trkpt lat="49.1105885" lon="7.5470125"></trkpt><trkpt lat="49.1105577" lon="7.5474787"></trkpt><trkpt lat="49.11053890805108" lon="7.5475675532367195"></trkpt><trkpt lat="49.11053890805108" lon="7.547567553236719"></trkpt><trkpt lat="49.11053890805108" lon="7.5475675532367195"></trkpt><trkpt lat="49.1104657" lon="7.5479137"></trkpt><trkpt lat="49.1103926" lon="7.5485998"></trkpt><trkpt lat="49.110368" lon="7.5490022"></trkpt><trkpt lat="49.1103329" lon="7.5492167"></trkpt><trkpt lat="49.1102803" lon="7.5493835"></trkpt><trkpt lat="49.1102716" lon="7.5495738"></trkpt><trkpt lat="49.1102405" lon="7.5497604"></trkpt><trkpt lat="49.1102522" lon="7.54989"></trkpt><trkpt lat="49.1102587" lon="7.5500395"></trkpt><trkpt lat="49.1102188119941" lon="7.550227824741228"></trkpt><trkpt lat="49.1101959" lon="7.550336"></trkpt><trkpt lat="49.1101732" lon="7.5504539"></trkpt><trkpt lat="49.1101432" lon="7.5505684"></trkpt><trkpt lat="49.1100642" lon="7.5508608"></trkpt><trkpt lat="49.1099746" lon="7.5511504"></trkpt><trkpt lat="49.1099273" lon="7.5513115"></trkpt><trkpt lat="49.1099096" lon="7.5515126"></trkpt><trkpt lat="49.1099149" lon="7.5517567"></trkpt><trkpt lat="49.1099414" lon="7.551899"></trkpt><trkpt lat="49.1099781" lon="7.5520369"></trkpt><trkpt lat="49.1100124" lon="7.5520906"></trkpt><trkpt lat="49.1100213" lon="7.5521739"></trkpt><trkpt lat="49.1099958" lon="7.5522369"></trkpt><trkpt lat="49.1099431" lon="7.5523348"></trkpt><trkpt lat="49.1098536" lon="7.5524703"></trkpt><trkpt lat="49.109779" lon="7.5526325"></trkpt><trkpt lat="49.109724203684145" lon="7.552759349452499"></trkpt><trkpt lat="49.109724203684145" lon="7.552759349452501"></trkpt><trkpt lat="49.109724203684145" lon="7.552759349452499"></trkpt><trkpt lat="49.1096631" lon="7.5529008"></trkpt><trkpt lat="49.1093901" lon="7.553342"></trkpt><trkpt lat="49.1092917" lon="7.5534734"></trkpt><trkpt lat="49.1091513" lon="7.5536531"></trkpt><trkpt lat="49.1090845" lon="7.553747"></trkpt><trkpt lat="49.1089915" lon="7.5537979"></trkpt><trkpt lat="49.1088686" lon="7.5539508"></trkpt><trkpt lat="49.1087018" lon="7.554203"></trkpt><trkpt lat="49.1085525" lon="7.5543827"></trkpt><trkpt lat="49.1084876" lon="7.5545329"></trkpt><trkpt lat="49.108436623605314" lon="7.554692368430009"></trkpt><trkpt lat="49.108436623605314" lon="7.5546923684300085"></trkpt><trkpt lat="49.108436623605314" lon="7.554692368430009"></trkpt><trkpt lat="49.108419" lon="7.5547475"></trkpt><trkpt lat="49.1082312" lon="7.5553456"></trkpt><trkpt lat="49.1080486" lon="7.5559786"></trkpt><trkpt lat="49.1079871" lon="7.5562602"></trkpt><trkpt lat="49.1079432" lon="7.5565338"></trkpt><trkpt lat="49.1079415" lon="7.5567403"></trkpt><trkpt lat="49.1079748" lon="7.5570246"></trkpt><trkpt lat="49.1079977" lon="7.557199"></trkpt><trkpt lat="49.10801137897164" lon="7.55725753508661"></trkpt><trkpt lat="49.10801137897164" lon="7.557257535086609"></trkpt><trkpt lat="49.10801137897164" lon="7.55725753508661"></trkpt><trkpt lat="49.1080679" lon="7.5574994"></trkpt><trkpt lat="49.1081662" lon="7.5578534"></trkpt><trkpt lat="49.1082014" lon="7.558001"></trkpt><trkpt lat="49.1082189" lon="7.5581968"></trkpt><trkpt lat="49.1082031" lon="7.5584355"></trkpt><trkpt lat="49.1082347" lon="7.5586206"></trkpt><trkpt lat="49.1083084" lon="7.5589612"></trkpt><trkpt lat="49.10837" lon="7.5593019"></trkpt><trkpt lat="49.1085086" lon="7.5597552"></trkpt><trkpt lat="49.10853979564574" lon="7.559837142765019"></trkpt><trkpt lat="49.10853979564574" lon="7.55983714276502"></trkpt><trkpt lat="49.10853979564574" lon="7.559837142765019"></trkpt><trkpt lat="49.1086597" lon="7.5601521"></trkpt><trkpt lat="49.1087843" lon="7.560415"></trkpt><trkpt lat="49.1088791" lon="7.5605625"></trkpt><trkpt lat="49.1089493" lon="7.5606188"></trkpt><trkpt lat="49.109074" lon="7.5606161"></trkpt><trkpt lat="49.1091758" lon="7.5605974"></trkpt><trkpt lat="49.10929" lon="7.5606108"></trkpt><trkpt lat="49.1094708" lon="7.5607288"></trkpt><trkpt lat="49.1095446" lon="7.560769"></trkpt><trkpt lat="49.1096025" lon="7.5608468"></trkpt><trkpt lat="49.1096675" lon="7.5610265"></trkpt><trkpt lat="49.1097078" lon="7.5612331"></trkpt><trkpt lat="49.1097359" lon="7.5613001"></trkpt><trkpt lat="49.1097746" lon="7.5613806"></trkpt><trkpt lat="49.109843" lon="7.5615013"></trkpt><trkpt lat="49.10989145002787" lon="7.561567972862008"></trkpt><trkpt lat="49.10989145002787" lon="7.561567972862007"></trkpt><trkpt lat="49.10989145002787" lon="7.561567972862008"></trkpt><trkpt lat="49.1099326" lon="7.5616246"></trkpt><trkpt lat="49.1101043" lon="7.5617571"></trkpt><trkpt lat="49.1102732" lon="7.5617695"></trkpt><trkpt lat="49.110419" lon="7.5617614"></trkpt><trkpt lat="49.1105366" lon="7.5617883"></trkpt><trkpt lat="49.1106209" lon="7.561866"></trkpt><trkpt lat="49.1107518" lon="7.5620837"></trkpt><trkpt lat="49.1108215" lon="7.562247"></trkpt><trkpt lat="49.1107648" lon="7.5623408"></trkpt><trkpt lat="49.1106324" lon="7.5623637"></trkpt><trkpt lat="49.110512" lon="7.5624374"></trkpt><trkpt lat="49.1104137" lon="7.5625527"></trkpt><trkpt lat="49.1102848" lon="7.5626533"></trkpt><trkpt lat="49.1101714" lon="7.5627217"></trkpt><trkpt lat="49.1100688" lon="7.5627471"></trkpt><trkpt lat="49.11001508596008" lon="7.562736283611139"></trkpt><trkpt lat="49.1099958" lon="7.5627324"></trkpt><trkpt lat="49.1099072" lon="7.5627016"></trkpt><trkpt lat="49.1097474" lon="7.562597"></trkpt><trkpt lat="49.1095982" lon="7.5624655"></trkpt><trkpt lat="49.1094216" lon="7.5623364"></trkpt><trkpt lat="49.1093269" lon="7.5623006"></trkpt><trkpt lat="49.1092589" lon="7.5622826"></trkpt><trkpt lat="49.1091583" lon="7.5622871"></trkpt><trkpt lat="49.1091209" lon="7.5623093"></trkpt><trkpt lat="49.109075" lon="7.5623509"></trkpt><trkpt lat="49.1090986" lon="7.5625768"></trkpt><trkpt lat="49.1091671" lon="7.5628611"></trkpt><trkpt lat="49.1092044" lon="7.5631647"></trkpt><trkpt lat="49.1092327" lon="7.5634128"></trkpt><trkpt lat="49.1092162" lon="7.5635934"></trkpt><trkpt lat="49.1091487" lon="7.5637472"></trkpt><trkpt lat="49.109123011140845" lon="7.563793184704606"></trkpt><trkpt lat="49.109123011140845" lon="7.563793184704603"></trkpt><trkpt lat="49.109123011140845" lon="7.563793184704606"></trkpt><trkpt lat="49.1090863" lon="7.5638589"></trkpt><trkpt lat="49.1089913" lon="7.5639669"></trkpt><trkpt lat="49.1088405" lon="7.564095"></trkpt><trkpt lat="49.1087157" lon="7.5642879"></trkpt><trkpt lat="49.108607" lon="7.5644866"></trkpt><trkpt lat="49.1085198" lon="7.5647308"></trkpt><trkpt lat="49.1084463" lon="7.5649908"></trkpt><trkpt lat="49.1084296" lon="7.5650418"></trkpt><trkpt lat="49.1084244" lon="7.565094"></trkpt><trkpt lat="49.1085647" lon="7.5649264"></trkpt><trkpt lat="49.108686" lon="7.5648031"></trkpt><trkpt lat="49.1088282" lon="7.5646368"></trkpt><trkpt lat="49.1089365" lon="7.5644874"></trkpt><trkpt lat="49.109005390853085" lon="7.564418781802007"></trkpt><trkpt lat="49.109005390853085" lon="7.56441878180201"></trkpt><trkpt lat="49.109005390853085" lon="7.564418781802007"></trkpt><trkpt lat="49.1090881" lon="7.5643364"></trkpt><trkpt lat="49.1091811" lon="7.5642639"></trkpt><trkpt lat="49.1092833" lon="7.5642502"></trkpt><trkpt lat="49.10943" lon="7.564202"></trkpt><trkpt lat="49.1095709" lon="7.5641459"></trkpt><trkpt lat="49.1096434" lon="7.5641491"></trkpt><trkpt lat="49.1097285" lon="7.5641893"></trkpt><trkpt lat="49.1098501" lon="7.5642237"></trkpt><trkpt lat="49.1100118" lon="7.5642291"></trkpt><trkpt lat="49.1101609" lon="7.5642049"></trkpt><trkpt lat="49.1102598" lon="7.5641412"></trkpt><trkpt lat="49.1103979" lon="7.5640601"></trkpt><trkpt lat="49.1104972" lon="7.5639717"></trkpt><trkpt lat="49.11068766913645" lon="7.563848873198667"></trkpt><trkpt lat="49.11068766913645" lon="7.5638488731986655"></trkpt><trkpt lat="49.11068766913645" lon="7.563848873198667"></trkpt><trkpt lat="49.1106929" lon="7.5638455"></trkpt><trkpt lat="49.1107912" lon="7.563808"></trkpt><trkpt lat="49.1108995" lon="7.5637484"></trkpt><trkpt lat="49.1110686" lon="7.5636765"></trkpt><trkpt lat="49.1113304" lon="7.5636736"></trkpt><trkpt lat="49.111432" lon="7.5636685"></trkpt><trkpt lat="49.1115391" lon="7.5637007"></trkpt><trkpt lat="49.1116941" lon="7.563711"></trkpt><trkpt lat="49.1118047" lon="7.5637426"></trkpt><trkpt lat="49.1119096" lon="7.5638214"></trkpt><trkpt lat="49.1119956" lon="7.5638831"></trkpt><trkpt lat="49.1120893" lon="7.5639075"></trkpt><trkpt lat="49.1121659" lon="7.5638992"></trkpt><trkpt lat="49.1122452" lon="7.5639078"></trkpt><trkpt lat="49.1123275" lon="7.5639126"></trkpt><trkpt lat="49.11234443982275" lon="7.56389535647525"></trkpt><trkpt lat="49.11234443982275" lon="7.563895356475251"></trkpt><trkpt lat="49.11234443982275" lon="7.56389535647525"></trkpt><trkpt lat="49.1123777" lon="7.5638615"></trkpt><trkpt lat="49.1124152" lon="7.5638375"></trkpt><trkpt lat="49.1125071" lon="7.5638288"></trkpt><trkpt lat="49.1125934" lon="7.5637959"></trkpt><trkpt lat="49.1126503" lon="7.5637609"></trkpt><trkpt lat="49.112715" lon="7.5637056"></trkpt><trkpt lat="49.112788" lon="7.5636271"></trkpt><trkpt lat="49.1128611" lon="7.5635123"></trkpt><trkpt lat="49.1129237" lon="7.5633802"></trkpt><trkpt lat="49.1129419" lon="7.563333"></trkpt><trkpt lat="49.1129683" lon="7.5632648"></trkpt><trkpt lat="49.1129865" lon="7.5632069"></trkpt><trkpt lat="49.1129973" lon="7.5630757"></trkpt><trkpt lat="49.1129888" lon="7.5629534"></trkpt><trkpt lat="49.1130384" lon="7.5626591"></trkpt><trkpt lat="49.1130854" lon="7.5623798"></trkpt><trkpt lat="49.1131011" lon="7.5622621"></trkpt><trkpt lat="49.1131083" lon="7.5621364"></trkpt><trkpt lat="49.1131154" lon="7.5619658"></trkpt><trkpt lat="49.1131154" lon="7.561834050558842"></trkpt><trkpt lat="49.1131154" lon="7.5618182"></trkpt><trkpt lat="49.1131083" lon="7.5617373"></trkpt><trkpt lat="49.1130952" lon="7.5616645"></trkpt><trkpt lat="49.1130919" lon="7.5616117"></trkpt><trkpt lat="49.1130972" lon="7.5615698"></trkpt><trkpt lat="49.1131337" lon="7.561469"></trkpt><trkpt lat="49.1131514" lon="7.5614181"></trkpt><trkpt lat="49.1131592" lon="7.5613538"></trkpt><trkpt lat="49.1134082" lon="7.5614414"></trkpt><trkpt lat="49.1134612" lon="7.5614588"></trkpt><trkpt lat="49.1136582" lon="7.5615298"></trkpt><trkpt lat="49.1137567" lon="7.5611697"></trkpt><trkpt lat="49.1138502" lon="7.5608492"></trkpt><trkpt lat="49.113893" lon="7.5607252"></trkpt><trkpt lat="49.1139464" lon="7.5605989"></trkpt><trkpt lat="49.1140067" lon="7.5604804"></trkpt><trkpt lat="49.1140587" lon="7.5603923"></trkpt><trkpt lat="49.114139" lon="7.560268"></trkpt><trkpt lat="49.114203379032645" lon="7.560183270726607"></trkpt><trkpt lat="49.114203379032645" lon="7.560183270726605"></trkpt><trkpt lat="49.114203379032645" lon="7.560183270726607"></trkpt><trkpt lat="49.1142744" lon="7.5600898"></trkpt><trkpt lat="49.1144948" lon="7.5597996"></trkpt><trkpt lat="49.1146834" lon="7.5595513"></trkpt><trkpt lat="49.1146485" lon="7.5594909"></trkpt><trkpt lat="49.1146327" lon="7.5594547"></trkpt><trkpt lat="49.1146274" lon="7.559377"></trkpt><trkpt lat="49.1145905" lon="7.5593488"></trkpt><trkpt lat="49.1145834" lon="7.5592996"></trkpt><trkpt lat="49.1145677" lon="7.5592375"></trkpt><trkpt lat="49.1145379" lon="7.5591476"></trkpt><trkpt lat="49.1144852" lon="7.5590859"></trkpt><trkpt lat="49.1144527" lon="7.558996"></trkpt><trkpt lat="49.1143146" lon="7.558566"></trkpt><trkpt lat="49.1142973" lon="7.5584851"></trkpt><trkpt lat="49.1143087" lon="7.5584422"></trkpt><trkpt lat="49.1143518" lon="7.5584047"></trkpt><trkpt lat="49.1144264" lon="7.5583108"></trkpt><trkpt lat="49.11447318073709" lon="7.558240628894361"></trkpt><trkpt lat="49.11447318073709" lon="7.558240628894363"></trkpt><trkpt lat="49.11447318073709" lon="7.558240628894361"></trkpt><trkpt lat="49.1145194" lon="7.5581713"></trkpt><trkpt lat="49.1146065" lon="7.5579681"></trkpt><trkpt lat="49.1146275" lon="7.5578663"></trkpt><trkpt lat="49.1146862" lon="7.557258"></trkpt><trkpt lat="49.114762" lon="7.5566465"></trkpt><trkpt lat="49.1148506" lon="7.5560359"></trkpt><trkpt lat="49.1149267" lon="7.5557157"></trkpt><trkpt lat="49.11498492505846" lon="7.555752443163671"></trkpt><trkpt lat="49.11498492505846" lon="7.555752443163672"></trkpt><trkpt lat="49.11498492505846" lon="7.555752443163671"></trkpt><trkpt lat="49.1149267" lon="7.5557157"></trkpt><trkpt lat="49.1150936" lon="7.5551005"></trkpt><trkpt lat="49.1150245" lon="7.5550725"></trkpt><trkpt lat="49.1150303" lon="7.5550304"></trkpt><trkpt lat="49.1150918" lon="7.5548132"></trkpt><trkpt lat="49.1151545" lon="7.5545678"></trkpt><trkpt lat="49.1151813" lon="7.5544688"></trkpt><trkpt lat="49.1151469" lon="7.5543494"></trkpt><trkpt lat="49.1153128" lon="7.5537371"></trkpt><trkpt lat="49.1153982" lon="7.5534608"></trkpt><trkpt lat="49.115370664369856" lon="7.553416568393321"></trkpt><trkpt lat="49.1153225" lon="7.5533392"></trkpt><trkpt lat="49.1152906" lon="7.5532904"></trkpt><trkpt lat="49.1152669" lon="7.5532463"></trkpt><trkpt lat="49.1152446" lon="7.5531985"></trkpt><trkpt lat="49.115216" lon="7.5531293"></trkpt><trkpt lat="49.1151893" lon="7.5530529"></trkpt><trkpt lat="49.1151675" lon="7.5529557"></trkpt><trkpt lat="49.1151461" lon="7.5528318"></trkpt><trkpt lat="49.1151283" lon="7.5526935"></trkpt><trkpt lat="49.1151187" lon="7.5526185"></trkpt><trkpt lat="49.1150979" lon="7.5524393"></trkpt><trkpt lat="49.115017" lon="7.551951"></trkpt><trkpt lat="49.1150275" lon="7.5519172"></trkpt><trkpt lat="49.115048" lon="7.551858"></trkpt><trkpt lat="49.115189" lon="7.5514499"></trkpt><trkpt lat="49.1152334" lon="7.5513212"></trkpt><trkpt lat="49.1153474" lon="7.5509911"></trkpt><trkpt lat="49.11536755283992" lon="7.55093278660044"></trkpt><trkpt lat="49.11536755283992" lon="7.5509327866004385"></trkpt><trkpt lat="49.11536755283992" lon="7.55093278660044"></trkpt><trkpt lat="49.1154545" lon="7.5506812"></trkpt><trkpt lat="49.1154649" lon="7.5506422"></trkpt><trkpt lat="49.1154676" lon="7.5506164"></trkpt><trkpt lat="49.1154655" lon="7.5505953"></trkpt><trkpt lat="49.1155131" lon="7.5505708"></trkpt><trkpt lat="49.1155542" lon="7.5505575"></trkpt><trkpt lat="49.1155728" lon="7.5505618"></trkpt><trkpt lat="49.1155902" lon="7.5505733"></trkpt><trkpt lat="49.1157417" lon="7.550726"></trkpt><trkpt lat="49.1157783" lon="7.5507569"></trkpt><trkpt lat="49.1158037" lon="7.5507629"></trkpt><trkpt lat="49.1158285" lon="7.5507599"></trkpt><trkpt lat="49.1158488" lon="7.5507429"></trkpt><trkpt lat="49.1158644" lon="7.55072"></trkpt><trkpt lat="49.1159178" lon="7.5505968"></trkpt><trkpt lat="49.1159678" lon="7.5504866"></trkpt><trkpt lat="49.1160328" lon="7.5503643"></trkpt><trkpt lat="49.1160762" lon="7.5503466"></trkpt><trkpt lat="49.116116" lon="7.5503055"></trkpt><trkpt lat="49.1161403" lon="7.5502731"></trkpt><trkpt lat="49.1161787" lon="7.5502042"></trkpt><trkpt lat="49.1162434" lon="7.5500751"></trkpt><trkpt lat="49.11627822714417" lon="7.549973648564686"></trkpt><trkpt lat="49.11627822714417" lon="7.549973648564688"></trkpt></trkseg></trk></gpx>
