<?xml version="1.0" encoding="UTF-8"?>
<gpx version="1.1" creator="Good Shit" xmlns="http://www.topografix.com/GPX/1/1"><trk><name>Čertoryje orchid meadow loop — Lučina–Šumárník–Výzkum–Kobyla–Čertoryje</name><desc>A closed meadow and woodland walk from Lučina through the Šumárník and Výzkum areas, past Kobyla and through the orchid meadows of Čertoryje. Follow the conservation authority’s promoted walking course and current marked paths.

Route geometry: © OpenStreetMap contributors — OpenStreetMap route and path geometry. Licence: ODbL-1.0 (https://opendatacommons.org/licenses/odbl/1.0/). Source: https://www.openstreetmap.org/copyright. Dataset: https://www.openstreetmap.org/.</desc><trkseg><trkpt lat="48.8617557" lon="17.3901665"></trkpt><trkpt lat="48.8618532" lon="17.390014"></trkpt><trkpt lat="48.8618782" lon="17.3899569"></trkpt><trkpt lat="48.8619184" lon="17.3899751"></trkpt><trkpt lat="48.8619525" lon="17.3899774"></trkpt><trkpt lat="48.8620169" lon="17.3899692"></trkpt><trkpt lat="48.86206579020184" lon="17.389925889144212"></trkpt><trkpt lat="48.86206579020184" lon="17.389925889144216"></trkpt><trkpt lat="48.86206579020184" lon="17.389925889144212"></trkpt><trkpt lat="48.8620686" lon="17.3899234"></trkpt><trkpt lat="48.8621125" lon="17.3898846"></trkpt><trkpt lat="48.8622665" lon="17.3898103"></trkpt><trkpt lat="48.8625659" lon="17.3896927"></trkpt><trkpt lat="48.86285695873431" lon="17.389390469433685"></trkpt><trkpt lat="48.8630583" lon="17.3891814"></trkpt><trkpt lat="48.86354686897219" lon="17.38852733909142"></trkpt><trkpt lat="48.8635897" lon="17.38847"></trkpt><trkpt lat="48.86421015150937" lon="17.387608271966553"></trkpt><trkpt lat="48.8642673" lon="17.3875289"></trkpt><trkpt lat="48.8646155" lon="17.3871771"></trkpt><trkpt lat="48.8649224" lon="17.3867078"></trkpt><trkpt lat="48.864941730490806" lon="17.386806523578063"></trkpt><trkpt lat="48.864956" lon="17.3868794"></trkpt><trkpt lat="48.8650919" lon="17.3872979"></trkpt><trkpt lat="48.86530303542151" lon="17.38789248843656"></trkpt><trkpt lat="48.86557" lon="17.3886443"></trkpt><trkpt lat="48.86580491177034" lon="17.389005380556256"></trkpt><trkpt lat="48.86580491177034" lon="17.38900538055626"></trkpt><trkpt lat="48.86580491177034" lon="17.389005380556256"></trkpt><trkpt lat="48.8658841" lon="17.3891271"></trkpt><trkpt lat="48.8660235" lon="17.3894651"></trkpt><trkpt lat="48.8661946" lon="17.3896877"></trkpt><trkpt lat="48.86642507384412" lon="17.389988184988137"></trkpt><trkpt lat="48.8666163" lon="17.3902375"></trkpt><trkpt lat="48.8667998" lon="17.3905567"></trkpt><trkpt lat="48.8668522" lon="17.3907475"></trkpt><trkpt lat="48.8668532" lon="17.3911045"></trkpt><trkpt lat="48.86685630800725" lon="17.391160605198"></trkpt><trkpt lat="48.8669053" lon="17.392045"></trkpt><trkpt lat="48.8669551" lon="17.3924102"></trkpt><trkpt lat="48.86698237895034" lon="17.392497942534742"></trkpt><trkpt lat="48.8673662" lon="17.3937325"></trkpt><trkpt lat="48.867366539514336" lon="17.39373520743884"></trkpt><trkpt lat="48.8674249" lon="17.3942006"></trkpt><trkpt lat="48.867424" lon="17.3947373"></trkpt><trkpt lat="48.8675152" lon="17.3950535"></trkpt><trkpt lat="48.86752229010649" lon="17.39507077683963"></trkpt><trkpt lat="48.8677579" lon="17.3956449"></trkpt><trkpt lat="48.86786732446415" lon="17.396305072006914"></trkpt><trkpt lat="48.8678726" lon="17.3963369"></trkpt><trkpt lat="48.8678673" lon="17.3970825"></trkpt><trkpt lat="48.868004960803134" lon="17.397629775364138"></trkpt><trkpt lat="48.868326171294484" lon="17.39890675896889"></trkpt><trkpt lat="48.8683578" lon="17.3990325"></trkpt><trkpt lat="48.8685219" lon="17.3996548"></trkpt><trkpt lat="48.868643311009826" lon="17.400187240491146"></trkpt><trkpt lat="48.86893768717711" lon="17.401478209006317"></trkpt><trkpt lat="48.8691482" lon="17.4024014"></trkpt><trkpt lat="48.8691076" lon="17.4025623"></trkpt><trkpt lat="48.868971881265495" lon="17.402665372784835"></trkpt><trkpt lat="48.8687085" lon="17.4028654"></trkpt><trkpt lat="48.868693" lon="17.4029512"></trkpt><trkpt lat="48.86888914169824" lon="17.403640253840575"></trkpt><trkpt lat="48.8690534" lon="17.4042173"></trkpt><trkpt lat="48.86927249683724" lon="17.404877894818192"></trkpt><trkpt lat="48.8694645" lon="17.4054568"></trkpt><trkpt lat="48.86964470239498" lon="17.40612014049869"></trkpt><trkpt lat="48.8697997" lon="17.4066907"></trkpt><trkpt lat="48.869833021627976" lon="17.407433837926334"></trkpt><trkpt lat="48.8698454" lon="17.4077099"></trkpt><trkpt lat="48.8700327" lon="17.4083842"></trkpt><trkpt lat="48.8701349" lon="17.4085906"></trkpt><trkpt lat="48.87013789206975" lon="17.408732557087045"></trkpt><trkpt lat="48.8701403" lon="17.4088468"></trkpt><trkpt lat="48.87013433703068" lon="17.41009117357336"></trkpt><trkpt lat="48.8701324" lon="17.4104954"></trkpt><trkpt lat="48.87012829320388" lon="17.411457989575467"></trkpt><trkpt lat="48.870122460890755" lon="17.412825022082277"></trkpt><trkpt lat="48.87011662787124" lon="17.414192220160505"></trkpt><trkpt lat="48.8701116" lon="17.4153707"></trkpt><trkpt lat="48.87011326020766" lon="17.415561214363095"></trkpt><trkpt lat="48.87012517314186" lon="17.416928263272236"></trkpt><trkpt lat="48.87013708607606" lon="17.41829531218134"></trkpt><trkpt lat="48.87014899855486" lon="17.419662308831537"></trkpt><trkpt lat="48.8701566" lon="17.4205346"></trkpt><trkpt lat="48.87016445490758" lon="17.421029022793743"></trkpt><trkpt lat="48.870171" lon="17.421441"></trkpt><trkpt lat="48.8701243" lon="17.4217898"></trkpt><trkpt lat="48.8700423" lon="17.4219535"></trkpt><trkpt lat="48.86985773484509" lon="17.422193537975247"></trkpt><trkpt lat="48.86985773484509" lon="17.422193537975243"></trkpt><trkpt lat="48.86985773484509" lon="17.422193537975247"></trkpt><trkpt lat="48.8697921" lon="17.4222789"></trkpt><trkpt lat="48.8696487" lon="17.4225132"></trkpt><trkpt lat="48.8694741" lon="17.4233356"></trkpt><trkpt lat="48.86947099951046" lon="17.42335669435919"></trkpt><trkpt lat="48.8693448" lon="17.4242153"></trkpt><trkpt lat="48.869278973498126" lon="17.424689940664397"></trkpt><trkpt lat="48.86909358321276" lon="17.42602669357868"></trkpt><trkpt lat="48.8690051" lon="17.4266647"></trkpt><trkpt lat="48.86875937851894" lon="17.427330368768846"></trkpt><trkpt lat="48.86831969313338" lon="17.428521493077596"></trkpt><trkpt lat="48.8682184" lon="17.4287959"></trkpt><trkpt lat="48.86812815663808" lon="17.4298021620033"></trkpt><trkpt lat="48.8681254" lon="17.4298329"></trkpt><trkpt lat="48.8681219" lon="17.4306696"></trkpt><trkpt lat="48.86818375269391" lon="17.43111485118056"></trkpt><trkpt lat="48.8683042" lon="17.4319819"></trkpt><trkpt lat="48.86834211753961" lon="17.432462382582656"></trkpt><trkpt lat="48.8684151" lon="17.4333872"></trkpt><trkpt lat="48.86842172767586" lon="17.433826387807386"></trkpt><trkpt lat="48.86844231159526" lon="17.435190396340257"></trkpt><trkpt lat="48.8684437" lon="17.4352824"></trkpt><trkpt lat="48.8684186" lon="17.436019"></trkpt><trkpt lat="48.86831460725171" lon="17.43651213295569"></trkpt><trkpt lat="48.8681969" lon="17.4370703"></trkpt><trkpt lat="48.8679988" lon="17.437597"></trkpt><trkpt lat="48.8679411367072" lon="17.437758880436665"></trkpt><trkpt lat="48.867868" lon="17.4379642"></trkpt><trkpt lat="48.8675997" lon="17.4383686"></trkpt><trkpt lat="48.86739" lon="17.4386402"></trkpt><trkpt lat="48.86743969447111" lon="17.438661802579364"></trkpt><trkpt lat="48.86739" lon="17.4386402"></trkpt><trkpt lat="48.8671567" lon="17.438626"></trkpt><trkpt lat="48.8668956" lon="17.4386609"></trkpt><trkpt lat="48.8666151" lon="17.4388526"></trkpt><trkpt lat="48.86660367469316" lon="17.438902431915196"></trkpt><trkpt lat="48.8665891" lon="17.438966"></trkpt><trkpt lat="48.8666387" lon="17.4391854"></trkpt><trkpt lat="48.8666507" lon="17.4392529"></trkpt><trkpt lat="48.8663151" lon="17.4394092"></trkpt><trkpt lat="48.86602523993847" lon="17.439510755822816"></trkpt><trkpt lat="48.8658864" lon="17.4395594"></trkpt><trkpt lat="48.865157529873464" lon="17.439877403395432"></trkpt><trkpt lat="48.8649673" lon="17.4399604"></trkpt><trkpt lat="48.86429873234319" lon="17.440298436475654"></trkpt><trkpt lat="48.8636222" lon="17.4406405"></trkpt><trkpt lat="48.86344547532927" lon="17.440727630204957"></trkpt><trkpt lat="48.8625900188621" lon="17.441149394167"></trkpt><trkpt lat="48.8623385" lon="17.4412734"></trkpt><trkpt lat="48.86173587503514" lon="17.441580495448672"></trkpt><trkpt lat="48.8617341" lon="17.4415814"></trkpt><trkpt lat="48.86088377821688" lon="17.442017836101417"></trkpt><trkpt lat="48.8606896" lon="17.4421175"></trkpt><trkpt lat="48.86003198773055" lon="17.442456106684862"></trkpt><trkpt lat="48.8599817" lon="17.442482"></trkpt><trkpt lat="48.8594428" lon="17.4427627"></trkpt><trkpt lat="48.85918166810913" lon="17.442904095290135"></trkpt><trkpt lat="48.8588472" lon="17.4430852"></trkpt><trkpt lat="48.8585045" lon="17.4432983"></trkpt><trkpt lat="48.85833941752689" lon="17.44337933560461"></trkpt><trkpt lat="48.8576438" lon="17.4437208"></trkpt><trkpt lat="48.85748302104423" lon="17.443793355971728"></trkpt><trkpt lat="48.8566812" lon="17.4441552"></trkpt><trkpt lat="48.85662024672389" lon="17.444177857244565"></trkpt><trkpt lat="48.85662024672389" lon="17.44417785724456"></trkpt><trkpt lat="48.85662024672389" lon="17.444177857244565"></trkpt><trkpt lat="48.85574673917541" lon="17.444502553067633"></trkpt><trkpt lat="48.855494" lon="17.4445965"></trkpt><trkpt lat="48.8554172" lon="17.4451361"></trkpt><trkpt lat="48.85516785058643" lon="17.44540034736589"></trkpt><trkpt lat="48.85516785058643" lon="17.445400347365887"></trkpt><trkpt lat="48.85516785058643" lon="17.44540034736589"></trkpt><trkpt lat="48.8548632" lon="17.4457232"></trkpt><trkpt lat="48.854360442690044" lon="17.445995518107612"></trkpt><trkpt lat="48.8539076" lon="17.4462408"></trkpt><trkpt lat="48.85359224912721" lon="17.44668370324074"></trkpt><trkpt lat="48.8531706" lon="17.4472759"></trkpt><trkpt lat="48.853032749365" lon="17.447701977512892"></trkpt><trkpt lat="48.85263848770938" lon="17.448920586521485"></trkpt><trkpt lat="48.8525708" lon="17.4491298"></trkpt><trkpt lat="48.85196143177306" lon="17.449931220540986"></trkpt><trkpt lat="48.85196143177306" lon="17.449931220540982"></trkpt><trkpt lat="48.85196143177306" lon="17.449931220540986"></trkpt><trkpt lat="48.85138" lon="17.4506959"></trkpt><trkpt lat="48.8510044" lon="17.4501151"></trkpt><trkpt lat="48.8509859" lon="17.4500922"></trkpt><trkpt lat="48.851096" lon="17.4498979"></trkpt><trkpt lat="48.8509859" lon="17.4500922"></trkpt><trkpt lat="48.8508724" lon="17.4502924"></trkpt><trkpt lat="48.85058542506787" lon="17.45061553429763"></trkpt><trkpt lat="48.8498867" lon="17.4514023"></trkpt><trkpt lat="48.84985749167371" lon="17.451421961202655"></trkpt><trkpt lat="48.8495982" lon="17.4515965"></trkpt><trkpt lat="48.8490439" lon="17.4517661"></trkpt><trkpt lat="48.848994548667335" lon="17.451794710512658"></trkpt><trkpt lat="48.8487015" lon="17.4519646"></trkpt><trkpt lat="48.8484984" lon="17.4521961"></trkpt><trkpt lat="48.8482773" lon="17.4525645"></trkpt><trkpt lat="48.8482654719531" lon="17.452590662793206"></trkpt><trkpt lat="48.8480258" lon="17.4531208"></trkpt><trkpt lat="48.84758682871467" lon="17.453359536491078"></trkpt><trkpt lat="48.8466736" lon="17.4538562"></trkpt><trkpt lat="48.8467238" lon="17.4538022"></trkpt><trkpt lat="48.8467912" lon="17.4536821"></trkpt><trkpt lat="48.84679975693486" lon="17.453601960178645"></trkpt><trkpt lat="48.8468109" lon="17.4534976"></trkpt><trkpt lat="48.8468189" lon="17.4532639"></trkpt><trkpt lat="48.8468039" lon="17.4531186"></trkpt><trkpt lat="48.8467771" lon="17.4529536"></trkpt><trkpt lat="48.8466775" lon="17.4526844"></trkpt><trkpt lat="48.84659453044915" lon="17.452296224545012"></trkpt><trkpt lat="48.8465932" lon="17.45229"></trkpt><trkpt lat="48.846558" lon="17.4521161"></trkpt><trkpt lat="48.8464846" lon="17.4518075"></trkpt><trkpt lat="48.8464607" lon="17.4517112"></trkpt><trkpt lat="48.8464425" lon="17.4516003"></trkpt><trkpt lat="48.8464294" lon="17.4514728"></trkpt><trkpt lat="48.84642" lon="17.451132"></trkpt><trkpt lat="48.8464174" lon="17.4510398"></trkpt><trkpt lat="48.84641260732181" lon="17.451008721705346"></trkpt><trkpt lat="48.8464077" lon="17.4509769"></trkpt><trkpt lat="48.8463901" lon="17.4509259"></trkpt><trkpt lat="48.8463644" lon="17.4508626"></trkpt><trkpt lat="48.8463174" lon="17.4507882"></trkpt><trkpt lat="48.8462816" lon="17.4507474"></trkpt><trkpt lat="48.8460821" lon="17.4506109"></trkpt><trkpt lat="48.8460272" lon="17.4505535"></trkpt><trkpt lat="48.8459504" lon="17.4504451"></trkpt><trkpt lat="48.8458591" lon="17.4503067"></trkpt><trkpt lat="48.8458332" lon="17.4502555"></trkpt><trkpt lat="48.8457995" lon="17.4501766"></trkpt><trkpt lat="48.84577882109468" lon="17.45010327221682"></trkpt><trkpt lat="48.8456061" lon="17.4494908"></trkpt><trkpt lat="48.8455762" lon="17.4493647"></trkpt><trkpt lat="48.8455408" lon="17.4492646"></trkpt><trkpt lat="48.8454997" lon="17.449162"></trkpt><trkpt lat="48.8454501" lon="17.4490547"></trkpt><trkpt lat="48.84535662423896" lon="17.448894619185985"></trkpt><trkpt lat="48.8453193" lon="17.4488307"></trkpt><trkpt lat="48.8452645" lon="17.4487595"></trkpt><trkpt lat="48.8452106" lon="17.4487062"></trkpt><trkpt lat="48.8451764" lon="17.4486774"></trkpt><trkpt lat="48.845119" lon="17.4486488"></trkpt><trkpt lat="48.8449747" lon="17.4486204"></trkpt><trkpt lat="48.8448742" lon="17.448601"></trkpt><trkpt lat="48.8447002" lon="17.44854"></trkpt><trkpt lat="48.84452419841572" lon="17.448460858348007"></trkpt><trkpt lat="48.8444916" lon="17.4484462"></trkpt><trkpt lat="48.8441838" lon="17.4483174"></trkpt><trkpt lat="48.8438197" lon="17.4481586"></trkpt><trkpt lat="48.8437547" lon="17.4481303"></trkpt><trkpt lat="48.84366138960486" lon="17.448084985666622"></trkpt><trkpt lat="48.8434833" lon="17.4479985"></trkpt><trkpt lat="48.8432295" lon="17.4478289"></trkpt><trkpt lat="48.8431239" lon="17.4477588"></trkpt><trkpt lat="48.8430257" lon="17.4476758"></trkpt><trkpt lat="48.8429541" lon="17.4476083"></trkpt><trkpt lat="48.8428989" lon="17.4475325"></trkpt><trkpt lat="48.84287995490724" lon="17.447500594741513"></trkpt><trkpt lat="48.8428549" lon="17.4474584"></trkpt><trkpt lat="48.8428112" lon="17.4473705"></trkpt><trkpt lat="48.8427022" lon="17.44713"></trkpt><trkpt lat="48.8426711" lon="17.4470299"></trkpt><trkpt lat="48.84262" lon="17.4468545"></trkpt><trkpt lat="48.8425689" lon="17.4466844"></trkpt><trkpt lat="48.8424856" lon="17.4463822"></trkpt><trkpt lat="48.8424692843744" lon="17.446326862307476"></trkpt><trkpt lat="48.8424085" lon="17.4461207"></trkpt><trkpt lat="48.842378" lon="17.4459865"></trkpt><trkpt lat="48.8423688" lon="17.4459252"></trkpt><trkpt lat="48.8423557" lon="17.445844"></trkpt><trkpt lat="48.8423389" lon="17.445788"></trkpt><trkpt lat="48.8423144" lon="17.4457295"></trkpt><trkpt lat="48.8422893" lon="17.4456792"></trkpt><trkpt lat="48.8421057" lon="17.4453899"></trkpt><trkpt lat="48.8419978410277" lon="17.445244017547154"></trkpt><trkpt lat="48.8419199" lon="17.4451386"></trkpt><trkpt lat="48.8416391" lon="17.4446384"></trkpt><trkpt lat="48.84138492087926" lon="17.444246068321064"></trkpt><trkpt lat="48.84138492087926" lon="17.444246068321068"></trkpt><trkpt lat="48.84138492087926" lon="17.444246068321064"></trkpt><trkpt lat="48.8412623" lon="17.4440568"></trkpt><trkpt lat="48.8411579" lon="17.4439021"></trkpt><trkpt lat="48.8410517" lon="17.4437751"></trkpt><trkpt lat="48.8409245" lon="17.4436525"></trkpt><trkpt lat="48.8408189" lon="17.4435735"></trkpt><trkpt lat="48.8407648" lon="17.4435445"></trkpt><trkpt lat="48.8407122" lon="17.4435206"></trkpt><trkpt lat="48.84065838290508" lon="17.44349635101828"></trkpt><trkpt lat="48.8406434" lon="17.4434896"></trkpt><trkpt lat="48.8405752" lon="17.4434794"></trkpt><trkpt lat="48.8404216" lon="17.4434893"></trkpt><trkpt lat="48.8402066" lon="17.4434977"></trkpt><trkpt lat="48.8400652" lon="17.4435132"></trkpt><trkpt lat="48.8399151" lon="17.4435495"></trkpt><trkpt lat="48.839817018047206" lon="17.443555819254673"></trkpt><trkpt lat="48.8398049" lon="17.4435566"></trkpt><trkpt lat="48.8397605" lon="17.4435663"></trkpt><trkpt lat="48.8397161" lon="17.4436095"></trkpt><trkpt lat="48.8396956" lon="17.4436263"></trkpt><trkpt lat="48.8396744" lon="17.4436372"></trkpt><trkpt lat="48.8396518" lon="17.4436413"></trkpt><trkpt lat="48.8396097" lon="17.4436378"></trkpt><trkpt lat="48.839529" lon="17.4436185"></trkpt><trkpt lat="48.8394502" lon="17.4435866"></trkpt><trkpt lat="48.8394108" lon="17.4435777"></trkpt><trkpt lat="48.8393787" lon="17.4435763"></trkpt><trkpt lat="48.8393118" lon="17.4435828"></trkpt><trkpt lat="48.8391882" lon="17.4435763"></trkpt><trkpt lat="48.8390772" lon="17.4435563"></trkpt><trkpt lat="48.83898639246919" lon="17.443550986288688"></trkpt><trkpt lat="48.8389815" lon="17.4435507"></trkpt><trkpt lat="48.8388101" lon="17.4435519"></trkpt><trkpt lat="48.8385498" lon="17.4435468"></trkpt><trkpt lat="48.838237" lon="17.4435562"></trkpt><trkpt lat="48.838097179217954" lon="17.4435562"></trkpt><trkpt lat="48.8379988" lon="17.4435562"></trkpt><trkpt lat="48.8377469" lon="17.4435609"></trkpt><trkpt lat="48.8376472" lon="17.4435448"></trkpt><trkpt lat="48.8375396" lon="17.4434646"></trkpt><trkpt lat="48.8375609" lon="17.4433395"></trkpt><trkpt lat="48.83764840803425" lon="17.443159611759288"></trkpt><trkpt lat="48.83764840803425" lon="17.44315961175929"></trkpt><trkpt lat="48.83764840803425" lon="17.443159611759288"></trkpt><trkpt lat="48.8376525" lon="17.4431512"></trkpt><trkpt lat="48.8379187" lon="17.4427021"></trkpt><trkpt lat="48.8380894" lon="17.4424318"></trkpt><trkpt lat="48.8382182" lon="17.4422149"></trkpt><trkpt lat="48.83824015877305" lon="17.4421317955052"></trkpt><trkpt lat="48.838318" lon="17.4418372"></trkpt><trkpt lat="48.8384362" lon="17.4413848"></trkpt><trkpt lat="48.83848" lon="17.4410183"></trkpt><trkpt lat="48.83849012142391" lon="17.440810606336655"></trkpt><trkpt lat="48.8384998" lon="17.440612"></trkpt><trkpt lat="48.8386039" lon="17.4402757"></trkpt><trkpt lat="48.8387973" lon="17.440037"></trkpt><trkpt lat="48.8388629" lon="17.4397923"></trkpt><trkpt lat="48.83890083798801" lon="17.439647121321478"></trkpt><trkpt lat="48.8389968" lon="17.4392799"></trkpt><trkpt lat="48.8392497" lon="17.4387829"></trkpt><trkpt lat="48.8393007" lon="17.4387095"></trkpt><trkpt lat="48.83942941015058" lon="17.43878037563358"></trkpt><trkpt lat="48.8396866" lon="17.438922"></trkpt><trkpt lat="48.8400514" lon="17.4390361"></trkpt><trkpt lat="48.84029070225453" lon="17.43907272325378"></trkpt><trkpt lat="48.840367" lon="17.4390844"></trkpt><trkpt lat="48.8405337" lon="17.4390718"></trkpt><trkpt lat="48.840872" lon="17.4390473"></trkpt><trkpt lat="48.84118619900231" lon="17.439052557745935"></trkpt><trkpt lat="48.8411947" lon="17.4390527"></trkpt><trkpt lat="48.841545" lon="17.4390428"></trkpt><trkpt lat="48.8418301" lon="17.439023"></trkpt><trkpt lat="48.8419367" lon="17.439014"></trkpt><trkpt lat="48.842080249892405" lon="17.438978263187995"></trkpt><trkpt lat="48.8424131" lon="17.4388954"></trkpt><trkpt lat="48.8424704" lon="17.4387951"></trkpt><trkpt lat="48.8425656" lon="17.4386541"></trkpt><trkpt lat="48.84279881730859" lon="17.438305813148222"></trkpt><trkpt lat="48.8429823" lon="17.4380318"></trkpt><trkpt lat="48.8431588" lon="17.4376617"></trkpt><trkpt lat="48.843327205820785" lon="17.437200230418455"></trkpt><trkpt lat="48.8434094" lon="17.436975"></trkpt><trkpt lat="48.8435435" lon="17.4366156"></trkpt><trkpt lat="48.84381663203643" lon="17.4360638528844"></trkpt><trkpt lat="48.8441861" lon="17.4353175"></trkpt><trkpt lat="48.84440201564661" lon="17.435055025503615"></trkpt><trkpt lat="48.8447157" lon="17.4346737"></trkpt><trkpt lat="48.8449698" lon="17.434384"></trkpt><trkpt lat="48.84506338203586" lon="17.43420141412894"></trkpt><trkpt lat="48.8452805" lon="17.4337778"></trkpt><trkpt lat="48.84563304123027" lon="17.433148759436836"></trkpt><trkpt lat="48.84563304123027" lon="17.433148759436833"></trkpt><trkpt lat="48.84563304123027" lon="17.433148759436836"></trkpt><trkpt lat="48.8456653" lon="17.4330912"></trkpt><trkpt lat="48.84614593515449" lon="17.432026839188442"></trkpt><trkpt lat="48.8461595" lon="17.4319968"></trkpt><trkpt lat="48.8463537" lon="17.4314765"></trkpt><trkpt lat="48.846694482678124" lon="17.430958683908784"></trkpt><trkpt lat="48.8467385" lon="17.4308918"></trkpt><trkpt lat="48.8469079" lon="17.4304465"></trkpt><trkpt lat="48.8471444" lon="17.4300388"></trkpt><trkpt lat="48.84724652293936" lon="17.429876540212558"></trkpt><trkpt lat="48.8474516" lon="17.4295507"></trkpt><trkpt lat="48.8478563972729" lon="17.428872576529226"></trkpt><trkpt lat="48.8478999" lon="17.4287997"></trkpt><trkpt lat="48.848147" lon="17.4285797"></trkpt><trkpt lat="48.8482956" lon="17.428444"></trkpt><trkpt lat="48.848532625863776" lon="17.42803865220601"></trkpt><trkpt lat="48.848532625863776" lon="17.428038652206006"></trkpt><trkpt lat="48.848532625863776" lon="17.42803865220601"></trkpt><trkpt lat="48.8487334" lon="17.4276953"></trkpt><trkpt lat="48.8490105" lon="17.4274995"></trkpt><trkpt lat="48.84922483247769" lon="17.427202598519898"></trkpt><trkpt lat="48.8493194" lon="17.4270716"></trkpt><trkpt lat="48.8496031" lon="17.4268582"></trkpt><trkpt lat="48.8498732" lon="17.4265286"></trkpt><trkpt lat="48.84996202833766" lon="17.426428042028572"></trkpt><trkpt lat="48.84996202833766" lon="17.426428042028576"></trkpt><trkpt lat="48.84996202833766" lon="17.426428042028572"></trkpt><trkpt lat="48.8506795300025" lon="17.425615795466097"></trkpt><trkpt lat="48.850916" lon="17.4253481"></trkpt><trkpt lat="48.851378770324814" lon="17.424762370341917"></trkpt><trkpt lat="48.8517805" lon="17.4242539"></trkpt><trkpt lat="48.8520615" lon="17.4241"></trkpt><trkpt lat="48.85212829964205" lon="17.424015166294808"></trkpt><trkpt lat="48.85212829964205" lon="17.424015166294804"></trkpt><trkpt lat="48.85212829964205" lon="17.424015166294808"></trkpt><trkpt lat="48.8526423" lon="17.4233624"></trkpt><trkpt lat="48.85281607433624" lon="17.42318774104588"></trkpt><trkpt lat="48.85281607433624" lon="17.423187741045876"></trkpt><trkpt lat="48.85281607433624" lon="17.42318774104588"></trkpt><trkpt lat="48.8531334" lon="17.4228688"></trkpt><trkpt lat="48.8534771" lon="17.4222062"></trkpt><trkpt lat="48.8539039" lon="17.4216146"></trkpt><trkpt lat="48.85412850561616" lon="17.421281120669136"></trkpt><trkpt lat="48.8541659" lon="17.4212256"></trkpt><trkpt lat="48.854301" lon="17.4209824"></trkpt><trkpt lat="48.8543545" lon="17.420889"></trkpt><trkpt lat="48.8546198" lon="17.4204259"></trkpt><trkpt lat="48.85473480027537" lon="17.420283802157496"></trkpt><trkpt lat="48.8549521" lon="17.4200153"></trkpt><trkpt lat="48.8552519" lon="17.4198694"></trkpt><trkpt lat="48.85553768910188" lon="17.419722782605877"></trkpt><trkpt lat="48.8556626" lon="17.4196587"></trkpt><trkpt lat="48.8560624" lon="17.4195263"></trkpt><trkpt lat="48.856205" lon="17.4193618"></trkpt><trkpt lat="48.85635516176103" lon="17.419188521569925"></trkpt><trkpt lat="48.8564382" lon="17.4190927"></trkpt><trkpt lat="48.8568101" lon="17.4189736"></trkpt><trkpt lat="48.8570223" lon="17.4188113"></trkpt><trkpt lat="48.857176849333" lon="17.41871477657761"></trkpt><trkpt lat="48.8573539" lon="17.4186042"></trkpt><trkpt lat="48.8576363" lon="17.4183181"></trkpt><trkpt lat="48.857845674468486" lon="17.417961344180668"></trkpt><trkpt lat="48.857845674468486" lon="17.417961344180664"></trkpt><trkpt lat="48.857845674468486" lon="17.417961344180668"></trkpt><trkpt lat="48.8579021" lon="17.4178652"></trkpt><trkpt lat="48.8582659" lon="17.417404"></trkpt><trkpt lat="48.8584461" lon="17.417069"></trkpt><trkpt lat="48.85846479357235" lon="17.417026019387944"></trkpt><trkpt lat="48.85846479357235" lon="17.41702601938794"></trkpt><trkpt lat="48.85846479357235" lon="17.417026019387944"></trkpt><trkpt lat="48.8587021" lon="17.4164804"></trkpt><trkpt lat="48.85885326251154" lon="17.41586459546828"></trkpt><trkpt lat="48.8589379" lon="17.4155198"></trkpt><trkpt lat="48.859082" lon="17.4150391"></trkpt><trkpt lat="48.8593015184631" lon="17.414638673329797"></trkpt><trkpt lat="48.8594544" lon="17.4143598"></trkpt><trkpt lat="48.8595089" lon="17.4141767"></trkpt><trkpt lat="48.859487734571644" lon="17.413413719264405"></trkpt><trkpt lat="48.85948" lon="17.4131349"></trkpt><trkpt lat="48.8594628" lon="17.4128808"></trkpt><trkpt lat="48.85967300076999" lon="17.412024237186554"></trkpt><trkpt lat="48.8597589" lon="17.4116742"></trkpt><trkpt lat="48.8597967" lon="17.4112276"></trkpt><trkpt lat="48.859723347118965" lon="17.410735645900445"></trkpt><trkpt lat="48.8597967" lon="17.4112276"></trkpt><trkpt lat="48.8599088" lon="17.4107773"></trkpt><trkpt lat="48.8599419" lon="17.4095396"></trkpt><trkpt lat="48.8599673538663" lon="17.40949118599489"></trkpt><trkpt lat="48.8599673538663" lon="17.409491185994895"></trkpt><trkpt lat="48.8599673538663" lon="17.40949118599489"></trkpt><trkpt lat="48.8604839" lon="17.4085087"></trkpt><trkpt lat="48.86054605362983" lon="17.40845242886472"></trkpt><trkpt lat="48.8610534" lon="17.4079931"></trkpt><trkpt lat="48.8612884952952" lon="17.40770243060207"></trkpt><trkpt lat="48.8614722" lon="17.4074753"></trkpt><trkpt lat="48.8617957" lon="17.407099"></trkpt><trkpt lat="48.8620436" lon="17.4069314"></trkpt><trkpt lat="48.86206828596731" lon="17.406919523009122"></trkpt><trkpt lat="48.8624674" lon="17.4067275"></trkpt><trkpt lat="48.8627566" lon="17.4065884"></trkpt><trkpt lat="48.86291729196868" lon="17.406500115944176"></trkpt><trkpt lat="48.86291729196868" lon="17.406500115944173"></trkpt><trkpt lat="48.86291729196868" lon="17.406500115944176"></trkpt><trkpt lat="48.86375985317487" lon="17.406037213403533"></trkpt><trkpt lat="48.86375985317487" lon="17.40603721340353"></trkpt><trkpt lat="48.86375985317487" lon="17.406037213403533"></trkpt><trkpt lat="48.8640218" lon="17.4058933"></trkpt><trkpt lat="48.86456968176322" lon="17.405488959215337"></trkpt><trkpt lat="48.8646722" lon="17.4054133"></trkpt><trkpt lat="48.86542597983856" lon="17.40512108062273"></trkpt><trkpt lat="48.8655077" lon="17.4050894"></trkpt><trkpt lat="48.8658612" lon="17.4047132"></trkpt><trkpt lat="48.8657523" lon="17.4043809"></trkpt><trkpt lat="48.865658602995794" lon="17.404054492536115"></trkpt><trkpt lat="48.8656361" lon="17.4039761"></trkpt><trkpt lat="48.8655376" lon="17.4035654"></trkpt><trkpt lat="48.865356686544274" lon="17.402767970532846"></trkpt><trkpt lat="48.8651938" lon="17.40205"></trkpt><trkpt lat="48.865071035307885" lon="17.401471541187053"></trkpt><trkpt lat="48.8650421" lon="17.4013352"></trkpt><trkpt lat="48.8648997" lon="17.4006176"></trkpt><trkpt lat="48.8648153" lon="17.400434"></trkpt><trkpt lat="48.8647081" lon="17.4002836"></trkpt><trkpt lat="48.864697237069706" lon="17.400273893446155"></trkpt><trkpt lat="48.8644291" lon="17.4000343"></trkpt><trkpt lat="48.86397348771108" lon="17.399474517247402"></trkpt><trkpt lat="48.8639598" lon="17.3994577"></trkpt><trkpt lat="48.8633827" lon="17.398671"></trkpt><trkpt lat="48.86329819181219" lon="17.398639542929203"></trkpt><trkpt lat="48.8632696" lon="17.3986289"></trkpt><trkpt lat="48.8631552" lon="17.3986246"></trkpt><trkpt lat="48.8630473" lon="17.3985417"></trkpt><trkpt lat="48.8629688" lon="17.398299"></trkpt><trkpt lat="48.8629" lon="17.3980938"></trkpt><trkpt lat="48.8628616" lon="17.3980688"></trkpt><trkpt lat="48.862752933935774" lon="17.397677529238535"></trkpt><trkpt lat="48.8626828" lon="17.397425"></trkpt><trkpt lat="48.862578" lon="17.3970073"></trkpt><trkpt lat="48.8625342" lon="17.3967332"></trkpt><trkpt lat="48.8625132" lon="17.3966023"></trkpt><trkpt lat="48.862477256734685" lon="17.396377351699073"></trkpt><trkpt lat="48.862442" lon="17.3961567"></trkpt><trkpt lat="48.8624043" lon="17.3959031"></trkpt><trkpt lat="48.8623921" lon="17.3958337"></trkpt><trkpt lat="48.8623622" lon="17.3956354"></trkpt><trkpt lat="48.8623408" lon="17.3955283"></trkpt><trkpt lat="48.8622719" lon="17.3951827"></trkpt><trkpt lat="48.86225642604913" lon="17.395054339893214"></trkpt><trkpt lat="48.8622719" lon="17.3951827"></trkpt><trkpt lat="48.862195" lon="17.3949221"></trkpt><trkpt lat="48.8620622" lon="17.3946367"></trkpt><trkpt lat="48.8617513" lon="17.3939947"></trkpt><trkpt lat="48.86172787790164" lon="17.393953407801764"></trkpt><trkpt lat="48.8615661" lon="17.3936682"></trkpt><trkpt lat="48.8615273" lon="17.3936281"></trkpt><trkpt lat="48.8614804" lon="17.3935796"></trkpt><trkpt lat="48.8613929" lon="17.3934291"></trkpt><trkpt lat="48.8612987" lon="17.3932108"></trkpt><trkpt lat="48.8612577" lon="17.3930826"></trkpt><trkpt lat="48.8612363" lon="17.3930062"></trkpt><trkpt lat="48.861220260425995" lon="17.39284770168591"></trkpt><trkpt lat="48.8611729" lon="17.3923797"></trkpt><trkpt lat="48.8610154" lon="17.3917383"></trkpt><trkpt lat="48.86098222829443" lon="17.39153121196534"></trkpt><trkpt lat="48.8608849" lon="17.3909236"></trkpt><trkpt lat="48.8610516" lon="17.3907486"></trkpt><trkpt lat="48.86136500333542" lon="17.39051605507706"></trkpt><trkpt lat="48.8614078" lon="17.3904843"></trkpt><trkpt lat="48.8615676" lon="17.3903541"></trkpt><trkpt lat="48.861608" lon="17.3903172"></trkpt><trkpt lat="48.8616831" lon="17.3902379"></trkpt><trkpt lat="48.8617557" lon="17.3901665"></trkpt></trkseg></trk></gpx>
