<?xml version="1.0" encoding="UTF-8"?>
<gpx version="1.1" creator="Good Shit" xmlns="http://www.topografix.com/GPX/1/1"><trk><name>Gygrestolen — Gygrestolen</name><desc>Route geometry: © OpenStreetMap contributors — OpenStreetMap route and path geometry. Licence: ODbL-1.0 (https://opendatacommons.org/licenses/odbl/1.0/). Source: https://www.openstreetmap.org/relation/19371559. Dataset: https://www.openstreetmap.org/.</desc><trkseg><trkpt lat="59.3755146" lon="8.9823317"></trkpt><trkpt lat="59.3754906" lon="8.9822985"></trkpt><trkpt lat="59.3753026" lon="8.9822124"></trkpt><trkpt lat="59.3752017" lon="8.9823108"></trkpt><trkpt lat="59.3750077" lon="8.9825583"></trkpt><trkpt lat="59.3747572" lon="8.9830136"></trkpt><trkpt lat="59.3745759" lon="8.9831592"></trkpt><trkpt lat="59.3744463" lon="8.9833869"></trkpt><trkpt lat="59.3743337" lon="8.9836258"></trkpt><trkpt lat="59.3742822" lon="8.9839407"></trkpt><trkpt lat="59.3741661" lon="8.9841929"></trkpt><trkpt lat="59.3740673" lon="8.9845781"></trkpt><trkpt lat="59.3739764" lon="8.9852581"></trkpt><trkpt lat="59.3738571" lon="8.9853736"></trkpt><trkpt lat="59.3737693" lon="8.9856207"></trkpt><trkpt lat="59.3736541" lon="8.9858923"></trkpt><trkpt lat="59.3735755" lon="8.9863605"></trkpt><trkpt lat="59.3732289" lon="8.9867796"></trkpt><trkpt lat="59.3731018" lon="8.9869636"></trkpt><trkpt lat="59.3730237" lon="8.9870237"></trkpt><trkpt lat="59.3727702" lon="8.9875704"></trkpt><trkpt lat="59.3725028" lon="8.9874628"></trkpt><trkpt lat="59.3722911" lon="8.9876914"></trkpt><trkpt lat="59.3720956" lon="8.9881135"></trkpt><trkpt lat="59.3718548" lon="8.9886496"></trkpt><trkpt lat="59.3716567" lon="8.9893752"></trkpt><trkpt lat="59.3715499" lon="8.9899293"></trkpt><trkpt lat="59.3714559" lon="8.9901632"></trkpt><trkpt lat="59.3713367" lon="8.990274"></trkpt><trkpt lat="59.3712176" lon="8.990077"></trkpt><trkpt lat="59.3711925" lon="8.989597"></trkpt><trkpt lat="59.3711153" lon="8.9889578"></trkpt><trkpt lat="59.3711482" lon="8.9885472"></trkpt><trkpt lat="59.3713338" lon="8.9880957"></trkpt><trkpt lat="59.3713456" lon="8.9879232"></trkpt><trkpt lat="59.3713186" lon="8.987688"></trkpt><trkpt lat="59.3712489" lon="8.987517"></trkpt><trkpt lat="59.3709605" lon="8.9875909"></trkpt><trkpt lat="59.3707816" lon="8.9877094"></trkpt><trkpt lat="59.3706159" lon="8.9883677"></trkpt><trkpt lat="59.3704777" lon="8.988834"></trkpt><trkpt lat="59.3704024" lon="8.9893263"></trkpt><trkpt lat="59.3701704" lon="8.9899417"></trkpt><trkpt lat="59.3699635" lon="8.9904832"></trkpt><trkpt lat="59.3697064" lon="8.9911232"></trkpt><trkpt lat="59.3693928" lon="8.9917017"></trkpt><trkpt lat="59.3691796" lon="8.992194"></trkpt><trkpt lat="59.3689852" lon="8.9927109"></trkpt><trkpt lat="59.3688535" lon="8.9930555"></trkpt><trkpt lat="59.3686591" lon="8.993154"></trkpt><trkpt lat="59.368471" lon="8.993154"></trkpt><trkpt lat="59.3682183" lon="8.9934296"></trkpt><trkpt lat="59.3680721" lon="8.9934752"></trkpt><trkpt lat="59.3678251" lon="8.9934247"></trkpt><trkpt lat="59.3676432" lon="8.9935971"></trkpt><trkpt lat="59.3675241" lon="8.993474"></trkpt><trkpt lat="59.3674802" lon="8.9932771"></trkpt><trkpt lat="59.3672983" lon="8.9931786"></trkpt><trkpt lat="59.3670036" lon="8.9934124"></trkpt><trkpt lat="59.3668593" lon="8.9937324"></trkpt><trkpt lat="59.3667151" lon="8.9938924"></trkpt><trkpt lat="59.3665332" lon="8.9938924"></trkpt><trkpt lat="59.3663639" lon="8.9939417"></trkpt><trkpt lat="59.3660942" lon="8.9938186"></trkpt><trkpt lat="59.3658622" lon="8.9937324"></trkpt><trkpt lat="59.3656113" lon="8.9935847"></trkpt><trkpt lat="59.3653981" lon="8.9934371"></trkpt><trkpt lat="59.3653166" lon="8.9932401"></trkpt><trkpt lat="59.3654671" lon="8.9929201"></trkpt><trkpt lat="59.3655047" lon="8.9926247"></trkpt><trkpt lat="59.3654734" lon="8.992354"></trkpt><trkpt lat="59.3655737" lon="8.9918247"></trkpt><trkpt lat="59.365674" lon="8.9913324"></trkpt><trkpt lat="59.3657366" lon="8.9909703"></trkpt><trkpt lat="59.3658308" lon="8.9906801"></trkpt><trkpt lat="59.3659061" lon="8.9905694"></trkpt><trkpt lat="59.3659437" lon="8.9904217"></trkpt><trkpt lat="59.3657807" lon="8.9901509"></trkpt><trkpt lat="59.3657493" lon="8.989794"></trkpt><trkpt lat="59.3657995" lon="8.9890924"></trkpt><trkpt lat="59.3659124" lon="8.9887478"></trkpt><trkpt lat="59.3660503" lon="8.9884401"></trkpt><trkpt lat="59.3661068" lon="8.9881324"></trkpt><trkpt lat="59.3661068" lon="8.9878517"></trkpt><trkpt lat="59.3662978" lon="8.9877525"></trkpt><trkpt lat="59.3664399" lon="8.9876747"></trkpt><trkpt lat="59.3664632" lon="8.9875567"></trkpt><trkpt lat="59.3664153" lon="8.9873797"></trkpt><trkpt lat="59.3664153" lon="8.9872268"></trkpt><trkpt lat="59.36647" lon="8.9870203"></trkpt><trkpt lat="59.3665137" lon="8.9869639"></trkpt><trkpt lat="59.3665479" lon="8.9869344"></trkpt><trkpt lat="59.3665506" lon="8.9868486"></trkpt><trkpt lat="59.3664126" lon="8.986752"></trkpt><trkpt lat="59.3663538" lon="8.9867574"></trkpt><trkpt lat="59.3663019" lon="8.9865696"></trkpt><trkpt lat="59.3661748" lon="8.9864248"></trkpt><trkpt lat="59.3661111" lon="8.9864093"></trkpt><trkpt lat="59.3660195" lon="8.9862801"></trkpt><trkpt lat="59.3658439" lon="8.9862555"></trkpt><trkpt lat="59.3657194" lon="8.9865141"></trkpt><trkpt lat="59.3656113" lon="8.9865324"></trkpt><trkpt lat="59.3654608" lon="8.9863724"></trkpt><trkpt lat="59.3652893" lon="8.9864898"></trkpt><trkpt lat="59.3652215" lon="8.9866623"></trkpt><trkpt lat="59.3651254" lon="8.9867268"></trkpt><trkpt lat="59.3649933" lon="8.9869682"></trkpt><trkpt lat="59.3648163" lon="8.9871501"></trkpt><trkpt lat="59.3647583" lon="8.9873192"></trkpt><trkpt lat="59.3645734" lon="8.9875416"></trkpt><trkpt lat="59.3644668" lon="8.9877263"></trkpt><trkpt lat="59.3644184" lon="8.987787"></trkpt><trkpt lat="59.3643838" lon="8.9877004"></trkpt><trkpt lat="59.3642894" lon="8.987649"></trkpt><trkpt lat="59.3642424" lon="8.9874281"></trkpt><trkpt lat="59.3643277" lon="8.9871193"></trkpt><trkpt lat="59.3643624" lon="8.9869128"></trkpt><trkpt lat="59.3643731" lon="8.9867051"></trkpt><trkpt lat="59.3644273" lon="8.9865155"></trkpt><trkpt lat="59.3644775" lon="8.9863558"></trkpt><trkpt lat="59.3645151" lon="8.9862174"></trkpt><trkpt lat="59.3646115" lon="8.9857575"></trkpt><trkpt lat="59.3646563" lon="8.9856235"></trkpt><trkpt lat="59.3647129" lon="8.985273"></trkpt><trkpt lat="59.364789" lon="8.9850818"></trkpt><trkpt lat="59.3648103" lon="8.9849356"></trkpt><trkpt lat="59.3648086" lon="8.9846961"></trkpt><trkpt lat="59.3648433" lon="8.9845302"></trkpt><trkpt lat="59.3649632" lon="8.9842291"></trkpt><trkpt lat="59.3650169" lon="8.9840819"></trkpt><trkpt lat="59.365013" lon="8.9838391"></trkpt><trkpt lat="59.3650595" lon="8.983694"></trkpt><trkpt lat="59.3650959" lon="8.9835226"></trkpt><trkpt lat="59.3651009" lon="8.9833776"></trkpt><trkpt lat="59.3651155" lon="8.9830963"></trkpt><trkpt lat="59.3651031" lon="8.9829458"></trkpt><trkpt lat="59.3650536" lon="8.9826791"></trkpt><trkpt lat="59.3650174" lon="8.9824672"></trkpt><trkpt lat="59.3650066" lon="8.9822809"></trkpt><trkpt lat="59.3650142" lon="8.9820427"></trkpt><trkpt lat="59.3650501" lon="8.9818704"></trkpt><trkpt lat="59.3650801" lon="8.9816673"></trkpt><trkpt lat="59.3651172" lon="8.9815891"></trkpt><trkpt lat="59.3651683" lon="8.9814985"></trkpt><trkpt lat="59.3652032" lon="8.9814423"></trkpt><trkpt lat="59.3652807" lon="8.9814027"></trkpt><trkpt lat="59.3653569" lon="8.9811997"></trkpt><trkpt lat="59.3654232" lon="8.9810678"></trkpt><trkpt lat="59.3654787" lon="8.9809597"></trkpt><trkpt lat="59.365566" lon="8.9807479"></trkpt><trkpt lat="59.3655862" lon="8.9807276"></trkpt><trkpt lat="59.3656099" lon="8.980732"></trkpt><trkpt lat="59.3656364" lon="8.9807514"></trkpt><trkpt lat="59.3656516" lon="8.9807523"></trkpt><trkpt lat="59.3656628" lon="8.9807294"></trkpt><trkpt lat="59.3656691" lon="8.9806758"></trkpt><trkpt lat="59.3656673" lon="8.9806213"></trkpt><trkpt lat="59.365648" lon="8.9805562"></trkpt><trkpt lat="59.3656314" lon="8.980522"></trkpt><trkpt lat="59.3656225" lon="8.9804789"></trkpt><trkpt lat="59.3656225" lon="8.9804437"></trkpt><trkpt lat="59.3656314" lon="8.9804191"></trkpt><trkpt lat="59.3656646" lon="8.9803936"></trkpt><trkpt lat="59.3656836" lon="8.9803639"></trkpt><trkpt lat="59.3657048" lon="8.9802727"></trkpt><trkpt lat="59.3657132" lon="8.9801968"></trkpt><trkpt lat="59.365708" lon="8.9801417"></trkpt><trkpt lat="59.3657298" lon="8.9799293"></trkpt><trkpt lat="59.3657298" lon="8.9797261"></trkpt><trkpt lat="59.3657333" lon="8.9796038"></trkpt><trkpt lat="59.3657725" lon="8.9794376"></trkpt><trkpt lat="59.3659001" lon="8.979034"></trkpt><trkpt lat="59.3659603" lon="8.9789608"></trkpt><trkpt lat="59.3659768" lon="8.9789074"></trkpt><trkpt lat="59.3659983" lon="8.978778"></trkpt><trkpt lat="59.3660105" lon="8.9786205"></trkpt><trkpt lat="59.366028" lon="8.9782991"></trkpt><trkpt lat="59.3660105" lon="8.9786205"></trkpt><trkpt lat="59.3659983" lon="8.978778"></trkpt><trkpt lat="59.3659768" lon="8.9789074"></trkpt><trkpt lat="59.3659603" lon="8.9789608"></trkpt><trkpt lat="59.3659001" lon="8.979034"></trkpt><trkpt lat="59.3657725" lon="8.9794376"></trkpt><trkpt lat="59.3657333" lon="8.9796038"></trkpt><trkpt lat="59.3657298" lon="8.9797261"></trkpt><trkpt lat="59.365661" lon="8.9797769"></trkpt><trkpt lat="59.3655987" lon="8.9798816"></trkpt><trkpt lat="59.3655539" lon="8.979929"></trkpt><trkpt lat="59.3654518" lon="8.9799686"></trkpt><trkpt lat="59.3654312" lon="8.9800029"></trkpt><trkpt lat="59.3654205" lon="8.9800837"></trkpt><trkpt lat="59.3654048" lon="8.9801637"></trkpt><trkpt lat="59.365369" lon="8.9802622"></trkpt><trkpt lat="59.365317" lon="8.9802815"></trkpt><trkpt lat="59.3652422" lon="8.9803263"></trkpt><trkpt lat="59.3651799" lon="8.9803457"></trkpt><trkpt lat="59.3651298" lon="8.9803246"></trkpt><trkpt lat="59.3650711" lon="8.9802789"></trkpt><trkpt lat="59.3650272" lon="8.9802613"></trkpt><trkpt lat="59.3649152" lon="8.9803334"></trkpt><trkpt lat="59.3648362" lon="8.9803389"></trkpt><trkpt lat="59.364801" lon="8.980467"></trkpt><trkpt lat="59.3646905" lon="8.9809502"></trkpt><trkpt lat="59.3646101" lon="8.9811572"></trkpt><trkpt lat="59.3644895" lon="8.9811769"></trkpt><trkpt lat="59.3642986" lon="8.9815121"></trkpt><trkpt lat="59.3641981" lon="8.9815516"></trkpt><trkpt lat="59.3641479" lon="8.9817882"></trkpt><trkpt lat="59.3641278" lon="8.9820445"></trkpt><trkpt lat="59.3640275" lon="8.9821064"></trkpt><trkpt lat="59.363952" lon="8.982153"></trkpt><trkpt lat="59.3636555" lon="8.9821037"></trkpt><trkpt lat="59.3634948" lon="8.9821234"></trkpt><trkpt lat="59.3633641" lon="8.9820938"></trkpt><trkpt lat="59.3632435" lon="8.9818474"></trkpt><trkpt lat="59.3631632" lon="8.981522"></trkpt><trkpt lat="59.3631983" lon="8.9809403"></trkpt><trkpt lat="59.3633239" lon="8.9804473"></trkpt><trkpt lat="59.3634093" lon="8.9800431"></trkpt><trkpt lat="59.3635299" lon="8.9795896"></trkpt><trkpt lat="59.3635601" lon="8.9793628"></trkpt><trkpt lat="59.3635852" lon="8.9788008"></trkpt><trkpt lat="59.3636907" lon="8.9782585"></trkpt><trkpt lat="59.3638414" lon="8.9775783"></trkpt><trkpt lat="59.3638917" lon="8.977312"></trkpt><trkpt lat="59.3642484" lon="8.9768289"></trkpt><trkpt lat="59.3642785" lon="8.9766219"></trkpt><trkpt lat="59.3644594" lon="8.9764247"></trkpt><trkpt lat="59.3646905" lon="8.9760402"></trkpt><trkpt lat="59.3649166" lon="8.9759613"></trkpt><trkpt lat="59.3650623" lon="8.9758824"></trkpt><trkpt lat="59.3653939" lon="8.975636"></trkpt><trkpt lat="59.3655797" lon="8.9752219"></trkpt><trkpt lat="59.3658223" lon="8.9748442"></trkpt><trkpt lat="59.3658963" lon="8.9747289"></trkpt><trkpt lat="59.3661888" lon="8.9740676"></trkpt><trkpt lat="59.3663785" lon="8.9731711"></trkpt><trkpt lat="59.3665142" lon="8.9724612"></trkpt><trkpt lat="59.3665895" lon="8.9719781"></trkpt><trkpt lat="59.3668005" lon="8.9713866"></trkpt><trkpt lat="59.3669211" lon="8.971219"></trkpt><trkpt lat="59.3670216" lon="8.9709133"></trkpt><trkpt lat="59.3672024" lon="8.970657"></trkpt><trkpt lat="59.3674034" lon="8.9703711"></trkpt><trkpt lat="59.3675792" lon="8.9700358"></trkpt><trkpt lat="59.3676244" lon="8.9695527"></trkpt><trkpt lat="59.3676747" lon="8.9690302"></trkpt><trkpt lat="59.3676345" lon="8.9683893"></trkpt><trkpt lat="59.3675993" lon="8.9676893"></trkpt><trkpt lat="59.3676445" lon="8.9672161"></trkpt><trkpt lat="59.3677676" lon="8.9664815"></trkpt><trkpt lat="59.367853" lon="8.9659196"></trkpt><trkpt lat="59.3679585" lon="8.9651801"></trkpt><trkpt lat="59.3679535" lon="8.9647167"></trkpt><trkpt lat="59.3680791" lon="8.9644308"></trkpt><trkpt lat="59.3681896" lon="8.9645294"></trkpt><trkpt lat="59.3682549" lon="8.9647759"></trkpt><trkpt lat="59.368285" lon="8.9650618"></trkpt><trkpt lat="59.3684608" lon="8.9655055"></trkpt><trkpt lat="59.3686166" lon="8.9660477"></trkpt><trkpt lat="59.368712" lon="8.9664914"></trkpt><trkpt lat="59.3689029" lon="8.9674675"></trkpt><trkpt lat="59.368923" lon="8.967921"></trkpt><trkpt lat="59.3689531" lon="8.9685323"></trkpt><trkpt lat="59.3689983" lon="8.9689562"></trkpt><trkpt lat="59.3691993" lon="8.9693309"></trkpt><trkpt lat="59.3693726" lon="8.9693851"></trkpt><trkpt lat="59.3696388" lon="8.9695626"></trkpt><trkpt lat="59.3698347" lon="8.9696908"></trkpt><trkpt lat="59.3700106" lon="8.9695527"></trkpt><trkpt lat="59.3702165" lon="8.969464"></trkpt><trkpt lat="59.3704124" lon="8.9696217"></trkpt><trkpt lat="59.3705581" lon="8.9700457"></trkpt><trkpt lat="59.3705932" lon="8.9703218"></trkpt><trkpt lat="59.3705581" lon="8.9707457"></trkpt><trkpt lat="59.3706083" lon="8.970864"></trkpt><trkpt lat="59.3710102" lon="8.9713866"></trkpt><trkpt lat="59.3714572" lon="8.9719091"></trkpt><trkpt lat="59.3716732" lon="8.9720373"></trkpt><trkpt lat="59.3718691" lon="8.9720373"></trkpt><trkpt lat="59.372055" lon="8.9720373"></trkpt><trkpt lat="59.3722308" lon="8.9722246"></trkpt><trkpt lat="59.3723965" lon="8.9724317"></trkpt><trkpt lat="59.3725773" lon="8.9726486"></trkpt><trkpt lat="59.3727833" lon="8.9729444"></trkpt><trkpt lat="59.3728586" lon="8.9731711"></trkpt><trkpt lat="59.3729288" lon="8.9733882"></trkpt><trkpt lat="59.3730233" lon="8.9736578"></trkpt><trkpt lat="59.3730963" lon="8.9737776"></trkpt><trkpt lat="59.3732042" lon="8.9740095"></trkpt><trkpt lat="59.3732906" lon="8.9742951"></trkpt><trkpt lat="59.3734915" lon="8.9748472"></trkpt><trkpt lat="59.3736074" lon="8.9752451"></trkpt><trkpt lat="59.3736135" lon="8.9756803"></trkpt><trkpt lat="59.3735919" lon="8.9760698"></trkpt><trkpt lat="59.3736171" lon="8.9764543"></trkpt><trkpt lat="59.3737259" lon="8.9767581"></trkpt><trkpt lat="59.3738966" lon="8.9767792"></trkpt><trkpt lat="59.3738932" lon="8.9768906"></trkpt><trkpt lat="59.3738957" lon="8.9770023"></trkpt><trkpt lat="59.3739032" lon="8.9770988"></trkpt><trkpt lat="59.3739192" lon="8.9772025"></trkpt><trkpt lat="59.3739427" lon="8.9773042"></trkpt><trkpt lat="59.3739715" lon="8.9774038"></trkpt><trkpt lat="59.3740367" lon="8.9775705"></trkpt><trkpt lat="59.3740684" lon="8.9776365"></trkpt><trkpt lat="59.3741383" lon="8.9777576"></trkpt><trkpt lat="59.374215" lon="8.9778623"></trkpt><trkpt lat="59.374337" lon="8.9780102"></trkpt><trkpt lat="59.3744321" lon="8.9781476"></trkpt><trkpt lat="59.3745657" lon="8.9783972"></trkpt><trkpt lat="59.3747795" lon="8.9788571"></trkpt><trkpt lat="59.3749106" lon="8.9791722"></trkpt><trkpt lat="59.3750029" lon="8.9794307"></trkpt><trkpt lat="59.3750483" lon="8.979601"></trkpt><trkpt lat="59.3750934" lon="8.9798306"></trkpt><trkpt lat="59.3751981" lon="8.9804294"></trkpt><trkpt lat="59.3752983" lon="8.9810431"></trkpt><trkpt lat="59.3754154" lon="8.9817106"></trkpt><trkpt lat="59.3755146" lon="8.9823317"></trkpt></trkseg></trk></gpx>
