<?xml version="1.0" encoding="UTF-8"?>
<gpx version="1.1" creator="Good Shit" xmlns="http://www.topografix.com/GPX/1/1"><trk><name>Grafenried/Lučina vanished-village loop — Grafenried/Lučina vanished-village loop</name><trkseg><trkpt lat="49.44883547854096" lon="12.709088138763455"></trkpt><trkpt lat="49.44883547854096" lon="12.709088138763454"></trkpt><trkpt lat="49.4489144" lon="12.7089978"></trkpt><trkpt lat="49.4489883" lon="12.7089184"></trkpt><trkpt lat="49.4490245" lon="12.7087975"></trkpt><trkpt lat="49.4490345" lon="12.7086841"></trkpt><trkpt lat="49.4490084" lon="12.7084992"></trkpt><trkpt lat="49.4490106" lon="12.7082482"></trkpt><trkpt lat="49.4490485" lon="12.7078181"></trkpt><trkpt lat="49.4491001" lon="12.7074078"></trkpt><trkpt lat="49.44914594354691" lon="12.707153838714026"></trkpt><trkpt lat="49.44914594354691" lon="12.707153838714024"></trkpt><trkpt lat="49.44914594354691" lon="12.707153838714026"></trkpt><trkpt lat="49.4491844" lon="12.7069408"></trkpt><trkpt lat="49.4493139" lon="12.706619"></trkpt><trkpt lat="49.449331" lon="12.7063931"></trkpt><trkpt lat="49.4493203" lon="12.7061271"></trkpt><trkpt lat="49.4493698" lon="12.7057911"></trkpt><trkpt lat="49.4494081" lon="12.7056956"></trkpt><trkpt lat="49.4495266" lon="12.7053996"></trkpt><trkpt lat="49.4496511" lon="12.7051466"></trkpt><trkpt lat="49.4496989" lon="12.7050468"></trkpt><trkpt lat="49.4497251" lon="12.7049529"></trkpt><trkpt lat="49.449724" lon="12.7051954"></trkpt><trkpt lat="49.44971492588221" lon="12.705253866922082"></trkpt><trkpt lat="49.449724" lon="12.7051954"></trkpt><trkpt lat="49.4497251" lon="12.7049529"></trkpt><trkpt lat="49.4497274" lon="12.7048523"></trkpt><trkpt lat="49.4496995" lon="12.7047693"></trkpt><trkpt lat="49.4496453" lon="12.7046926"></trkpt><trkpt lat="49.4495727" lon="12.7046594"></trkpt><trkpt lat="49.4494189" lon="12.7045763"></trkpt><trkpt lat="49.4491129" lon="12.704511"></trkpt><trkpt lat="49.4486934" lon="12.704502"></trkpt><trkpt lat="49.44848815472339" lon="12.704502252592299"></trkpt><trkpt lat="49.4472308" lon="12.7045038"></trkpt><trkpt lat="49.447139707369075" lon="12.704496746557378"></trkpt><trkpt lat="49.447019" lon="12.7044874"></trkpt><trkpt lat="49.4468656" lon="12.7043905"></trkpt><trkpt lat="49.4467333" lon="12.7042281"></trkpt><trkpt lat="49.4465583" lon="12.7038386"></trkpt><trkpt lat="49.4462771" lon="12.703309"></trkpt><trkpt lat="49.446165644971906" lon="12.703195445942356"></trkpt><trkpt lat="49.446165644971906" lon="12.703195445942358"></trkpt><trkpt lat="49.446165644971906" lon="12.703195445942356"></trkpt><trkpt lat="49.4459532" lon="12.702979"></trkpt><trkpt lat="49.445722" lon="12.7026279"></trkpt><trkpt lat="49.4455349" lon="12.7022489"></trkpt><trkpt lat="49.4454103" lon="12.7019197"></trkpt><trkpt lat="49.445339" lon="12.7016306"></trkpt><trkpt lat="49.44532755362438" lon="12.701575229881788"></trkpt><trkpt lat="49.44532755362438" lon="12.701575229881787"></trkpt><trkpt lat="49.44532755362438" lon="12.701575229881788"></trkpt><trkpt lat="49.4452726" lon="12.7013094"></trkpt><trkpt lat="49.4452202" lon="12.7010147"></trkpt><trkpt lat="49.4452103" lon="12.7009149"></trkpt><trkpt lat="49.4451661" lon="12.7005287"></trkpt><trkpt lat="49.4451522" lon="12.6998886"></trkpt><trkpt lat="49.4451572765722" lon="12.699509345045644"></trkpt><trkpt lat="49.445158" lon="12.6994553"></trkpt><trkpt lat="49.4451508" lon="12.6990142"></trkpt><trkpt lat="49.4451276" lon="12.6988181"></trkpt><trkpt lat="49.4451168" lon="12.6986"></trkpt><trkpt lat="49.445078" lon="12.6983184"></trkpt><trkpt lat="49.4450416" lon="12.6981423"></trkpt><trkpt lat="49.4449727" lon="12.6979603"></trkpt><trkpt lat="49.4448165" lon="12.6976904"></trkpt><trkpt lat="49.444771804989074" lon="12.697612027691827"></trkpt><trkpt lat="49.4446518" lon="12.6974016"></trkpt><trkpt lat="49.4445934" lon="12.6972796"></trkpt><trkpt lat="49.444077" lon="12.6961154"></trkpt><trkpt lat="49.44401542203796" lon="12.69592601744934"></trkpt><trkpt lat="49.44401542203796" lon="12.695926017449338"></trkpt><trkpt lat="49.44401542203796" lon="12.69592601744934"></trkpt><trkpt lat="49.4439856" lon="12.6958343"></trkpt><trkpt lat="49.4439642" lon="12.6955975"></trkpt><trkpt lat="49.4439558" lon="12.6949808"></trkpt><trkpt lat="49.4439326" lon="12.6944667"></trkpt><trkpt lat="49.4439405" lon="12.6941574"></trkpt><trkpt lat="49.4439705" lon="12.6939929"></trkpt><trkpt lat="49.4440189" lon="12.6938067"></trkpt><trkpt lat="49.4440614" lon="12.6937157"></trkpt><trkpt lat="49.4440846688125" lon="12.693671238548507"></trkpt><trkpt lat="49.4441208" lon="12.6936022"></trkpt><trkpt lat="49.4444058" lon="12.6929965"></trkpt><trkpt lat="49.4447586" lon="12.6923011"></trkpt><trkpt lat="49.4448776" lon="12.6920475"></trkpt><trkpt lat="49.44488072945614" lon="12.692038188193195"></trkpt><trkpt lat="49.44488072945614" lon="12.692038188193193"></trkpt><trkpt lat="49.44488072945614" lon="12.692038188193195"></trkpt><trkpt lat="49.444943" lon="12.6918529"></trkpt><trkpt lat="49.444994" lon="12.6916922"></trkpt><trkpt lat="49.4450319" lon="12.6915251"></trkpt><trkpt lat="49.4450653" lon="12.6913109"></trkpt><trkpt lat="49.4450764" lon="12.6911233"></trkpt><trkpt lat="49.4450647" lon="12.6907621"></trkpt><trkpt lat="49.4450757" lon="12.6904294"></trkpt><trkpt lat="49.44510816045982" lon="12.69010338407749"></trkpt><trkpt lat="49.445124" lon="12.6899443"></trkpt><trkpt lat="49.445189" lon="12.6894273"></trkpt><trkpt lat="49.4452208" lon="12.6892244"></trkpt><trkpt lat="49.4452562" lon="12.6891422"></trkpt><trkpt lat="49.4451046" lon="12.6889208"></trkpt><trkpt lat="49.4449474" lon="12.6887258"></trkpt><trkpt lat="49.4448788" lon="12.6885885"></trkpt><trkpt lat="49.4448603" lon="12.6884279"></trkpt><trkpt lat="49.4448595" lon="12.688184"></trkpt><trkpt lat="49.444865461217525" lon="12.688016084024024"></trkpt><trkpt lat="49.4448714" lon="12.6878488"></trkpt><trkpt lat="49.4448891" lon="12.6875434"></trkpt><trkpt lat="49.4448968" lon="12.6872766"></trkpt><trkpt lat="49.4448748" lon="12.6870807"></trkpt><trkpt lat="49.4447956" lon="12.686827"></trkpt><trkpt lat="49.4446591" lon="12.6865347"></trkpt><trkpt lat="49.4446053" lon="12.6864427"></trkpt><trkpt lat="49.444456266012594" lon="12.686158857996706"></trkpt><trkpt lat="49.444456266012594" lon="12.686158857996704"></trkpt><trkpt lat="49.444456266012594" lon="12.686158857996706"></trkpt><trkpt lat="49.4444073" lon="12.6860656"></trkpt><trkpt lat="49.4440661" lon="12.6856543"></trkpt><trkpt lat="49.4435568" lon="12.6851017"></trkpt><trkpt lat="49.44339536266214" lon="12.684868001046908"></trkpt><trkpt lat="49.44339536266214" lon="12.684868001046906"></trkpt><trkpt lat="49.44339536266214" lon="12.684868001046908"></trkpt><trkpt lat="49.4429889" lon="12.6842796"></trkpt><trkpt lat="49.442438279929185" lon="12.683411561785439"></trkpt><trkpt lat="49.4422952" lon="12.683186"></trkpt><trkpt lat="49.4420416" lon="12.6827108"></trkpt><trkpt lat="49.4416808" lon="12.6825729"></trkpt><trkpt lat="49.44129495363808" lon="12.682489865215189"></trkpt><trkpt lat="49.4412519" lon="12.6824806"></trkpt><trkpt lat="49.4405795" lon="12.6825703"></trkpt><trkpt lat="49.4402434" lon="12.6826676"></trkpt><trkpt lat="49.4399442" lon="12.6826751"></trkpt><trkpt lat="49.43992753427736" lon="12.682678791604696"></trkpt><trkpt lat="49.4395081" lon="12.6827717"></trkpt><trkpt lat="49.4390058" lon="12.6826966"></trkpt><trkpt lat="49.438604831956056" lon="12.682621813994674"></trkpt><trkpt lat="49.4385179" lon="12.6826056"></trkpt><trkpt lat="49.4375924" lon="12.6822462"></trkpt><trkpt lat="49.43731266558391" lon="12.682117191088748"></trkpt><trkpt lat="49.43731266558391" lon="12.682117191088746"></trkpt><trkpt lat="49.43731266558391" lon="12.682117191088748"></trkpt><trkpt lat="49.4370939" lon="12.6820163"></trkpt><trkpt lat="49.4361289" lon="12.6818351"></trkpt><trkpt lat="49.435973113149274" lon="12.681764765088312"></trkpt><trkpt lat="49.4352684" lon="12.6814466"></trkpt><trkpt lat="49.43474279669699" lon="12.68095252247342"></trkpt><trkpt lat="49.4346632" lon="12.6808777"></trkpt><trkpt lat="49.4341831" lon="12.6807489"></trkpt><trkpt lat="49.4336819" lon="12.6807875"></trkpt><trkpt lat="49.4335681" lon="12.6807612"></trkpt><trkpt lat="49.4334564" lon="12.6807406"></trkpt><trkpt lat="49.43339538914173" lon="12.680722440110072"></trkpt><trkpt lat="49.43339538914173" lon="12.68072244011007"></trkpt><trkpt lat="49.43339538914173" lon="12.680722440110072"></trkpt><trkpt lat="49.4334564" lon="12.6807406"></trkpt><trkpt lat="49.4334251" lon="12.6805615"></trkpt><trkpt lat="49.4335706" lon="12.6801807"></trkpt><trkpt lat="49.433732" lon="12.6800405"></trkpt><trkpt lat="49.43382858434821" lon="12.679997010303452"></trkpt><trkpt lat="49.4341835" lon="12.6798372"></trkpt><trkpt lat="49.435109805503295" lon="12.679362015074439"></trkpt><trkpt lat="49.435109805503295" lon="12.679362015074437"></trkpt><trkpt lat="49.435109805503295" lon="12.679362015074439"></trkpt><trkpt lat="49.4352613" lon="12.6792843"></trkpt><trkpt lat="49.436144" lon="12.6785304"></trkpt><trkpt lat="49.43626232042808" lon="12.678385499244689"></trkpt><trkpt lat="49.4363777" lon="12.6782442"></trkpt><trkpt lat="49.4365491" lon="12.6779352"></trkpt><trkpt lat="49.4369702" lon="12.6771979"></trkpt><trkpt lat="49.4371298" lon="12.6768866"></trkpt><trkpt lat="49.43714834460156" lon="12.676854349135922"></trkpt><trkpt lat="49.43714834460156" lon="12.67685434913592"></trkpt><trkpt lat="49.43714834460156" lon="12.676854349135922"></trkpt><trkpt lat="49.4372605" lon="12.6766593"></trkpt><trkpt lat="49.4374085" lon="12.6764372"></trkpt><trkpt lat="49.437515" lon="12.6763858"></trkpt><trkpt lat="49.4376568" lon="12.6763977"></trkpt><trkpt lat="49.4378895" lon="12.6765525"></trkpt><trkpt lat="49.438024" lon="12.6766179"></trkpt><trkpt lat="49.43816528362585" lon="12.676651215093422"></trkpt><trkpt lat="49.4382899" lon="12.6766806"></trkpt><trkpt lat="49.4386677" lon="12.6767004"></trkpt><trkpt lat="49.439054" lon="12.6766826"></trkpt><trkpt lat="49.4390773" lon="12.676844"></trkpt><trkpt lat="49.4392102" lon="12.6770042"></trkpt><trkpt lat="49.439440433894696" lon="12.677198519333578"></trkpt><trkpt lat="49.439440433894696" lon="12.67719851933358"></trkpt><trkpt lat="49.439440433894696" lon="12.677198519333578"></trkpt><trkpt lat="49.4402141" lon="12.6778515"></trkpt><trkpt lat="49.4404692" lon="12.6780683"></trkpt><trkpt lat="49.440621175721134" lon="12.678227999077452"></trkpt><trkpt lat="49.4406522" lon="12.6782606"></trkpt><trkpt lat="49.4409567" lon="12.6787358"></trkpt><trkpt lat="49.441177" lon="12.6791369"></trkpt><trkpt lat="49.4413793" lon="12.6795446"></trkpt><trkpt lat="49.44149666248571" lon="12.679813177073356"></trkpt><trkpt lat="49.4415627" lon="12.6799643"></trkpt><trkpt lat="49.4416496" lon="12.6803278"></trkpt><trkpt lat="49.4417106" lon="12.6806952"></trkpt><trkpt lat="49.4418021" lon="12.6814006"></trkpt><trkpt lat="49.44185255287376" lon="12.681788842769345"></trkpt><trkpt lat="49.4419074" lon="12.6822109"></trkpt><trkpt lat="49.4419775" lon="12.682543"></trkpt><trkpt lat="49.4420416" lon="12.6827108"></trkpt><trkpt lat="49.4422952" lon="12.683186"></trkpt><trkpt lat="49.442538047112244" lon="12.683568842153594"></trkpt><trkpt lat="49.442538047112244" lon="12.683568842153592"></trkpt><trkpt lat="49.442538047112244" lon="12.683568842153594"></trkpt><trkpt lat="49.4429889" lon="12.6842796"></trkpt><trkpt lat="49.44349932225534" lon="12.685018494411189"></trkpt><trkpt lat="49.4435568" lon="12.6851017"></trkpt><trkpt lat="49.4440661" lon="12.6856543"></trkpt><trkpt lat="49.4444073" lon="12.6860656"></trkpt><trkpt lat="49.44454554364767" lon="12.68632889131079"></trkpt><trkpt lat="49.4446053" lon="12.6864427"></trkpt><trkpt lat="49.4446591" lon="12.6865347"></trkpt><trkpt lat="49.4447956" lon="12.686827"></trkpt><trkpt lat="49.4448748" lon="12.6870807"></trkpt><trkpt lat="49.4448968" lon="12.6872766"></trkpt><trkpt lat="49.4448891" lon="12.6875434"></trkpt><trkpt lat="49.4448714" lon="12.6878488"></trkpt><trkpt lat="49.4448595" lon="12.688184"></trkpt><trkpt lat="49.444859668064176" lon="12.688235238565216"></trkpt><trkpt lat="49.4448603" lon="12.6884279"></trkpt><trkpt lat="49.4448788" lon="12.6885885"></trkpt><trkpt lat="49.4449474" lon="12.6887258"></trkpt><trkpt lat="49.4451046" lon="12.6889208"></trkpt><trkpt lat="49.4452562" lon="12.6891422"></trkpt><trkpt lat="49.4452208" lon="12.6892244"></trkpt><trkpt lat="49.445189" lon="12.6894273"></trkpt><trkpt lat="49.445124" lon="12.6899443"></trkpt><trkpt lat="49.44509229374024" lon="12.69026274113061"></trkpt><trkpt lat="49.4450757" lon="12.6904294"></trkpt><trkpt lat="49.4450647" lon="12.6907621"></trkpt><trkpt lat="49.4450764" lon="12.6911233"></trkpt><trkpt lat="49.4450653" lon="12.6913109"></trkpt><trkpt lat="49.4450319" lon="12.6915251"></trkpt><trkpt lat="49.444994" lon="12.6916922"></trkpt><trkpt lat="49.444943" lon="12.6918529"></trkpt><trkpt lat="49.4448776" lon="12.6920475"></trkpt><trkpt lat="49.444807517846165" lon="12.692196851548"></trkpt><trkpt lat="49.444807517846165" lon="12.692196851547997"></trkpt><trkpt lat="49.444807517846165" lon="12.692196851548"></trkpt><trkpt lat="49.4447586" lon="12.6923011"></trkpt><trkpt lat="49.4444058" lon="12.6929965"></trkpt><trkpt lat="49.4441208" lon="12.6936022"></trkpt><trkpt lat="49.4440614" lon="12.6937157"></trkpt><trkpt lat="49.4440189" lon="12.6938067"></trkpt><trkpt lat="49.44398885883696" lon="12.693922271581787"></trkpt><trkpt lat="49.44398885883696" lon="12.693922271581789"></trkpt><trkpt lat="49.44398885883696" lon="12.693922271581787"></trkpt><trkpt lat="49.4439705" lon="12.6939929"></trkpt><trkpt lat="49.4439405" lon="12.6941574"></trkpt><trkpt lat="49.4439326" lon="12.6944667"></trkpt><trkpt lat="49.4439558" lon="12.6949808"></trkpt><trkpt lat="49.4439642" lon="12.6955975"></trkpt><trkpt lat="49.4439856" lon="12.6958343"></trkpt><trkpt lat="49.44406038908939" lon="12.696064313271618"></trkpt><trkpt lat="49.44406038908939" lon="12.696064313271616"></trkpt><trkpt lat="49.44406038908939" lon="12.696064313271618"></trkpt><trkpt lat="49.444077" lon="12.6961154"></trkpt><trkpt lat="49.4445934" lon="12.6972796"></trkpt><trkpt lat="49.4446518" lon="12.6974016"></trkpt><trkpt lat="49.4448165" lon="12.6976904"></trkpt><trkpt lat="49.44484376695338" lon="12.697737514921368"></trkpt><trkpt lat="49.44484376695338" lon="12.697737514921366"></trkpt><trkpt lat="49.44484376695338" lon="12.697737514921368"></trkpt><trkpt lat="49.4449727" lon="12.6979603"></trkpt><trkpt lat="49.4450416" lon="12.6981423"></trkpt><trkpt lat="49.445078" lon="12.6983184"></trkpt><trkpt lat="49.4451168" lon="12.6986"></trkpt><trkpt lat="49.4451276" lon="12.6988181"></trkpt><trkpt lat="49.4451508" lon="12.6990142"></trkpt><trkpt lat="49.445158" lon="12.6994553"></trkpt><trkpt lat="49.445154910446114" lon="12.6996861109829"></trkpt><trkpt lat="49.4451522" lon="12.6998886"></trkpt><trkpt lat="49.4451661" lon="12.7005287"></trkpt><trkpt lat="49.4452103" lon="12.7009149"></trkpt><trkpt lat="49.4452202" lon="12.7010147"></trkpt><trkpt lat="49.4452726" lon="12.7013094"></trkpt><trkpt lat="49.445339" lon="12.7016306"></trkpt><trkpt lat="49.44536546133699" lon="12.701737892742269"></trkpt><trkpt lat="49.44536546133699" lon="12.701737892742267"></trkpt><trkpt lat="49.44536546133699" lon="12.701737892742269"></trkpt><trkpt lat="49.4454103" lon="12.7019197"></trkpt><trkpt lat="49.4455349" lon="12.7022489"></trkpt><trkpt lat="49.445722" lon="12.7026279"></trkpt><trkpt lat="49.4459532" lon="12.702979"></trkpt><trkpt lat="49.44624664977799" lon="12.703277976309774"></trkpt><trkpt lat="49.44624664977799" lon="12.703277976309773"></trkpt><trkpt lat="49.44624664977799" lon="12.703277976309774"></trkpt><trkpt lat="49.4462771" lon="12.703309"></trkpt><trkpt lat="49.4465583" lon="12.7038386"></trkpt><trkpt lat="49.4467333" lon="12.7042281"></trkpt><trkpt lat="49.4468656" lon="12.7043905"></trkpt><trkpt lat="49.447019" lon="12.7044874"></trkpt><trkpt lat="49.4472308" lon="12.7045038"></trkpt><trkpt lat="49.44730093990778" lon="12.70450371367986"></trkpt><trkpt lat="49.448640093034285" lon="12.704502065604087"></trkpt><trkpt lat="49.4486934" lon="12.704502"></trkpt><trkpt lat="49.4491129" lon="12.704511"></trkpt><trkpt lat="49.4494189" lon="12.7045763"></trkpt><trkpt lat="49.4495727" lon="12.7046594"></trkpt><trkpt lat="49.4496453" lon="12.7046926"></trkpt><trkpt lat="49.4496995" lon="12.7047693"></trkpt><trkpt lat="49.4497274" lon="12.7048523"></trkpt><trkpt lat="49.4497251" lon="12.7049529"></trkpt><trkpt lat="49.449724" lon="12.7051954"></trkpt><trkpt lat="49.44971072099403" lon="12.705280960120081"></trkpt><trkpt lat="49.44971072099403" lon="12.705280960120083"></trkpt><trkpt lat="49.44971072099403" lon="12.705280960120081"></trkpt><trkpt lat="49.4496676" lon="12.7055588"></trkpt><trkpt lat="49.4496386" lon="12.7057345"></trkpt><trkpt lat="49.449613" lon="12.7059254"></trkpt><trkpt lat="49.44963" lon="12.7061449"></trkpt><trkpt lat="49.4496599" lon="12.706343"></trkpt><trkpt lat="49.4497312" lon="12.7065526"></trkpt><trkpt lat="49.4498048" lon="12.7067433"></trkpt><trkpt lat="49.4499598" lon="12.7070368"></trkpt><trkpt lat="49.45002817101598" lon="12.707149199340519"></trkpt><trkpt lat="49.45002817101598" lon="12.70714919934052"></trkpt><trkpt lat="49.45002817101598" lon="12.707149199340519"></trkpt><trkpt lat="49.4502637" lon="12.7075364"></trkpt><trkpt lat="49.4504646" lon="12.7079238"></trkpt><trkpt lat="49.4506364" lon="12.7081346"></trkpt><trkpt lat="49.4507187" lon="12.7082977"></trkpt><trkpt lat="49.4505622" lon="12.7082162"></trkpt><trkpt lat="49.4504285" lon="12.7081913"></trkpt><trkpt lat="49.4503154" lon="12.7082425"></trkpt><trkpt lat="49.4501516" lon="12.7084068"></trkpt><trkpt lat="49.45006038980877" lon="12.70851594682198"></trkpt><trkpt lat="49.45006038980877" lon="12.708515946821977"></trkpt><trkpt lat="49.45006038980877" lon="12.70851594682198"></trkpt><trkpt lat="49.4497753" lon="12.7088571"></trkpt><trkpt lat="49.4493737" lon="12.70926"></trkpt><trkpt lat="49.448909" lon="12.7095498"></trkpt><trkpt lat="49.4484989" lon="12.7097231"></trkpt><trkpt lat="49.4485768" lon="12.7095056"></trkpt><trkpt lat="49.4487644" lon="12.7091695"></trkpt><trkpt lat="49.44883547854096" lon="12.709088138763454"></trkpt><trkpt lat="49.44883547854096" lon="12.709088138763455"></trkpt></trkseg></trk></gpx>
