<?xml version="1.0" encoding="UTF-8"?>
<gpx version="1.1" creator="Good Shit" xmlns="http://www.topografix.com/GPX/1/1"><trk><name>Adršpach–Teplice rock cities traverse — Adršpach–Teplice rock cities traverse</name><trkseg><trkpt lat="50.59204084236223" lon="16.170336123622295"></trkpt><trkpt lat="50.5920414" lon="16.1703417"></trkpt><trkpt lat="50.5920409" lon="16.1703566"></trkpt><trkpt lat="50.5920383" lon="16.1703692"></trkpt><trkpt lat="50.5920336" lon="16.1703794"></trkpt><trkpt lat="50.592028" lon="16.170387"></trkpt><trkpt lat="50.5920196" lon="16.1703933"></trkpt><trkpt lat="50.5920089" lon="16.1703968"></trkpt><trkpt lat="50.591945" lon="16.1704015"></trkpt><trkpt lat="50.5918922" lon="16.170408"></trkpt><trkpt lat="50.591883" lon="16.1704082"></trkpt><trkpt lat="50.591873" lon="16.1704032"></trkpt><trkpt lat="50.5918659" lon="16.1703961"></trkpt><trkpt lat="50.5918609" lon="16.1703864"></trkpt><trkpt lat="50.591857" lon="16.1703744"></trkpt><trkpt lat="50.591856" lon="16.1703592"></trkpt><trkpt lat="50.5918256" lon="16.1703618"></trkpt><trkpt lat="50.5918091" lon="16.1703635"></trkpt><trkpt lat="50.5918074" lon="16.1703799"></trkpt><trkpt lat="50.5918042" lon="16.1703928"></trkpt><trkpt lat="50.5917999" lon="16.1704023"></trkpt><trkpt lat="50.5917936" lon="16.1704111"></trkpt><trkpt lat="50.591785" lon="16.1704163"></trkpt><trkpt lat="50.5917347" lon="16.1704226"></trkpt><trkpt lat="50.5914595" lon="16.1704446"></trkpt><trkpt lat="50.5914108" lon="16.1704491"></trkpt><trkpt lat="50.5914012" lon="16.1704483"></trkpt><trkpt lat="50.5913916" lon="16.1704437"></trkpt><trkpt lat="50.5913844" lon="16.1704366"></trkpt><trkpt lat="50.59138" lon="16.1704263"></trkpt><trkpt lat="50.5913495" lon="16.1704591"></trkpt><trkpt lat="50.5913558" lon="16.1704752"></trkpt><trkpt lat="50.5912525" lon="16.1704814"></trkpt><trkpt lat="50.5912582" lon="16.1705314"></trkpt><trkpt lat="50.5912559" lon="16.170588"></trkpt><trkpt lat="50.5912466" lon="16.1706335"></trkpt><trkpt lat="50.5912252" lon="16.1706872"></trkpt><trkpt lat="50.5910721" lon="16.170942"></trkpt><trkpt lat="50.591013" lon="16.1710403"></trkpt><trkpt lat="50.5909926" lon="16.1710995"></trkpt><trkpt lat="50.5909873" lon="16.1711513"></trkpt><trkpt lat="50.5909883" lon="16.1712051"></trkpt><trkpt lat="50.5909997" lon="16.1712593"></trkpt><trkpt lat="50.5910152" lon="16.1713068"></trkpt><trkpt lat="50.5910407" lon="16.1713415"></trkpt><trkpt lat="50.5910688" lon="16.1713602"></trkpt><trkpt lat="50.5910794580306" lon="16.17136207295935"></trkpt><trkpt lat="50.5910688" lon="16.1713602"></trkpt><trkpt lat="50.5910407" lon="16.1713415"></trkpt><trkpt lat="50.5910152" lon="16.1713068"></trkpt><trkpt lat="50.5908291" lon="16.1714603"></trkpt><trkpt lat="50.5908582" lon="16.17161"></trkpt><trkpt lat="50.5908848" lon="16.1717132"></trkpt><trkpt lat="50.5909495" lon="16.1719726"></trkpt><trkpt lat="50.590888" lon="16.1719474"></trkpt><trkpt lat="50.5908079" lon="16.1719635"></trkpt><trkpt lat="50.5906445" lon="16.1720279"></trkpt><trkpt lat="50.5904486" lon="16.1721459"></trkpt><trkpt lat="50.5903345" lon="16.1722022"></trkpt><trkpt lat="50.5901728" lon="16.1722156"></trkpt><trkpt lat="50.5900018" lon="16.1722374"></trkpt><trkpt lat="50.589951542574426" lon="16.172257081492756"></trkpt><trkpt lat="50.5897347" lon="16.172342"></trkpt><trkpt lat="50.5894676" lon="16.1725045"></trkpt><trkpt lat="50.5893214" lon="16.1726046"></trkpt><trkpt lat="50.5891425" lon="16.1727574"></trkpt><trkpt lat="50.5889101" lon="16.1729691"></trkpt><trkpt lat="50.588715969967346" lon="16.17315604546196"></trkpt><trkpt lat="50.5886453" lon="16.1732241"></trkpt><trkpt lat="50.5884341" lon="16.1733958"></trkpt><trkpt lat="50.5880799" lon="16.1736855"></trkpt><trkpt lat="50.5879727" lon="16.1737472"></trkpt><trkpt lat="50.5876133" lon="16.1739752"></trkpt><trkpt lat="50.58750632313859" lon="16.174065137241872"></trkpt><trkpt lat="50.58750632313859" lon="16.17406513724187"></trkpt><trkpt lat="50.58750632313859" lon="16.174065137241872"></trkpt><trkpt lat="50.5874124" lon="16.1741441"></trkpt><trkpt lat="50.5870665" lon="16.1743678"></trkpt><trkpt lat="50.5869489" lon="16.1744425"></trkpt><trkpt lat="50.5866857" lon="16.1745236"></trkpt><trkpt lat="50.5864383" lon="16.1746028"></trkpt><trkpt lat="50.5862867" lon="16.1746001"></trkpt><trkpt lat="50.58628423251609" lon="16.17459874694825"></trkpt><trkpt lat="50.5861926" lon="16.1745485"></trkpt><trkpt lat="50.5860756" lon="16.174694"></trkpt><trkpt lat="50.5860058" lon="16.1747584"></trkpt><trkpt lat="50.5858831" lon="16.1748496"></trkpt><trkpt lat="50.5856822" lon="16.1749274"></trkpt><trkpt lat="50.5854029" lon="16.1749549"></trkpt><trkpt lat="50.5851594" lon="16.1749864"></trkpt><trkpt lat="50.5849616" lon="16.1750478"></trkpt><trkpt lat="50.58489354175613" lon="16.175103111059336"></trkpt><trkpt lat="50.5847758" lon="16.1751988"></trkpt><trkpt lat="50.584611" lon="16.1753619"></trkpt><trkpt lat="50.5844458" lon="16.1755174"></trkpt><trkpt lat="50.584238" lon="16.1756408"></trkpt><trkpt lat="50.5839745" lon="16.1757795"></trkpt><trkpt lat="50.5838327" lon="16.1758903"></trkpt><trkpt lat="50.5838063" lon="16.1759198"></trkpt><trkpt lat="50.583768" lon="16.1759627"></trkpt><trkpt lat="50.5837116" lon="16.1760225"></trkpt><trkpt lat="50.5836762" lon="16.1760599"></trkpt><trkpt lat="50.583671872676376" lon="16.176065906510676"></trkpt><trkpt lat="50.5836762" lon="16.1760599"></trkpt><trkpt lat="50.5837116" lon="16.1760225"></trkpt><trkpt lat="50.5836645" lon="16.1759388"></trkpt><trkpt lat="50.5836836" lon="16.1759124"></trkpt><trkpt lat="50.5837918" lon="16.1756542"></trkpt><trkpt lat="50.5838783" lon="16.1754102"></trkpt><trkpt lat="50.5839173" lon="16.1752578"></trkpt><trkpt lat="50.5839421" lon="16.1751148"></trkpt><trkpt lat="50.5839553" lon="16.1749784"></trkpt><trkpt lat="50.58395592722665" lon="16.17495596918031"></trkpt><trkpt lat="50.5839595" lon="16.1748282"></trkpt><trkpt lat="50.5839519" lon="16.1746779"></trkpt><trkpt lat="50.583933" lon="16.174517"></trkpt><trkpt lat="50.583903" lon="16.1743537"></trkpt><trkpt lat="50.5838365" lon="16.1739728"></trkpt><trkpt lat="50.5838146" lon="16.1739828"></trkpt><trkpt lat="50.5837981" lon="16.1739095"></trkpt><trkpt lat="50.5837848" lon="16.1738841"></trkpt><trkpt lat="50.5837659" lon="16.1738751"></trkpt><trkpt lat="50.5837423" lon="16.1738793"></trkpt><trkpt lat="50.583704" lon="16.173884"></trkpt><trkpt lat="50.5836663" lon="16.1739336"></trkpt><trkpt lat="50.5833865" lon="16.1742675"></trkpt><trkpt lat="50.5832894" lon="16.1743721"></trkpt><trkpt lat="50.5832128" lon="16.1744392"></trkpt><trkpt lat="50.583104639657606" lon="16.174255138471445"></trkpt><trkpt lat="50.5829781" lon="16.1740398"></trkpt><trkpt lat="50.5829409" lon="16.1739852"></trkpt><trkpt lat="50.5827567" lon="16.1736262"></trkpt><trkpt lat="50.5826027" lon="16.1732055"></trkpt><trkpt lat="50.5825693" lon="16.1731142"></trkpt><trkpt lat="50.5823979" lon="16.1727223"></trkpt><trkpt lat="50.58239051990478" lon="16.172708798324408"></trkpt><trkpt lat="50.58229" lon="16.1725249"></trkpt><trkpt lat="50.582171" lon="16.1724559"></trkpt><trkpt lat="50.5820099" lon="16.1720056"></trkpt><trkpt lat="50.5818826" lon="16.1717114"></trkpt><trkpt lat="50.5817328" lon="16.1713922"></trkpt><trkpt lat="50.5816936" lon="16.1712286"></trkpt><trkpt lat="50.5816819" lon="16.1710721"></trkpt><trkpt lat="50.58169368525276" lon="16.170964773441444"></trkpt><trkpt lat="50.581768" lon="16.170288"></trkpt><trkpt lat="50.58177" lon="16.169968"></trkpt><trkpt lat="50.581742" lon="16.169808"></trkpt><trkpt lat="50.581632" lon="16.169439"></trkpt><trkpt lat="50.581445474305866" lon="16.168922892888688"></trkpt><trkpt lat="50.581396" lon="16.168786"></trkpt><trkpt lat="50.5812814" lon="16.168372"></trkpt><trkpt lat="50.581055" lon="16.167399"></trkpt><trkpt lat="50.580982" lon="16.16718"></trkpt><trkpt lat="50.580900885390626" lon="16.166980240141097"></trkpt><trkpt lat="50.580781" lon="16.166685"></trkpt><trkpt lat="50.580671" lon="16.166554"></trkpt><trkpt lat="50.5806281" lon="16.1665324"></trkpt><trkpt lat="50.5803544" lon="16.1663682"></trkpt><trkpt lat="50.579879291460664" lon="16.16552156809237"></trkpt><trkpt lat="50.5794545" lon="16.1647646"></trkpt><trkpt lat="50.5791541" lon="16.1641261"></trkpt><trkpt lat="50.5790033" lon="16.1637919"></trkpt><trkpt lat="50.5789343" lon="16.1637332"></trkpt><trkpt lat="50.578989100114775" lon="16.163953472545618"></trkpt><trkpt lat="50.5789343" lon="16.1637332"></trkpt><trkpt lat="50.5787522" lon="16.1635226"></trkpt><trkpt lat="50.5786335" lon="16.1634315"></trkpt><trkpt lat="50.5785427" lon="16.1633617"></trkpt><trkpt lat="50.578118" lon="16.16317"></trkpt><trkpt lat="50.577938" lon="16.163103"></trkpt><trkpt lat="50.577779811373894" lon="16.162988132955654"></trkpt><trkpt lat="50.5776331" lon="16.1628816"></trkpt><trkpt lat="50.5774952" lon="16.162793"></trkpt><trkpt lat="50.577333" lon="16.162681"></trkpt><trkpt lat="50.5770523" lon="16.1625007"></trkpt><trkpt lat="50.576868" lon="16.162344"></trkpt><trkpt lat="50.576765" lon="16.162226"></trkpt><trkpt lat="50.576682" lon="16.162098"></trkpt><trkpt lat="50.576613663410626" lon="16.16194801985516"></trkpt><trkpt lat="50.5763672" lon="16.1614071"></trkpt><trkpt lat="50.5762153" lon="16.161036"></trkpt><trkpt lat="50.576098" lon="16.160571"></trkpt><trkpt lat="50.57598662049838" lon="16.16010541984724"></trkpt><trkpt lat="50.575937" lon="16.159898"></trkpt><trkpt lat="50.575921" lon="16.159464"></trkpt><trkpt lat="50.575928" lon="16.159298"></trkpt><trkpt lat="50.575966" lon="16.159042"></trkpt><trkpt lat="50.57601" lon="16.158891"></trkpt><trkpt lat="50.5761819" lon="16.1584157"></trkpt><trkpt lat="50.576295053968735" lon="16.158132619648153"></trkpt><trkpt lat="50.576295053968735" lon="16.15813261964815"></trkpt><trkpt lat="50.576295053968735" lon="16.158132619648153"></trkpt><trkpt lat="50.5762977" lon="16.158126"></trkpt><trkpt lat="50.5764555" lon="16.1576134"></trkpt><trkpt lat="50.5765328" lon="16.1573482"></trkpt><trkpt lat="50.5765889" lon="16.1570473"></trkpt><trkpt lat="50.5766248" lon="16.1567315"></trkpt><trkpt lat="50.5766086" lon="16.1565875"></trkpt><trkpt lat="50.5765589" lon="16.1563163"></trkpt><trkpt lat="50.5765442" lon="16.1562641"></trkpt><trkpt lat="50.5765305" lon="16.1562355"></trkpt><trkpt lat="50.5764909" lon="16.1561824"></trkpt><trkpt lat="50.5764662" lon="16.1561632"></trkpt><trkpt lat="50.5764465" lon="16.1561479"></trkpt><trkpt lat="50.5762682" lon="16.1561395"></trkpt><trkpt lat="50.5762102" lon="16.1561526"></trkpt><trkpt lat="50.576124843462814" lon="16.156171828670466"></trkpt><trkpt lat="50.5760828" lon="16.1561813"></trkpt><trkpt lat="50.5758911" lon="16.1562294"></trkpt><trkpt lat="50.575581" lon="16.156396"></trkpt><trkpt lat="50.575405" lon="16.156444"></trkpt><trkpt lat="50.575173" lon="16.156439"></trkpt><trkpt lat="50.5751059" lon="16.1564217"></trkpt><trkpt lat="50.5749677" lon="16.1563861"></trkpt><trkpt lat="50.57483291751284" lon="16.156310931801492"></trkpt><trkpt lat="50.574719" lon="16.1562474"></trkpt><trkpt lat="50.5745099" lon="16.1560873"></trkpt><trkpt lat="50.574347" lon="16.155928"></trkpt><trkpt lat="50.5741484" lon="16.1558231"></trkpt><trkpt lat="50.5741106" lon="16.1558032"></trkpt><trkpt lat="50.573805" lon="16.155608"></trkpt><trkpt lat="50.5737267" lon="16.1555599"></trkpt><trkpt lat="50.57359444233417" lon="16.155478625338805"></trkpt><trkpt lat="50.57359444233417" lon="16.1554786253388"></trkpt><trkpt lat="50.57359444233417" lon="16.155478625338805"></trkpt><trkpt lat="50.5735049" lon="16.1554236"></trkpt><trkpt lat="50.5733887" lon="16.1553522"></trkpt><trkpt lat="50.573269" lon="16.1552786"></trkpt><trkpt lat="50.573209" lon="16.155274"></trkpt><trkpt lat="50.5731293" lon="16.155288"></trkpt><trkpt lat="50.5727819" lon="16.1553955"></trkpt><trkpt lat="50.5726388" lon="16.1554974"></trkpt><trkpt lat="50.5725344" lon="16.1554979"></trkpt><trkpt lat="50.5725286" lon="16.1554979"></trkpt><trkpt lat="50.5724481" lon="16.1554823"></trkpt><trkpt lat="50.5722542" lon="16.1553327"></trkpt><trkpt lat="50.57216" lon="16.155186"></trkpt><trkpt lat="50.571935" lon="16.154696"></trkpt><trkpt lat="50.5718663" lon="16.154533"></trkpt><trkpt lat="50.5715876" lon="16.1540472"></trkpt><trkpt lat="50.57138600920637" lon="16.153756213885945"></trkpt><trkpt lat="50.57138600920637" lon="16.15375621388595"></trkpt><trkpt lat="50.57138600920637" lon="16.153756213885945"></trkpt><trkpt lat="50.5712861" lon="16.153612"></trkpt><trkpt lat="50.5712656" lon="16.1533543"></trkpt><trkpt lat="50.5712556" lon="16.1531264"></trkpt><trkpt lat="50.5712" lon="16.152683"></trkpt><trkpt lat="50.57114" lon="16.152355"></trkpt><trkpt lat="50.5710848" lon="16.1520273"></trkpt><trkpt lat="50.571046" lon="16.151886"></trkpt><trkpt lat="50.5709809" lon="16.1517547"></trkpt><trkpt lat="50.570948313750414" lon="16.151691158412238"></trkpt><trkpt lat="50.570879" lon="16.151556"></trkpt><trkpt lat="50.5708318" lon="16.151489"></trkpt><trkpt lat="50.5707668" lon="16.1511472"></trkpt><trkpt lat="50.5707039" lon="16.1509244"></trkpt><trkpt lat="50.5706808" lon="16.1504184"></trkpt><trkpt lat="50.570704" lon="16.150363"></trkpt><trkpt lat="50.57086400993761" lon="16.149833824277778"></trkpt><trkpt lat="50.571012" lon="16.1493444"></trkpt><trkpt lat="50.5710546" lon="16.1491594"></trkpt><trkpt lat="50.571075" lon="16.1489555"></trkpt><trkpt lat="50.571075" lon="16.1486927"></trkpt><trkpt lat="50.5710495" lon="16.1483896"></trkpt><trkpt lat="50.5710681" lon="16.1479322"></trkpt><trkpt lat="50.57106241401247" lon="16.147749268056195"></trkpt><trkpt lat="50.5710478" lon="16.1472791"></trkpt><trkpt lat="50.5710086" lon="16.1469573"></trkpt><trkpt lat="50.5709421" lon="16.146563"></trkpt><trkpt lat="50.5708893" lon="16.1461604"></trkpt><trkpt lat="50.57083050714958" lon="16.14565005878197"></trkpt><trkpt lat="50.5708161" lon="16.145525"></trkpt><trkpt lat="50.5707496" lon="16.1448356"></trkpt><trkpt lat="50.5706696" lon="16.1443207"></trkpt><trkpt lat="50.57053631146754" lon="16.143579055033808"></trkpt><trkpt lat="50.5704975" lon="16.1433631"></trkpt><trkpt lat="50.5704089" lon="16.1423868"></trkpt><trkpt lat="50.5703817" lon="16.141727"></trkpt><trkpt lat="50.57036440678836" lon="16.14146930576861"></trkpt><trkpt lat="50.570334" lon="16.1410162"></trkpt><trkpt lat="50.5703169" lon="16.1404663"></trkpt><trkpt lat="50.5703306" lon="16.1401096"></trkpt><trkpt lat="50.5704294" lon="16.1396188"></trkpt><trkpt lat="50.57050919941012" lon="16.1393390730355"></trkpt><trkpt lat="50.5705503" lon="16.139195"></trkpt><trkpt lat="50.570826" lon="16.138786"></trkpt><trkpt lat="50.571031" lon="16.138562"></trkpt><trkpt lat="50.57137" lon="16.138337"></trkpt><trkpt lat="50.571539" lon="16.138317"></trkpt><trkpt lat="50.571624" lon="16.138356"></trkpt><trkpt lat="50.57163800593733" lon="16.138364317279404"></trkpt><trkpt lat="50.57163800593733" lon="16.138364317279407"></trkpt><trkpt lat="50.57163800593733" lon="16.138364317279404"></trkpt><trkpt lat="50.5717636" lon="16.1384389"></trkpt><trkpt lat="50.5718678" lon="16.1384966"></trkpt><trkpt lat="50.5721331" lon="16.1389552"></trkpt><trkpt lat="50.5722761" lon="16.139171"></trkpt><trkpt lat="50.5723056" lon="16.1392035"></trkpt><trkpt lat="50.5724148" lon="16.1392017"></trkpt><trkpt lat="50.5724877" lon="16.1394603"></trkpt><trkpt lat="50.5725836" lon="16.1397508"></trkpt><trkpt lat="50.5726488" lon="16.1399511"></trkpt><trkpt lat="50.57263502169769" lon="16.14001994658231"></trkpt><trkpt lat="50.5725568" lon="16.1404108"></trkpt><trkpt lat="50.5725388" lon="16.1405723"></trkpt><trkpt lat="50.5725626" lon="16.1407769"></trkpt><trkpt lat="50.5725218" lon="16.1408698"></trkpt><trkpt lat="50.5724735" lon="16.1410609"></trkpt><trkpt lat="50.5724511" lon="16.1411417"></trkpt><trkpt lat="50.5724131" lon="16.1411889"></trkpt><trkpt lat="50.5723481" lon="16.1412028"></trkpt><trkpt lat="50.5723154" lon="16.14119"></trkpt><trkpt lat="50.5722967" lon="16.1411354"></trkpt><trkpt lat="50.5723207" lon="16.1409985"></trkpt><trkpt lat="50.5723293" lon="16.1408766"></trkpt><trkpt lat="50.5722994" lon="16.1405753"></trkpt><trkpt lat="50.5722783" lon="16.1404877"></trkpt><trkpt lat="50.57222" lon="16.1403371"></trkpt><trkpt lat="50.5721969" lon="16.1402878"></trkpt><trkpt lat="50.5721676" lon="16.1402948"></trkpt><trkpt lat="50.5721497" lon="16.1403007"></trkpt><trkpt lat="50.5721293" lon="16.1402982"></trkpt><trkpt lat="50.5720803" lon="16.1403849"></trkpt><trkpt lat="50.5720439" lon="16.1404324"></trkpt><trkpt lat="50.5720333" lon="16.1404355"></trkpt><trkpt lat="50.5720003" lon="16.1404676"></trkpt><trkpt lat="50.571949" lon="16.1404778"></trkpt><trkpt lat="50.5718699" lon="16.1406682"></trkpt><trkpt lat="50.57184863271554" lon="16.140693086063227"></trkpt><trkpt lat="50.5718699" lon="16.1406682"></trkpt><trkpt lat="50.571949" lon="16.1404778"></trkpt><trkpt lat="50.5720003" lon="16.1404676"></trkpt><trkpt lat="50.5720333" lon="16.1404355"></trkpt><trkpt lat="50.5720439" lon="16.1404324"></trkpt><trkpt lat="50.5720803" lon="16.1403849"></trkpt><trkpt lat="50.5721293" lon="16.1402982"></trkpt><trkpt lat="50.5721497" lon="16.1403007"></trkpt><trkpt lat="50.5721676" lon="16.1402948"></trkpt><trkpt lat="50.5721969" lon="16.1402878"></trkpt><trkpt lat="50.57222" lon="16.1403371"></trkpt><trkpt lat="50.5722783" lon="16.1404877"></trkpt><trkpt lat="50.5722994" lon="16.1405753"></trkpt><trkpt lat="50.5723293" lon="16.1408766"></trkpt><trkpt lat="50.5723207" lon="16.1409985"></trkpt><trkpt lat="50.5722967" lon="16.1411354"></trkpt><trkpt lat="50.5723154" lon="16.14119"></trkpt><trkpt lat="50.5723481" lon="16.1412028"></trkpt><trkpt lat="50.5724131" lon="16.1411889"></trkpt><trkpt lat="50.5724511" lon="16.1411417"></trkpt><trkpt lat="50.5724735" lon="16.1410609"></trkpt><trkpt lat="50.5725218" lon="16.1408698"></trkpt><trkpt lat="50.57254639599881" lon="16.140813795875243"></trkpt><trkpt lat="50.57254639599881" lon="16.14081379587524"></trkpt><trkpt lat="50.57254639599881" lon="16.140813795875243"></trkpt><trkpt lat="50.5725626" lon="16.1407769"></trkpt><trkpt lat="50.5725388" lon="16.1405723"></trkpt><trkpt lat="50.5725568" lon="16.1404108"></trkpt><trkpt lat="50.5726488" lon="16.1399511"></trkpt><trkpt lat="50.5728175" lon="16.1398724"></trkpt><trkpt lat="50.5728668" lon="16.139774"></trkpt><trkpt lat="50.5729288" lon="16.1395345"></trkpt><trkpt lat="50.5729545" lon="16.1392939"></trkpt><trkpt lat="50.572946" lon="16.1390641"></trkpt><trkpt lat="50.57296317087228" lon="16.13887240669062"></trkpt><trkpt lat="50.5729698" lon="16.1387984"></trkpt><trkpt lat="50.5729657" lon="16.1387537"></trkpt><trkpt lat="50.5730054" lon="16.138687"></trkpt><trkpt lat="50.5730962" lon="16.1385459"></trkpt><trkpt lat="50.5731394" lon="16.1384655"></trkpt><trkpt lat="50.5731971" lon="16.137952"></trkpt><trkpt lat="50.5732078" lon="16.1377868"></trkpt><trkpt lat="50.5731814" lon="16.1377063"></trkpt><trkpt lat="50.5731229" lon="16.1376349"></trkpt><trkpt lat="50.5731565" lon="16.1375711"></trkpt><trkpt lat="50.5733115" lon="16.1372991"></trkpt><trkpt lat="50.5733594" lon="16.137135"></trkpt><trkpt lat="50.5734207998484" lon="16.13684406595131"></trkpt><trkpt lat="50.5734431" lon="16.1367384"></trkpt><trkpt lat="50.5736548" lon="16.1353146"></trkpt><trkpt lat="50.5737275" lon="16.1349644"></trkpt><trkpt lat="50.5737563" lon="16.1346674"></trkpt><trkpt lat="50.5737878" lon="16.1345833"></trkpt><trkpt lat="50.5738508" lon="16.1344914"></trkpt><trkpt lat="50.5739544" lon="16.1343499"></trkpt><trkpt lat="50.5739703" lon="16.1343339"></trkpt><trkpt lat="50.5739948" lon="16.1343214"></trkpt><trkpt lat="50.5740217" lon="16.1343293"></trkpt><trkpt lat="50.5740476" lon="16.1343482"></trkpt><trkpt lat="50.5741246" lon="16.1344682"></trkpt><trkpt lat="50.57424108303318" lon="16.13460719183186"></trkpt><trkpt lat="50.57424108303318" lon="16.134607191831865"></trkpt><trkpt lat="50.57424108303318" lon="16.13460719183186"></trkpt><trkpt lat="50.5742488" lon="16.1346164"></trkpt><trkpt lat="50.5743242" lon="16.1346776"></trkpt><trkpt lat="50.5743934" lon="16.1346942"></trkpt><trkpt lat="50.5745944" lon="16.1346308"></trkpt><trkpt lat="50.5746083" lon="16.1345387"></trkpt><trkpt lat="50.5746171" lon="16.1338023"></trkpt><trkpt lat="50.5746182" lon="16.133675"></trkpt><trkpt lat="50.5746438" lon="16.1335757"></trkpt><trkpt lat="50.5747484" lon="16.1332126"></trkpt><trkpt lat="50.574755023960286" lon="16.13318081730609"></trkpt><trkpt lat="50.5748237" lon="16.1328513"></trkpt><trkpt lat="50.5749883" lon="16.132231"></trkpt><trkpt lat="50.5749917" lon="16.1320354"></trkpt><trkpt lat="50.574959" lon="16.1317949"></trkpt><trkpt lat="50.574952" lon="16.1316915"></trkpt><trkpt lat="50.574947" lon="16.1315024"></trkpt><trkpt lat="50.5749691" lon="16.1312047"></trkpt><trkpt lat="50.574974750956855" lon="16.13113695061613"></trkpt><trkpt lat="50.5749964" lon="16.1308774"></trkpt><trkpt lat="50.5749896" lon="16.1306924"></trkpt><trkpt lat="50.5749674" lon="16.1304563"></trkpt><trkpt lat="50.5749436" lon="16.1303437"></trkpt><trkpt lat="50.5749066" lon="16.1302356"></trkpt><trkpt lat="50.574974" lon="16.129841"></trkpt><trkpt lat="50.5750304" lon="16.1295846"></trkpt><trkpt lat="50.575073" lon="16.129246"></trkpt><trkpt lat="50.575071393260075" lon="16.129046386193494"></trkpt><trkpt lat="50.5750713" lon="16.1290348"></trkpt><trkpt lat="50.5750662" lon="16.1285439"></trkpt><trkpt lat="50.5750407" lon="16.1281684"></trkpt><trkpt lat="50.5749878" lon="16.1279726"></trkpt><trkpt lat="50.5748884" lon="16.1277072"></trkpt><trkpt lat="50.574744" lon="16.127432"></trkpt><trkpt lat="50.57456614686032" lon="16.12714001650331"></trkpt><trkpt lat="50.574557" lon="16.127125"></trkpt><trkpt lat="50.57428" lon="16.12682"></trkpt><trkpt lat="50.5740612" lon="16.1266369"></trkpt><trkpt lat="50.5739081" lon="16.1264518"></trkpt><trkpt lat="50.5737883" lon="16.1262861"></trkpt><trkpt lat="50.5736719" lon="16.1260611"></trkpt><trkpt lat="50.5735893" lon="16.1258429"></trkpt><trkpt lat="50.57355215832396" lon="16.12578299491883"></trkpt><trkpt lat="50.573448" lon="16.125615"></trkpt><trkpt lat="50.573345" lon="16.125453"></trkpt><trkpt lat="50.5732355" lon="16.1253658"></trkpt><trkpt lat="50.5731809" lon="16.1252367"></trkpt><trkpt lat="50.5731535" lon="16.1249057"></trkpt><trkpt lat="50.5731396" lon="16.1245367"></trkpt><trkpt lat="50.5732468" lon="16.124316"></trkpt><trkpt lat="50.573343" lon="16.124261"></trkpt><trkpt lat="50.5734452" lon="16.124214"></trkpt><trkpt lat="50.5735029" lon="16.1242362"></trkpt><trkpt lat="50.57351959023553" lon="16.124220656903017"></trkpt><trkpt lat="50.57351959023553" lon="16.124220656903013"></trkpt><trkpt lat="50.57351959023553" lon="16.124220656903017"></trkpt><trkpt lat="50.5736353" lon="16.1241129"></trkpt><trkpt lat="50.573699" lon="16.1239796"></trkpt><trkpt lat="50.5737692" lon="16.1238266"></trkpt><trkpt lat="50.5738591" lon="16.1237473"></trkpt><trkpt lat="50.5739005" lon="16.1236963"></trkpt><trkpt lat="50.5739322" lon="16.1236522"></trkpt><trkpt lat="50.5739532" lon="16.1236687"></trkpt><trkpt lat="50.5740047" lon="16.1237027"></trkpt><trkpt lat="50.574026" lon="16.1237368"></trkpt><trkpt lat="50.5740421" lon="16.1237646"></trkpt><trkpt lat="50.5740608" lon="16.123777"></trkpt><trkpt lat="50.5741059" lon="16.1238304"></trkpt><trkpt lat="50.5741314" lon="16.1237999"></trkpt><trkpt lat="50.5741634" lon="16.1237511"></trkpt><trkpt lat="50.5742088" lon="16.1237178"></trkpt><trkpt lat="50.5742336" lon="16.1236705"></trkpt><trkpt lat="50.5742373" lon="16.1236593"></trkpt><trkpt lat="50.5742465" lon="16.1236308"></trkpt><trkpt lat="50.5742644" lon="16.1235759"></trkpt><trkpt lat="50.5743055" lon="16.1235318"></trkpt><trkpt lat="50.5744" lon="16.123465"></trkpt><trkpt lat="50.5744543" lon="16.1234374"></trkpt><trkpt lat="50.5744966" lon="16.1234636"></trkpt><trkpt lat="50.5744864" lon="16.1235136"></trkpt><trkpt lat="50.5745021" lon="16.1235578"></trkpt><trkpt lat="50.5745326" lon="16.1235634"></trkpt><trkpt lat="50.5745426" lon="16.1235988"></trkpt><trkpt lat="50.5745627" lon="16.1236441"></trkpt><trkpt lat="50.5745576" lon="16.1236842"></trkpt><trkpt lat="50.5746156" lon="16.1238678"></trkpt><trkpt lat="50.5746354" lon="16.1238968"></trkpt><trkpt lat="50.5746445" lon="16.1239254"></trkpt><trkpt lat="50.5746461" lon="16.1239537"></trkpt><trkpt lat="50.5746715" lon="16.1240237"></trkpt><trkpt lat="50.5746827" lon="16.1240617"></trkpt><trkpt lat="50.5747064" lon="16.1241441"></trkpt><trkpt lat="50.5747372" lon="16.1241846"></trkpt><trkpt lat="50.5747512" lon="16.124221"></trkpt><trkpt lat="50.5747455" lon="16.1242523"></trkpt><trkpt lat="50.5747397" lon="16.1242603"></trkpt><trkpt lat="50.574726" lon="16.1243207"></trkpt><trkpt lat="50.5747283" lon="16.1243206"></trkpt><trkpt lat="50.5747353" lon="16.1243196"></trkpt><trkpt lat="50.5747498" lon="16.1243156"></trkpt><trkpt lat="50.5747604" lon="16.1243276"></trkpt><trkpt lat="50.5747761" lon="16.1243379"></trkpt><trkpt lat="50.5748154" lon="16.1243685"></trkpt><trkpt lat="50.5748785" lon="16.1244937"></trkpt><trkpt lat="50.5749618" lon="16.1246462"></trkpt><trkpt lat="50.5749872" lon="16.1247408"></trkpt><trkpt lat="50.575042" lon="16.124905"></trkpt><trkpt lat="50.5750862" lon="16.1250473"></trkpt><trkpt lat="50.5750832" lon="16.1250973"></trkpt><trkpt lat="50.575081" lon="16.1251752"></trkpt><trkpt lat="50.5750934" lon="16.125217"></trkpt><trkpt lat="50.5751278" lon="16.125254"></trkpt><trkpt lat="50.5751673" lon="16.1253269"></trkpt><trkpt lat="50.5751947" lon="16.1253544"></trkpt><trkpt lat="50.5752328" lon="16.125418"></trkpt><trkpt lat="50.5753368" lon="16.1255521"></trkpt><trkpt lat="50.5754343" lon="16.1256164"></trkpt><trkpt lat="50.5755666" lon="16.1257829"></trkpt><trkpt lat="50.5756495" lon="16.125699"></trkpt><trkpt lat="50.575655973938936" lon="16.12567709102021"></trkpt><trkpt lat="50.575655973938936" lon="16.125677091020215"></trkpt><trkpt lat="50.575655973938936" lon="16.12567709102021"></trkpt><trkpt lat="50.5756672" lon="16.1256391"></trkpt><trkpt lat="50.5756753" lon="16.1255885"></trkpt><trkpt lat="50.575709" lon="16.125569"></trkpt><trkpt lat="50.575769" lon="16.125502"></trkpt><trkpt lat="50.575841" lon="16.125491"></trkpt><trkpt lat="50.5759239" lon="16.1254552"></trkpt><trkpt lat="50.575979" lon="16.125369"></trkpt><trkpt lat="50.576025" lon="16.125353"></trkpt><trkpt lat="50.57609" lon="16.125359"></trkpt><trkpt lat="50.5761546" lon="16.1252743"></trkpt><trkpt lat="50.576343" lon="16.12519"></trkpt><trkpt lat="50.576509" lon="16.125146"></trkpt><trkpt lat="50.576628" lon="16.125143"></trkpt><trkpt lat="50.576711" lon="16.125119"></trkpt><trkpt lat="50.5767747" lon="16.1251616"></trkpt><trkpt lat="50.5768309" lon="16.1251965"></trkpt><trkpt lat="50.5769603" lon="16.1252485"></trkpt><trkpt lat="50.5770165359743" lon="16.12522997824333"></trkpt><trkpt lat="50.5770693" lon="16.1252126"></trkpt><trkpt lat="50.577237" lon="16.125141"></trkpt><trkpt lat="50.5773419" lon="16.1251295"></trkpt><trkpt lat="50.5774373" lon="16.1250946"></trkpt><trkpt lat="50.5775139" lon="16.1250302"></trkpt><trkpt lat="50.5775675" lon="16.1249283"></trkpt><trkpt lat="50.5777275" lon="16.1248669"></trkpt><trkpt lat="50.577841" lon="16.124864"></trkpt><trkpt lat="50.5779434" lon="16.1247678"></trkpt><trkpt lat="50.5779864" lon="16.1247078"></trkpt><trkpt lat="50.5780394" lon="16.1246874"></trkpt><trkpt lat="50.578153" lon="16.124719"></trkpt><trkpt lat="50.578328979250266" lon="16.124692987984123"></trkpt><trkpt lat="50.5783519" lon="16.1246896"></trkpt><trkpt lat="50.5785529" lon="16.1246279"></trkpt><trkpt lat="50.5786943" lon="16.1245769"></trkpt><trkpt lat="50.5788765" lon="16.1245635"></trkpt><trkpt lat="50.5789583" lon="16.1246091"></trkpt><trkpt lat="50.579087" lon="16.124703"></trkpt><trkpt lat="50.5791933" lon="16.12488"></trkpt><trkpt lat="50.579241" lon="16.1253816"></trkpt><trkpt lat="50.5792734" lon="16.1255962"></trkpt><trkpt lat="50.57928317870231" lon="16.12570610254766"></trkpt><trkpt lat="50.5793006" lon="16.1259019"></trkpt><trkpt lat="50.5793228" lon="16.1262184"></trkpt><trkpt lat="50.5793858" lon="16.1265081"></trkpt><trkpt lat="50.579741754722654" lon="16.12768765215954"></trkpt><trkpt lat="50.579868" lon="16.128106"></trkpt><trkpt lat="50.5800279" lon="16.1283535"></trkpt><trkpt lat="50.5801403" lon="16.1284983"></trkpt><trkpt lat="50.5802391" lon="16.1286297"></trkpt><trkpt lat="50.580586" lon="16.128975"></trkpt><trkpt lat="50.58071233033938" lon="16.129011809910093"></trkpt><trkpt lat="50.5807449" lon="16.1290213"></trkpt><trkpt lat="50.580845" lon="16.129014"></trkpt><trkpt lat="50.5811571" lon="16.1288872"></trkpt><trkpt lat="50.5812542" lon="16.1288631"></trkpt><trkpt lat="50.581377" lon="16.128865"></trkpt><trkpt lat="50.5818315" lon="16.1291125"></trkpt><trkpt lat="50.5819627" lon="16.1291662"></trkpt><trkpt lat="50.58204409435671" lon="16.129167032442286"></trkpt><trkpt lat="50.5822267" lon="16.1291689"></trkpt><trkpt lat="50.5824481" lon="16.1291313"></trkpt><trkpt lat="50.582661" lon="16.129095"></trkpt><trkpt lat="50.5828432" lon="16.1291072"></trkpt><trkpt lat="50.583003" lon="16.129154"></trkpt><trkpt lat="50.5831395" lon="16.1292681"></trkpt><trkpt lat="50.5832756" lon="16.1293554"></trkpt><trkpt lat="50.58336562106932" lon="16.1293702386378"></trkpt><trkpt lat="50.5833939" lon="16.1293749"></trkpt><trkpt lat="50.583606" lon="16.129454"></trkpt><trkpt lat="50.584519" lon="16.129996"></trkpt><trkpt lat="50.5846249" lon="16.1300443"></trkpt><trkpt lat="50.5846403" lon="16.1300562"></trkpt><trkpt lat="50.58467965291765" lon="16.130086568125005"></trkpt><trkpt lat="50.5848063" lon="16.1301843"></trkpt><trkpt lat="50.5848339" lon="16.1302099"></trkpt><trkpt lat="50.5848967" lon="16.1302633"></trkpt><trkpt lat="50.5851236" lon="16.1303169"></trkpt><trkpt lat="50.5852207" lon="16.1303276"></trkpt><trkpt lat="50.5853126" lon="16.1303437"></trkpt><trkpt lat="50.5854148" lon="16.1304027"></trkpt><trkpt lat="50.5855678" lon="16.1305321"></trkpt><trkpt lat="50.585618" lon="16.130582"></trkpt><trkpt lat="50.5857179" lon="16.1306253"></trkpt><trkpt lat="50.585858" lon="16.130649"></trkpt><trkpt lat="50.58594005248065" lon="16.13064256417118"></trkpt><trkpt lat="50.586331" lon="16.1306119"></trkpt><trkpt lat="50.58643" lon="16.130636"></trkpt><trkpt lat="50.5865865" lon="16.1307433"></trkpt><trkpt lat="50.586675" lon="16.130805"></trkpt><trkpt lat="50.5867891" lon="16.1308184"></trkpt><trkpt lat="50.5868709" lon="16.1308452"></trkpt><trkpt lat="50.587002" lon="16.1309499"></trkpt><trkpt lat="50.587111" lon="16.1309901"></trkpt><trkpt lat="50.5872046" lon="16.1310169"></trkpt><trkpt lat="50.5872966" lon="16.1310035"></trkpt><trkpt lat="50.5875204" lon="16.1309915"></trkpt><trkpt lat="50.5874859" lon="16.1310555"></trkpt><trkpt lat="50.5873987" lon="16.1311163"></trkpt><trkpt lat="50.5873293" lon="16.1312165"></trkpt><trkpt lat="50.5872157" lon="16.1313233"></trkpt><trkpt lat="50.5871598" lon="16.1314486"></trkpt><trkpt lat="50.5870854" lon="16.1315238"></trkpt><trkpt lat="50.5870684" lon="16.1316231"></trkpt><trkpt lat="50.5870661" lon="16.1317538"></trkpt><trkpt lat="50.5871008" lon="16.1318645"></trkpt><trkpt lat="50.5871178" lon="16.1319423"></trkpt><trkpt lat="50.5871365" lon="16.1320952"></trkpt><trkpt lat="50.5871265" lon="16.1323208"></trkpt><trkpt lat="50.5871484" lon="16.1324573"></trkpt><trkpt lat="50.5871689" lon="16.1325619"></trkpt><trkpt lat="50.5871629" lon="16.132674"></trkpt><trkpt lat="50.5872591" lon="16.1328194"></trkpt><trkpt lat="50.5873647" lon="16.1330903"></trkpt><trkpt lat="50.5874209" lon="16.133219"></trkpt><trkpt lat="50.5874839" lon="16.1333263"></trkpt><trkpt lat="50.5875316" lon="16.1334148"></trkpt><trkpt lat="50.5875401" lon="16.133506"></trkpt><trkpt lat="50.5875248" lon="16.1335543"></trkpt><trkpt lat="50.5874687" lon="16.133633"></trkpt><trkpt lat="50.5874141" lon="16.1336347"></trkpt><trkpt lat="50.5873324" lon="16.1336723"></trkpt><trkpt lat="50.587208" lon="16.1336964"></trkpt><trkpt lat="50.5871365" lon="16.1336964"></trkpt><trkpt lat="50.5870752" lon="16.1336777"></trkpt><trkpt lat="50.5869918" lon="16.1336347"></trkpt><trkpt lat="50.58691960054166" lon="16.133620865373253"></trkpt><trkpt lat="50.5869083" lon="16.1336187"></trkpt><trkpt lat="50.5868555" lon="16.1336401"></trkpt><trkpt lat="50.5867414" lon="16.1336562"></trkpt><trkpt lat="50.5866835" lon="16.1336938"></trkpt><trkpt lat="50.5866325" lon="16.1337461"></trkpt><trkpt lat="50.5865694" lon="16.1338252"></trkpt><trkpt lat="50.586503" lon="16.1339217"></trkpt><trkpt lat="50.5862816" lon="16.1343938"></trkpt><trkpt lat="50.5862425" lon="16.1344957"></trkpt><trkpt lat="50.5862254" lon="16.1345789"></trkpt><trkpt lat="50.5862408" lon="16.1346593"></trkpt><trkpt lat="50.5862578" lon="16.1347371"></trkpt><trkpt lat="50.5862527" lon="16.1348069"></trkpt><trkpt lat="50.5862391" lon="16.1348873"></trkpt><trkpt lat="50.5861743" lon="16.1349356"></trkpt><trkpt lat="50.5861233" lon="16.1349544"></trkpt><trkpt lat="50.5860313" lon="16.1349598"></trkpt><trkpt lat="50.5859632" lon="16.1349946"></trkpt><trkpt lat="50.5859316851147" lon="16.13501570247826"></trkpt><trkpt lat="50.5858951" lon="16.1350402"></trkpt><trkpt lat="50.5858184" lon="16.13511"></trkpt><trkpt lat="50.5856583" lon="16.1352789"></trkpt><trkpt lat="50.5855187" lon="16.1354345"></trkpt><trkpt lat="50.5854761" lon="16.135523"></trkpt><trkpt lat="50.5854727" lon="16.1356062"></trkpt><trkpt lat="50.5854863" lon="16.1357027"></trkpt><trkpt lat="50.5855868" lon="16.1359522"></trkpt><trkpt lat="50.5856209" lon="16.1361533"></trkpt><trkpt lat="50.5856413" lon="16.1363089"></trkpt><trkpt lat="50.5858355" lon="16.1368749"></trkpt><trkpt lat="50.58584708400649" lon="16.13690760319579"></trkpt><trkpt lat="50.5859989" lon="16.1373362"></trkpt><trkpt lat="50.586033" lon="16.1375427"></trkpt><trkpt lat="50.5860313" lon="16.1376393"></trkpt><trkpt lat="50.5860109" lon="16.1377305"></trkpt><trkpt lat="50.5859816" lon="16.1378034"></trkpt><trkpt lat="50.5859308" lon="16.1378431"></trkpt><trkpt lat="50.5858763" lon="16.13787"></trkpt><trkpt lat="50.585832" lon="16.1378726"></trkpt><trkpt lat="50.5853757" lon="16.1376948"></trkpt><trkpt lat="50.58516960353346" lon="16.13764797135332"></trkpt><trkpt lat="50.5850487" lon="16.1376205"></trkpt><trkpt lat="50.5849295" lon="16.1376178"></trkpt><trkpt lat="50.5847455" lon="16.1376178"></trkpt><trkpt lat="50.5846144" lon="16.1376044"></trkpt><trkpt lat="50.5844696" lon="16.1375588"></trkpt><trkpt lat="50.584313" lon="16.1374783"></trkpt><trkpt lat="50.5840047" lon="16.1373281"></trkpt><trkpt lat="50.5839281" lon="16.1373094"></trkpt><trkpt lat="50.5838378" lon="16.1372933"></trkpt><trkpt lat="50.58380520177675" lon="16.137295939532248"></trkpt><trkpt lat="50.583739" lon="16.1373013"></trkpt><trkpt lat="50.5835937" lon="16.1373268"></trkpt><trkpt lat="50.5835712" lon="16.1373451"></trkpt><trkpt lat="50.583542" lon="16.1374339"></trkpt><trkpt lat="50.5835213" lon="16.1375579"></trkpt><trkpt lat="50.5835398" lon="16.1376339"></trkpt><trkpt lat="50.5835653" lon="16.1377171"></trkpt><trkpt lat="50.5836794" lon="16.1379424"></trkpt><trkpt lat="50.5837045" lon="16.1380651"></trkpt><trkpt lat="50.5837065" lon="16.1381419"></trkpt><trkpt lat="50.5836935" lon="16.1382709"></trkpt><trkpt lat="50.5836647" lon="16.1384027"></trkpt><trkpt lat="50.5836454" lon="16.1385298"></trkpt><trkpt lat="50.5836429" lon="16.1385869"></trkpt><trkpt lat="50.583652" lon="16.1386606"></trkpt><trkpt lat="50.5836647" lon="16.1387152"></trkpt><trkpt lat="50.5836908" lon="16.1387359"></trkpt><trkpt lat="50.5837509" lon="16.1387229"></trkpt><trkpt lat="50.5837717" lon="16.1387236"></trkpt><trkpt lat="50.5838277" lon="16.1387256"></trkpt><trkpt lat="50.5838692" lon="16.1387271"></trkpt><trkpt lat="50.5839999" lon="16.1387318"></trkpt><trkpt lat="50.584002274608714" lon="16.138731884139677"></trkpt><trkpt lat="50.5840507" lon="16.1387336"></trkpt><trkpt lat="50.5841682" lon="16.1387444"></trkpt><trkpt lat="50.5842878" lon="16.1387845"></trkpt><trkpt lat="50.5843709" lon="16.1388651"></trkpt><trkpt lat="50.5844168" lon="16.1389268"></trkpt><trkpt lat="50.5844437" lon="16.1389628"></trkpt><trkpt lat="50.5844628" lon="16.1389884"></trkpt><trkpt lat="50.5844908" lon="16.1390362"></trkpt><trkpt lat="50.5845241" lon="16.139093"></trkpt><trkpt lat="50.5845395" lon="16.1392057"></trkpt><trkpt lat="50.5844969" lon="16.1392996"></trkpt><trkpt lat="50.5844458" lon="16.1393478"></trkpt><trkpt lat="50.5843845" lon="16.1394015"></trkpt><trkpt lat="50.5843385" lon="16.1394605"></trkpt><trkpt lat="50.584284" lon="16.1395302"></trkpt><trkpt lat="50.5842125" lon="16.1396456"></trkpt><trkpt lat="50.5841444" lon="16.1397421"></trkpt><trkpt lat="50.5840796" lon="16.1397985"></trkpt><trkpt lat="50.5839877" lon="16.1398538"></trkpt><trkpt lat="50.5839502" lon="16.1398964"></trkpt><trkpt lat="50.5839032" lon="16.1399172"></trkpt><trkpt lat="50.5838666" lon="16.1399722"></trkpt><trkpt lat="50.583841" lon="16.1401046"></trkpt><trkpt lat="50.58382516833794" lon="16.140141073851822"></trkpt><trkpt lat="50.5837969" lon="16.1402062"></trkpt><trkpt lat="50.5837271" lon="16.1403215"></trkpt><trkpt lat="50.583676" lon="16.14041"></trkpt><trkpt lat="50.5836334" lon="16.1405763"></trkpt><trkpt lat="50.5835926" lon="16.1406648"></trkpt><trkpt lat="50.5835466" lon="16.1407533"></trkpt><trkpt lat="50.5834819" lon="16.1408392"></trkpt><trkpt lat="50.5833592" lon="16.1409223"></trkpt><trkpt lat="50.5832775" lon="16.1409277"></trkpt><trkpt lat="50.5832451" lon="16.1409384"></trkpt><trkpt lat="50.5832043" lon="16.1409572"></trkpt><trkpt lat="50.5831804" lon="16.1410215"></trkpt><trkpt lat="50.5831889" lon="16.1410993"></trkpt><trkpt lat="50.5832147" lon="16.1411374"></trkpt><trkpt lat="50.583243" lon="16.1411705"></trkpt><trkpt lat="50.5833678" lon="16.1411959"></trkpt><trkpt lat="50.5834606" lon="16.141249"></trkpt><trkpt lat="50.5835152" lon="16.1413012"></trkpt><trkpt lat="50.5835491" lon="16.141404"></trkpt><trkpt lat="50.583541" lon="16.1414727"></trkpt><trkpt lat="50.583456" lon="16.141627"></trkpt><trkpt lat="50.5833842" lon="16.1417439"></trkpt><trkpt lat="50.58319319544361" lon="16.141893080029256"></trkpt><trkpt lat="50.5830595" lon="16.1419975"></trkpt><trkpt lat="50.5828977" lon="16.142199"></trkpt><trkpt lat="50.5828494" lon="16.1422503"></trkpt><trkpt lat="50.5827887" lon="16.1423224"></trkpt><trkpt lat="50.582692" lon="16.1424942"></trkpt><trkpt lat="50.5826031" lon="16.1426523"></trkpt><trkpt lat="50.5825744" lon="16.1427614"></trkpt><trkpt lat="50.5825707" lon="16.1428179"></trkpt><trkpt lat="50.5825691" lon="16.1429333"></trkpt><trkpt lat="50.5825587" lon="16.1430375"></trkpt><trkpt lat="50.5825261" lon="16.1431225"></trkpt><trkpt lat="50.5824765" lon="16.143195"></trkpt><trkpt lat="50.5824273" lon="16.1432485"></trkpt><trkpt lat="50.58224005057266" lon="16.143426419352068"></trkpt><trkpt lat="50.5821383" lon="16.1435231"></trkpt><trkpt lat="50.5819814" lon="16.1436769"></trkpt><trkpt lat="50.581771" lon="16.1439718"></trkpt><trkpt lat="50.5817268" lon="16.1440578"></trkpt><trkpt lat="50.5817105" lon="16.144143"></trkpt><trkpt lat="50.5817396" lon="16.1442348"></trkpt><trkpt lat="50.5817832" lon="16.1443201"></trkpt><trkpt lat="50.5818418" lon="16.1443743"></trkpt><trkpt lat="50.5819082" lon="16.1444145"></trkpt><trkpt lat="50.5820172" lon="16.144487"></trkpt><trkpt lat="50.5821415" lon="16.1445674"></trkpt><trkpt lat="50.5822539" lon="16.1446989"></trkpt><trkpt lat="50.5823408" lon="16.1448088"></trkpt><trkpt lat="50.58234414754897" lon="16.144813843754388"></trkpt><trkpt lat="50.5824975" lon="16.1450449"></trkpt><trkpt lat="50.5825673" lon="16.145246"></trkpt><trkpt lat="50.5826243" lon="16.1453322"></trkpt><trkpt lat="50.5826661" lon="16.1453748"></trkpt><trkpt lat="50.5827702" lon="16.145444"></trkpt><trkpt lat="50.5827961" lon="16.1454762"></trkpt><trkpt lat="50.5828251" lon="16.1454836"></trkpt><trkpt lat="50.5828517" lon="16.1456081"></trkpt><trkpt lat="50.5829589" lon="16.1458312"></trkpt><trkpt lat="50.5830217" lon="16.1459356"></trkpt><trkpt lat="50.5830846" lon="16.1460131"></trkpt><trkpt lat="50.5831106" lon="16.1460212"></trkpt><trkpt lat="50.5831736" lon="16.1460051"></trkpt><trkpt lat="50.5832264" lon="16.145989"></trkpt><trkpt lat="50.58339283184438" lon="16.145900062983163"></trkpt><trkpt lat="50.5834824" lon="16.1458522"></trkpt><trkpt lat="50.5835977" lon="16.1457878"></trkpt><trkpt lat="50.5836913" lon="16.1457583"></trkpt><trkpt lat="50.5837645" lon="16.1457637"></trkpt><trkpt lat="50.5838002" lon="16.1457288"></trkpt><trkpt lat="50.5838276" lon="16.1456376"></trkpt><trkpt lat="50.5838463" lon="16.1454928"></trkpt><trkpt lat="50.5838531" lon="16.1453775"></trkpt><trkpt lat="50.5838582" lon="16.1452809"></trkpt><trkpt lat="50.5838923" lon="16.1451817"></trkpt><trkpt lat="50.5840214" lon="16.1450068"></trkpt><trkpt lat="50.5840989" lon="16.1449587"></trkpt><trkpt lat="50.5842194" lon="16.1448108"></trkpt><trkpt lat="50.5843834" lon="16.1446481"></trkpt><trkpt lat="50.58446627371713" lon="16.1445787173531"></trkpt><trkpt lat="50.5844909" lon="16.1445581"></trkpt><trkpt lat="50.5846348" lon="16.1444253"></trkpt><trkpt lat="50.5846982" lon="16.1443825"></trkpt><trkpt lat="50.5847472" lon="16.1442912"></trkpt><trkpt lat="50.5848136" lon="16.1442026"></trkpt><trkpt lat="50.5848579" lon="16.1441839"></trkpt><trkpt lat="50.584938" lon="16.1441302"></trkpt><trkpt lat="50.5850231" lon="16.1440524"></trkpt><trkpt lat="50.5850793" lon="16.1439693"></trkpt><trkpt lat="50.5851321" lon="16.1439425"></trkpt><trkpt lat="50.585219" lon="16.1439586"></trkpt><trkpt lat="50.5852632" lon="16.1439842"></trkpt><trkpt lat="50.5853081" lon="16.1439229"></trkpt><trkpt lat="50.5853859" lon="16.1438942"></trkpt><trkpt lat="50.585452" lon="16.1438233"></trkpt><trkpt lat="50.5854897" lon="16.1438352"></trkpt><trkpt lat="50.5855332" lon="16.1438338"></trkpt><trkpt lat="50.5855385" lon="16.1438534"></trkpt><trkpt lat="50.5855581" lon="16.1438328"></trkpt><trkpt lat="50.5856124" lon="16.1438513"></trkpt><trkpt lat="50.5856805" lon="16.1438084"></trkpt><trkpt lat="50.58570820086337" lon="16.143788160114156"></trkpt><trkpt lat="50.58570820086337" lon="16.143788160114152"></trkpt><trkpt lat="50.58570820086337" lon="16.143788160114156"></trkpt><trkpt lat="50.5857503" lon="16.1437574"></trkpt><trkpt lat="50.5858576" lon="16.1436957"></trkpt><trkpt lat="50.5859223" lon="16.1436743"></trkpt><trkpt lat="50.5859904" lon="16.1436764"></trkpt><trkpt lat="50.5860551" lon="16.1436555"></trkpt><trkpt lat="50.586113" lon="16.1436233"></trkpt><trkpt lat="50.5861641" lon="16.143567"></trkpt><trkpt lat="50.5862186" lon="16.1434838"></trkpt><trkpt lat="50.5862663" lon="16.143457"></trkpt><trkpt lat="50.5863072" lon="16.1435053"></trkpt><trkpt lat="50.5863429" lon="16.1435643"></trkpt><trkpt lat="50.5863855" lon="16.1436233"></trkpt><trkpt lat="50.5864434" lon="16.1436689"></trkpt><trkpt lat="50.5864928" lon="16.1436743"></trkpt><trkpt lat="50.5865694" lon="16.1436689"></trkpt><trkpt lat="50.586876" lon="16.1435214"></trkpt><trkpt lat="50.587025840952066" lon="16.143444237409213"></trkpt><trkpt lat="50.5870531" lon="16.1434302"></trkpt><trkpt lat="50.5871587" lon="16.1433846"></trkpt><trkpt lat="50.5872268" lon="16.1433417"></trkpt><trkpt lat="50.5873238" lon="16.1433148"></trkpt><trkpt lat="50.587363" lon="16.1433256"></trkpt><trkpt lat="50.5873869" lon="16.1433738"></trkpt><trkpt lat="50.5874209" lon="16.1434409"></trkpt><trkpt lat="50.5874601" lon="16.1435428"></trkpt><trkpt lat="50.5875589" lon="16.1435991"></trkpt><trkpt lat="50.5876338" lon="16.1436394"></trkpt><trkpt lat="50.5877223" lon="16.1437011"></trkpt><trkpt lat="50.5878143" lon="16.1437574"></trkpt><trkpt lat="50.5879097" lon="16.1438701"></trkpt><trkpt lat="50.5879522" lon="16.1439934"></trkpt><trkpt lat="50.5880033" lon="16.1441302"></trkpt><trkpt lat="50.5880436" lon="16.1442509"></trkpt><trkpt lat="50.588097" lon="16.1443207"></trkpt><trkpt lat="50.5881395" lon="16.1443475"></trkpt><trkpt lat="50.5882315" lon="16.1443797"></trkpt><trkpt lat="50.588252271393785" lon="16.144387866241278"></trkpt><trkpt lat="50.5882928" lon="16.1444038"></trkpt><trkpt lat="50.588363" lon="16.1444261"></trkpt><trkpt lat="50.5884236" lon="16.1444891"></trkpt><trkpt lat="50.5884614" lon="16.1445701"></trkpt><trkpt lat="50.5885074" lon="16.1446318"></trkpt><trkpt lat="50.5885704" lon="16.1446962"></trkpt><trkpt lat="50.5886657" lon="16.1447149"></trkpt><trkpt lat="50.5887219" lon="16.1447096"></trkpt><trkpt lat="50.588819" lon="16.1447257"></trkpt><trkpt lat="50.5889048" lon="16.144756"></trkpt><trkpt lat="50.589037" lon="16.1448598"></trkpt><trkpt lat="50.5891153" lon="16.1449644"></trkpt><trkpt lat="50.589212" lon="16.145131"></trkpt><trkpt lat="50.5892629" lon="16.1451959"></trkpt><trkpt lat="50.5893895" lon="16.1454874"></trkpt><trkpt lat="50.58941006766276" lon="16.145510246856364"></trkpt><trkpt lat="50.5894644" lon="16.1455706"></trkpt><trkpt lat="50.5895155" lon="16.1455733"></trkpt><trkpt lat="50.5895751" lon="16.1455464"></trkpt><trkpt lat="50.5896636" lon="16.1455706"></trkpt><trkpt lat="50.5897777" lon="16.1456162"></trkpt><trkpt lat="50.5898714" lon="16.1456832"></trkpt><trkpt lat="50.5899565" lon="16.1457261"></trkpt><trkpt lat="50.5900348" lon="16.145753"></trkpt><trkpt lat="50.5900916" lon="16.1457351"></trkpt><trkpt lat="50.5901609" lon="16.1457852"></trkpt><trkpt lat="50.5902443" lon="16.145871"></trkpt><trkpt lat="50.5902649" lon="16.1458916"></trkpt><trkpt lat="50.5902796" lon="16.145928"></trkpt><trkpt lat="50.590288" lon="16.1460651"></trkpt><trkpt lat="50.59028" lon="16.1461184"></trkpt><trkpt lat="50.5903567" lon="16.1462519"></trkpt><trkpt lat="50.5903912" lon="16.1462652"></trkpt><trkpt lat="50.5904242" lon="16.1462465"></trkpt><trkpt lat="50.5904708" lon="16.1462256"></trkpt><trkpt lat="50.5905148" lon="16.14625"></trkpt><trkpt lat="50.5905678" lon="16.1462438"></trkpt><trkpt lat="50.5906019" lon="16.1462272"></trkpt><trkpt lat="50.590645040741364" lon="16.14624960168314"></trkpt><trkpt lat="50.5906512" lon="16.1462528"></trkpt><trkpt lat="50.5907119" lon="16.1462863"></trkpt><trkpt lat="50.5907653" lon="16.1463361"></trkpt><trkpt lat="50.5908301" lon="16.1464155"></trkpt><trkpt lat="50.5908902" lon="16.1465452"></trkpt><trkpt lat="50.5909373" lon="16.1466515"></trkpt><trkpt lat="50.5909459" lon="16.1467169"></trkpt><trkpt lat="50.5909125" lon="16.1467699"></trkpt><trkpt lat="50.5909118" lon="16.1468181"></trkpt><trkpt lat="50.5909406" lon="16.1468127"></trkpt><trkpt lat="50.5909681" lon="16.1467747"></trkpt><trkpt lat="50.5910072" lon="16.1468098"></trkpt><trkpt lat="50.5910284" lon="16.1467892"></trkpt><trkpt lat="50.591073" lon="16.1467606"></trkpt><trkpt lat="50.5911164" lon="16.1466789"></trkpt><trkpt lat="50.5911558" lon="16.1465978"></trkpt><trkpt lat="50.5912081" lon="16.1465338"></trkpt><trkpt lat="50.5912796" lon="16.1464485"></trkpt><trkpt lat="50.5913853" lon="16.1463764"></trkpt><trkpt lat="50.5914666" lon="16.1463769"></trkpt><trkpt lat="50.5915667" lon="16.1463348"></trkpt><trkpt lat="50.5915901" lon="16.1463433"></trkpt><trkpt lat="50.5916206" lon="16.1463328"></trkpt><trkpt lat="50.591608" lon="16.1463663"></trkpt><trkpt lat="50.59158" lon="16.146436"></trkpt><trkpt lat="50.5915452" lon="16.1465065"></trkpt><trkpt lat="50.5915019" lon="16.146593"></trkpt><trkpt lat="50.5914886" lon="16.1466916"></trkpt><trkpt lat="50.5914535" lon="16.1468361"></trkpt><trkpt lat="50.591434" lon="16.1469618"></trkpt><trkpt lat="50.591413" lon="16.1471235"></trkpt><trkpt lat="50.5914022" lon="16.1472765"></trkpt><trkpt lat="50.591391799034625" lon="16.14734293028636"></trkpt><trkpt lat="50.5913823" lon="16.1474036"></trkpt><trkpt lat="50.5913401" lon="16.1475801"></trkpt><trkpt lat="50.5912719" lon="16.1477636"></trkpt><trkpt lat="50.5912121" lon="16.1479571"></trkpt><trkpt lat="50.5910906" lon="16.1482555"></trkpt><trkpt lat="50.5910651" lon="16.1483359"></trkpt><trkpt lat="50.5909943" lon="16.1484506"></trkpt><trkpt lat="50.590951" lon="16.1485693"></trkpt><trkpt lat="50.5908948" lon="16.1486471"></trkpt><trkpt lat="50.5908476" lon="16.1486603"></trkpt><trkpt lat="50.5907995" lon="16.1487246"></trkpt><trkpt lat="50.5907986" lon="16.1487765"></trkpt><trkpt lat="50.5908773" lon="16.1489554"></trkpt><trkpt lat="50.590951" lon="16.1491279"></trkpt><trkpt lat="50.59098468495532" lon="16.149166430980085"></trkpt><trkpt lat="50.59098468495532" lon="16.14916643098008"></trkpt><trkpt lat="50.59098468495532" lon="16.149166430980085"></trkpt><trkpt lat="50.5910504" lon="16.1492416"></trkpt><trkpt lat="50.5911188" lon="16.1492972"></trkpt><trkpt lat="50.5912044" lon="16.1494326"></trkpt><trkpt lat="50.5912856" lon="16.1495611"></trkpt><trkpt lat="50.5913036" lon="16.1497951"></trkpt><trkpt lat="50.5913256" lon="16.1499828"></trkpt><trkpt lat="50.5913341" lon="16.1502173"></trkpt><trkpt lat="50.591349" lon="16.15039"></trkpt><trkpt lat="50.5914197" lon="16.1505583"></trkpt><trkpt lat="50.5914976" lon="16.1508277"></trkpt><trkpt lat="50.59156978662483" lon="16.151024156287566"></trkpt><trkpt lat="50.5915906" lon="16.1510808"></trkpt><trkpt lat="50.5915912" lon="16.1512408"></trkpt><trkpt lat="50.5915793" lon="16.1513856"></trkpt><trkpt lat="50.5915435" lon="16.1516002"></trkpt><trkpt lat="50.5915248" lon="16.1519462"></trkpt><trkpt lat="50.5915135" lon="16.1520266"></trkpt><trkpt lat="50.5915041" lon="16.1522526"></trkpt><trkpt lat="50.5914938" lon="16.1525505"></trkpt><trkpt lat="50.5914565" lon="16.152825"></trkpt><trkpt lat="50.5914736" lon="16.1530451"></trkpt><trkpt lat="50.59147601203331" lon="16.153096721820063"></trkpt><trkpt lat="50.5914848" lon="16.1532848"></trkpt><trkpt lat="50.5914664" lon="16.153411"></trkpt><trkpt lat="50.5913894" lon="16.1536188"></trkpt><trkpt lat="50.5912829" lon="16.1538662"></trkpt><trkpt lat="50.5912076" lon="16.1540512"></trkpt><trkpt lat="50.5911024" lon="16.1542202"></trkpt><trkpt lat="50.5910304" lon="16.1543232"></trkpt><trkpt lat="50.5909376" lon="16.15443"></trkpt><trkpt lat="50.5908331" lon="16.1546"></trkpt><trkpt lat="50.5907388" lon="16.1547835"></trkpt><trkpt lat="50.590713" lon="16.1548915"></trkpt><trkpt lat="50.59067594025295" lon="16.154955646505258"></trkpt><trkpt lat="50.59059" lon="16.1551044"></trkpt><trkpt lat="50.5904545" lon="16.1552411"></trkpt><trkpt lat="50.5903706" lon="16.1553625"></trkpt><trkpt lat="50.5902147" lon="16.1555602"></trkpt><trkpt lat="50.590153" lon="16.1556075"></trkpt><trkpt lat="50.5900154" lon="16.155732"></trkpt><trkpt lat="50.5898738" lon="16.1560571"></trkpt><trkpt lat="50.5898307" lon="16.1561775"></trkpt><trkpt lat="50.5897975" lon="16.1562314"></trkpt><trkpt lat="50.5896749602211" lon="16.156379397933396"></trkpt><trkpt lat="50.5896608" lon="16.1563965"></trkpt><trkpt lat="50.5893588" lon="16.1566776"></trkpt><trkpt lat="50.5892379" lon="16.1567473"></trkpt><trkpt lat="50.5889434" lon="16.1568966"></trkpt><trkpt lat="50.5888328" lon="16.1569961"></trkpt><trkpt lat="50.5887781" lon="16.1570665"></trkpt><trkpt lat="50.5887372" lon="16.1571695"></trkpt><trkpt lat="50.5887082" lon="16.1572569"></trkpt><trkpt lat="50.5886535" lon="16.1573914"></trkpt><trkpt lat="50.5886327" lon="16.157512"></trkpt><trkpt lat="50.588625580290405" lon="16.157588509772626"></trkpt><trkpt lat="50.588613" lon="16.1577237"></trkpt><trkpt lat="50.5886266" lon="16.1578765"></trkpt><trkpt lat="50.5886368" lon="16.1579543"></trkpt><trkpt lat="50.588695" lon="16.1581349"></trkpt><trkpt lat="50.5887083" lon="16.1582317"></trkpt><trkpt lat="50.5887168" lon="16.1582816"></trkpt><trkpt lat="50.5887509" lon="16.1584693"></trkpt><trkpt lat="50.5888054" lon="16.1586732"></trkpt><trkpt lat="50.5889689" lon="16.159105"></trkpt><trkpt lat="50.589098" lon="16.159463"></trkpt><trkpt lat="50.58911830547052" lon="16.1595336311857"></trkpt><trkpt lat="50.589353" lon="16.16035"></trkpt><trkpt lat="50.589542" lon="16.160793"></trkpt><trkpt lat="50.589676" lon="16.161"></trkpt><trkpt lat="50.589857860264885" lon="16.161229027231986"></trkpt><trkpt lat="50.5899752" lon="16.1613768"></trkpt><trkpt lat="50.5900451" lon="16.1614493"></trkpt><trkpt lat="50.59017" lon="16.161514"></trkpt><trkpt lat="50.5904946" lon="16.1616209"></trkpt><trkpt lat="50.5906411" lon="16.161688"></trkpt><trkpt lat="50.590795" lon="16.161801"></trkpt><trkpt lat="50.5908602" lon="16.1618625"></trkpt><trkpt lat="50.5909859" lon="16.1620382"></trkpt><trkpt lat="50.5910363" lon="16.1622857"></trkpt><trkpt lat="50.591032252788494" lon="16.1623379432302"></trkpt><trkpt lat="50.5910221" lon="16.162469"></trkpt><trkpt lat="50.590992" lon="16.162661"></trkpt><trkpt lat="50.5909425" lon="16.1629727"></trkpt><trkpt lat="50.5909202" lon="16.163449"></trkpt><trkpt lat="50.5908891" lon="16.1636014"></trkpt><trkpt lat="50.590795" lon="16.163875"></trkpt><trkpt lat="50.590736" lon="16.164015"></trkpt><trkpt lat="50.590595929683225" lon="16.16423554931457"></trkpt><trkpt lat="50.590508" lon="16.164374"></trkpt><trkpt lat="50.590371" lon="16.1646473"></trkpt><trkpt lat="50.590222" lon="16.165018"></trkpt><trkpt lat="50.5902249" lon="16.1650604"></trkpt><trkpt lat="50.5902156" lon="16.1650993"></trkpt><trkpt lat="50.5901694" lon="16.1652204"></trkpt><trkpt lat="50.5901526" lon="16.1652727"></trkpt><trkpt lat="50.5901326" lon="16.1653445"></trkpt><trkpt lat="50.590127" lon="16.1654198"></trkpt><trkpt lat="50.5901359" lon="16.165553"></trkpt><trkpt lat="50.5901518" lon="16.165627"></trkpt><trkpt lat="50.5902172" lon="16.1657823"></trkpt><trkpt lat="50.590277" lon="16.165901"></trkpt><trkpt lat="50.5903381" lon="16.1660408"></trkpt><trkpt lat="50.5903727" lon="16.1660769"></trkpt><trkpt lat="50.5904413" lon="16.1661301"></trkpt><trkpt lat="50.5905514" lon="16.1661391"></trkpt><trkpt lat="50.590564879620864" lon="16.166139970225853"></trkpt><trkpt lat="50.5906273" lon="16.166144"></trkpt><trkpt lat="50.5907634" lon="16.1661145"></trkpt><trkpt lat="50.591453" lon="16.165974"></trkpt><trkpt lat="50.5915768" lon="16.1659448"></trkpt><trkpt lat="50.5916392" lon="16.1658505"></trkpt><trkpt lat="50.5918069419447" lon="16.165810596336428"></trkpt><trkpt lat="50.591891" lon="16.1657906"></trkpt><trkpt lat="50.5920566" lon="16.1657876"></trkpt><trkpt lat="50.5922315" lon="16.1658327"></trkpt><trkpt lat="50.5923437" lon="16.1658955"></trkpt><trkpt lat="50.5924246" lon="16.1659407"></trkpt><trkpt lat="50.5925677" lon="16.1660132"></trkpt><trkpt lat="50.592563" lon="16.1661421"></trkpt><trkpt lat="50.592579" lon="16.1662762"></trkpt><trkpt lat="50.5926037" lon="16.1663704"></trkpt><trkpt lat="50.5926674" lon="16.1664972"></trkpt><trkpt lat="50.5927162" lon="16.1666302"></trkpt><trkpt lat="50.5927445" lon="16.166766"></trkpt><trkpt lat="50.5926921" lon="16.1671257"></trkpt><trkpt lat="50.59265596430857" lon="16.167333974041444"></trkpt><trkpt lat="50.5926299" lon="16.1674842"></trkpt><trkpt lat="50.5925158" lon="16.1679912"></trkpt><trkpt lat="50.5924528" lon="16.1681521"></trkpt><trkpt lat="50.5923592" lon="16.1682969"></trkpt><trkpt lat="50.5922979" lon="16.1683935"></trkpt><trkpt lat="50.5921498" lon="16.168578"></trkpt><trkpt lat="50.5919943" lon="16.1687301"></trkpt><trkpt lat="50.591827729311824" lon="16.16891380536139"></trkpt><trkpt lat="50.591656" lon="16.1691032"></trkpt><trkpt lat="50.5913948" lon="16.1693505"></trkpt><trkpt lat="50.5911802" lon="16.1694386"></trkpt><trkpt lat="50.5911959" lon="16.1696512"></trkpt><trkpt lat="50.5912385" lon="16.1702288"></trkpt><trkpt lat="50.5912366" lon="16.1702479"></trkpt><trkpt lat="50.5912069" lon="16.1703347"></trkpt><trkpt lat="50.5912228" lon="16.1703677"></trkpt><trkpt lat="50.591237" lon="16.1704032"></trkpt><trkpt lat="50.5912464" lon="16.1704423"></trkpt><trkpt lat="50.59124978557288" lon="16.170464000967108"></trkpt><trkpt lat="50.5912525" lon="16.1704814"></trkpt><trkpt lat="50.5913558" lon="16.1704752"></trkpt><trkpt lat="50.5913495" lon="16.1704591"></trkpt><trkpt lat="50.59138" lon="16.1704263"></trkpt><trkpt lat="50.5913844" lon="16.1704366"></trkpt><trkpt lat="50.5913916" lon="16.1704437"></trkpt><trkpt lat="50.5914012" lon="16.1704483"></trkpt><trkpt lat="50.5914108" lon="16.1704491"></trkpt><trkpt lat="50.5914595" lon="16.1704446"></trkpt><trkpt lat="50.5917347" lon="16.1704226"></trkpt><trkpt lat="50.591785" lon="16.1704163"></trkpt><trkpt lat="50.5917936" lon="16.1704111"></trkpt><trkpt lat="50.5917999" lon="16.1704023"></trkpt><trkpt lat="50.5918042" lon="16.1703928"></trkpt><trkpt lat="50.5918074" lon="16.1703799"></trkpt><trkpt lat="50.5918091" lon="16.1703635"></trkpt><trkpt lat="50.5918256" lon="16.1703618"></trkpt><trkpt lat="50.591856" lon="16.1703592"></trkpt><trkpt lat="50.591857" lon="16.1703744"></trkpt><trkpt lat="50.5918609" lon="16.1703864"></trkpt><trkpt lat="50.5918659" lon="16.1703961"></trkpt><trkpt lat="50.591873" lon="16.1704032"></trkpt><trkpt lat="50.591883" lon="16.1704082"></trkpt><trkpt lat="50.5918922" lon="16.170408"></trkpt><trkpt lat="50.591945" lon="16.1704015"></trkpt><trkpt lat="50.5920089" lon="16.1703968"></trkpt><trkpt lat="50.5920196" lon="16.1703933"></trkpt><trkpt lat="50.592028" lon="16.170387"></trkpt><trkpt lat="50.5920336" lon="16.1703794"></trkpt><trkpt lat="50.5920383" lon="16.1703692"></trkpt><trkpt lat="50.5920409" lon="16.1703566"></trkpt><trkpt lat="50.5920414" lon="16.1703417"></trkpt><trkpt lat="50.59204084236223" lon="16.170336123622295"></trkpt></trkseg></trk></gpx>
