<?xml version="1.0" encoding="UTF-8"?>
<gpx version="1.1" creator="Good Shit" xmlns="http://www.topografix.com/GPX/1/1"><trk><name>Uracher Wasserfallsteig — Uracher Wasserfallsteig</name><trkseg><trkpt lat="48.4952164" lon="9.3720434"></trkpt><trkpt lat="48.4953035" lon="9.3720853"></trkpt><trkpt lat="48.4954888" lon="9.3721791"></trkpt><trkpt lat="48.4957272" lon="9.3723298"></trkpt><trkpt lat="48.4958556" lon="9.3724385"></trkpt><trkpt lat="48.4959324" lon="9.3725192"></trkpt><trkpt lat="48.4962106" lon="9.3727818"></trkpt><trkpt lat="48.4967263" lon="9.3732686"></trkpt><trkpt lat="48.4972697" lon="9.37384"></trkpt><trkpt lat="48.4977907" lon="9.3743715"></trkpt><trkpt lat="48.4978729" lon="9.3744708"></trkpt><trkpt lat="48.4981256" lon="9.3747575"></trkpt><trkpt lat="48.4983843" lon="9.3752773"></trkpt><trkpt lat="48.498453" lon="9.3754153"></trkpt><trkpt lat="48.4983963" lon="9.3750142"></trkpt><trkpt lat="48.4983367" lon="9.3745924"></trkpt><trkpt lat="48.4982783" lon="9.3739417"></trkpt><trkpt lat="48.4983027" lon="9.373484"></trkpt><trkpt lat="48.4983972" lon="9.3731007"></trkpt><trkpt lat="48.4985243" lon="9.37277"></trkpt><trkpt lat="48.4986916" lon="9.3724185"></trkpt><trkpt lat="48.4987594" lon="9.3721845"></trkpt><trkpt lat="48.4987786" lon="9.372077"></trkpt><trkpt lat="48.4987725" lon="9.3719739"></trkpt><trkpt lat="48.4987439" lon="9.3718678"></trkpt><trkpt lat="48.4986168" lon="9.371679"></trkpt><trkpt lat="48.498486" lon="9.3715462"></trkpt><trkpt lat="48.4983832" lon="9.3713865"></trkpt><trkpt lat="48.4982077" lon="9.3709546"></trkpt><trkpt lat="48.4981988" lon="9.3708334"></trkpt><trkpt lat="48.4982255" lon="9.3707616"></trkpt><trkpt lat="48.4982583" lon="9.3707123"></trkpt><trkpt lat="48.4981211" lon="9.3702909"></trkpt><trkpt lat="48.4979036" lon="9.3697372"></trkpt><trkpt lat="48.4977401" lon="9.3693431"></trkpt><trkpt lat="48.4976202" lon="9.369062"></trkpt><trkpt lat="48.4975709" lon="9.3689598"></trkpt><trkpt lat="48.497513" lon="9.3687717"></trkpt><trkpt lat="48.4974951" lon="9.368637"></trkpt><trkpt lat="48.497516" lon="9.3683963"></trkpt><trkpt lat="48.4976029" lon="9.3680537"></trkpt><trkpt lat="48.4976535" lon="9.367808"></trkpt><trkpt lat="48.4976664" lon="9.3676647"></trkpt><trkpt lat="48.4976711" lon="9.3674893"></trkpt><trkpt lat="48.4976754" lon="9.3672516"></trkpt><trkpt lat="48.4976637" lon="9.3669797"></trkpt><trkpt lat="48.4976724" lon="9.3666801"></trkpt><trkpt lat="48.4977112" lon="9.366387"></trkpt><trkpt lat="48.4977285" lon="9.3662535"></trkpt><trkpt lat="48.4977608" lon="9.3661232"></trkpt><trkpt lat="48.4978687" lon="9.3659033"></trkpt><trkpt lat="48.4979463" lon="9.3657332"></trkpt><trkpt lat="48.4979956" lon="9.3655949"></trkpt><trkpt lat="48.4980379" lon="9.3654353"></trkpt><trkpt lat="48.4981601" lon="9.365309"></trkpt><trkpt lat="48.4986307" lon="9.3648239"></trkpt><trkpt lat="48.4985038" lon="9.3645871"></trkpt><trkpt lat="48.4981989" lon="9.364065"></trkpt><trkpt lat="48.4981713" lon="9.364004"></trkpt><trkpt lat="48.4978495" lon="9.363223"></trkpt><trkpt lat="48.4975828" lon="9.3628055"></trkpt><trkpt lat="48.4974346" lon="9.362565"></trkpt><trkpt lat="48.4972136" lon="9.3622638"></trkpt><trkpt lat="48.4970263" lon="9.3619356"></trkpt><trkpt lat="48.4968413" lon="9.3616111"></trkpt><trkpt lat="48.4966671" lon="9.3613625"></trkpt><trkpt lat="48.496487" lon="9.3610848"></trkpt><trkpt lat="48.4963823" lon="9.360737"></trkpt><trkpt lat="48.4962101" lon="9.3601742"></trkpt><trkpt lat="48.4961316" lon="9.3598679"></trkpt><trkpt lat="48.496047" lon="9.3595595"></trkpt><trkpt lat="48.4960399" lon="9.3591659"></trkpt><trkpt lat="48.4959976" lon="9.3587085"></trkpt><trkpt lat="48.4959287" lon="9.358302"></trkpt><trkpt lat="48.495883" lon="9.3577447"></trkpt><trkpt lat="48.4958911" lon="9.3572342"></trkpt><trkpt lat="48.4959132" lon="9.3566772"></trkpt><trkpt lat="48.4959239" lon="9.3563444"></trkpt><trkpt lat="48.4959184" lon="9.3558696"></trkpt><trkpt lat="48.4958876" lon="9.3556037"></trkpt><trkpt lat="48.4958417" lon="9.3554028"></trkpt><trkpt lat="48.4957568" lon="9.3552503"></trkpt><trkpt lat="48.4956094" lon="9.3549943"></trkpt><trkpt lat="48.4957448" lon="9.3550495"></trkpt><trkpt lat="48.4958589" lon="9.3550546"></trkpt><trkpt lat="48.4959354" lon="9.3550139"></trkpt><trkpt lat="48.4959334" lon="9.3548811"></trkpt><trkpt lat="48.4958651" lon="9.3547756"></trkpt><trkpt lat="48.4956721" lon="9.3545896"></trkpt><trkpt lat="48.4952421" lon="9.3543949"></trkpt><trkpt lat="48.4950327" lon="9.3540922"></trkpt><trkpt lat="48.4948109" lon="9.353693"></trkpt><trkpt lat="48.4944156" lon="9.3528157"></trkpt><trkpt lat="48.4939844" lon="9.3524209"></trkpt><trkpt lat="48.4938685" lon="9.352363"></trkpt><trkpt lat="48.4937192" lon="9.3528392"></trkpt><trkpt lat="48.4934348" lon="9.3534891"></trkpt><trkpt lat="48.4931653" lon="9.3542254"></trkpt><trkpt lat="48.4929513" lon="9.3552048"></trkpt><trkpt lat="48.492901" lon="9.3555295"></trkpt><trkpt lat="48.4928622" lon="9.3555603"></trkpt><trkpt lat="48.4928054" lon="9.3555538"></trkpt><trkpt lat="48.4927765" lon="9.3555086"></trkpt><trkpt lat="48.4925569" lon="9.3556027"></trkpt><trkpt lat="48.4923225" lon="9.3556213"></trkpt><trkpt lat="48.4917877" lon="9.3552482"></trkpt><trkpt lat="48.4913581" lon="9.3546825"></trkpt><trkpt lat="48.4910781" lon="9.3538069"></trkpt><trkpt lat="48.4905063" lon="9.3528141"></trkpt><trkpt lat="48.4903133" lon="9.3525554"></trkpt><trkpt lat="48.4901575" lon="9.352502"></trkpt><trkpt lat="48.4902099" lon="9.3523993"></trkpt><trkpt lat="48.4899449" lon="9.3523241"></trkpt><trkpt lat="48.4898945" lon="9.35218"></trkpt><trkpt lat="48.4899057" lon="9.3518918"></trkpt><trkpt lat="48.4897602" lon="9.3519004"></trkpt><trkpt lat="48.4897825" lon="9.3516206"></trkpt><trkpt lat="48.4897143" lon="9.3515736"></trkpt><trkpt lat="48.4897154" lon="9.3514512"></trkpt><trkpt lat="48.4898054" lon="9.3513586"></trkpt><trkpt lat="48.4898393" lon="9.3512774"></trkpt><trkpt lat="48.489774" lon="9.3512924"></trkpt><trkpt lat="48.4894793" lon="9.3511581"></trkpt><trkpt lat="48.4899147" lon="9.3509232"></trkpt><trkpt lat="48.4899474" lon="9.3509031"></trkpt><trkpt lat="48.4901163" lon="9.3507991"></trkpt><trkpt lat="48.4901652" lon="9.3507876"></trkpt><trkpt lat="48.4903664" lon="9.3506934"></trkpt><trkpt lat="48.4907817" lon="9.3505979"></trkpt><trkpt lat="48.4909312" lon="9.3504907"></trkpt><trkpt lat="48.4911019" lon="9.3505984"></trkpt><trkpt lat="48.4912421" lon="9.3507166"></trkpt><trkpt lat="48.4913106" lon="9.350948"></trkpt><trkpt lat="48.4914198" lon="9.3511831"></trkpt><trkpt lat="48.4914588" lon="9.3510526"></trkpt><trkpt lat="48.4914999" lon="9.3511167"></trkpt><trkpt lat="48.491515" lon="9.3511706"></trkpt><trkpt lat="48.4915602" lon="9.3512072"></trkpt><trkpt lat="48.4916022" lon="9.3511574"></trkpt><trkpt lat="48.4916414" lon="9.3509662"></trkpt><trkpt lat="48.491679" lon="9.3506885"></trkpt><trkpt lat="48.4916742" lon="9.3505979"></trkpt><trkpt lat="48.4916531" lon="9.3496902"></trkpt><trkpt lat="48.491754" lon="9.3492578"></trkpt><trkpt lat="48.491468" lon="9.3495089"></trkpt><trkpt lat="48.4916573" lon="9.3485527"></trkpt><trkpt lat="48.4916067" lon="9.3485597"></trkpt><trkpt lat="48.4914495" lon="9.3484094"></trkpt><trkpt lat="48.4909272" lon="9.3469609"></trkpt><trkpt lat="48.490809" lon="9.3465936"></trkpt><trkpt lat="48.4907209" lon="9.3462542"></trkpt><trkpt lat="48.490671" lon="9.3460637"></trkpt><trkpt lat="48.4906041" lon="9.3457796"></trkpt><trkpt lat="48.4905821" lon="9.3456869"></trkpt><trkpt lat="48.4905362" lon="9.3455289"></trkpt><trkpt lat="48.4903862" lon="9.3447336"></trkpt><trkpt lat="48.4902609" lon="9.3447827"></trkpt><trkpt lat="48.4902035" lon="9.344784"></trkpt><trkpt lat="48.4901585" lon="9.3447524"></trkpt><trkpt lat="48.4901145" lon="9.3447049"></trkpt><trkpt lat="48.4900837" lon="9.3446332"></trkpt><trkpt lat="48.4898489" lon="9.3438925"></trkpt><trkpt lat="48.4897352" lon="9.3435772"></trkpt><trkpt lat="48.4896376" lon="9.3433765"></trkpt><trkpt lat="48.4895988" lon="9.3434554"></trkpt><trkpt lat="48.4894466" lon="9.343596"></trkpt><trkpt lat="48.4886806" lon="9.3442818"></trkpt><trkpt lat="48.4884176" lon="9.3445144"></trkpt><trkpt lat="48.4881733" lon="9.3447387"></trkpt><trkpt lat="48.4880973" lon="9.3448471"></trkpt><trkpt lat="48.4880408" lon="9.344893"></trkpt><trkpt lat="48.4877183" lon="9.3452406"></trkpt><trkpt lat="48.4876222" lon="9.3453709"></trkpt><trkpt lat="48.4875316" lon="9.3455175"></trkpt><trkpt lat="48.4873227" lon="9.3460168"></trkpt><trkpt lat="48.4870438" lon="9.3465207"></trkpt><trkpt lat="48.4868026" lon="9.3467966"></trkpt><trkpt lat="48.4865656" lon="9.3469008"></trkpt><trkpt lat="48.4863217" lon="9.3468745"></trkpt><trkpt lat="48.4860068" lon="9.3467869"></trkpt><trkpt lat="48.4858834" lon="9.34676"></trkpt><trkpt lat="48.4855384" lon="9.3467275"></trkpt><trkpt lat="48.4852872" lon="9.3467211"></trkpt><trkpt lat="48.4850325" lon="9.3467755"></trkpt><trkpt lat="48.4847414" lon="9.3469087"></trkpt><trkpt lat="48.4845967" lon="9.3469951"></trkpt><trkpt lat="48.4841771" lon="9.3472698"></trkpt><trkpt lat="48.483613" lon="9.3476161"></trkpt><trkpt lat="48.4833882" lon="9.3477584"></trkpt><trkpt lat="48.4828764" lon="9.3479367"></trkpt><trkpt lat="48.4823735" lon="9.3481851"></trkpt><trkpt lat="48.4817636" lon="9.3485216"></trkpt><trkpt lat="48.4812003" lon="9.3488674"></trkpt><trkpt lat="48.480986" lon="9.3491129"></trkpt><trkpt lat="48.4810943" lon="9.3493298"></trkpt><trkpt lat="48.4815587" lon="9.3505151"></trkpt><trkpt lat="48.4817593" lon="9.3507219"></trkpt><trkpt lat="48.4819713" lon="9.3508801"></trkpt><trkpt lat="48.482441" lon="9.3511009"></trkpt><trkpt lat="48.4825854" lon="9.3512212"></trkpt><trkpt lat="48.482885" lon="9.3516543"></trkpt><trkpt lat="48.483104" lon="9.3520947"></trkpt><trkpt lat="48.4834242" lon="9.3525725"></trkpt><trkpt lat="48.4835212" lon="9.3527628"></trkpt><trkpt lat="48.4837315" lon="9.353939"></trkpt><trkpt lat="48.4839471" lon="9.3543001"></trkpt><trkpt lat="48.484228" lon="9.3546345"></trkpt><trkpt lat="48.484379" lon="9.3548152"></trkpt><trkpt lat="48.484454" lon="9.3552733"></trkpt><trkpt lat="48.4845705" lon="9.3556201"></trkpt><trkpt lat="48.4846289" lon="9.3557759"></trkpt><trkpt lat="48.4849017" lon="9.3562028"></trkpt><trkpt lat="48.4849428" lon="9.3564265"></trkpt><trkpt lat="48.4849579" lon="9.356692"></trkpt><trkpt lat="48.4849588" lon="9.3570823"></trkpt><trkpt lat="48.4849633" lon="9.3574484"></trkpt><trkpt lat="48.4849235" lon="9.3577804"></trkpt><trkpt lat="48.4846833" lon="9.3580036"></trkpt><trkpt lat="48.4844344" lon="9.3583737"></trkpt><trkpt lat="48.4840913" lon="9.3588485"></trkpt><trkpt lat="48.4838352" lon="9.3594727"></trkpt><trkpt lat="48.4837708" lon="9.3596128"></trkpt><trkpt lat="48.4837344" lon="9.3597205"></trkpt><trkpt lat="48.48371" lon="9.3597263"></trkpt><trkpt lat="48.4835885" lon="9.3596912"></trkpt><trkpt lat="48.4835195" lon="9.359703"></trkpt><trkpt lat="48.4834171" lon="9.3597913"></trkpt><trkpt lat="48.4833519" lon="9.3598399"></trkpt><trkpt lat="48.4832758" lon="9.359836"></trkpt><trkpt lat="48.4831943" lon="9.3598419"></trkpt><trkpt lat="48.4831099" lon="9.359831"></trkpt><trkpt lat="48.4830021" lon="9.35981"></trkpt><trkpt lat="48.482881" lon="9.3598177"></trkpt><trkpt lat="48.4828419" lon="9.3598093"></trkpt><trkpt lat="48.4826867" lon="9.3598291"></trkpt><trkpt lat="48.4825143" lon="9.3598839"></trkpt><trkpt lat="48.4823359" lon="9.3600397"></trkpt><trkpt lat="48.4822701" lon="9.3600933"></trkpt><trkpt lat="48.482191" lon="9.3601362"></trkpt><trkpt lat="48.4821092" lon="9.3601604"></trkpt><trkpt lat="48.4819266" lon="9.3601758"></trkpt><trkpt lat="48.4816923" lon="9.3601736"></trkpt><trkpt lat="48.4815154" lon="9.3603522"></trkpt><trkpt lat="48.481338" lon="9.3606083"></trkpt><trkpt lat="48.4811575" lon="9.3608618"></trkpt><trkpt lat="48.4810499" lon="9.3610455"></trkpt><trkpt lat="48.4809664" lon="9.361189"></trkpt><trkpt lat="48.4809753" lon="9.3613312"></trkpt><trkpt lat="48.4809662" lon="9.361506"></trkpt><trkpt lat="48.4809058" lon="9.3617754"></trkpt><trkpt lat="48.4808646" lon="9.3619512"></trkpt><trkpt lat="48.4808216" lon="9.3620865"></trkpt><trkpt lat="48.4807416" lon="9.3623262"></trkpt><trkpt lat="48.4806833" lon="9.3625061"></trkpt><trkpt lat="48.4806153" lon="9.3627129"></trkpt><trkpt lat="48.480592" lon="9.3630204"></trkpt><trkpt lat="48.480522" lon="9.3633383"></trkpt><trkpt lat="48.4805084" lon="9.3634495"></trkpt><trkpt lat="48.4805303" lon="9.3635715"></trkpt><trkpt lat="48.4806329" lon="9.3637955"></trkpt><trkpt lat="48.4806919" lon="9.3640301"></trkpt><trkpt lat="48.4806846" lon="9.3641292"></trkpt><trkpt lat="48.4806724" lon="9.364273"></trkpt><trkpt lat="48.4806697" lon="9.3644598"></trkpt><trkpt lat="48.4806713" lon="9.3646051"></trkpt><trkpt lat="48.480995" lon="9.3645952"></trkpt><trkpt lat="48.4812095" lon="9.364617"></trkpt><trkpt lat="48.4812308" lon="9.364641"></trkpt><trkpt lat="48.4812328" lon="9.3647201"></trkpt><trkpt lat="48.4812646" lon="9.3648114"></trkpt><trkpt lat="48.4813259" lon="9.3648652"></trkpt><trkpt lat="48.4814385" lon="9.3648741"></trkpt><trkpt lat="48.4815075" lon="9.364891"></trkpt><trkpt lat="48.4815866" lon="9.3649472"></trkpt><trkpt lat="48.4817324" lon="9.3651779"></trkpt><trkpt lat="48.4818225" lon="9.3653229"></trkpt><trkpt lat="48.4819305" lon="9.3654433"></trkpt><trkpt lat="48.4820336" lon="9.365488"></trkpt><trkpt lat="48.4821356" lon="9.3654981"></trkpt><trkpt lat="48.4822419" lon="9.3655235"></trkpt><trkpt lat="48.4823128" lon="9.3655292"></trkpt><trkpt lat="48.4823587" lon="9.3655652"></trkpt><trkpt lat="48.482382" lon="9.3655633"></trkpt><trkpt lat="48.4823773" lon="9.3655324"></trkpt><trkpt lat="48.4823688" lon="9.3654891"></trkpt><trkpt lat="48.4823774" lon="9.365417"></trkpt><trkpt lat="48.4823998" lon="9.3653873"></trkpt><trkpt lat="48.4824217" lon="9.3654114"></trkpt><trkpt lat="48.4824939" lon="9.3656744"></trkpt><trkpt lat="48.4826081" lon="9.3658557"></trkpt><trkpt lat="48.4826465" lon="9.3659007"></trkpt><trkpt lat="48.4826566" lon="9.3658953"></trkpt><trkpt lat="48.4826228" lon="9.3656986"></trkpt><trkpt lat="48.4826189" lon="9.365646"></trkpt><trkpt lat="48.4827449" lon="9.3657721"></trkpt><trkpt lat="48.4827979" lon="9.3658268"></trkpt><trkpt lat="48.4827567" lon="9.3656905"></trkpt><trkpt lat="48.4827404" lon="9.3654985"></trkpt><trkpt lat="48.4827264" lon="9.3653351"></trkpt><trkpt lat="48.4827109" lon="9.3651848"></trkpt><trkpt lat="48.4827222" lon="9.36511"></trkpt><trkpt lat="48.482742" lon="9.3651169"></trkpt><trkpt lat="48.4827591" lon="9.3651567"></trkpt><trkpt lat="48.4828169" lon="9.3653606"></trkpt><trkpt lat="48.4830392" lon="9.3657047"></trkpt><trkpt lat="48.4834462" lon="9.3661054"></trkpt><trkpt lat="48.4838278" lon="9.366377"></trkpt><trkpt lat="48.4839189" lon="9.366524"></trkpt><trkpt lat="48.4839643" lon="9.3666688"></trkpt><trkpt lat="48.4839465" lon="9.3667592"></trkpt><trkpt lat="48.4838735" lon="9.3668244"></trkpt><trkpt lat="48.4837783" lon="9.3668046"></trkpt><trkpt lat="48.4836553" lon="9.3667162"></trkpt><trkpt lat="48.483566" lon="9.3666543"></trkpt><trkpt lat="48.4833866" lon="9.3666316"></trkpt><trkpt lat="48.4830425" lon="9.3666888"></trkpt><trkpt lat="48.4829609" lon="9.3667442"></trkpt><trkpt lat="48.4828888" lon="9.3668273"></trkpt><trkpt lat="48.482834" lon="9.3669175"></trkpt><trkpt lat="48.4829156" lon="9.3669347"></trkpt><trkpt lat="48.4829895" lon="9.3669249"></trkpt><trkpt lat="48.483021" lon="9.3669364"></trkpt><trkpt lat="48.4830899" lon="9.3669496"></trkpt><trkpt lat="48.4832154" lon="9.3670062"></trkpt><trkpt lat="48.4833023" lon="9.3670236"></trkpt><trkpt lat="48.4834583" lon="9.3670378"></trkpt><trkpt lat="48.4835009" lon="9.3671035"></trkpt><trkpt lat="48.4834775" lon="9.3671572"></trkpt><trkpt lat="48.4834101" lon="9.3671639"></trkpt><trkpt lat="48.4833248" lon="9.3671538"></trkpt><trkpt lat="48.4832457" lon="9.3671603"></trkpt><trkpt lat="48.4830899" lon="9.3672397"></trkpt><trkpt lat="48.4829712" lon="9.3673193"></trkpt><trkpt lat="48.4828445" lon="9.3675343"></trkpt><trkpt lat="48.4826752" lon="9.3676846"></trkpt><trkpt lat="48.4825408" lon="9.3678365"></trkpt><trkpt lat="48.4825139" lon="9.3678795"></trkpt><trkpt lat="48.4825154" lon="9.3679169"></trkpt><trkpt lat="48.4825604" lon="9.3680077"></trkpt><trkpt lat="48.4825239" lon="9.3680798"></trkpt><trkpt lat="48.4825868" lon="9.3681644"></trkpt><trkpt lat="48.482626" lon="9.3681707"></trkpt><trkpt lat="48.4826565" lon="9.368182"></trkpt><trkpt lat="48.4826965" lon="9.3681917"></trkpt><trkpt lat="48.4827" lon="9.3682309"></trkpt><trkpt lat="48.4826605" lon="9.3682822"></trkpt><trkpt lat="48.4826403" lon="9.3683325"></trkpt><trkpt lat="48.4827012" lon="9.3684221"></trkpt><trkpt lat="48.4827033" lon="9.3684457"></trkpt><trkpt lat="48.4826862" lon="9.3684738"></trkpt><trkpt lat="48.4826862" lon="9.3685404"></trkpt><trkpt lat="48.4826965" lon="9.3685631"></trkpt><trkpt lat="48.4827308" lon="9.3685608"></trkpt><trkpt lat="48.482775" lon="9.3685707"></trkpt><trkpt lat="48.4827968" lon="9.3685405"></trkpt><trkpt lat="48.482817" lon="9.3684887"></trkpt><trkpt lat="48.4828366" lon="9.3685127"></trkpt><trkpt lat="48.4828757" lon="9.3685921"></trkpt><trkpt lat="48.4829001" lon="9.3686242"></trkpt><trkpt lat="48.4829122" lon="9.3686878"></trkpt><trkpt lat="48.4829421" lon="9.3687865"></trkpt><trkpt lat="48.4829518" lon="9.3688662"></trkpt><trkpt lat="48.48296" lon="9.3689723"></trkpt><trkpt lat="48.4829603" lon="9.3690445"></trkpt><trkpt lat="48.4829717" lon="9.3690942"></trkpt><trkpt lat="48.4829834" lon="9.3691224"></trkpt><trkpt lat="48.4830035" lon="9.3691248"></trkpt><trkpt lat="48.4829955" lon="9.3693519"></trkpt><trkpt lat="48.4829894" lon="9.369542"></trkpt><trkpt lat="48.4830373" lon="9.3697667"></trkpt><trkpt lat="48.4831484" lon="9.369911"></trkpt><trkpt lat="48.4834579" lon="9.3701895"></trkpt><trkpt lat="48.4839865" lon="9.3705863"></trkpt><trkpt lat="48.4846525" lon="9.3711576"></trkpt><trkpt lat="48.484826" lon="9.3713404"></trkpt><trkpt lat="48.4849008" lon="9.371502"></trkpt><trkpt lat="48.4851193" lon="9.3716106"></trkpt><trkpt lat="48.4853543" lon="9.3717641"></trkpt><trkpt lat="48.4856838" lon="9.3718019"></trkpt><trkpt lat="48.4861127" lon="9.3719353"></trkpt><trkpt lat="48.4866616" lon="9.3721023"></trkpt><trkpt lat="48.487014" lon="9.3722468"></trkpt><trkpt lat="48.4872557" lon="9.3723741"></trkpt><trkpt lat="48.487807" lon="9.3730488"></trkpt><trkpt lat="48.4880074" lon="9.3732664"></trkpt><trkpt lat="48.4882458" lon="9.373461"></trkpt><trkpt lat="48.4887912" lon="9.3737851"></trkpt><trkpt lat="48.4890305" lon="9.3739576"></trkpt><trkpt lat="48.4891936" lon="9.3740015"></trkpt><trkpt lat="48.489446" lon="9.373845"></trkpt><trkpt lat="48.4899558" lon="9.3736315"></trkpt><trkpt lat="48.4901667" lon="9.3735161"></trkpt><trkpt lat="48.490505" lon="9.3733687"></trkpt><trkpt lat="48.4908201" lon="9.3732269"></trkpt><trkpt lat="48.4910422" lon="9.3731222"></trkpt><trkpt lat="48.4912157" lon="9.3730622"></trkpt><trkpt lat="48.4914109" lon="9.372981"></trkpt><trkpt lat="48.4915863" lon="9.3729235"></trkpt><trkpt lat="48.4917533" lon="9.3728744"></trkpt><trkpt lat="48.491882" lon="9.372842"></trkpt><trkpt lat="48.4920098" lon="9.3728409"></trkpt><trkpt lat="48.4921042" lon="9.3728515"></trkpt><trkpt lat="48.4921875" lon="9.3728962"></trkpt><trkpt lat="48.4922879" lon="9.3727672"></trkpt><trkpt lat="48.4924665" lon="9.3725147"></trkpt><trkpt lat="48.4928495" lon="9.3721844"></trkpt><trkpt lat="48.4935095" lon="9.3718155"></trkpt><trkpt lat="48.4939075" lon="9.3717444"></trkpt><trkpt lat="48.4941962" lon="9.3717298"></trkpt><trkpt lat="48.4944867" lon="9.371741"></trkpt><trkpt lat="48.4945947" lon="9.3717608"></trkpt><trkpt lat="48.4946696" lon="9.3717746"></trkpt><trkpt lat="48.4950174" lon="9.371943"></trkpt><trkpt lat="48.4950868" lon="9.371977"></trkpt><trkpt lat="48.4952164" lon="9.3720434"></trkpt></trkseg></trk></gpx>
