<?xml version="1.0" encoding="UTF-8"?>
<gpx version="1.1" creator="Good Shit" xmlns="http://www.topografix.com/GPX/1/1"><trk><name>ViaStockalper: Simplon Dorf–Gondo — Simplon Dorf–Gondo</name><desc>Follow the historic Stockalperweg from Simplon Dorf through the Chrummbach descent and Gabi into the Gondo gorge. Continue along the mule path and through the Fort Gondo passage to Gondo, where the numbered stage ends.

Route geometry: Data: Federal Roads Office ASTRA, cantons, SwitzerlandMobility Foundation — Wanderland Schweiz — Wanderland Schweiz route and stage geometry. Licence: opendata-swiss-terms-by (https://opendata.swiss/en/terms-of-use/#terms_by). Source: https://opendata.swiss/en/dataset/langsamverkehr-wanderland-schweiz.</desc><trkseg><trkpt lat="46.19667" lon="8.05449"></trkpt><trkpt lat="46.19655" lon="8.05459"></trkpt><trkpt lat="46.19645" lon="8.05468"></trkpt><trkpt lat="46.19637" lon="8.05475"></trkpt><trkpt lat="46.1963" lon="8.0548"></trkpt><trkpt lat="46.19624" lon="8.05483"></trkpt><trkpt lat="46.1963" lon="8.05496"></trkpt><trkpt lat="46.19639" lon="8.05517"></trkpt><trkpt lat="46.19648" lon="8.05538"></trkpt><trkpt lat="46.19639" lon="8.05535"></trkpt><trkpt lat="46.19636" lon="8.05536"></trkpt><trkpt lat="46.19632" lon="8.05538"></trkpt><trkpt lat="46.19629" lon="8.05541"></trkpt><trkpt lat="46.19625" lon="8.05545"></trkpt><trkpt lat="46.1962" lon="8.05553"></trkpt><trkpt lat="46.19616" lon="8.05562"></trkpt><trkpt lat="46.19612" lon="8.05574"></trkpt><trkpt lat="46.19609" lon="8.05572"></trkpt><trkpt lat="46.19605" lon="8.05565"></trkpt><trkpt lat="46.19603" lon="8.0556"></trkpt><trkpt lat="46.19598" lon="8.05554"></trkpt><trkpt lat="46.19592" lon="8.05546"></trkpt><trkpt lat="46.19589" lon="8.05551"></trkpt><trkpt lat="46.19583" lon="8.05564"></trkpt><trkpt lat="46.19579" lon="8.05573"></trkpt><trkpt lat="46.19585" lon="8.05584"></trkpt><trkpt lat="46.19588" lon="8.0559"></trkpt><trkpt lat="46.19583" lon="8.05599"></trkpt><trkpt lat="46.19581" lon="8.05608"></trkpt><trkpt lat="46.19576" lon="8.05619"></trkpt><trkpt lat="46.19572" lon="8.05627"></trkpt><trkpt lat="46.19566" lon="8.05637"></trkpt><trkpt lat="46.1956" lon="8.05645"></trkpt><trkpt lat="46.19559" lon="8.05646"></trkpt><trkpt lat="46.19552" lon="8.05657"></trkpt><trkpt lat="46.19549" lon="8.05664"></trkpt><trkpt lat="46.19546" lon="8.05676"></trkpt><trkpt lat="46.19542" lon="8.0569"></trkpt><trkpt lat="46.19538" lon="8.05701"></trkpt><trkpt lat="46.19534" lon="8.05712"></trkpt><trkpt lat="46.19529" lon="8.05723"></trkpt><trkpt lat="46.19524" lon="8.05734"></trkpt><trkpt lat="46.1952" lon="8.05741"></trkpt><trkpt lat="46.19518" lon="8.05745"></trkpt><trkpt lat="46.19514" lon="8.0575"></trkpt><trkpt lat="46.19509" lon="8.05756"></trkpt><trkpt lat="46.19501" lon="8.05764"></trkpt><trkpt lat="46.19495" lon="8.05771"></trkpt><trkpt lat="46.1949" lon="8.05778"></trkpt><trkpt lat="46.19482" lon="8.0579"></trkpt><trkpt lat="46.19477" lon="8.05799"></trkpt><trkpt lat="46.19475" lon="8.05804"></trkpt><trkpt lat="46.19471" lon="8.05807"></trkpt><trkpt lat="46.19468" lon="8.05814"></trkpt><trkpt lat="46.19466" lon="8.05821"></trkpt><trkpt lat="46.19463" lon="8.05829"></trkpt><trkpt lat="46.19462" lon="8.05836"></trkpt><trkpt lat="46.1946" lon="8.05842"></trkpt><trkpt lat="46.19456" lon="8.05851"></trkpt><trkpt lat="46.19453" lon="8.05856"></trkpt><trkpt lat="46.1945" lon="8.0586"></trkpt><trkpt lat="46.19448" lon="8.05861"></trkpt><trkpt lat="46.19446" lon="8.05861"></trkpt><trkpt lat="46.19443" lon="8.05861"></trkpt><trkpt lat="46.19439" lon="8.0587"></trkpt><trkpt lat="46.19437" lon="8.05876"></trkpt><trkpt lat="46.19434" lon="8.0588"></trkpt><trkpt lat="46.19431" lon="8.05884"></trkpt><trkpt lat="46.19428" lon="8.05886"></trkpt><trkpt lat="46.19425" lon="8.05886"></trkpt><trkpt lat="46.19423" lon="8.05886"></trkpt><trkpt lat="46.1942" lon="8.05883"></trkpt><trkpt lat="46.19416" lon="8.05879"></trkpt><trkpt lat="46.19413" lon="8.05872"></trkpt><trkpt lat="46.1941" lon="8.05865"></trkpt><trkpt lat="46.19408" lon="8.05858"></trkpt><trkpt lat="46.19406" lon="8.0585"></trkpt><trkpt lat="46.19404" lon="8.0584"></trkpt><trkpt lat="46.19402" lon="8.05831"></trkpt><trkpt lat="46.194" lon="8.05826"></trkpt><trkpt lat="46.19397" lon="8.05822"></trkpt><trkpt lat="46.19394" lon="8.0582"></trkpt><trkpt lat="46.19391" lon="8.05819"></trkpt><trkpt lat="46.19385" lon="8.05822"></trkpt><trkpt lat="46.19375" lon="8.05828"></trkpt><trkpt lat="46.1937" lon="8.05832"></trkpt><trkpt lat="46.19367" lon="8.05836"></trkpt><trkpt lat="46.19364" lon="8.05841"></trkpt><trkpt lat="46.19362" lon="8.05847"></trkpt><trkpt lat="46.19358" lon="8.05862"></trkpt><trkpt lat="46.19353" lon="8.05883"></trkpt><trkpt lat="46.19345" lon="8.05909"></trkpt><trkpt lat="46.19335" lon="8.05944"></trkpt><trkpt lat="46.19321" lon="8.05997"></trkpt><trkpt lat="46.19316" lon="8.06015"></trkpt><trkpt lat="46.19311" lon="8.06029"></trkpt><trkpt lat="46.19306" lon="8.0604"></trkpt><trkpt lat="46.193" lon="8.0605"></trkpt><trkpt lat="46.19292" lon="8.06062"></trkpt><trkpt lat="46.19283" lon="8.06072"></trkpt><trkpt lat="46.19271" lon="8.06085"></trkpt><trkpt lat="46.19257" lon="8.06101"></trkpt><trkpt lat="46.19246" lon="8.06116"></trkpt><trkpt lat="46.19231" lon="8.06137"></trkpt><trkpt lat="46.19223" lon="8.06151"></trkpt><trkpt lat="46.19202" lon="8.06194"></trkpt><trkpt lat="46.19175" lon="8.06247"></trkpt><trkpt lat="46.19144" lon="8.06311"></trkpt><trkpt lat="46.19133" lon="8.06333"></trkpt><trkpt lat="46.19136" lon="8.06336"></trkpt><trkpt lat="46.19136" lon="8.06339"></trkpt><trkpt lat="46.19135" lon="8.06349"></trkpt><trkpt lat="46.19132" lon="8.06357"></trkpt><trkpt lat="46.19127" lon="8.06369"></trkpt><trkpt lat="46.19126" lon="8.06378"></trkpt><trkpt lat="46.19123" lon="8.06387"></trkpt><trkpt lat="46.1912" lon="8.06394"></trkpt><trkpt lat="46.19116" lon="8.06404"></trkpt><trkpt lat="46.19113" lon="8.06413"></trkpt><trkpt lat="46.19109" lon="8.0643"></trkpt><trkpt lat="46.19106" lon="8.06446"></trkpt><trkpt lat="46.19104" lon="8.06458"></trkpt><trkpt lat="46.19102" lon="8.06472"></trkpt><trkpt lat="46.191" lon="8.06483"></trkpt><trkpt lat="46.19102" lon="8.06485"></trkpt><trkpt lat="46.19104" lon="8.06488"></trkpt><trkpt lat="46.19106" lon="8.06492"></trkpt><trkpt lat="46.19107" lon="8.06497"></trkpt><trkpt lat="46.19108" lon="8.06502"></trkpt><trkpt lat="46.19107" lon="8.06509"></trkpt><trkpt lat="46.19107" lon="8.06514"></trkpt><trkpt lat="46.19105" lon="8.06518"></trkpt><trkpt lat="46.19103" lon="8.06522"></trkpt><trkpt lat="46.19099" lon="8.06526"></trkpt><trkpt lat="46.19095" lon="8.06529"></trkpt><trkpt lat="46.1909" lon="8.06532"></trkpt><trkpt lat="46.19081" lon="8.06534"></trkpt><trkpt lat="46.19078" lon="8.06536"></trkpt><trkpt lat="46.19056" lon="8.06542"></trkpt><trkpt lat="46.19049" lon="8.06544"></trkpt><trkpt lat="46.19041" lon="8.06549"></trkpt><trkpt lat="46.19028" lon="8.06558"></trkpt><trkpt lat="46.19019" lon="8.06564"></trkpt><trkpt lat="46.19016" lon="8.06567"></trkpt><trkpt lat="46.1901" lon="8.06573"></trkpt><trkpt lat="46.19006" lon="8.06577"></trkpt><trkpt lat="46.19003" lon="8.0658"></trkpt><trkpt lat="46.18999" lon="8.06583"></trkpt><trkpt lat="46.18994" lon="8.06586"></trkpt><trkpt lat="46.1899" lon="8.06591"></trkpt><trkpt lat="46.18983" lon="8.06603"></trkpt><trkpt lat="46.18978" lon="8.06609"></trkpt><trkpt lat="46.18965" lon="8.0662"></trkpt><trkpt lat="46.18952" lon="8.06632"></trkpt><trkpt lat="46.18935" lon="8.06649"></trkpt><trkpt lat="46.18916" lon="8.06667"></trkpt><trkpt lat="46.18908" lon="8.06674"></trkpt><trkpt lat="46.18904" lon="8.06677"></trkpt><trkpt lat="46.18895" lon="8.06681"></trkpt><trkpt lat="46.18884" lon="8.06686"></trkpt><trkpt lat="46.18878" lon="8.06689"></trkpt><trkpt lat="46.18873" lon="8.06693"></trkpt><trkpt lat="46.18866" lon="8.06701"></trkpt><trkpt lat="46.18859" lon="8.0671"></trkpt><trkpt lat="46.18855" lon="8.06714"></trkpt><trkpt lat="46.18852" lon="8.06716"></trkpt><trkpt lat="46.18848" lon="8.06717"></trkpt><trkpt lat="46.18842" lon="8.06717"></trkpt><trkpt lat="46.18834" lon="8.06716"></trkpt><trkpt lat="46.1883" lon="8.06717"></trkpt><trkpt lat="46.18826" lon="8.06719"></trkpt><trkpt lat="46.18822" lon="8.06723"></trkpt><trkpt lat="46.18823" lon="8.06725"></trkpt><trkpt lat="46.18823" lon="8.06728"></trkpt><trkpt lat="46.1882" lon="8.06735"></trkpt><trkpt lat="46.18817" lon="8.06741"></trkpt><trkpt lat="46.18813" lon="8.06749"></trkpt><trkpt lat="46.18809" lon="8.0676"></trkpt><trkpt lat="46.18805" lon="8.06773"></trkpt><trkpt lat="46.18803" lon="8.0678"></trkpt><trkpt lat="46.18801" lon="8.0679"></trkpt><trkpt lat="46.18799" lon="8.06796"></trkpt><trkpt lat="46.18796" lon="8.06801"></trkpt><trkpt lat="46.18793" lon="8.06807"></trkpt><trkpt lat="46.18786" lon="8.06815"></trkpt><trkpt lat="46.18782" lon="8.06822"></trkpt><trkpt lat="46.1878" lon="8.06826"></trkpt><trkpt lat="46.18779" lon="8.0683"></trkpt><trkpt lat="46.18777" lon="8.06836"></trkpt><trkpt lat="46.18775" lon="8.0684"></trkpt><trkpt lat="46.18774" lon="8.06843"></trkpt><trkpt lat="46.18772" lon="8.06846"></trkpt><trkpt lat="46.18769" lon="8.06847"></trkpt><trkpt lat="46.18768" lon="8.06849"></trkpt><trkpt lat="46.18765" lon="8.06855"></trkpt><trkpt lat="46.18761" lon="8.06863"></trkpt><trkpt lat="46.18757" lon="8.06871"></trkpt><trkpt lat="46.18754" lon="8.06877"></trkpt><trkpt lat="46.1875" lon="8.06882"></trkpt><trkpt lat="46.18745" lon="8.06886"></trkpt><trkpt lat="46.18735" lon="8.06889"></trkpt><trkpt lat="46.18722" lon="8.0689"></trkpt><trkpt lat="46.18711" lon="8.06891"></trkpt><trkpt lat="46.18706" lon="8.06892"></trkpt><trkpt lat="46.187" lon="8.06895"></trkpt><trkpt lat="46.18697" lon="8.069"></trkpt><trkpt lat="46.18692" lon="8.06907"></trkpt><trkpt lat="46.18688" lon="8.06915"></trkpt><trkpt lat="46.18685" lon="8.0692"></trkpt><trkpt lat="46.18681" lon="8.06922"></trkpt><trkpt lat="46.18675" lon="8.06926"></trkpt><trkpt lat="46.1867" lon="8.06934"></trkpt><trkpt lat="46.18662" lon="8.06946"></trkpt><trkpt lat="46.18656" lon="8.06953"></trkpt><trkpt lat="46.1865" lon="8.06958"></trkpt><trkpt lat="46.18645" lon="8.06961"></trkpt><trkpt lat="46.1864" lon="8.06964"></trkpt><trkpt lat="46.18637" lon="8.06965"></trkpt><trkpt lat="46.18633" lon="8.06966"></trkpt><trkpt lat="46.18631" lon="8.06968"></trkpt><trkpt lat="46.18627" lon="8.06975"></trkpt><trkpt lat="46.18625" lon="8.06979"></trkpt><trkpt lat="46.18622" lon="8.06982"></trkpt><trkpt lat="46.18616" lon="8.06987"></trkpt><trkpt lat="46.18611" lon="8.06989"></trkpt><trkpt lat="46.18607" lon="8.06991"></trkpt><trkpt lat="46.18602" lon="8.06996"></trkpt><trkpt lat="46.18595" lon="8.06998"></trkpt><trkpt lat="46.1859" lon="8.07001"></trkpt><trkpt lat="46.18587" lon="8.07003"></trkpt><trkpt lat="46.18584" lon="8.07007"></trkpt><trkpt lat="46.18583" lon="8.0701"></trkpt><trkpt lat="46.1858" lon="8.07017"></trkpt><trkpt lat="46.1858" lon="8.07021"></trkpt><trkpt lat="46.18577" lon="8.07029"></trkpt><trkpt lat="46.18575" lon="8.07037"></trkpt><trkpt lat="46.18572" lon="8.07043"></trkpt><trkpt lat="46.18568" lon="8.07048"></trkpt><trkpt lat="46.18565" lon="8.07054"></trkpt><trkpt lat="46.18558" lon="8.07065"></trkpt><trkpt lat="46.18555" lon="8.0707"></trkpt><trkpt lat="46.18547" lon="8.0708"></trkpt><trkpt lat="46.1854" lon="8.07087"></trkpt><trkpt lat="46.18531" lon="8.07097"></trkpt><trkpt lat="46.18528" lon="8.07099"></trkpt><trkpt lat="46.18524" lon="8.07102"></trkpt><trkpt lat="46.18523" lon="8.07105"></trkpt><trkpt lat="46.18522" lon="8.07111"></trkpt><trkpt lat="46.18521" lon="8.07114"></trkpt><trkpt lat="46.18517" lon="8.07118"></trkpt><trkpt lat="46.18513" lon="8.07124"></trkpt><trkpt lat="46.1851" lon="8.0713"></trkpt><trkpt lat="46.18504" lon="8.07136"></trkpt><trkpt lat="46.18495" lon="8.07148"></trkpt><trkpt lat="46.18493" lon="8.07152"></trkpt><trkpt lat="46.18491" lon="8.07157"></trkpt><trkpt lat="46.18488" lon="8.0716"></trkpt><trkpt lat="46.18482" lon="8.07167"></trkpt><trkpt lat="46.18476" lon="8.07171"></trkpt><trkpt lat="46.18467" lon="8.07176"></trkpt><trkpt lat="46.18464" lon="8.07179"></trkpt><trkpt lat="46.18462" lon="8.0718"></trkpt><trkpt lat="46.18457" lon="8.07182"></trkpt><trkpt lat="46.18449" lon="8.07187"></trkpt><trkpt lat="46.18441" lon="8.0719"></trkpt><trkpt lat="46.18437" lon="8.07192"></trkpt><trkpt lat="46.18432" lon="8.07195"></trkpt><trkpt lat="46.18427" lon="8.07199"></trkpt><trkpt lat="46.18421" lon="8.07203"></trkpt><trkpt lat="46.18416" lon="8.07207"></trkpt><trkpt lat="46.18413" lon="8.07209"></trkpt><trkpt lat="46.1841" lon="8.0721"></trkpt><trkpt lat="46.18407" lon="8.07212"></trkpt><trkpt lat="46.18402" lon="8.07215"></trkpt><trkpt lat="46.18398" lon="8.07217"></trkpt><trkpt lat="46.18394" lon="8.07219"></trkpt><trkpt lat="46.18389" lon="8.07221"></trkpt><trkpt lat="46.18385" lon="8.07221"></trkpt><trkpt lat="46.18383" lon="8.0722"></trkpt><trkpt lat="46.18379" lon="8.07216"></trkpt><trkpt lat="46.18373" lon="8.07208"></trkpt><trkpt lat="46.18369" lon="8.07204"></trkpt><trkpt lat="46.18366" lon="8.07202"></trkpt><trkpt lat="46.18361" lon="8.07202"></trkpt><trkpt lat="46.18358" lon="8.07204"></trkpt><trkpt lat="46.18355" lon="8.07208"></trkpt><trkpt lat="46.18353" lon="8.07212"></trkpt><trkpt lat="46.18349" lon="8.07225"></trkpt><trkpt lat="46.18346" lon="8.07234"></trkpt><trkpt lat="46.18343" lon="8.07243"></trkpt><trkpt lat="46.18341" lon="8.07249"></trkpt><trkpt lat="46.18336" lon="8.07256"></trkpt><trkpt lat="46.18332" lon="8.07259"></trkpt><trkpt lat="46.18329" lon="8.07261"></trkpt><trkpt lat="46.18324" lon="8.07261"></trkpt><trkpt lat="46.1832" lon="8.07261"></trkpt><trkpt lat="46.18316" lon="8.07261"></trkpt><trkpt lat="46.1831" lon="8.07263"></trkpt><trkpt lat="46.18303" lon="8.07264"></trkpt><trkpt lat="46.18292" lon="8.0726"></trkpt><trkpt lat="46.18286" lon="8.07258"></trkpt><trkpt lat="46.18281" lon="8.07258"></trkpt><trkpt lat="46.18275" lon="8.07258"></trkpt><trkpt lat="46.18267" lon="8.07258"></trkpt><trkpt lat="46.18259" lon="8.07259"></trkpt><trkpt lat="46.18253" lon="8.0726"></trkpt><trkpt lat="46.18248" lon="8.07263"></trkpt><trkpt lat="46.18256" lon="8.07269"></trkpt><trkpt lat="46.18253" lon="8.07274"></trkpt><trkpt lat="46.1825" lon="8.07276"></trkpt><trkpt lat="46.18248" lon="8.07279"></trkpt><trkpt lat="46.18247" lon="8.07281"></trkpt><trkpt lat="46.18247" lon="8.07286"></trkpt><trkpt lat="46.18249" lon="8.07291"></trkpt><trkpt lat="46.1825" lon="8.07294"></trkpt><trkpt lat="46.18254" lon="8.07301"></trkpt><trkpt lat="46.18256" lon="8.07306"></trkpt><trkpt lat="46.1826" lon="8.07312"></trkpt><trkpt lat="46.18267" lon="8.07314"></trkpt><trkpt lat="46.1827" lon="8.07317"></trkpt><trkpt lat="46.18271" lon="8.07321"></trkpt><trkpt lat="46.18269" lon="8.07323"></trkpt><trkpt lat="46.18265" lon="8.07324"></trkpt><trkpt lat="46.18261" lon="8.07325"></trkpt><trkpt lat="46.18257" lon="8.07327"></trkpt><trkpt lat="46.18255" lon="8.07329"></trkpt><trkpt lat="46.18253" lon="8.07331"></trkpt><trkpt lat="46.18251" lon="8.07335"></trkpt><trkpt lat="46.1825" lon="8.0734"></trkpt><trkpt lat="46.1825" lon="8.07351"></trkpt><trkpt lat="46.18259" lon="8.07354"></trkpt><trkpt lat="46.18264" lon="8.07355"></trkpt><trkpt lat="46.18269" lon="8.07357"></trkpt><trkpt lat="46.18276" lon="8.07359"></trkpt><trkpt lat="46.1828" lon="8.07361"></trkpt><trkpt lat="46.18282" lon="8.07363"></trkpt><trkpt lat="46.18285" lon="8.07365"></trkpt><trkpt lat="46.18288" lon="8.07365"></trkpt><trkpt lat="46.18291" lon="8.07365"></trkpt><trkpt lat="46.18294" lon="8.07365"></trkpt><trkpt lat="46.18299" lon="8.07367"></trkpt><trkpt lat="46.18307" lon="8.07371"></trkpt><trkpt lat="46.18312" lon="8.07375"></trkpt><trkpt lat="46.18315" lon="8.07377"></trkpt><trkpt lat="46.18306" lon="8.0741"></trkpt><trkpt lat="46.18304" lon="8.07415"></trkpt><trkpt lat="46.18304" lon="8.07418"></trkpt><trkpt lat="46.18304" lon="8.07427"></trkpt><trkpt lat="46.18305" lon="8.07435"></trkpt><trkpt lat="46.18306" lon="8.07447"></trkpt><trkpt lat="46.18307" lon="8.07455"></trkpt><trkpt lat="46.18309" lon="8.07463"></trkpt><trkpt lat="46.18313" lon="8.07473"></trkpt><trkpt lat="46.18314" lon="8.0748"></trkpt><trkpt lat="46.18315" lon="8.07485"></trkpt><trkpt lat="46.18313" lon="8.07491"></trkpt><trkpt lat="46.18308" lon="8.07501"></trkpt><trkpt lat="46.18305" lon="8.07507"></trkpt><trkpt lat="46.18305" lon="8.07511"></trkpt><trkpt lat="46.18307" lon="8.07523"></trkpt><trkpt lat="46.18309" lon="8.07541"></trkpt><trkpt lat="46.1831" lon="8.07554"></trkpt><trkpt lat="46.18311" lon="8.07565"></trkpt><trkpt lat="46.18313" lon="8.07577"></trkpt><trkpt lat="46.18315" lon="8.07586"></trkpt><trkpt lat="46.18318" lon="8.07595"></trkpt><trkpt lat="46.18321" lon="8.07602"></trkpt><trkpt lat="46.18323" lon="8.07605"></trkpt><trkpt lat="46.18326" lon="8.07607"></trkpt><trkpt lat="46.1833" lon="8.07608"></trkpt><trkpt lat="46.18332" lon="8.07608"></trkpt><trkpt lat="46.18338" lon="8.07606"></trkpt><trkpt lat="46.18343" lon="8.07604"></trkpt><trkpt lat="46.18347" lon="8.07603"></trkpt><trkpt lat="46.18349" lon="8.07604"></trkpt><trkpt lat="46.18352" lon="8.07606"></trkpt><trkpt lat="46.18355" lon="8.0761"></trkpt><trkpt lat="46.1836" lon="8.07618"></trkpt><trkpt lat="46.18363" lon="8.07626"></trkpt><trkpt lat="46.18365" lon="8.07631"></trkpt><trkpt lat="46.18367" lon="8.07638"></trkpt><trkpt lat="46.18368" lon="8.07645"></trkpt><trkpt lat="46.1837" lon="8.07649"></trkpt><trkpt lat="46.18374" lon="8.07654"></trkpt><trkpt lat="46.18378" lon="8.07661"></trkpt><trkpt lat="46.1838" lon="8.07669"></trkpt><trkpt lat="46.18382" lon="8.07676"></trkpt><trkpt lat="46.18382" lon="8.0768"></trkpt><trkpt lat="46.18381" lon="8.07684"></trkpt><trkpt lat="46.1838" lon="8.07691"></trkpt><trkpt lat="46.1838" lon="8.07695"></trkpt><trkpt lat="46.18381" lon="8.07697"></trkpt><trkpt lat="46.18383" lon="8.07701"></trkpt><trkpt lat="46.18385" lon="8.07705"></trkpt><trkpt lat="46.18388" lon="8.07715"></trkpt><trkpt lat="46.18389" lon="8.07721"></trkpt><trkpt lat="46.18389" lon="8.07724"></trkpt><trkpt lat="46.1839" lon="8.07726"></trkpt><trkpt lat="46.18391" lon="8.07727"></trkpt><trkpt lat="46.18394" lon="8.07732"></trkpt><trkpt lat="46.18396" lon="8.07737"></trkpt><trkpt lat="46.18398" lon="8.07743"></trkpt><trkpt lat="46.18399" lon="8.07747"></trkpt><trkpt lat="46.18402" lon="8.07749"></trkpt><trkpt lat="46.18406" lon="8.07754"></trkpt><trkpt lat="46.18408" lon="8.07759"></trkpt><trkpt lat="46.1841" lon="8.07763"></trkpt><trkpt lat="46.18413" lon="8.07767"></trkpt><trkpt lat="46.18414" lon="8.07772"></trkpt><trkpt lat="46.18416" lon="8.07776"></trkpt><trkpt lat="46.18418" lon="8.0778"></trkpt><trkpt lat="46.18421" lon="8.07787"></trkpt><trkpt lat="46.18423" lon="8.07791"></trkpt><trkpt lat="46.18424" lon="8.07796"></trkpt><trkpt lat="46.18425" lon="8.078"></trkpt><trkpt lat="46.18426" lon="8.07804"></trkpt><trkpt lat="46.18427" lon="8.07808"></trkpt><trkpt lat="46.18427" lon="8.07813"></trkpt><trkpt lat="46.18428" lon="8.0782"></trkpt><trkpt lat="46.18429" lon="8.07826"></trkpt><trkpt lat="46.18428" lon="8.0783"></trkpt><trkpt lat="46.18427" lon="8.07835"></trkpt><trkpt lat="46.18425" lon="8.07841"></trkpt><trkpt lat="46.18424" lon="8.07847"></trkpt><trkpt lat="46.18425" lon="8.07852"></trkpt><trkpt lat="46.18426" lon="8.07856"></trkpt><trkpt lat="46.18428" lon="8.07864"></trkpt><trkpt lat="46.18433" lon="8.07873"></trkpt><trkpt lat="46.18437" lon="8.07879"></trkpt><trkpt lat="46.18437" lon="8.07884"></trkpt><trkpt lat="46.18438" lon="8.07889"></trkpt><trkpt lat="46.18436" lon="8.07894"></trkpt><trkpt lat="46.18437" lon="8.07899"></trkpt><trkpt lat="46.18439" lon="8.07908"></trkpt><trkpt lat="46.18442" lon="8.07917"></trkpt><trkpt lat="46.18447" lon="8.07929"></trkpt><trkpt lat="46.18451" lon="8.07938"></trkpt><trkpt lat="46.18455" lon="8.07944"></trkpt><trkpt lat="46.18456" lon="8.07948"></trkpt><trkpt lat="46.18455" lon="8.07951"></trkpt><trkpt lat="46.18453" lon="8.07957"></trkpt><trkpt lat="46.1845" lon="8.07963"></trkpt><trkpt lat="46.18449" lon="8.07967"></trkpt><trkpt lat="46.1845" lon="8.07972"></trkpt><trkpt lat="46.18451" lon="8.07977"></trkpt><trkpt lat="46.18454" lon="8.07983"></trkpt><trkpt lat="46.18456" lon="8.07991"></trkpt><trkpt lat="46.18458" lon="8.08002"></trkpt><trkpt lat="46.1846" lon="8.08008"></trkpt><trkpt lat="46.18462" lon="8.08011"></trkpt><trkpt lat="46.18468" lon="8.08017"></trkpt><trkpt lat="46.18474" lon="8.08023"></trkpt><trkpt lat="46.18476" lon="8.08026"></trkpt><trkpt lat="46.18477" lon="8.0803"></trkpt><trkpt lat="46.18477" lon="8.08038"></trkpt><trkpt lat="46.18477" lon="8.08041"></trkpt><trkpt lat="46.18479" lon="8.08044"></trkpt><trkpt lat="46.18481" lon="8.08046"></trkpt><trkpt lat="46.18483" lon="8.08055"></trkpt><trkpt lat="46.18485" lon="8.08059"></trkpt><trkpt lat="46.18488" lon="8.08063"></trkpt><trkpt lat="46.18495" lon="8.08072"></trkpt><trkpt lat="46.18498" lon="8.08077"></trkpt><trkpt lat="46.185" lon="8.08085"></trkpt><trkpt lat="46.18502" lon="8.08096"></trkpt><trkpt lat="46.18503" lon="8.08111"></trkpt><trkpt lat="46.18503" lon="8.08117"></trkpt><trkpt lat="46.18501" lon="8.08123"></trkpt><trkpt lat="46.185" lon="8.08128"></trkpt><trkpt lat="46.185" lon="8.08133"></trkpt><trkpt lat="46.18501" lon="8.0814"></trkpt><trkpt lat="46.18501" lon="8.08147"></trkpt><trkpt lat="46.18502" lon="8.08151"></trkpt><trkpt lat="46.18504" lon="8.08157"></trkpt><trkpt lat="46.18507" lon="8.08162"></trkpt><trkpt lat="46.18509" lon="8.08165"></trkpt><trkpt lat="46.18509" lon="8.08167"></trkpt><trkpt lat="46.18509" lon="8.0817"></trkpt><trkpt lat="46.1851" lon="8.08173"></trkpt><trkpt lat="46.18512" lon="8.08177"></trkpt><trkpt lat="46.18515" lon="8.08179"></trkpt><trkpt lat="46.18517" lon="8.08183"></trkpt><trkpt lat="46.18518" lon="8.0819"></trkpt><trkpt lat="46.1852" lon="8.08195"></trkpt><trkpt lat="46.18521" lon="8.08199"></trkpt><trkpt lat="46.18521" lon="8.08205"></trkpt><trkpt lat="46.18522" lon="8.08209"></trkpt><trkpt lat="46.18524" lon="8.08211"></trkpt><trkpt lat="46.18525" lon="8.08214"></trkpt><trkpt lat="46.18527" lon="8.0822"></trkpt><trkpt lat="46.18529" lon="8.08227"></trkpt><trkpt lat="46.18532" lon="8.08235"></trkpt><trkpt lat="46.18533" lon="8.08238"></trkpt><trkpt lat="46.18534" lon="8.08243"></trkpt><trkpt lat="46.18535" lon="8.0825"></trkpt><trkpt lat="46.18536" lon="8.08256"></trkpt><trkpt lat="46.18538" lon="8.0826"></trkpt><trkpt lat="46.18539" lon="8.08265"></trkpt><trkpt lat="46.18541" lon="8.0827"></trkpt><trkpt lat="46.18545" lon="8.08278"></trkpt><trkpt lat="46.18547" lon="8.08283"></trkpt><trkpt lat="46.18549" lon="8.08289"></trkpt><trkpt lat="46.18549" lon="8.08295"></trkpt><trkpt lat="46.1855" lon="8.083"></trkpt><trkpt lat="46.18549" lon="8.08305"></trkpt><trkpt lat="46.18549" lon="8.08312"></trkpt><trkpt lat="46.18548" lon="8.08321"></trkpt><trkpt lat="46.18546" lon="8.08335"></trkpt><trkpt lat="46.18545" lon="8.08347"></trkpt><trkpt lat="46.18543" lon="8.08358"></trkpt><trkpt lat="46.18541" lon="8.08366"></trkpt><trkpt lat="46.18542" lon="8.08373"></trkpt><trkpt lat="46.18545" lon="8.0838"></trkpt><trkpt lat="46.18548" lon="8.08386"></trkpt><trkpt lat="46.1855" lon="8.0839"></trkpt><trkpt lat="46.1855" lon="8.08394"></trkpt><trkpt lat="46.18549" lon="8.08402"></trkpt><trkpt lat="46.18548" lon="8.0841"></trkpt><trkpt lat="46.18546" lon="8.08413"></trkpt><trkpt lat="46.18544" lon="8.08417"></trkpt><trkpt lat="46.18542" lon="8.08422"></trkpt><trkpt lat="46.1854" lon="8.08428"></trkpt><trkpt lat="46.18539" lon="8.08433"></trkpt><trkpt lat="46.18538" lon="8.08436"></trkpt><trkpt lat="46.18535" lon="8.08441"></trkpt><trkpt lat="46.18533" lon="8.08444"></trkpt><trkpt lat="46.18532" lon="8.08449"></trkpt><trkpt lat="46.18532" lon="8.08455"></trkpt><trkpt lat="46.18532" lon="8.08459"></trkpt><trkpt lat="46.18531" lon="8.08462"></trkpt><trkpt lat="46.18528" lon="8.08468"></trkpt><trkpt lat="46.18522" lon="8.08479"></trkpt><trkpt lat="46.18519" lon="8.08487"></trkpt><trkpt lat="46.18516" lon="8.08494"></trkpt><trkpt lat="46.18514" lon="8.08505"></trkpt><trkpt lat="46.18512" lon="8.0851"></trkpt><trkpt lat="46.18509" lon="8.08515"></trkpt><trkpt lat="46.18508" lon="8.08519"></trkpt><trkpt lat="46.18507" lon="8.08525"></trkpt><trkpt lat="46.18506" lon="8.08532"></trkpt><trkpt lat="46.18505" lon="8.08538"></trkpt><trkpt lat="46.18505" lon="8.08545"></trkpt><trkpt lat="46.18506" lon="8.08551"></trkpt><trkpt lat="46.18506" lon="8.08553"></trkpt><trkpt lat="46.18506" lon="8.08558"></trkpt><trkpt lat="46.18505" lon="8.08567"></trkpt><trkpt lat="46.18504" lon="8.08577"></trkpt><trkpt lat="46.18503" lon="8.08585"></trkpt><trkpt lat="46.18503" lon="8.08591"></trkpt><trkpt lat="46.18502" lon="8.08597"></trkpt><trkpt lat="46.185" lon="8.08605"></trkpt><trkpt lat="46.18499" lon="8.08612"></trkpt><trkpt lat="46.18498" lon="8.08625"></trkpt><trkpt lat="46.18498" lon="8.08634"></trkpt><trkpt lat="46.18498" lon="8.08644"></trkpt><trkpt lat="46.18498" lon="8.08651"></trkpt><trkpt lat="46.18497" lon="8.0866"></trkpt><trkpt lat="46.18496" lon="8.08667"></trkpt><trkpt lat="46.18497" lon="8.08676"></trkpt><trkpt lat="46.18498" lon="8.08682"></trkpt><trkpt lat="46.18498" lon="8.08691"></trkpt><trkpt lat="46.18497" lon="8.08698"></trkpt><trkpt lat="46.18496" lon="8.08703"></trkpt><trkpt lat="46.18496" lon="8.08711"></trkpt><trkpt lat="46.18496" lon="8.08721"></trkpt><trkpt lat="46.18496" lon="8.08733"></trkpt><trkpt lat="46.18496" lon="8.08737"></trkpt><trkpt lat="46.18497" lon="8.08743"></trkpt><trkpt lat="46.18496" lon="8.08749"></trkpt><trkpt lat="46.18494" lon="8.08757"></trkpt><trkpt lat="46.18494" lon="8.08759"></trkpt><trkpt lat="46.18496" lon="8.08764"></trkpt><trkpt lat="46.18496" lon="8.08768"></trkpt><trkpt lat="46.18496" lon="8.08777"></trkpt><trkpt lat="46.18497" lon="8.08785"></trkpt><trkpt lat="46.18498" lon="8.08793"></trkpt><trkpt lat="46.18498" lon="8.08799"></trkpt><trkpt lat="46.18499" lon="8.08804"></trkpt><trkpt lat="46.185" lon="8.08811"></trkpt><trkpt lat="46.185" lon="8.08817"></trkpt><trkpt lat="46.18502" lon="8.08822"></trkpt><trkpt lat="46.18504" lon="8.08826"></trkpt><trkpt lat="46.18506" lon="8.0883"></trkpt><trkpt lat="46.18509" lon="8.08837"></trkpt><trkpt lat="46.18511" lon="8.0884"></trkpt><trkpt lat="46.18515" lon="8.08843"></trkpt><trkpt lat="46.18518" lon="8.08846"></trkpt><trkpt lat="46.18519" lon="8.08849"></trkpt><trkpt lat="46.18522" lon="8.08855"></trkpt><trkpt lat="46.18523" lon="8.08857"></trkpt><trkpt lat="46.18524" lon="8.08865"></trkpt><trkpt lat="46.18525" lon="8.0887"></trkpt><trkpt lat="46.18526" lon="8.08877"></trkpt><trkpt lat="46.18528" lon="8.08881"></trkpt><trkpt lat="46.1853" lon="8.08885"></trkpt><trkpt lat="46.18533" lon="8.0889"></trkpt><trkpt lat="46.18535" lon="8.08892"></trkpt><trkpt lat="46.18536" lon="8.08894"></trkpt><trkpt lat="46.18536" lon="8.08898"></trkpt><trkpt lat="46.18536" lon="8.08903"></trkpt><trkpt lat="46.18535" lon="8.08908"></trkpt><trkpt lat="46.18535" lon="8.08911"></trkpt><trkpt lat="46.18537" lon="8.08915"></trkpt><trkpt lat="46.18537" lon="8.08917"></trkpt><trkpt lat="46.18537" lon="8.08919"></trkpt><trkpt lat="46.18536" lon="8.08922"></trkpt><trkpt lat="46.18536" lon="8.08926"></trkpt><trkpt lat="46.18535" lon="8.08929"></trkpt><trkpt lat="46.18533" lon="8.08935"></trkpt><trkpt lat="46.18531" lon="8.08938"></trkpt><trkpt lat="46.18531" lon="8.08941"></trkpt><trkpt lat="46.18532" lon="8.08943"></trkpt><trkpt lat="46.18533" lon="8.08945"></trkpt><trkpt lat="46.18536" lon="8.08947"></trkpt><trkpt lat="46.18538" lon="8.0895"></trkpt><trkpt lat="46.18539" lon="8.08955"></trkpt><trkpt lat="46.18539" lon="8.08959"></trkpt><trkpt lat="46.18539" lon="8.08964"></trkpt><trkpt lat="46.18539" lon="8.08969"></trkpt><trkpt lat="46.1854" lon="8.08975"></trkpt><trkpt lat="46.18542" lon="8.08982"></trkpt><trkpt lat="46.18542" lon="8.08988"></trkpt><trkpt lat="46.18543" lon="8.08994"></trkpt><trkpt lat="46.18544" lon="8.08997"></trkpt><trkpt lat="46.18544" lon="8.09002"></trkpt><trkpt lat="46.18544" lon="8.09008"></trkpt><trkpt lat="46.18544" lon="8.09018"></trkpt><trkpt lat="46.18543" lon="8.09023"></trkpt><trkpt lat="46.18544" lon="8.09027"></trkpt><trkpt lat="46.18546" lon="8.09032"></trkpt><trkpt lat="46.18546" lon="8.09037"></trkpt><trkpt lat="46.18546" lon="8.09043"></trkpt><trkpt lat="46.18545" lon="8.09049"></trkpt><trkpt lat="46.18546" lon="8.09057"></trkpt><trkpt lat="46.18547" lon="8.09062"></trkpt><trkpt lat="46.18548" lon="8.09067"></trkpt><trkpt lat="46.18548" lon="8.09072"></trkpt><trkpt lat="46.18547" lon="8.09077"></trkpt><trkpt lat="46.18547" lon="8.09084"></trkpt><trkpt lat="46.18548" lon="8.09096"></trkpt><trkpt lat="46.18549" lon="8.09107"></trkpt><trkpt lat="46.18549" lon="8.09115"></trkpt><trkpt lat="46.18548" lon="8.09124"></trkpt><trkpt lat="46.18547" lon="8.0913"></trkpt><trkpt lat="46.18548" lon="8.09134"></trkpt><trkpt lat="46.18548" lon="8.09144"></trkpt><trkpt lat="46.1855" lon="8.09152"></trkpt><trkpt lat="46.18551" lon="8.0916"></trkpt><trkpt lat="46.18551" lon="8.09164"></trkpt><trkpt lat="46.1855" lon="8.09166"></trkpt><trkpt lat="46.18549" lon="8.09169"></trkpt><trkpt lat="46.1855" lon="8.09172"></trkpt><trkpt lat="46.18553" lon="8.09175"></trkpt><trkpt lat="46.18555" lon="8.0918"></trkpt><trkpt lat="46.1856" lon="8.09185"></trkpt><trkpt lat="46.18563" lon="8.09189"></trkpt><trkpt lat="46.18567" lon="8.09192"></trkpt><trkpt lat="46.18569" lon="8.09194"></trkpt><trkpt lat="46.18572" lon="8.09198"></trkpt><trkpt lat="46.18573" lon="8.09204"></trkpt><trkpt lat="46.18576" lon="8.09211"></trkpt><trkpt lat="46.18579" lon="8.09215"></trkpt><trkpt lat="46.18581" lon="8.09225"></trkpt><trkpt lat="46.18583" lon="8.09235"></trkpt><trkpt lat="46.18584" lon="8.09242"></trkpt><trkpt lat="46.18584" lon="8.09247"></trkpt><trkpt lat="46.18583" lon="8.09255"></trkpt><trkpt lat="46.18582" lon="8.09262"></trkpt><trkpt lat="46.18582" lon="8.09268"></trkpt><trkpt lat="46.18582" lon="8.0927"></trkpt><trkpt lat="46.18582" lon="8.09273"></trkpt><trkpt lat="46.18582" lon="8.09275"></trkpt><trkpt lat="46.18582" lon="8.09278"></trkpt><trkpt lat="46.18583" lon="8.09285"></trkpt><trkpt lat="46.18583" lon="8.09291"></trkpt><trkpt lat="46.18582" lon="8.09296"></trkpt><trkpt lat="46.18581" lon="8.09301"></trkpt><trkpt lat="46.18583" lon="8.09304"></trkpt><trkpt lat="46.18585" lon="8.09306"></trkpt><trkpt lat="46.18588" lon="8.09308"></trkpt><trkpt lat="46.1859" lon="8.0931"></trkpt><trkpt lat="46.18592" lon="8.09315"></trkpt><trkpt lat="46.18592" lon="8.0932"></trkpt><trkpt lat="46.18597" lon="8.09325"></trkpt><trkpt lat="46.186" lon="8.0933"></trkpt><trkpt lat="46.18601" lon="8.09333"></trkpt><trkpt lat="46.18601" lon="8.0934"></trkpt><trkpt lat="46.18603" lon="8.09342"></trkpt><trkpt lat="46.18606" lon="8.09345"></trkpt><trkpt lat="46.18612" lon="8.09356"></trkpt><trkpt lat="46.18616" lon="8.09363"></trkpt><trkpt lat="46.1862" lon="8.09367"></trkpt><trkpt lat="46.18624" lon="8.09372"></trkpt><trkpt lat="46.18628" lon="8.09376"></trkpt><trkpt lat="46.18631" lon="8.09378"></trkpt><trkpt lat="46.18633" lon="8.09379"></trkpt><trkpt lat="46.18635" lon="8.0938"></trkpt><trkpt lat="46.18636" lon="8.09383"></trkpt><trkpt lat="46.18638" lon="8.09389"></trkpt><trkpt lat="46.18641" lon="8.09394"></trkpt><trkpt lat="46.18644" lon="8.09401"></trkpt><trkpt lat="46.18647" lon="8.09407"></trkpt><trkpt lat="46.18651" lon="8.09414"></trkpt><trkpt lat="46.18654" lon="8.09419"></trkpt><trkpt lat="46.18657" lon="8.09425"></trkpt><trkpt lat="46.18662" lon="8.09441"></trkpt><trkpt lat="46.18666" lon="8.09452"></trkpt><trkpt lat="46.18669" lon="8.0946"></trkpt><trkpt lat="46.18671" lon="8.09465"></trkpt><trkpt lat="46.18677" lon="8.0948"></trkpt><trkpt lat="46.1868" lon="8.09487"></trkpt><trkpt lat="46.18682" lon="8.09495"></trkpt><trkpt lat="46.18685" lon="8.09503"></trkpt><trkpt lat="46.18688" lon="8.09509"></trkpt><trkpt lat="46.18691" lon="8.09514"></trkpt><trkpt lat="46.18693" lon="8.09517"></trkpt><trkpt lat="46.18695" lon="8.09521"></trkpt><trkpt lat="46.18696" lon="8.09526"></trkpt><trkpt lat="46.18699" lon="8.09534"></trkpt><trkpt lat="46.18703" lon="8.09539"></trkpt><trkpt lat="46.18704" lon="8.09542"></trkpt><trkpt lat="46.18706" lon="8.09542"></trkpt><trkpt lat="46.18708" lon="8.09543"></trkpt><trkpt lat="46.1871" lon="8.09547"></trkpt><trkpt lat="46.18714" lon="8.09549"></trkpt><trkpt lat="46.18718" lon="8.09551"></trkpt><trkpt lat="46.18722" lon="8.09554"></trkpt><trkpt lat="46.18725" lon="8.09557"></trkpt><trkpt lat="46.18726" lon="8.0956"></trkpt><trkpt lat="46.18728" lon="8.0956"></trkpt><trkpt lat="46.18728" lon="8.09556"></trkpt><trkpt lat="46.18728" lon="8.0955"></trkpt><trkpt lat="46.18726" lon="8.09543"></trkpt><trkpt lat="46.18725" lon="8.09538"></trkpt><trkpt lat="46.18727" lon="8.09536"></trkpt><trkpt lat="46.18729" lon="8.09534"></trkpt><trkpt lat="46.18736" lon="8.09527"></trkpt><trkpt lat="46.18738" lon="8.09526"></trkpt><trkpt lat="46.18739" lon="8.09524"></trkpt><trkpt lat="46.18741" lon="8.09523"></trkpt><trkpt lat="46.18742" lon="8.09523"></trkpt><trkpt lat="46.18746" lon="8.09524"></trkpt><trkpt lat="46.18751" lon="8.09527"></trkpt><trkpt lat="46.18759" lon="8.09533"></trkpt><trkpt lat="46.18768" lon="8.09539"></trkpt><trkpt lat="46.18776" lon="8.09545"></trkpt><trkpt lat="46.18782" lon="8.09551"></trkpt><trkpt lat="46.18789" lon="8.09562"></trkpt><trkpt lat="46.18795" lon="8.09574"></trkpt><trkpt lat="46.18801" lon="8.09587"></trkpt><trkpt lat="46.18807" lon="8.09602"></trkpt><trkpt lat="46.18811" lon="8.0962"></trkpt><trkpt lat="46.18815" lon="8.09636"></trkpt><trkpt lat="46.18819" lon="8.09661"></trkpt><trkpt lat="46.18825" lon="8.097"></trkpt><trkpt lat="46.1883" lon="8.09729"></trkpt><trkpt lat="46.18833" lon="8.09744"></trkpt><trkpt lat="46.18838" lon="8.09759"></trkpt><trkpt lat="46.1884" lon="8.09766"></trkpt><trkpt lat="46.18845" lon="8.09777"></trkpt><trkpt lat="46.18854" lon="8.09797"></trkpt><trkpt lat="46.18867" lon="8.0982"></trkpt><trkpt lat="46.18871" lon="8.09826"></trkpt><trkpt lat="46.18872" lon="8.09828"></trkpt><trkpt lat="46.18873" lon="8.09829"></trkpt><trkpt lat="46.18874" lon="8.09831"></trkpt><trkpt lat="46.18876" lon="8.09835"></trkpt><trkpt lat="46.18881" lon="8.09843"></trkpt><trkpt lat="46.18885" lon="8.09853"></trkpt><trkpt lat="46.18888" lon="8.09855"></trkpt><trkpt lat="46.18886" lon="8.09872"></trkpt><trkpt lat="46.1889" lon="8.09872"></trkpt><trkpt lat="46.1892" lon="8.09878"></trkpt><trkpt lat="46.18939" lon="8.09903"></trkpt><trkpt lat="46.18964" lon="8.09938"></trkpt><trkpt lat="46.1897" lon="8.09947"></trkpt><trkpt lat="46.18984" lon="8.0997"></trkpt><trkpt lat="46.18988" lon="8.09976"></trkpt><trkpt lat="46.18992" lon="8.09983"></trkpt><trkpt lat="46.18996" lon="8.09992"></trkpt><trkpt lat="46.19" lon="8.09999"></trkpt><trkpt lat="46.19004" lon="8.1001"></trkpt><trkpt lat="46.19007" lon="8.10021"></trkpt><trkpt lat="46.1901" lon="8.10031"></trkpt><trkpt lat="46.19012" lon="8.1004"></trkpt><trkpt lat="46.19015" lon="8.10055"></trkpt><trkpt lat="46.19019" lon="8.10076"></trkpt><trkpt lat="46.19029" lon="8.10131"></trkpt><trkpt lat="46.19031" lon="8.1014"></trkpt><trkpt lat="46.1903" lon="8.10149"></trkpt><trkpt lat="46.19029" lon="8.10159"></trkpt><trkpt lat="46.19029" lon="8.10169"></trkpt><trkpt lat="46.19029" lon="8.10181"></trkpt><trkpt lat="46.19032" lon="8.10193"></trkpt><trkpt lat="46.19033" lon="8.102"></trkpt><trkpt lat="46.19034" lon="8.10207"></trkpt><trkpt lat="46.19035" lon="8.10213"></trkpt><trkpt lat="46.19035" lon="8.10217"></trkpt><trkpt lat="46.19037" lon="8.10222"></trkpt><trkpt lat="46.1904" lon="8.10228"></trkpt><trkpt lat="46.19044" lon="8.10236"></trkpt><trkpt lat="46.19051" lon="8.10247"></trkpt><trkpt lat="46.19058" lon="8.10257"></trkpt><trkpt lat="46.19065" lon="8.10266"></trkpt><trkpt lat="46.19071" lon="8.10273"></trkpt><trkpt lat="46.19075" lon="8.10277"></trkpt><trkpt lat="46.1908" lon="8.1028"></trkpt><trkpt lat="46.19083" lon="8.10283"></trkpt><trkpt lat="46.19087" lon="8.10288"></trkpt><trkpt lat="46.1909" lon="8.10295"></trkpt><trkpt lat="46.19097" lon="8.10305"></trkpt><trkpt lat="46.19102" lon="8.10315"></trkpt><trkpt lat="46.19105" lon="8.10321"></trkpt><trkpt lat="46.19111" lon="8.10334"></trkpt><trkpt lat="46.19115" lon="8.10344"></trkpt><trkpt lat="46.1912" lon="8.10356"></trkpt><trkpt lat="46.19123" lon="8.10367"></trkpt><trkpt lat="46.19126" lon="8.10376"></trkpt><trkpt lat="46.19129" lon="8.10387"></trkpt><trkpt lat="46.19134" lon="8.10408"></trkpt><trkpt lat="46.19137" lon="8.10419"></trkpt><trkpt lat="46.1914" lon="8.10431"></trkpt><trkpt lat="46.19143" lon="8.10446"></trkpt><trkpt lat="46.19146" lon="8.10457"></trkpt><trkpt lat="46.1915" lon="8.10468"></trkpt><trkpt lat="46.19157" lon="8.10484"></trkpt><trkpt lat="46.19165" lon="8.10499"></trkpt><trkpt lat="46.19174" lon="8.10517"></trkpt><trkpt lat="46.19178" lon="8.10525"></trkpt><trkpt lat="46.19184" lon="8.10534"></trkpt><trkpt lat="46.19187" lon="8.10539"></trkpt><trkpt lat="46.1919" lon="8.10542"></trkpt><trkpt lat="46.19191" lon="8.10543"></trkpt><trkpt lat="46.19194" lon="8.10544"></trkpt><trkpt lat="46.19198" lon="8.10544"></trkpt><trkpt lat="46.19203" lon="8.10544"></trkpt><trkpt lat="46.19209" lon="8.10544"></trkpt><trkpt lat="46.19217" lon="8.10544"></trkpt><trkpt lat="46.19223" lon="8.10545"></trkpt><trkpt lat="46.1923" lon="8.10546"></trkpt><trkpt lat="46.19236" lon="8.10547"></trkpt><trkpt lat="46.19242" lon="8.10549"></trkpt><trkpt lat="46.19248" lon="8.10554"></trkpt><trkpt lat="46.19254" lon="8.10558"></trkpt><trkpt lat="46.19257" lon="8.1056"></trkpt><trkpt lat="46.19259" lon="8.10561"></trkpt><trkpt lat="46.19265" lon="8.10561"></trkpt><trkpt lat="46.19268" lon="8.10562"></trkpt><trkpt lat="46.19273" lon="8.10565"></trkpt><trkpt lat="46.19279" lon="8.1057"></trkpt><trkpt lat="46.1928" lon="8.10572"></trkpt><trkpt lat="46.19283" lon="8.10572"></trkpt><trkpt lat="46.19286" lon="8.10572"></trkpt><trkpt lat="46.19288" lon="8.10571"></trkpt><trkpt lat="46.19291" lon="8.10568"></trkpt><trkpt lat="46.19295" lon="8.10562"></trkpt><trkpt lat="46.19299" lon="8.10558"></trkpt><trkpt lat="46.19304" lon="8.10557"></trkpt><trkpt lat="46.19308" lon="8.10559"></trkpt><trkpt lat="46.19312" lon="8.10563"></trkpt><trkpt lat="46.19316" lon="8.1057"></trkpt><trkpt lat="46.19324" lon="8.10584"></trkpt><trkpt lat="46.19326" lon="8.10591"></trkpt><trkpt lat="46.19331" lon="8.10605"></trkpt><trkpt lat="46.19333" lon="8.10612"></trkpt><trkpt lat="46.19336" lon="8.10622"></trkpt><trkpt lat="46.1934" lon="8.10633"></trkpt><trkpt lat="46.19342" lon="8.10641"></trkpt><trkpt lat="46.19343" lon="8.10649"></trkpt><trkpt lat="46.19343" lon="8.10658"></trkpt><trkpt lat="46.19342" lon="8.10666"></trkpt><trkpt lat="46.19341" lon="8.10675"></trkpt><trkpt lat="46.1934" lon="8.10681"></trkpt><trkpt lat="46.19339" lon="8.10687"></trkpt><trkpt lat="46.1934" lon="8.10695"></trkpt><trkpt lat="46.19341" lon="8.10708"></trkpt><trkpt lat="46.19343" lon="8.10723"></trkpt><trkpt lat="46.19345" lon="8.10738"></trkpt><trkpt lat="46.19346" lon="8.10753"></trkpt><trkpt lat="46.19347" lon="8.10766"></trkpt><trkpt lat="46.19349" lon="8.10779"></trkpt><trkpt lat="46.19351" lon="8.10791"></trkpt><trkpt lat="46.19355" lon="8.10812"></trkpt><trkpt lat="46.19366" lon="8.10858"></trkpt><trkpt lat="46.1937" lon="8.10875"></trkpt><trkpt lat="46.19379" lon="8.10904"></trkpt><trkpt lat="46.19385" lon="8.10925"></trkpt><trkpt lat="46.19395" lon="8.10965"></trkpt><trkpt lat="46.19399" lon="8.10982"></trkpt><trkpt lat="46.19404" lon="8.11002"></trkpt><trkpt lat="46.1941" lon="8.11022"></trkpt><trkpt lat="46.19413" lon="8.11035"></trkpt><trkpt lat="46.19409" lon="8.11037"></trkpt><trkpt lat="46.1941" lon="8.1104"></trkpt><trkpt lat="46.19412" lon="8.1105"></trkpt><trkpt lat="46.19412" lon="8.11055"></trkpt><trkpt lat="46.19412" lon="8.11061"></trkpt><trkpt lat="46.19411" lon="8.11068"></trkpt><trkpt lat="46.1941" lon="8.11075"></trkpt><trkpt lat="46.19411" lon="8.11082"></trkpt><trkpt lat="46.19414" lon="8.11094"></trkpt><trkpt lat="46.19416" lon="8.11105"></trkpt><trkpt lat="46.19418" lon="8.11111"></trkpt><trkpt lat="46.19422" lon="8.11117"></trkpt><trkpt lat="46.19428" lon="8.11126"></trkpt><trkpt lat="46.19431" lon="8.11131"></trkpt><trkpt lat="46.19433" lon="8.11139"></trkpt><trkpt lat="46.19437" lon="8.11154"></trkpt><trkpt lat="46.19441" lon="8.1117"></trkpt><trkpt lat="46.19442" lon="8.11179"></trkpt><trkpt lat="46.19446" lon="8.11184"></trkpt><trkpt lat="46.19448" lon="8.11183"></trkpt><trkpt lat="46.19452" lon="8.11186"></trkpt><trkpt lat="46.19455" lon="8.11188"></trkpt><trkpt lat="46.19471" lon="8.11187"></trkpt><trkpt lat="46.19474" lon="8.11187"></trkpt><trkpt lat="46.19477" lon="8.11189"></trkpt><trkpt lat="46.1948" lon="8.11193"></trkpt><trkpt lat="46.19483" lon="8.11196"></trkpt><trkpt lat="46.19485" lon="8.11203"></trkpt><trkpt lat="46.19487" lon="8.11215"></trkpt><trkpt lat="46.19489" lon="8.11232"></trkpt><trkpt lat="46.19491" lon="8.11256"></trkpt><trkpt lat="46.19494" lon="8.11281"></trkpt><trkpt lat="46.19501" lon="8.11301"></trkpt><trkpt lat="46.19508" lon="8.11319"></trkpt><trkpt lat="46.19515" lon="8.11333"></trkpt><trkpt lat="46.19514" lon="8.11339"></trkpt><trkpt lat="46.19516" lon="8.11344"></trkpt><trkpt lat="46.19519" lon="8.11351"></trkpt><trkpt lat="46.19521" lon="8.11355"></trkpt><trkpt lat="46.19523" lon="8.11358"></trkpt><trkpt lat="46.19527" lon="8.11361"></trkpt><trkpt lat="46.19534" lon="8.11398"></trkpt><trkpt lat="46.19538" lon="8.11398"></trkpt><trkpt lat="46.19542" lon="8.11399"></trkpt><trkpt lat="46.19545" lon="8.114"></trkpt><trkpt lat="46.19549" lon="8.11404"></trkpt><trkpt lat="46.19551" lon="8.11407"></trkpt><trkpt lat="46.19552" lon="8.11409"></trkpt><trkpt lat="46.19553" lon="8.11411"></trkpt><trkpt lat="46.19552" lon="8.11412"></trkpt><trkpt lat="46.19551" lon="8.11413"></trkpt><trkpt lat="46.19588" lon="8.11469"></trkpt><trkpt lat="46.19598" lon="8.11483"></trkpt><trkpt lat="46.19604" lon="8.11492"></trkpt><trkpt lat="46.19608" lon="8.11499"></trkpt><trkpt lat="46.19613" lon="8.11509"></trkpt><trkpt lat="46.19619" lon="8.1152"></trkpt><trkpt lat="46.19626" lon="8.11535"></trkpt><trkpt lat="46.1963" lon="8.11547"></trkpt><trkpt lat="46.19634" lon="8.11562"></trkpt><trkpt lat="46.19635" lon="8.11566"></trkpt><trkpt lat="46.19636" lon="8.11572"></trkpt><trkpt lat="46.19637" lon="8.11575"></trkpt><trkpt lat="46.19639" lon="8.11581"></trkpt><trkpt lat="46.19643" lon="8.11589"></trkpt><trkpt lat="46.19647" lon="8.11597"></trkpt><trkpt lat="46.19653" lon="8.11604"></trkpt><trkpt lat="46.19659" lon="8.11611"></trkpt><trkpt lat="46.19662" lon="8.11615"></trkpt><trkpt lat="46.19666" lon="8.11621"></trkpt><trkpt lat="46.19669" lon="8.1163"></trkpt><trkpt lat="46.19672" lon="8.11639"></trkpt><trkpt lat="46.19673" lon="8.11651"></trkpt><trkpt lat="46.19675" lon="8.11663"></trkpt><trkpt lat="46.19677" lon="8.11674"></trkpt><trkpt lat="46.19682" lon="8.11689"></trkpt><trkpt lat="46.19685" lon="8.11699"></trkpt><trkpt lat="46.19686" lon="8.11709"></trkpt><trkpt lat="46.19687" lon="8.11718"></trkpt><trkpt lat="46.19687" lon="8.11724"></trkpt><trkpt lat="46.19686" lon="8.1173"></trkpt><trkpt lat="46.19683" lon="8.11736"></trkpt><trkpt lat="46.19679" lon="8.11742"></trkpt><trkpt lat="46.19673" lon="8.1175"></trkpt><trkpt lat="46.19668" lon="8.11757"></trkpt><trkpt lat="46.19663" lon="8.11763"></trkpt><trkpt lat="46.19663" lon="8.11765"></trkpt><trkpt lat="46.19663" lon="8.11766"></trkpt><trkpt lat="46.19663" lon="8.11767"></trkpt><trkpt lat="46.19664" lon="8.11768"></trkpt><trkpt lat="46.19665" lon="8.11768"></trkpt><trkpt lat="46.19667" lon="8.11766"></trkpt><trkpt lat="46.19668" lon="8.11765"></trkpt><trkpt lat="46.19672" lon="8.1176"></trkpt><trkpt lat="46.19675" lon="8.11756"></trkpt><trkpt lat="46.19678" lon="8.11753"></trkpt><trkpt lat="46.1968" lon="8.11757"></trkpt><trkpt lat="46.19674" lon="8.11766"></trkpt><trkpt lat="46.19673" lon="8.11771"></trkpt><trkpt lat="46.19672" lon="8.11774"></trkpt><trkpt lat="46.1967" lon="8.11784"></trkpt><trkpt lat="46.19672" lon="8.11786"></trkpt><trkpt lat="46.19675" lon="8.11782"></trkpt><trkpt lat="46.19679" lon="8.11778"></trkpt><trkpt lat="46.1968" lon="8.11779"></trkpt><trkpt lat="46.1968" lon="8.1178"></trkpt><trkpt lat="46.19679" lon="8.11784"></trkpt><trkpt lat="46.19678" lon="8.11788"></trkpt><trkpt lat="46.19678" lon="8.1179"></trkpt><trkpt lat="46.19677" lon="8.11793"></trkpt><trkpt lat="46.19675" lon="8.11797"></trkpt><trkpt lat="46.19674" lon="8.118"></trkpt><trkpt lat="46.19674" lon="8.11805"></trkpt><trkpt lat="46.19673" lon="8.11809"></trkpt><trkpt lat="46.19672" lon="8.11814"></trkpt><trkpt lat="46.19671" lon="8.1182"></trkpt><trkpt lat="46.19672" lon="8.11821"></trkpt><trkpt lat="46.19674" lon="8.11819"></trkpt><trkpt lat="46.19677" lon="8.11816"></trkpt><trkpt lat="46.1968" lon="8.11813"></trkpt><trkpt lat="46.19682" lon="8.11808"></trkpt><trkpt lat="46.19686" lon="8.11802"></trkpt><trkpt lat="46.19691" lon="8.11797"></trkpt><trkpt lat="46.19691" lon="8.11804"></trkpt><trkpt lat="46.1969" lon="8.11813"></trkpt><trkpt lat="46.1969" lon="8.11818"></trkpt><trkpt lat="46.19691" lon="8.1182"></trkpt><trkpt lat="46.19693" lon="8.11819"></trkpt><trkpt lat="46.19695" lon="8.11815"></trkpt><trkpt lat="46.19697" lon="8.11812"></trkpt><trkpt lat="46.19697" lon="8.11812"></trkpt><trkpt lat="46.19697" lon="8.11818"></trkpt><trkpt lat="46.19696" lon="8.11823"></trkpt><trkpt lat="46.19695" lon="8.11828"></trkpt><trkpt lat="46.19691" lon="8.11833"></trkpt><trkpt lat="46.19689" lon="8.11838"></trkpt><trkpt lat="46.19689" lon="8.11843"></trkpt><trkpt lat="46.19691" lon="8.11849"></trkpt><trkpt lat="46.19695" lon="8.11854"></trkpt><trkpt lat="46.19698" lon="8.11865"></trkpt><trkpt lat="46.197" lon="8.11873"></trkpt><trkpt lat="46.19701" lon="8.11886"></trkpt><trkpt lat="46.19702" lon="8.11893"></trkpt><trkpt lat="46.19705" lon="8.11899"></trkpt><trkpt lat="46.19706" lon="8.11911"></trkpt><trkpt lat="46.19707" lon="8.11923"></trkpt><trkpt lat="46.19709" lon="8.11933"></trkpt><trkpt lat="46.19713" lon="8.11944"></trkpt><trkpt lat="46.19716" lon="8.1196"></trkpt><trkpt lat="46.19716" lon="8.11969"></trkpt><trkpt lat="46.19715" lon="8.11978"></trkpt><trkpt lat="46.19719" lon="8.11995"></trkpt><trkpt lat="46.19722" lon="8.1201"></trkpt><trkpt lat="46.19725" lon="8.12018"></trkpt><trkpt lat="46.1973" lon="8.12025"></trkpt><trkpt lat="46.19734" lon="8.12032"></trkpt><trkpt lat="46.19736" lon="8.12037"></trkpt><trkpt lat="46.19736" lon="8.12047"></trkpt><trkpt lat="46.19739" lon="8.12059"></trkpt><trkpt lat="46.1974" lon="8.1207"></trkpt><trkpt lat="46.19741" lon="8.12083"></trkpt><trkpt lat="46.19742" lon="8.1209"></trkpt><trkpt lat="46.19744" lon="8.12096"></trkpt><trkpt lat="46.19744" lon="8.12099"></trkpt><trkpt lat="46.19744" lon="8.12103"></trkpt><trkpt lat="46.19746" lon="8.12106"></trkpt><trkpt lat="46.19747" lon="8.12108"></trkpt><trkpt lat="46.1975" lon="8.12113"></trkpt><trkpt lat="46.1975" lon="8.1212"></trkpt><trkpt lat="46.19752" lon="8.12127"></trkpt><trkpt lat="46.19751" lon="8.12133"></trkpt><trkpt lat="46.1975" lon="8.12138"></trkpt><trkpt lat="46.19748" lon="8.12142"></trkpt><trkpt lat="46.19749" lon="8.12147"></trkpt><trkpt lat="46.1975" lon="8.12152"></trkpt><trkpt lat="46.1975" lon="8.12157"></trkpt><trkpt lat="46.19751" lon="8.12161"></trkpt><trkpt lat="46.19755" lon="8.1217"></trkpt><trkpt lat="46.19756" lon="8.12176"></trkpt><trkpt lat="46.19758" lon="8.1218"></trkpt><trkpt lat="46.1976" lon="8.12186"></trkpt><trkpt lat="46.19762" lon="8.12196"></trkpt><trkpt lat="46.19764" lon="8.12202"></trkpt><trkpt lat="46.19764" lon="8.12207"></trkpt><trkpt lat="46.19769" lon="8.12215"></trkpt><trkpt lat="46.19771" lon="8.12221"></trkpt><trkpt lat="46.19773" lon="8.12231"></trkpt><trkpt lat="46.19776" lon="8.12244"></trkpt><trkpt lat="46.19778" lon="8.12253"></trkpt><trkpt lat="46.19781" lon="8.1226"></trkpt><trkpt lat="46.19785" lon="8.12277"></trkpt><trkpt lat="46.19793" lon="8.12297"></trkpt><trkpt lat="46.19796" lon="8.12294"></trkpt><trkpt lat="46.19798" lon="8.12293"></trkpt><trkpt lat="46.19799" lon="8.12295"></trkpt><trkpt lat="46.19798" lon="8.12297"></trkpt><trkpt lat="46.19795" lon="8.12306"></trkpt><trkpt lat="46.19793" lon="8.12313"></trkpt><trkpt lat="46.19792" lon="8.12318"></trkpt><trkpt lat="46.19792" lon="8.12322"></trkpt><trkpt lat="46.19793" lon="8.12325"></trkpt><trkpt lat="46.19795" lon="8.12328"></trkpt><trkpt lat="46.19798" lon="8.12332"></trkpt><trkpt lat="46.19797" lon="8.12337"></trkpt><trkpt lat="46.19797" lon="8.12344"></trkpt><trkpt lat="46.19797" lon="8.12347"></trkpt><trkpt lat="46.19799" lon="8.12351"></trkpt><trkpt lat="46.19801" lon="8.12355"></trkpt><trkpt lat="46.19803" lon="8.1236"></trkpt><trkpt lat="46.19807" lon="8.12368"></trkpt><trkpt lat="46.19813" lon="8.12371"></trkpt><trkpt lat="46.19816" lon="8.12377"></trkpt><trkpt lat="46.19822" lon="8.12393"></trkpt><trkpt lat="46.19824" lon="8.12401"></trkpt><trkpt lat="46.19826" lon="8.12407"></trkpt><trkpt lat="46.19826" lon="8.12413"></trkpt><trkpt lat="46.19825" lon="8.12417"></trkpt><trkpt lat="46.19824" lon="8.12422"></trkpt><trkpt lat="46.1982" lon="8.12436"></trkpt><trkpt lat="46.19818" lon="8.12445"></trkpt><trkpt lat="46.19816" lon="8.12454"></trkpt><trkpt lat="46.19815" lon="8.12459"></trkpt><trkpt lat="46.19813" lon="8.12472"></trkpt><trkpt lat="46.19813" lon="8.12479"></trkpt><trkpt lat="46.19815" lon="8.12487"></trkpt><trkpt lat="46.1982" lon="8.12501"></trkpt><trkpt lat="46.19824" lon="8.12515"></trkpt><trkpt lat="46.19828" lon="8.12526"></trkpt><trkpt lat="46.19832" lon="8.12536"></trkpt><trkpt lat="46.19835" lon="8.12545"></trkpt><trkpt lat="46.19835" lon="8.12553"></trkpt><trkpt lat="46.19835" lon="8.12561"></trkpt><trkpt lat="46.19836" lon="8.12574"></trkpt><trkpt lat="46.19836" lon="8.12584"></trkpt><trkpt lat="46.19837" lon="8.12595"></trkpt><trkpt lat="46.19841" lon="8.12603"></trkpt><trkpt lat="46.19845" lon="8.12614"></trkpt><trkpt lat="46.1985" lon="8.12624"></trkpt><trkpt lat="46.19858" lon="8.12643"></trkpt><trkpt lat="46.1986" lon="8.12651"></trkpt><trkpt lat="46.19861" lon="8.12658"></trkpt><trkpt lat="46.19864" lon="8.12666"></trkpt><trkpt lat="46.1987" lon="8.12678"></trkpt><trkpt lat="46.19877" lon="8.12689"></trkpt><trkpt lat="46.19885" lon="8.12703"></trkpt><trkpt lat="46.19892" lon="8.12714"></trkpt><trkpt lat="46.199" lon="8.12726"></trkpt><trkpt lat="46.19906" lon="8.12736"></trkpt><trkpt lat="46.19908" lon="8.12742"></trkpt><trkpt lat="46.19909" lon="8.12752"></trkpt><trkpt lat="46.1991" lon="8.12759"></trkpt><trkpt lat="46.1991" lon="8.12771"></trkpt><trkpt lat="46.19909" lon="8.12777"></trkpt><trkpt lat="46.19907" lon="8.12782"></trkpt><trkpt lat="46.19906" lon="8.12785"></trkpt><trkpt lat="46.19904" lon="8.12786"></trkpt><trkpt lat="46.199" lon="8.12787"></trkpt><trkpt lat="46.19897" lon="8.12788"></trkpt><trkpt lat="46.19892" lon="8.12788"></trkpt><trkpt lat="46.19891" lon="8.1279"></trkpt><trkpt lat="46.19892" lon="8.12793"></trkpt><trkpt lat="46.19895" lon="8.12795"></trkpt><trkpt lat="46.19897" lon="8.128"></trkpt><trkpt lat="46.199" lon="8.12806"></trkpt><trkpt lat="46.19904" lon="8.12815"></trkpt><trkpt lat="46.19906" lon="8.12822"></trkpt><trkpt lat="46.19907" lon="8.12832"></trkpt><trkpt lat="46.19906" lon="8.1284"></trkpt><trkpt lat="46.19906" lon="8.12848"></trkpt><trkpt lat="46.19906" lon="8.12854"></trkpt><trkpt lat="46.19908" lon="8.12859"></trkpt><trkpt lat="46.19911" lon="8.12863"></trkpt><trkpt lat="46.19912" lon="8.12868"></trkpt><trkpt lat="46.19912" lon="8.12873"></trkpt><trkpt lat="46.19911" lon="8.12878"></trkpt><trkpt lat="46.1991" lon="8.12883"></trkpt><trkpt lat="46.19911" lon="8.12887"></trkpt><trkpt lat="46.19914" lon="8.12895"></trkpt><trkpt lat="46.19915" lon="8.12904"></trkpt><trkpt lat="46.19916" lon="8.12912"></trkpt><trkpt lat="46.19917" lon="8.12939"></trkpt><trkpt lat="46.19919" lon="8.1295"></trkpt><trkpt lat="46.19919" lon="8.12963"></trkpt><trkpt lat="46.1992" lon="8.12981"></trkpt><trkpt lat="46.19921" lon="8.12993"></trkpt><trkpt lat="46.19921" lon="8.13002"></trkpt><trkpt lat="46.19919" lon="8.1301"></trkpt><trkpt lat="46.19917" lon="8.13017"></trkpt><trkpt lat="46.19915" lon="8.13021"></trkpt><trkpt lat="46.19913" lon="8.13025"></trkpt><trkpt lat="46.19915" lon="8.13054"></trkpt><trkpt lat="46.19919" lon="8.13074"></trkpt><trkpt lat="46.19924" lon="8.13093"></trkpt><trkpt lat="46.19929" lon="8.13119"></trkpt><trkpt lat="46.19933" lon="8.13141"></trkpt><trkpt lat="46.19935" lon="8.13154"></trkpt><trkpt lat="46.19938" lon="8.13167"></trkpt><trkpt lat="46.1994" lon="8.13176"></trkpt><trkpt lat="46.19943" lon="8.13185"></trkpt><trkpt lat="46.19945" lon="8.13192"></trkpt><trkpt lat="46.19946" lon="8.132"></trkpt><trkpt lat="46.19946" lon="8.13207"></trkpt><trkpt lat="46.19945" lon="8.13215"></trkpt><trkpt lat="46.19943" lon="8.13221"></trkpt><trkpt lat="46.19941" lon="8.13236"></trkpt><trkpt lat="46.19939" lon="8.13251"></trkpt><trkpt lat="46.19938" lon="8.13265"></trkpt><trkpt lat="46.19938" lon="8.13273"></trkpt><trkpt lat="46.19937" lon="8.13285"></trkpt><trkpt lat="46.19936" lon="8.13296"></trkpt><trkpt lat="46.19933" lon="8.13306"></trkpt><trkpt lat="46.19929" lon="8.13322"></trkpt><trkpt lat="46.19925" lon="8.13339"></trkpt><trkpt lat="46.19921" lon="8.13357"></trkpt><trkpt lat="46.19917" lon="8.13374"></trkpt><trkpt lat="46.19913" lon="8.13394"></trkpt><trkpt lat="46.19911" lon="8.13406"></trkpt><trkpt lat="46.1991" lon="8.13414"></trkpt><trkpt lat="46.19908" lon="8.13422"></trkpt><trkpt lat="46.19904" lon="8.13435"></trkpt><trkpt lat="46.19898" lon="8.13447"></trkpt><trkpt lat="46.19896" lon="8.13454"></trkpt><trkpt lat="46.19893" lon="8.1346"></trkpt><trkpt lat="46.19889" lon="8.13473"></trkpt><trkpt lat="46.19883" lon="8.13487"></trkpt><trkpt lat="46.19876" lon="8.13502"></trkpt><trkpt lat="46.19871" lon="8.13512"></trkpt><trkpt lat="46.19867" lon="8.13519"></trkpt><trkpt lat="46.1986" lon="8.13529"></trkpt><trkpt lat="46.19854" lon="8.13535"></trkpt><trkpt lat="46.19846" lon="8.13545"></trkpt><trkpt lat="46.19837" lon="8.13555"></trkpt><trkpt lat="46.19826" lon="8.13567"></trkpt><trkpt lat="46.19821" lon="8.13571"></trkpt><trkpt lat="46.19813" lon="8.13577"></trkpt><trkpt lat="46.19808" lon="8.1358"></trkpt><trkpt lat="46.19801" lon="8.13589"></trkpt><trkpt lat="46.19793" lon="8.13596"></trkpt><trkpt lat="46.19787" lon="8.13606"></trkpt><trkpt lat="46.19781" lon="8.13613"></trkpt><trkpt lat="46.19777" lon="8.13615"></trkpt><trkpt lat="46.19772" lon="8.13618"></trkpt><trkpt lat="46.19767" lon="8.13621"></trkpt><trkpt lat="46.19764" lon="8.13625"></trkpt><trkpt lat="46.19761" lon="8.13633"></trkpt><trkpt lat="46.19758" lon="8.13638"></trkpt><trkpt lat="46.19748" lon="8.13651"></trkpt><trkpt lat="46.19746" lon="8.13649"></trkpt><trkpt lat="46.19752" lon="8.13638"></trkpt><trkpt lat="46.19748" lon="8.13632"></trkpt><trkpt lat="46.19743" lon="8.13638"></trkpt><trkpt lat="46.19735" lon="8.13649"></trkpt><trkpt lat="46.19726" lon="8.13665"></trkpt><trkpt lat="46.19713" lon="8.13687"></trkpt><trkpt lat="46.19701" lon="8.13707"></trkpt><trkpt lat="46.19693" lon="8.13719"></trkpt><trkpt lat="46.19679" lon="8.13737"></trkpt><trkpt lat="46.19666" lon="8.13752"></trkpt><trkpt lat="46.19653" lon="8.13767"></trkpt><trkpt lat="46.1964" lon="8.13785"></trkpt><trkpt lat="46.19632" lon="8.138"></trkpt><trkpt lat="46.19624" lon="8.13816"></trkpt><trkpt lat="46.19617" lon="8.13831"></trkpt><trkpt lat="46.19609" lon="8.13854"></trkpt><trkpt lat="46.19602" lon="8.13876"></trkpt><trkpt lat="46.19595" lon="8.1391"></trkpt><trkpt lat="46.19587" lon="8.13949"></trkpt><trkpt lat="46.1958" lon="8.13985"></trkpt></trkseg></trk></gpx>
