<?xml version="1.0" encoding="UTF-8"?>
<gpx version="1.1" creator="Good Shit" xmlns="http://www.topografix.com/GPX/1/1"><trk><name>Falladas Fridolinwanderung — Falladas Fridolinwanderung</name><trkseg><trkpt lat="53.325835" lon="13.4412815"></trkpt><trkpt lat="53.325944" lon="13.441297"></trkpt><trkpt lat="53.325973" lon="13.4413011"></trkpt><trkpt lat="53.3259745" lon="13.4412796"></trkpt><trkpt lat="53.3260027" lon="13.4408602"></trkpt><trkpt lat="53.3260104" lon="13.4405564"></trkpt><trkpt lat="53.3259811" lon="13.4402887"></trkpt><trkpt lat="53.3259902" lon="13.4399268"></trkpt><trkpt lat="53.3258505" lon="13.4394706"></trkpt><trkpt lat="53.3257515" lon="13.4391275"></trkpt><trkpt lat="53.3254903" lon="13.438743"></trkpt><trkpt lat="53.325148" lon="13.4381021"></trkpt><trkpt lat="53.3250849" lon="13.438087"></trkpt><trkpt lat="53.324772" lon="13.4378005"></trkpt><trkpt lat="53.3244184" lon="13.4376082"></trkpt><trkpt lat="53.3240964" lon="13.4374725"></trkpt><trkpt lat="53.3238194" lon="13.4372651"></trkpt><trkpt lat="53.3233488" lon="13.4370992"></trkpt><trkpt lat="53.3230786" lon="13.4367825"></trkpt><trkpt lat="53.3227138" lon="13.4366053"></trkpt><trkpt lat="53.3225359" lon="13.4365563"></trkpt><trkpt lat="53.3222836" lon="13.4363678"></trkpt><trkpt lat="53.3220202" lon="13.4362133"></trkpt><trkpt lat="53.3214774" lon="13.43607"></trkpt><trkpt lat="53.3211509" lon="13.436021"></trkpt><trkpt lat="53.3208019" lon="13.4357081"></trkpt><trkpt lat="53.3204573" lon="13.4353838"></trkpt><trkpt lat="53.3201105" lon="13.4350106"></trkpt><trkpt lat="53.3199371" lon="13.4346751"></trkpt><trkpt lat="53.3196285" lon="13.4342226"></trkpt><trkpt lat="53.3195047" lon="13.4338871"></trkpt><trkpt lat="53.3192412" lon="13.4336043"></trkpt><trkpt lat="53.3190295" lon="13.4334272"></trkpt><trkpt lat="53.3187863" lon="13.4330615"></trkpt><trkpt lat="53.3186038" lon="13.4326995"></trkpt><trkpt lat="53.3182593" lon="13.4323037"></trkpt><trkpt lat="53.3180003" lon="13.4319945"></trkpt><trkpt lat="53.3177007" lon="13.4316741"></trkpt><trkpt lat="53.3174012" lon="13.4314893"></trkpt><trkpt lat="53.3170836" lon="13.4313875"></trkpt><trkpt lat="53.316748" lon="13.4312141"></trkpt><trkpt lat="53.3162661" lon="13.4312669"></trkpt><trkpt lat="53.3161084" lon="13.4311576"></trkpt><trkpt lat="53.3158967" lon="13.4311425"></trkpt><trkpt lat="53.3156715" lon="13.4310143"></trkpt><trkpt lat="53.3154913" lon="13.430822"></trkpt><trkpt lat="53.3153307" lon="13.4307224"></trkpt><trkpt lat="53.3152291" lon="13.4305591"></trkpt><trkpt lat="53.3151905" lon="13.4305462"></trkpt><trkpt lat="53.3150755" lon="13.4305547"></trkpt><trkpt lat="53.31502" lon="13.430528"></trkpt><trkpt lat="53.3149384" lon="13.4304769"></trkpt><trkpt lat="53.3148752" lon="13.4303959"></trkpt><trkpt lat="53.3148566" lon="13.4303441"></trkpt><trkpt lat="53.3148542" lon="13.430265"></trkpt><trkpt lat="53.3148446" lon="13.4300759"></trkpt><trkpt lat="53.3148584" lon="13.4295892"></trkpt><trkpt lat="53.3148899" lon="13.4287598"></trkpt><trkpt lat="53.3149597" lon="13.4285788"></trkpt><trkpt lat="53.3150206" lon="13.4280812"></trkpt><trkpt lat="53.3150206" lon="13.427346"></trkpt><trkpt lat="53.3149485" lon="13.4269275"></trkpt><trkpt lat="53.3148948" lon="13.4266955"></trkpt><trkpt lat="53.3147863" lon="13.4265128"></trkpt><trkpt lat="53.3145228" lon="13.426181"></trkpt><trkpt lat="53.3144214" lon="13.4258907"></trkpt><trkpt lat="53.3140858" lon="13.4252951"></trkpt><trkpt lat="53.3140593" lon="13.4250533"></trkpt><trkpt lat="53.313962" lon="13.4247032"></trkpt><trkpt lat="53.3137574" lon="13.424206"></trkpt><trkpt lat="53.3135633" lon="13.4238059"></trkpt><trkpt lat="53.3133178" lon="13.423493"></trkpt><trkpt lat="53.3130633" lon="13.4231913"></trkpt><trkpt lat="53.3126623" lon="13.4227465"></trkpt><trkpt lat="53.3122682" lon="13.4224901"></trkpt><trkpt lat="53.3120227" lon="13.422416"></trkpt><trkpt lat="53.3117929" lon="13.4224222"></trkpt><trkpt lat="53.3115564" lon="13.422279"></trkpt><trkpt lat="53.3107995" lon="13.4223921"></trkpt><trkpt lat="53.3104233" lon="13.4224675"></trkpt><trkpt lat="53.309876" lon="13.4229011"></trkpt><trkpt lat="53.3097814" lon="13.4230782"></trkpt><trkpt lat="53.309644" lon="13.4232479"></trkpt><trkpt lat="53.3094863" lon="13.4233045"></trkpt><trkpt lat="53.3091214" lon="13.4236249"></trkpt><trkpt lat="53.3087474" lon="13.4240321"></trkpt><trkpt lat="53.3085154" lon="13.4241678"></trkpt><trkpt lat="53.3083397" lon="13.4241867"></trkpt><trkpt lat="53.3080108" lon="13.4240698"></trkpt><trkpt lat="53.3077134" lon="13.4239642"></trkpt><trkpt lat="53.3071998" lon="13.4236664"></trkpt><trkpt lat="53.3066186" lon="13.4236965"></trkpt><trkpt lat="53.3062514" lon="13.4238926"></trkpt><trkpt lat="53.3058234" lon="13.4238473"></trkpt><trkpt lat="53.3056454" lon="13.423919"></trkpt><trkpt lat="53.3053548" lon="13.424017"></trkpt><trkpt lat="53.3048231" lon="13.424164"></trkpt><trkpt lat="53.3046722" lon="13.4241037"></trkpt><trkpt lat="53.3045213" lon="13.424164"></trkpt><trkpt lat="53.3039287" lon="13.424575"></trkpt><trkpt lat="53.303744" lon="13.4247371"></trkpt><trkpt lat="53.3034354" lon="13.4250425"></trkpt><trkpt lat="53.3030636" lon="13.4257173"></trkpt><trkpt lat="53.3026851" lon="13.4261923"></trkpt><trkpt lat="53.3021354" lon="13.4266862"></trkpt><trkpt lat="53.3018065" lon="13.4268408"></trkpt><trkpt lat="53.3013852" lon="13.4271914"></trkpt><trkpt lat="53.3010269" lon="13.4276137"></trkpt><trkpt lat="53.3005786" lon="13.4280925"></trkpt><trkpt lat="53.3003713" lon="13.4284732"></trkpt><trkpt lat="53.3003352" lon="13.4288465"></trkpt><trkpt lat="53.3002146" lon="13.4295104"></trkpt><trkpt lat="53.3001437" lon="13.4307994"></trkpt><trkpt lat="53.3001461" lon="13.4313953"></trkpt><trkpt lat="53.3001922" lon="13.4316831"></trkpt><trkpt lat="53.300198" lon="13.4317514"></trkpt><trkpt lat="53.3002525" lon="13.4322946"></trkpt><trkpt lat="53.3002724" lon="13.4329318"></trkpt><trkpt lat="53.3002464" lon="13.4330617"></trkpt><trkpt lat="53.3000851" lon="13.4332749"></trkpt><trkpt lat="53.3001034" lon="13.4333267"></trkpt><trkpt lat="53.3002504" lon="13.4337412"></trkpt><trkpt lat="53.3004481" lon="13.4342988"></trkpt><trkpt lat="53.3005089" lon="13.4344731"></trkpt><trkpt lat="53.3006503" lon="13.4348161"></trkpt><trkpt lat="53.3007792" lon="13.4351482"></trkpt><trkpt lat="53.3008054" lon="13.4352156"></trkpt><trkpt lat="53.3008657" lon="13.4354087"></trkpt><trkpt lat="53.3009275" lon="13.4356067"></trkpt><trkpt lat="53.3009579" lon="13.4357064"></trkpt><trkpt lat="53.3010751" lon="13.4361061"></trkpt><trkpt lat="53.3010827" lon="13.4361317"></trkpt><trkpt lat="53.3016733" lon="13.4381304"></trkpt><trkpt lat="53.3017519" lon="13.4384529"></trkpt><trkpt lat="53.301808" lon="13.4386898"></trkpt><trkpt lat="53.3018785" lon="13.4389667"></trkpt><trkpt lat="53.3018746" lon="13.4391649"></trkpt><trkpt lat="53.3019173" lon="13.439728"></trkpt><trkpt lat="53.3020288" lon="13.4402171"></trkpt><trkpt lat="53.3021177" lon="13.4404968"></trkpt><trkpt lat="53.3021605" lon="13.4405705"></trkpt><trkpt lat="53.3022087" lon="13.4406146"></trkpt><trkpt lat="53.3023923" lon="13.4405681"></trkpt><trkpt lat="53.3025014" lon="13.4407153"></trkpt><trkpt lat="53.3028075" lon="13.441764"></trkpt><trkpt lat="53.3029091" lon="13.4418918"></trkpt><trkpt lat="53.3031174" lon="13.4424417"></trkpt><trkpt lat="53.3031399" lon="13.4424918"></trkpt><trkpt lat="53.3031753" lon="13.4425501"></trkpt><trkpt lat="53.3032442" lon="13.4426828"></trkpt><trkpt lat="53.3032956" lon="13.4428314"></trkpt><trkpt lat="53.303325" lon="13.4429274"></trkpt><trkpt lat="53.3033726" lon="13.4428388"></trkpt><trkpt lat="53.3034295" lon="13.442804"></trkpt><trkpt lat="53.3036476" lon="13.4428694"></trkpt><trkpt lat="53.30373" lon="13.4429175"></trkpt><trkpt lat="53.3038664" lon="13.4430688"></trkpt><trkpt lat="53.3040004" lon="13.443191"></trkpt><trkpt lat="53.3040787" lon="13.4432112"></trkpt><trkpt lat="53.3043873" lon="13.443222"></trkpt><trkpt lat="53.3052202" lon="13.4428019"></trkpt><trkpt lat="53.3053002" lon="13.4426834"></trkpt><trkpt lat="53.3053518" lon="13.4420377"></trkpt><trkpt lat="53.3054122" lon="13.4416428"></trkpt><trkpt lat="53.3054579" lon="13.4414177"></trkpt><trkpt lat="53.3055626" lon="13.4411704"></trkpt><trkpt lat="53.3057606" lon="13.4410022"></trkpt><trkpt lat="53.3058274" lon="13.441"></trkpt><trkpt lat="53.305897" lon="13.4410383"></trkpt><trkpt lat="53.3060139" lon="13.4411512"></trkpt><trkpt lat="53.3062455" lon="13.4412649"></trkpt><trkpt lat="53.3071622" lon="13.4416642"></trkpt><trkpt lat="53.307538" lon="13.4421237"></trkpt><trkpt lat="53.3076614" lon="13.4421758"></trkpt><trkpt lat="53.3077733" lon="13.4422583"></trkpt><trkpt lat="53.3078895" lon="13.4424755"></trkpt><trkpt lat="53.308097" lon="13.4427896"></trkpt><trkpt lat="53.30815" lon="13.4428832"></trkpt><trkpt lat="53.3082036" lon="13.4430455"></trkpt><trkpt lat="53.3082512" lon="13.4431345"></trkpt><trkpt lat="53.3085146" lon="13.4430629"></trkpt><trkpt lat="53.3088049" lon="13.4430757"></trkpt><trkpt lat="53.3089024" lon="13.4431246"></trkpt><trkpt lat="53.3094492" lon="13.4437063"></trkpt><trkpt lat="53.3097504" lon="13.4444667"></trkpt><trkpt lat="53.3100256" lon="13.4442381"></trkpt><trkpt lat="53.3103114" lon="13.4440693"></trkpt><trkpt lat="53.31058" lon="13.4438594"></trkpt><trkpt lat="53.310881" lon="13.4436999"></trkpt><trkpt lat="53.3110647" lon="13.4437063"></trkpt><trkpt lat="53.3113795" lon="13.4434438"></trkpt><trkpt lat="53.3114786" lon="13.4434588"></trkpt><trkpt lat="53.3116092" lon="13.4432978"></trkpt><trkpt lat="53.3118752" lon="13.4429617"></trkpt><trkpt lat="53.3119741" lon="13.4429273"></trkpt><trkpt lat="53.3120553" lon="13.4429061"></trkpt><trkpt lat="53.3122105" lon="13.442973"></trkpt><trkpt lat="53.3122921" lon="13.4429636"></trkpt><trkpt lat="53.3124519" lon="13.4428953"></trkpt><trkpt lat="53.3124557" lon="13.4428948"></trkpt><trkpt lat="53.3125788" lon="13.4428782"></trkpt><trkpt lat="53.3127051" lon="13.4428284"></trkpt><trkpt lat="53.3127941" lon="13.4428308"></trkpt><trkpt lat="53.3128473" lon="13.4428687"></trkpt><trkpt lat="53.3128889" lon="13.4429152"></trkpt><trkpt lat="53.312921" lon="13.4430849"></trkpt><trkpt lat="53.3130762" lon="13.4435231"></trkpt><trkpt lat="53.3131669" lon="13.4436362"></trkpt><trkpt lat="53.3133575" lon="13.444116"></trkpt><trkpt lat="53.3135124" lon="13.4445179"></trkpt><trkpt lat="53.3135765" lon="13.4446749"></trkpt><trkpt lat="53.3137114" lon="13.4450293"></trkpt><trkpt lat="53.313695" lon="13.4452936"></trkpt><trkpt lat="53.3138008" lon="13.4454322"></trkpt><trkpt lat="53.3138999" lon="13.4454545"></trkpt><trkpt lat="53.3141445" lon="13.4460457"></trkpt><trkpt lat="53.3142539" lon="13.4460506"></trkpt><trkpt lat="53.3142992" lon="13.4460166"></trkpt><trkpt lat="53.3143416" lon="13.445937"></trkpt><trkpt lat="53.3143857" lon="13.4458409"></trkpt><trkpt lat="53.3144683" lon="13.4457461"></trkpt><trkpt lat="53.3145164" lon="13.4455959"></trkpt><trkpt lat="53.3146838" lon="13.4454524"></trkpt><trkpt lat="53.3148568" lon="13.4453139"></trkpt><trkpt lat="53.3149225" lon="13.4452267"></trkpt><trkpt lat="53.3150555" lon="13.445157"></trkpt><trkpt lat="53.3150916" lon="13.4451449"></trkpt><trkpt lat="53.3151649" lon="13.4450798"></trkpt><trkpt lat="53.3152206" lon="13.4450564"></trkpt><trkpt lat="53.3153655" lon="13.4451378"></trkpt><trkpt lat="53.3154697" lon="13.4451963"></trkpt><trkpt lat="53.3156973" lon="13.4453024"></trkpt><trkpt lat="53.3158797" lon="13.4453552"></trkpt><trkpt lat="53.3159067" lon="13.4454909"></trkpt><trkpt lat="53.3159827" lon="13.4456244"></trkpt><trkpt lat="53.3161703" lon="13.445736"></trkpt><trkpt lat="53.3162829" lon="13.4458679"></trkpt><trkpt lat="53.3163459" lon="13.4459735"></trkpt><trkpt lat="53.3164946" lon="13.4460715"></trkpt><trkpt lat="53.3167221" lon="13.4461432"></trkpt><trkpt lat="53.3167919" lon="13.4462261"></trkpt><trkpt lat="53.3168932" lon="13.4463015"></trkpt><trkpt lat="53.3169608" lon="13.4464221"></trkpt><trkpt lat="53.3169715" lon="13.4465452"></trkpt><trkpt lat="53.3170464" lon="13.4467388"></trkpt><trkpt lat="53.3171049" lon="13.4469952"></trkpt><trkpt lat="53.3171432" lon="13.4471498"></trkpt><trkpt lat="53.317195" lon="13.4474363"></trkpt><trkpt lat="53.3172513" lon="13.4477228"></trkpt><trkpt lat="53.3172761" lon="13.447851"></trkpt><trkpt lat="53.3172356" lon="13.4479867"></trkpt><trkpt lat="53.3172365" lon="13.4481659"></trkpt><trkpt lat="53.3172671" lon="13.448329"></trkpt><trkpt lat="53.3173622" lon="13.4484547"></trkpt><trkpt lat="53.3173486" lon="13.4485872"></trkpt><trkpt lat="53.3174812" lon="13.4487232"></trkpt><trkpt lat="53.3175457" lon="13.4489406"></trkpt><trkpt lat="53.3177224" lon="13.4490867"></trkpt><trkpt lat="53.3178991" lon="13.4491649"></trkpt><trkpt lat="53.3179874" lon="13.448944"></trkpt><trkpt lat="53.3180418" lon="13.4488998"></trkpt><trkpt lat="53.3182932" lon="13.4490527"></trkpt><trkpt lat="53.3183068" lon="13.4491207"></trkpt><trkpt lat="53.3184054" lon="13.4490901"></trkpt><trkpt lat="53.3185175" lon="13.4491819"></trkpt><trkpt lat="53.3187791" lon="13.4494775"></trkpt><trkpt lat="53.3188335" lon="13.449627"></trkpt><trkpt lat="53.3189388" lon="13.4496609"></trkpt><trkpt lat="53.3190747" lon="13.4498478"></trkpt><trkpt lat="53.31918" lon="13.4498886"></trkpt><trkpt lat="53.3192208" lon="13.4500619"></trkpt><trkpt lat="53.3192174" lon="13.450123"></trkpt><trkpt lat="53.3193873" lon="13.4502216"></trkpt><trkpt lat="53.3195946" lon="13.4503031"></trkpt><trkpt lat="53.3198086" lon="13.4503099"></trkpt><trkpt lat="53.3197135" lon="13.4506157"></trkpt><trkpt lat="53.3195077" lon="13.4511675"></trkpt><trkpt lat="53.3194733" lon="13.4513881"></trkpt><trkpt lat="53.3199289" lon="13.4518198"></trkpt><trkpt lat="53.320479" lon="13.4524961"></trkpt><trkpt lat="53.3208862" lon="13.4530537"></trkpt><trkpt lat="53.3210641" lon="13.4534948"></trkpt><trkpt lat="53.3211137" lon="13.4537097"></trkpt><trkpt lat="53.3212736" lon="13.4539435"></trkpt><trkpt lat="53.3213413" lon="13.454266"></trkpt><trkpt lat="53.3214244" lon="13.4546108"></trkpt><trkpt lat="53.3215648" lon="13.4549902"></trkpt><trkpt lat="53.3218411" lon="13.4560623"></trkpt><trkpt lat="53.3218974" lon="13.456722"></trkpt><trkpt lat="53.3218748" lon="13.4576042"></trkpt><trkpt lat="53.3220347" lon="13.4581751"></trkpt><trkpt lat="53.3220318" lon="13.4585444"></trkpt><trkpt lat="53.3221001" lon="13.458875"></trkpt><trkpt lat="53.3222942" lon="13.4590995"></trkpt><trkpt lat="53.3226096" lon="13.459163"></trkpt><trkpt lat="53.322818" lon="13.4591115"></trkpt><trkpt lat="53.3229777" lon="13.4590341"></trkpt><trkpt lat="53.32315" lon="13.4589039"></trkpt><trkpt lat="53.3236505" lon="13.4578585"></trkpt><trkpt lat="53.323788" lon="13.4575515"></trkpt><trkpt lat="53.3241261" lon="13.4571774"></trkpt><trkpt lat="53.3246761" lon="13.4566018"></trkpt><trkpt lat="53.3251173" lon="13.4564675"></trkpt><trkpt lat="53.3252088" lon="13.4565039"></trkpt><trkpt lat="53.3253439" lon="13.4564059"></trkpt><trkpt lat="53.3254475" lon="13.4561193"></trkpt><trkpt lat="53.325524" lon="13.4551844"></trkpt><trkpt lat="53.3256366" lon="13.4548073"></trkpt><trkpt lat="53.3257965" lon="13.4538931"></trkpt><trkpt lat="53.3260014" lon="13.4535858"></trkpt><trkpt lat="53.326114" lon="13.4533596"></trkpt><trkpt lat="53.3262536" lon="13.4531259"></trkpt><trkpt lat="53.3265148" lon="13.4528544"></trkpt><trkpt lat="53.3266385" lon="13.4525776"></trkpt><trkpt lat="53.3267973" lon="13.4521679"></trkpt><trkpt lat="53.3269787" lon="13.4518214"></trkpt><trkpt lat="53.3270912" lon="13.4516028"></trkpt><trkpt lat="53.3271858" lon="13.4512484"></trkpt><trkpt lat="53.3272353" lon="13.4509468"></trkpt><trkpt lat="53.3273209" lon="13.4507432"></trkpt><trkpt lat="53.327402" lon="13.4504793"></trkpt><trkpt lat="53.3274402" lon="13.4500791"></trkpt><trkpt lat="53.3276136" lon="13.449959"></trkpt><trkpt lat="53.327841" lon="13.4493457"></trkpt><trkpt lat="53.327358" lon="13.448838"></trkpt><trkpt lat="53.3267388" lon="13.4483514"></trkpt><trkpt lat="53.3260045" lon="13.4476854"></trkpt><trkpt lat="53.3252703" lon="13.4469675"></trkpt><trkpt lat="53.3250137" lon="13.4465854"></trkpt><trkpt lat="53.324809" lon="13.4462197"></trkpt><trkpt lat="53.3247134" lon="13.4460441"></trkpt><trkpt lat="53.3247496" lon="13.4454541"></trkpt><trkpt lat="53.3244242" lon="13.4439252"></trkpt><trkpt lat="53.3242756" lon="13.4434808"></trkpt><trkpt lat="53.3242404" lon="13.4428132"></trkpt><trkpt lat="53.3244026" lon="13.442577"></trkpt><trkpt lat="53.3244035" lon="13.4420071"></trkpt><trkpt lat="53.3244371" lon="13.4420028"></trkpt><trkpt lat="53.3246206" lon="13.4420776"></trkpt><trkpt lat="53.325835" lon="13.4412815"></trkpt></trkseg></trk></gpx>
